{
"type": "FeatureCollection",
"name": "guatemala-volcano_00000004_post_disaster",
"features": [
{ "type": "Feature", "properties": { "feature_type": "building", "subtype": "major-damage", "uid": "104d384e-412b-4a72-8361-3c6c75cafdf0" }, "geometry": { "type": "Polygon", "coordinates": [ [ [ 212.242524157199995, 0.005244624768526 ], [ 231.382167697914099, 12.88017282398865 ], [ 217.559567677949389, 33.353269085037461 ], [ 209.474650679755996, 26.311567185446702 ], [ 203.736967652049998, 33.874876633506993 ], [ 175.048552510670987, 11.967359614879159 ], [ 180.264627988245593, 7.012087908216943 ], [ 173.197982244670811, 0.004997555450062 ], [ 212.242524157199995, 0.005244624768526 ] ] ] } },
{ "type": "Feature", "properties": { "feature_type": "building", "subtype": "major-damage", "uid": "9badd81e-16bf-4406-b8ad-9cb50a208011" }, "geometry": { "type": "Polygon", "coordinates": [ [ [ 111.010213900681094, 45.002569661178782 ], [ 137.900053640659394, 26.435775559337088 ], [ 159.668019139522698, 52.845439586148451 ], [ 129.096832297199995, 74.13322937754333 ], [ 111.490389610518505, 51.404912457111138 ], [ 114.371443869068599, 49.484209619186053 ], [ 111.330331041759706, 44.842511093132153 ], [ 111.010213900681094, 45.002569661178782 ] ] ] } },
{ "type": "Feature", "properties": { "feature_type": "building", "subtype": "major-damage", "uid": "ea0cde31-1b8c-4951-ad5c-8f7bdd5b23e5" }, "geometry": { "type": "Polygon", "coordinates": [ [ [ 70.808727440888987, 136.863151110507289 ], [ 76.898985319164012, 129.594133645095809 ], [ 96.348518532106141, 147.079067545662411 ], [ 73.755626413007292, 173.404698362581911 ], [ 71.005187372316072, 170.850719251419093 ], [ 68.058288400672552, 173.601158292347094 ], [ 85.543222304804019, 188.925032946978888 ], [ 86.525521957903678, 188.335653152935294 ], [ 91.829940110707795, 194.032991165031291 ], [ 94.97329901021746, 190.30025246720561 ], [ 111.672393187928407, 205.034747327793696 ], [ 94.080976899764551, 221.784449209169793 ], [ 100.888544086209194, 228.296035215802391 ], [ 93.784995715918313, 237.471451861857304 ], [ 100.000600544641003, 243.391075503646306 ], [ 65.962764597462055, 282.460591544866418 ], [ 73.124987088742344, 288.202887536492824 ], [ 56.101532629691363, 308.063584403125901 ], [ 47.057822451221192, 300.793150729369302 ], [ 34.822214562227927, 314.97936277608261 ], [ 32.516955104654308, 317.639277535642577 ], [ 11.237637030781221, 342.28782096710961 ], [ 0.506611941982414, 335.458419411140994 ], [ 0.506539170919873, 237.459893721402807 ], [ 11.38258063559598, 225.635284271771297 ], [ 2.663505941465441, 218.006093913577899 ], [ 19.011770995690249, 198.388175850601698 ], [ 0.506484074389687, 181.768206509989909 ], [ 0.50647518679577, 173.628706522780192 ], [ 9.56610674292418, 164.23846663011139 ], [ 28.82073002789279, 181.313321239881788 ], [ 69.610517508057399, 138.879611453436809 ], [ 70.808727440888987, 136.863151110507289 ] ] ] } },
{ "type": "Feature", "properties": { "feature_type": "building", "subtype": "major-damage", "uid": "bb2e4a7e-01d2-4224-b47a-5ac5e0ab43b1" }, "geometry": { "type": "Polygon", "coordinates": [ [ [ 101.757261884339698, 143.607189244576603 ], [ 122.736431629703901, 122.869159381462296 ], [ 144.197881137184709, 142.883769598790707 ], [ 121.771872100248203, 163.621799462379812 ], [ 101.757261884339698, 143.607189244576603 ] ] ] } },
{ "type": "Feature", "properties": { "feature_type": "building", "subtype": "major-damage", "uid": "b5c70ab4-9560-44b6-9109-1510c809d7ab" }, "geometry": { "type": "Polygon", "coordinates": [ [ [ 151.249605508637586, 218.269161426685514 ], [ 151.053145579821887, 203.338206635382505 ], [ 168.5380794763567, 203.141746704192911 ], [ 169.127459275385803, 218.6620812895396 ], [ 151.446065441014298, 218.858541221204007 ], [ 151.249605508637586, 218.269161426685514 ] ] ] } },
{ "type": "Feature", "properties": { "feature_type": "building", "subtype": "destroyed", "uid": "87f80ae8-b6d9-498e-8114-c4ab1e222c6f" }, "geometry": { "type": "Polygon", "coordinates": [ [ [ 212.892351844686203, 216.748132490752113 ], [ 210.656000946157491, 214.158673552015813 ], [ 217.011945611268487, 208.979755674068514 ], [ 225.486538504809403, 217.336645885638887 ], [ 230.900861739098389, 212.746241403527904 ], [ 227.605186724693112, 209.332863710715714 ], [ 234.196536751604611, 204.153945832293488 ], [ 244.6720751856719, 216.748132490752113 ], [ 227.487484045335805, 231.814075409064486 ], [ 226.545862614751201, 232.755696839648891 ], [ 212.892351844686203, 216.748132490752113 ] ] ] } },
{ "type": "Feature", "properties": { "feature_type": "building", "subtype": "major-damage", "uid": "160a3bd8-defc-4ac8-8741-c7e2cac0ef6c" }, "geometry": { "type": "Polygon", "coordinates": [ [ [ 298.469450917964878, 184.685499554566888 ], [ 278.786081700065495, 205.78748997471169 ], [ 275.239528691116391, 202.95024756593881 ], [ 270.274354475169218, 207.206111179335608 ], [ 256.974780678790808, 194.97050328868329 ], [ 253.250900015880802, 198.339728649368197 ], [ 243.497879235098594, 189.118690818126197 ], [ 251.300295859344487, 180.606963590383089 ], [ 247.753742848496302, 177.41506588033559 ], [ 256.974780681164816, 168.548683349893508 ], [ 254.13753827286601, 165.534113290008406 ], [ 260.521333690588619, 158.972990217851589 ], [ 266.018490859872315, 164.647475036347004 ], [ 268.501077966184084, 162.342215580435607 ], [ 265.309180257560172, 159.150317868963697 ], [ 271.338320377806383, 152.234539495532204 ], [ 272.402286279256714, 151.347901243295098 ], [ 277.722115798140521, 156.31307545924119 ], [ 283.219272965999778, 149.929280038196509 ], [ 284.105911220136193, 148.865314134847296 ], [ 292.440310798430801, 156.490403110353299 ], [ 306.094539891098691, 169.435321603554911 ], [ 301.66134862920012, 173.868512868063789 ], [ 305.562556941085688, 177.415065881285187 ], [ 298.469450917964878, 184.685499554566888 ] ] ] } },
{ "type": "Feature", "properties": { "feature_type": "building", "subtype": "minor-damage", "uid": "a3238b0c-0295-4996-ab06-4696bfc38c17" }, "geometry": { "type": "Polygon", "coordinates": [ [ [ 347.25007612273032, 171.062449662353913 ], [ 330.747441877870813, 162.6146726098047 ], [ 328.979302494314879, 166.543871238820088 ], [ 311.297908667065201, 157.113794529373109 ], [ 310.119149078027988, 156.327954802240612 ], [ 320.727985376514425, 133.538602752432013 ], [ 310.119149075653979, 128.234184604139614 ], [ 314.2448076353852, 119.589947619451195 ], [ 323.674884346258693, 123.912066111795397 ], [ 331.729741534294021, 100.533334266518807 ], [ 332.712041192141612, 98.765194883912912 ], [ 333.104961057132186, 97.389975363686304 ], [ 355.697853175044088, 108.784651389302795 ], [ 356.483692903838516, 107.212971937886493 ], [ 365.91376960996422, 111.928010292609997 ], [ 364.538550090212027, 115.267829127106907 ], [ 371.021727828492487, 117.821808236370501 ], [ 362.966870638320586, 141.200540080222709 ], [ 355.894313105996389, 137.860721246200598 ], [ 351.965114478404473, 147.487257888736508 ], [ 359.627051803348195, 150.630616789669688 ], [ 349.018215503674924, 171.651829457822004 ], [ 347.25007612273032, 171.062449662353913 ] ] ] } },
{ "type": "Feature", "properties": { "feature_type": "building", "subtype": "minor-damage", "uid": "71734ac8-2a66-44b6-81c6-009b9d3da4b8" }, "geometry": { "type": "Polygon", "coordinates": [ [ [ 229.338385886626611, 135.977560920150609 ], [ 228.315196844837999, 136.790342093728611 ], [ 227.177326643777491, 137.15632050871281 ], [ 212.049911918432713, 118.885546883387704 ], [ 207.924253356565004, 122.028905784795796 ], [ 206.745493772038202, 122.421825649549007 ], [ 207.334873563470694, 119.082006815526896 ], [ 204.387974590877604, 115.349268116751603 ], [ 199.672936235203508, 114.759888323182693 ], [ 195.154357814042498, 108.866090377997907 ], [ 203.995054728973088, 101.989992776864895 ], [ 201.048155758516486, 97.864334215710258 ], [ 209.10301294773879, 91.381156476956505 ], [ 214.407431095320192, 98.257254079513885 ], [ 215.586190683645214, 96.882034558337708 ], [ 211.460532123914106, 91.381156478380873 ], [ 213.032211579841203, 90.202396890293485 ], [ 207.727793429648386, 83.326299286786522 ], [ 224.033967738570396, 69.96702394832414 ], [ 233.660504380396191, 81.558159904180656 ], [ 235.625103692530388, 80.182940384903631 ], [ 229.927765679958213, 72.913922920916562 ], [ 238.375542732984201, 66.234285250498388 ], [ 243.090581089845301, 72.3245431254485 ], [ 248.394999239563305, 67.805964703339001 ], [ 256.815888406728277, 75.818428881464612 ], [ 274.720630054352227, 100.221853395683397 ], [ 255.467556769988391, 115.545728047941196 ], [ 251.145438277643194, 108.866090377523093 ], [ 240.929521842485713, 116.7244876355538 ], [ 245.841020128400004, 122.421825649549007 ], [ 229.338385886626611, 135.977560920150609 ] ] ] } },
{ "type": "Feature", "properties": { "feature_type": "building", "subtype": "minor-damage", "uid": "2b8e160b-5552-46d5-8d14-b5b735e06c5c" }, "geometry": { "type": "Polygon", "coordinates": [ [ [ 285.148277110776519, 64.102194175666042 ], [ 283.583454466079672, 63.971792288786062 ], [ 286.713099758084581, 54.582856424405954 ], [ 281.236220501289779, 53.018033778522557 ], [ 281.236220503663787, 52.366024343173038 ], [ 284.496267677088611, 43.368294139432898 ], [ 287.625912966482076, 44.28110734996676 ], [ 288.929931833620515, 40.49945262569922 ], [ 284.235463903565915, 38.934629981240207 ], [ 286.843501646151594, 31.371320535079079 ], [ 292.45078278365412, 33.196946952823282 ], [ 293.233194105883683, 29.28489034310012 ], [ 290.233950704557174, 28.502479020395821 ], [ 293.102792219241223, 18.461533720191401 ], [ 299.231680908536816, 20.54796391217036 ], [ 301.448512991431983, 12.98465446458486 ], [ 327.789694165172421, 21.33037523345029 ], [ 325.181656424011123, 29.154488455270549 ], [ 331.962554548419121, 30.980114873489541 ], [ 321.008796040526988, 66.058222480765025 ], [ 315.792720557967073, 63.841390400956492 ], [ 312.923879043995385, 72.96952249252621 ], [ 285.148277110776519, 64.102194175666042 ] ] ] } },
{ "type": "Feature", "properties": { "feature_type": "building", "subtype": "minor-damage", "uid": "68801f35-f4c3-4b37-a9de-63237333830a" }, "geometry": { "type": "Polygon", "coordinates": [ [ [ 328.957194459634593, 0.00580343027757 ], [ 327.807374004493226, 7.361270676504443 ], [ 322.629099705332578, 6.498224958949153 ], [ 321.574266050911774, 12.53954497376475 ], [ 299.135077427704516, 9.087362108291494 ], [ 292.229103451051628, 0.00565663090858 ], [ 328.957194459634593, 0.00580343027757 ] ] ] } },
{ "type": "Feature", "properties": { "feature_type": "building", "subtype": "destroyed", "uid": "4cb43565-2451-4f88-8b79-974b4146c200" }, "geometry": { "type": "Polygon", "coordinates": [ [ [ 236.299342793074288, 467.323702159815412 ], [ 243.233962370168712, 467.468173402236175 ], [ 243.378433613064487, 466.601345954357782 ], [ 257.681086498314585, 466.023460988947193 ], [ 258.403442699736615, 466.023460988947193 ], [ 258.403442701398376, 475.991976633852119 ], [ 236.299342791887312, 475.558562909912894 ], [ 236.299342793074288, 467.323702159815412 ] ] ] } },
{ "type": "Feature", "properties": { "feature_type": "building", "subtype": "minor-damage", "uid": "6224721f-d5a8-4534-b88f-b646657ffb98" }, "geometry": { "type": "Polygon", "coordinates": [ [ [ 396.093447484165608, 502.066753630635276 ], [ 397.058007015045689, 477.952765417512921 ], [ 420.68971546344568, 479.158464828264016 ], [ 420.448575577164718, 503.272453040911614 ], [ 395.85230760429431, 502.307893512880526 ], [ 396.093447484165608, 502.066753630635276 ] ] ] } },
{ "type": "Feature", "properties": { "feature_type": "building", "subtype": "no-damage", "uid": "8ebd966c-fde5-4d39-9a77-79e23ebd2996" }, "geometry": { "type": "Polygon", "coordinates": [ [ [ 401.450581250111611, 517.405216536419744 ], [ 423.699152399907121, 517.549687778840621 ], [ 423.843623641853185, 542.976626235540493 ], [ 398.850098910273914, 542.832154993594372 ], [ 398.850098910273914, 517.69415901983723 ], [ 401.450581250111611, 517.405216536419744 ] ] ] } },
{ "type": "Feature", "properties": { "feature_type": "building", "subtype": "no-damage", "uid": "777f3a8e-8859-4e35-8d76-9d6fff2dfed5" }, "geometry": { "type": "Polygon", "coordinates": [ [ [ 414.968946769727097, 558.476635617178204 ], [ 438.702090204680189, 558.737439391412977 ], [ 439.61490341402731, 558.99824316517288 ], [ 439.614903414264575, 584.296209246478725 ], [ 433.616416612798616, 584.426611132883977 ], [ 433.61641661184899, 588.860275292501001 ], [ 423.184265651477006, 588.990677178906139 ], [ 423.184265649340489, 584.557013019289116 ], [ 412.230507141210978, 584.296209246478725 ], [ 412.360909027378909, 558.476635618127716 ], [ 414.968946769727097, 558.476635617178204 ] ] ] } },
{ "type": "Feature", "properties": { "feature_type": "building", "subtype": "minor-damage", "uid": "0207ad3c-3345-40c3-98cc-a0bd51d9b44b" }, "geometry": { "type": "Polygon", "coordinates": [ [ [ 429.705803201569097, 594.612192169351829 ], [ 453.530486484193773, 603.391670059717853 ], [ 446.586028418023716, 624.931260324158757 ], [ 440.936299824070716, 623.754233533435695 ], [ 439.053056960290121, 629.168556769622569 ], [ 431.284680141468186, 626.343692472646694 ], [ 433.167923007385298, 621.51788263277092 ], [ 422.103871177718872, 617.986802260126751 ], [ 428.930626563107523, 595.270185204962672 ], [ 429.705803201569097, 594.612192169351829 ] ] ] } },
{ "type": "Feature", "properties": { "feature_type": "building", "subtype": "destroyed", "uid": "5183a0cb-b80c-44b5-8654-58396532eb6d" }, "geometry": { "type": "Polygon", "coordinates": [ [ [ 388.345305645422116, 617.568718986657018 ], [ 408.195357121660379, 604.23945736906353 ], [ 422.867134299687677, 625.336130435633549 ], [ 401.578673296010322, 640.103801579953597 ], [ 387.098684055560398, 618.239976767347002 ], [ 388.345305645422116, 617.568718986657018 ] ] ] } },
{ "type": "Feature", "properties": { "feature_type": "building", "subtype": "major-damage", "uid": "38c3458a-cd93-4371-ba44-f0f1829d0567" }, "geometry": { "type": "Polygon", "coordinates": [ [ [ 178.975738683181902, 853.342283799811639 ], [ 204.898343921175012, 853.661004357277307 ], [ 205.217064476029407, 879.158648852451734 ], [ 178.444537758107998, 879.371129224570382 ], [ 178.975738683181902, 853.342283799811639 ] ] ] } },
{ "type": "Feature", "properties": { "feature_type": "building", "subtype": "major-damage", "uid": "3cbfdbcc-aa88-4e27-9ed2-ce5cdb64845d" }, "geometry": { "type": "Polygon", "coordinates": [ [ [ 145.149477723958114, 762.235745831302779 ], [ 152.477678172235301, 736.910511519841521 ], [ 174.12007887299481, 744.149127436924459 ], [ 173.960020302811614, 745.269537425595445 ], [ 167.717736074212212, 768.317971485444332 ], [ 145.149477723958114, 762.235745831302779 ] ] ] } },
{ "type": "Feature", "properties": { "feature_type": "building", "subtype": "destroyed", "uid": "7a8daa12-8552-4577-a323-7bc38b0619ff" }, "geometry": { "type": "Polygon", "coordinates": [ [ [ 119.913787204328301, 1022.980609811835052 ], [ 112.774378917369006, 1012.52729056078897 ], [ 146.075813829776109, 990.108677515152181 ], [ 165.709217470649207, 1022.980944686916018 ], [ 119.913787204328301, 1022.980609811835052 ] ] ] } }
]
}
