{
"type": "FeatureCollection",
"name": "guatemala-volcano_00000020_post_disaster",
"features": [
{ "type": "Feature", "properties": { "feature_type": "building", "subtype": "no-damage", "uid": "5fc107fa-5fac-462f-bbd2-3a4e2ad74a82" }, "geometry": { "type": "Polygon", "coordinates": [ [ [ 109.418389175342597, 981.527875051659521 ], [ 267.862484544623612, 944.592105543640855 ], [ 277.52791955167578, 985.670204343312207 ], [ 121.154988831544003, 1022.951167958216956 ], [ 117.703047758173298, 1006.727044903239971 ], [ 109.418389175342597, 981.527875051659521 ] ] ] } },
{ "type": "Feature", "properties": { "feature_type": "building", "subtype": "no-damage", "uid": "039f4854-1ebc-48c0-9364-0af0c55c6a74" }, "geometry": { "type": "Polygon", "coordinates": [ [ [ 96.14831654823324, 925.260872289802251 ], [ 164.392510652992513, 910.648976715706453 ], [ 252.229928365957505, 892.550151515644984 ], [ 255.218725186993112, 902.014674785580496 ], [ 260.200053223001817, 914.966127681481453 ], [ 263.188850045936078, 933.230997149694645 ], [ 181.162981706653113, 949.50333540388408 ], [ 105.612839816982003, 966.771939264136108 ], [ 102.457998725421206, 947.510804188436282 ], [ 96.14831654823324, 925.260872289802251 ] ] ] } },
{ "type": "Feature", "properties": { "feature_type": "building", "subtype": "no-damage", "uid": "a98b49c1-715f-47aa-9bb3-6608e9a07c52" }, "geometry": { "type": "Polygon", "coordinates": [ [ [ 281.520103104511293, 814.850681237154959 ], [ 280.19174895953438, 816.345079648622118 ], [ 284.010767120379512, 822.820806096097954 ], [ 148.034088333302208, 905.592946563234136 ], [ 138.927086327422302, 889.980943120920983 ], [ 126.989998242258196, 869.930000225546564 ], [ 263.449998240725222, 785.710000226184775 ], [ 281.520103104511293, 814.850681237154959 ] ] ] } },
{ "type": "Feature", "properties": { "feature_type": "building", "subtype": "no-damage", "uid": "9883bb0c-e67a-41ba-b45a-fa1d158119b7" }, "geometry": { "type": "Polygon", "coordinates": [ [ [ 263.179998240324721, 785.290000225614563 ], [ 126.739998243320201, 869.500000225313102 ], [ 106.402079154274901, 835.338931071400907 ], [ 106.3299982431177, 835.230000224567902 ], [ 242.21999823942059, 751.490000225654398 ], [ 263.179998240324721, 785.290000225614563 ] ] ] } },
{ "type": "Feature", "properties": { "feature_type": "building", "subtype": "no-damage", "uid": "c2607467-b538-4bdd-a5d2-1b2d672df5b3" }, "geometry": { "type": "Polygon", "coordinates": [ [ [ 240.839998240089898, 749.290000225696303 ], [ 104.119998242309705, 831.810000225824183 ], [ 81.884135777900113, 797.387402826566813 ], [ 116.181490246753796, 777.152443735656561 ], [ 140.7560418952406, 762.208459625731848 ], [ 141.088130429645389, 759.219662802797529 ], [ 174.130939741530597, 741.785014674393778 ], [ 174.463028277834212, 740.788749066432615 ], [ 180.938754724123299, 736.305553834404577 ], [ 183.097330207960198, 736.30555383487922 ], [ 201.030111137971204, 726.010809223710226 ], [ 200.531978336364091, 725.678720688830822 ], [ 219.061247232506389, 714.179881848112132 ], [ 240.839998240089898, 749.290000225696303 ] ] ] } },
{ "type": "Feature", "properties": { "feature_type": "building", "subtype": "no-damage", "uid": "58d9b093-2bf4-4a4e-a5f9-e460cad77660" }, "geometry": { "type": "Polygon", "coordinates": [ [ [ 58.412343964936987, 756.271187187279907 ], [ 61.379213290541202, 754.575833284561099 ], [ 149.537616158100889, 697.993396827072274 ], [ 194.04065606969661, 671.079653643663846 ], [ 216.080256786527087, 705.834408621628086 ], [ 78.968510017304027, 790.814022926514326 ], [ 58.412343964936987, 756.271187187279907 ] ] ] } },
{ "type": "Feature", "properties": { "feature_type": "building", "subtype": "no-damage", "uid": "0a5673e7-5497-4a37-940f-162dd5342cf5" }, "geometry": { "type": "Polygon", "coordinates": [ [ [ 189.37843284089891, 664.086318799280662 ], [ 121.140438311889994, 705.622489383372908 ], [ 118.809326700576705, 706.046327857984465 ], [ 91.89558351550653, 723.423705346966699 ], [ 92.107502754473799, 724.05946306030819 ], [ 53.1143630199496, 749.065933106065586 ], [ 45.485270464598329, 734.867344180942837 ], [ 39.127693334980712, 725.330978486516528 ], [ 31.710520015985839, 712.403904988076761 ], [ 63.49840566502337, 693.543092836055166 ], [ 169.246105262431399, 628.907725345755352 ], [ 189.37843284089891, 664.086318799280662 ] ] ] } },
{ "type": "Feature", "properties": { "feature_type": "building", "subtype": "no-damage", "uid": "9b872373-eb66-47da-be13-26e1c9f4296d" }, "geometry": { "type": "Polygon", "coordinates": [ [ [ 6.670142905759717, 673.879134923394417 ], [ 13.97279553179237, 667.928825376204031 ], [ 74.287296846207838, 630.604156399020667 ], [ 142.174919406127088, 589.492926800509508 ], [ 163.812408666415394, 623.031035157314591 ], [ 108.907279666419299, 657.110080746415974 ], [ 93.220099948811765, 665.224139219469066 ], [ 27.496226320214291, 706.605837433653733 ], [ 6.670142905759717, 673.879134923394417 ] ] ] } },
{ "type": "Feature", "properties": { "feature_type": "building", "subtype": "no-damage", "uid": "a62f60ae-42bf-4f79-8d59-df2d93f74311" }, "geometry": { "type": "Polygon", "coordinates": [ [ [ 0.513741183996496, 618.39052829738273 ], [ 116.750869522374799, 547.57029135497794 ], [ 137.847421552740201, 582.731211406773355 ], [ 0.513727106502799, 666.264009598681127 ], [ 0.513741183996496, 618.39052829738273 ] ] ] } },
{ "type": "Feature", "properties": { "feature_type": "building", "subtype": "minor-damage", "uid": "cc5fd2be-dc87-414d-9d6e-4719cc04f8b2" }, "geometry": { "type": "Polygon", "coordinates": [ [ [ 0.513748286471946, 562.094353621943128 ], [ 91.96293023514815, 505.617278173355487 ], [ 104.466165256840199, 527.021121178743215 ], [ 112.942934762126796, 540.795871628779651 ], [ 0.513742934693559, 609.778248760627548 ], [ 0.513748286471946, 562.094353621943128 ] ] ] } },
{ "type": "Feature", "properties": { "feature_type": "building", "subtype": "minor-damage", "uid": "c3b6644a-5497-4811-aa2a-b5fc33b29de2" }, "geometry": { "type": "Polygon", "coordinates": [ [ [ 22.726624551070039, 475.120488574833814 ], [ 23.745992315227909, 472.266258826742103 ], [ 52.492163354767847, 456.262184879287872 ], [ 51.574732362088881, 455.344753889219817 ], [ 77.772483984825698, 440.156174154895723 ], [ 90.616517854798616, 459.93190884098442 ], [ 72.267898039195302, 470.533333622119812 ], [ 72.369834815421214, 471.858511719939713 ], [ 34.347417096838058, 493.672981940989928 ], [ 22.726624551070039, 475.120488574833814 ] ] ] } },
{ "type": "Feature", "properties": { "feature_type": "building", "subtype": "minor-damage", "uid": "c9972a4e-719b-4f90-96a1-026a585df5dc" }, "geometry": { "type": "Polygon", "coordinates": [ [ [ 0.513725578915177, 431.947019747982381 ], [ 11.6784738520575, 425.4794142643849 ], [ 11.80857388093332, 424.178413978474907 ], [ 20.785475859361519, 418.974412830562528 ], [ 53.180383000784943, 400.109908670626112 ], [ 59.295084348692022, 410.90821105260369 ], [ 65.019485615905381, 419.104512858488874 ], [ 29.762377840400578, 439.139917277832978 ], [ 30.152677928214811, 440.831217649421092 ], [ 9.596873395503366, 453.060620346659221 ], [ 0.513728038103392, 438.530613745416872 ], [ 0.513725578915177, 431.947019747982381 ] ] ] } },
{ "type": "Feature", "properties": { "feature_type": "building", "subtype": "minor-damage", "uid": "fbc866ed-2427-4f07-8acc-c1204e46ac27" }, "geometry": { "type": "Polygon", "coordinates": [ [ [ 0.513698429819072, 374.945291974278121 ], [ 28.320051402857469, 359.339441120866923 ], [ 40.779791974746438, 379.945935150023786 ], [ 0.513712975605246, 402.737627170759708 ], [ 0.513698429819072, 374.945291974278121 ] ] ] } },
{ "type": "Feature", "properties": { "feature_type": "building", "subtype": "minor-damage", "uid": "76cb71aa-5eef-40d3-9cbe-3772f6a10d4a" }, "geometry": { "type": "Polygon", "coordinates": [ [ [ 0.513661671589209, 319.098962818370524 ], [ 2.492933035089024, 317.723102807689827 ], [ 16.152461117480041, 337.396900716840605 ], [ 7.691708650142897, 342.595676331657103 ], [ 7.283961542391067, 343.818917651589572 ], [ 0.51368156962847, 347.419339433619314 ], [ 0.513661671589209, 319.098962818370524 ] ] ] } },
{ "type": "Feature", "properties": { "feature_type": "building", "subtype": "minor-damage", "uid": "fae34f1d-eda1-4ae4-8678-a582e707975d" }, "geometry": { "type": "Polygon", "coordinates": [ [ [ 23.288035490082809, 331.790377997120515 ], [ 19.516374751922989, 325.878044946586613 ], [ 25.12289746998168, 322.616068091217812 ], [ 28.894558213363212, 329.038085026916178 ], [ 23.288035490082809, 331.790377997120515 ] ] ] } },
{ "type": "Feature", "properties": { "feature_type": "building", "subtype": "minor-damage", "uid": "7f4fa194-2f27-41ae-9d3b-de08fe6954fe" }, "geometry": { "type": "Polygon", "coordinates": [ [ [ 127.211653970362406, 497.887779210435724 ], [ 141.126016928462803, 489.378099333453122 ], [ 176.748095754142696, 469.490436492281674 ], [ 175.390303506794595, 468.53199490845941 ], [ 182.57861537881621, 464.29887791866372 ], [ 194.958485822319801, 484.426151156621415 ], [ 155.263030269548693, 507.74822967050568 ], [ 155.103290010167086, 508.626801121432891 ], [ 139.231086505592486, 517.994003187200633 ], [ 127.211653970362406, 497.887779210435724 ] ] ] } },
{ "type": "Feature", "properties": { "feature_type": "building", "subtype": "minor-damage", "uid": "b457f5b0-f955-400a-b9b1-390bafb4d429" }, "geometry": { "type": "Polygon", "coordinates": [ [ [ 150.311082095802391, 463.739786995044199 ], [ 156.700692646706301, 472.924852162621107 ], [ 137.611731123566898, 484.106670629313612 ], [ 138.570172702879603, 486.103423927004997 ], [ 126.909133449497602, 493.37160592741202 ], [ 116.845496827907795, 477.477449681623511 ], [ 128.266925688301086, 470.688488469092704 ], [ 131.381860834655612, 473.563813217711527 ], [ 147.355887215475406, 464.538488313551227 ], [ 150.311082095802391, 463.739786995044199 ] ] ] } },
{ "type": "Feature", "properties": { "feature_type": "building", "subtype": "no-damage", "uid": "5504d029-4e78-4332-ae43-785d9c2d5654" }, "geometry": { "type": "Polygon", "coordinates": [ [ [ 159.492884241279114, 535.866872289235175 ], [ 209.681808656324307, 505.926401218913384 ], [ 221.390811234261605, 526.612305779788471 ], [ 184.312303057818212, 547.428310369539304 ], [ 183.401602862095899, 549.249710770952561 ], [ 178.71800182612651, 553.022611603604446 ], [ 164.146798611022206, 560.56841326843346 ], [ 152.828096117338788, 541.573809079146486 ], [ 160.813970144763687, 536.857900242137362 ], [ 159.492884241279114, 535.866872289235175 ] ] ] } },
{ "type": "Feature", "properties": { "feature_type": "building", "subtype": "no-damage", "uid": "ed445a09-1def-4127-8e1e-c843b22b68b1" }, "geometry": { "type": "Polygon", "coordinates": [ [ [ 183.841849140400001, 595.895970147119442 ], [ 177.611978853862098, 582.318047724906137 ], [ 201.493148289467314, 568.420644774435573 ], [ 201.493148289942013, 566.264151213327636 ], [ 234.798993289910499, 547.89402087722442 ], [ 246.859383208479699, 567.302462928146156 ], [ 221.460681262584586, 581.279736011037016 ], [ 221.380811131588302, 583.196619175833462 ], [ 188.79379731913059, 601.646619642932819 ], [ 186.397693360761508, 596.05571041101075 ], [ 183.841849140400001, 595.895970147119442 ] ] ] } },
{ "type": "Feature", "properties": { "feature_type": "building", "subtype": "no-damage", "uid": "39d517ed-a91a-4cef-92a6-8a17c46a70ca" }, "geometry": { "type": "Polygon", "coordinates": [ [ [ 243.82431819549501, 539.427786896683529 ], [ 247.977565053345103, 546.296618239261193 ], [ 241.508084368122212, 549.411553383242108 ], [ 237.993798566074389, 543.341423359646114 ], [ 243.82431819549501, 539.427786896683529 ] ] ] } },
{ "type": "Feature", "properties": { "feature_type": "building", "subtype": "no-damage", "uid": "0e6fa1bc-03df-474e-b38d-f542b00b54ab" }, "geometry": { "type": "Polygon", "coordinates": [ [ [ 200.414447628594786, 623.03168954395187 ], [ 203.130032114983692, 621.194676510626323 ], [ 255.444968504484507, 588.288182168962294 ], [ 259.518345231338401, 588.447922434277643 ], [ 272.05795594039472, 608.016104748141174 ], [ 214.791071368365806, 642.599871859714199 ], [ 209.839123193907511, 637.887534077769942 ], [ 200.414447628594786, 623.03168954395187 ] ] ] } },
{ "type": "Feature", "properties": { "feature_type": "building", "subtype": "no-damage", "uid": "8ac534bc-1e76-4eda-a22f-4e37ae48a16d" }, "geometry": { "type": "Polygon", "coordinates": [ [ [ 285.132186156493617, 633.641209650842484 ], [ 291.282186313934119, 642.906144950364933 ], [ 297.2724462065338, 650.413937348982358 ], [ 270.276341627897125, 665.589262408684249 ], [ 269.637380572806592, 666.308093597144307 ], [ 246.714652713903291, 679.806145886462559 ], [ 247.353613770655102, 680.844457600806436 ], [ 240.644522692918088, 684.837964196189318 ], [ 235.133483588669293, 675.97237955592027 ], [ 231.379587390784707, 669.90224953232439 ], [ 229.382834095704112, 671.260041773976013 ], [ 225.149717102822706, 664.790561091126619 ], [ 228.264652246329007, 663.033418188322685 ], [ 256.538678937994689, 647.299002205001329 ], [ 257.25751012455612, 646.021080094820604 ], [ 283.774393914604616, 631.404845957314137 ], [ 285.132186156493617, 633.641209650842484 ] ] ] } },
{ "type": "Feature", "properties": { "feature_type": "building", "subtype": "no-damage", "uid": "08bc736d-cbcb-4367-a7fb-db8f0e3d098b" }, "geometry": { "type": "Polygon", "coordinates": [ [ [ 322.983758942562304, 693.369186204007406 ], [ 299.844110623691904, 706.926777509223029 ], [ 290.465927165811877, 712.533300228943176 ], [ 290.262053610511884, 713.858478327237776 ], [ 266.714658187687292, 726.804448973199101 ], [ 261.312009019944185, 718.547570056414997 ], [ 257.132601176406126, 710.698438249281594 ], [ 254.889992085195189, 712.329426676491266 ], [ 251.526078452413714, 706.824840732759753 ], [ 268.345646617507896, 697.548594049919075 ], [ 267.428215622455411, 696.121479176110597 ], [ 269.772761488230799, 696.121479176110597 ], [ 285.674898659221924, 686.64135893986861 ], [ 286.28651932132442, 685.112307289122214 ], [ 288.223318076974522, 684.90843373477162 ], [ 309.426167636634489, 672.370210196087328 ], [ 317.377236224266312, 683.889065967765532 ], [ 322.983758942562304, 693.369186204007406 ] ] ] } },
{ "type": "Feature", "properties": { "feature_type": "building", "subtype": "no-damage", "uid": "99b7ae5f-914b-481e-9b37-6b8c47e46943" }, "geometry": { "type": "Polygon", "coordinates": [ [ [ 265.097828056344611, 748.204406568015315 ], [ 305.272504396042507, 725.281678713384508 ], [ 305.192634264808873, 724.243366998091233 ], [ 307.189387563687092, 723.84401634073663 ], [ 321.486141172224507, 714.019990115695805 ], [ 322.045232098929489, 714.818691434677476 ], [ 330.032245283761711, 726.87908135134785 ], [ 335.623154515921215, 734.86609454116433 ], [ 327.316660801407693, 739.498562190213534 ], [ 326.438089350717689, 741.894666148107831 ], [ 278.755620607655374, 768.731030464751825 ], [ 273.803672428450113, 760.424536747627599 ], [ 267.174451481234712, 749.162848149938895 ], [ 265.097828056344611, 748.204406568015315 ] ] ] } },
{ "type": "Feature", "properties": { "feature_type": "building", "subtype": "no-damage", "uid": "97424963-0824-4d47-8c28-34265d870b9b" }, "geometry": { "type": "Polygon", "coordinates": [ [ [ 346.180101273079003, 748.757395261856686 ], [ 357.498803771509415, 768.142299535397569 ], [ 357.498803768423784, 772.825900567806684 ], [ 300.124691120343527, 805.741207826869186 ], [ 295.57119011609808, 796.113805701925799 ], [ 291.928389316119592, 789.738904296979172 ], [ 288.02538845031961, 791.430204670940839 ], [ 284.642787707143384, 784.534903150965533 ], [ 343.968400786937025, 749.92829551936552 ], [ 346.180101273079003, 748.757395261856686 ] ] ] } },
{ "type": "Feature", "properties": { "feature_type": "building", "subtype": "no-damage", "uid": "cbe0594f-335b-44b5-9581-16955ab6c305" }, "geometry": { "type": "Polygon", "coordinates": [ [ [ 364.577608958113103, 780.028667357561289 ], [ 375.790654399214816, 797.96954006256442 ], [ 375.892591175440828, 803.270252453844137 ], [ 336.341121802788223, 825.492469781222098 ], [ 335.729501142109882, 827.12345820938117 ], [ 319.623490419616417, 835.686147455080345 ], [ 309.429812746232699, 819.885947060552553 ], [ 308.206571424401318, 821.313061934835787 ], [ 304.434910684580075, 816.21622309838142 ], [ 313.81309414507092, 810.71163715417515 ], [ 313.81309414507092, 808.876775173089527 ], [ 315.85182968050708, 809.182585503428641 ], [ 361.927252762473188, 781.557719009257198 ], [ 364.577608958113103, 780.028667357561289 ] ] ] } },
{ "type": "Feature", "properties": { "feature_type": "building", "subtype": "no-damage", "uid": "462cb804-fead-41e2-9a49-ec7540eae096" }, "geometry": { "type": "Polygon", "coordinates": [ [ [ 288.467131691389113, 1010.760704122646985 ], [ 296.20869976713368, 1009.468403462484048 ], [ 297.764433788733584, 1016.283104810786995 ], [ 290.148732151446382, 1018.31943900411602 ], [ 289.119707972842093, 1015.795891470384049 ], [ 290.986374639379676, 1015.429224802457952 ], [ 291.186374639764324, 1014.329224803429042 ], [ 290.319707971826688, 1013.395891470040965 ], [ 288.83056505467988, 1013.179871505887945 ], [ 288.467131691389113, 1010.760704122646985 ] ] ] } },
{ "type": "Feature", "properties": { "feature_type": "building", "subtype": "no-damage", "uid": "bdf61729-c5bb-41a4-9f4f-37e8aca7bf2e" }, "geometry": { "type": "Polygon", "coordinates": [ [ [ 352.399998236959675, 986.000000226933935 ], [ 353.406206029570001, 988.61781039832681 ], [ 356.464309327977389, 986.375201310438797 ], [ 361.968895273845078, 994.734017003686063 ], [ 353.20233247284591, 999.117298402998927 ], [ 347.188062650595725, 988.61781039832681 ], [ 350.659998240259711, 985.840000225676931 ], [ 352.399998236959675, 986.000000226933935 ] ] ] } },
{ "type": "Feature", "properties": { "feature_type": "building", "subtype": "no-damage", "uid": "197ab735-9953-41f0-bcaf-017f519e7497" }, "geometry": { "type": "Polygon", "coordinates": [ [ [ 363.090199818501219, 981.889983135137413 ], [ 356.97399321314191, 985.763580650709855 ], [ 354.527510572327287, 984.132592222550784 ], [ 352.879998237882717, 985.540000224387995 ], [ 351.229998237676682, 985.390000227066366 ], [ 351.265533719094606, 985.355833543432709 ], [ 350.144229172065025, 984.132592221601385 ], [ 347.901620083464877, 984.336465775477222 ], [ 347.086125872708294, 982.70547734826755 ], [ 356.973993212904475, 975.162155869574462 ], [ 358.401108086713009, 974.856345539235349 ], [ 363.090199818501219, 981.889983135137413 ] ] ] } },
{ "type": "Feature", "properties": { "feature_type": "building", "subtype": "no-damage", "uid": "78e38247-5fdf-4946-b6ad-1ce4792df16f" }, "geometry": { "type": "Polygon", "coordinates": [ [ [ 307.134910495144482, 990.652356520437934 ], [ 305.723323113973379, 988.617381787526028 ], [ 298.55618676030258, 974.174516098422259 ], [ 297.578849980929022, 975.369038822807738 ], [ 295.624176428827525, 974.174516098422259 ], [ 295.787065891027908, 972.599917957805246 ], [ 294.321060726239693, 972.056953082221526 ], [ 295.406990479543424, 969.776500605719093 ], [ 298.121814857462084, 969.72220411721139 ], [ 298.284704318713182, 971.894063619546387 ], [ 299.642116508384618, 972.925696884104923 ], [ 309.741263194005228, 968.256198953135254 ], [ 310.17563509732048, 966.518711351267143 ], [ 322.558988762923718, 961.019295517398177 ], [ 330.427198130044076, 978.679767483602404 ], [ 329.198578051859783, 980.596995695219789 ], [ 307.134910495144482, 990.652356520437934 ] ] ] } },
{ "type": "Feature", "properties": { "feature_type": "building", "subtype": "no-damage", "uid": "95359ed7-feaf-469c-95ea-2975cd981712" }, "geometry": { "type": "Polygon", "coordinates": [ [ [ 386.265233981660685, 932.339843821583599 ], [ 394.858137122557707, 927.28111858538557 ], [ 400.401945600930901, 937.190676239537083 ], [ 390.769578367861584, 942.595889506301091 ], [ 386.195936374550627, 932.894224669444725 ], [ 386.265233981660685, 932.339843821583599 ] ] ] } },
{ "type": "Feature", "properties": { "feature_type": "building", "subtype": "no-damage", "uid": "5075f445-1b56-46a3-b946-b9933a1969bc" }, "geometry": { "type": "Polygon", "coordinates": [ [ [ 391.046768792266789, 926.657440130651821 ], [ 375.108319417804182, 937.052081027690519 ], [ 366.09963064279151, 921.044334046118024 ], [ 382.523163258954582, 911.966347663046008 ], [ 390.9081735835058, 925.617976042277178 ], [ 391.046768792266789, 926.657440130651821 ] ] ] } },
{ "type": "Feature", "properties": { "feature_type": "building", "subtype": "un-classified", "uid": "4168b721-2b90-4d67-b30b-c81841704b18" }, "geometry": { "type": "Polygon", "coordinates": [ [ [ 19.75773718276762, 764.848196760891028 ], [ 27.245255681990329, 762.168005480216038 ], [ 29.414934337955749, 768.54941329240944 ], [ 30.39341687046894, 768.932297761416407 ], [ 30.563587743552471, 770.889262823594549 ], [ 23.458953713574051, 773.61199682331187 ], [ 19.75773718276762, 764.848196760891028 ] ] ] } },
{ "type": "Feature", "properties": { "feature_type": "building", "subtype": "no-damage", "uid": "da2e4ec2-e957-4f5c-bd78-6569c50ea953" }, "geometry": { "type": "Polygon", "coordinates": [ [ [ 333.829816315195387, 709.607787102637076 ], [ 335.443410073673817, 712.873393524233961 ], [ 331.755195766071211, 716.830540127764493 ], [ 329.949507506941075, 716.907377926126287 ], [ 327.836468063145617, 713.296001414512034 ], [ 332.754087138841498, 709.377273708026223 ], [ 333.829816315195387, 709.607787102637076 ] ] ] } },
{ "type": "Feature", "properties": { "feature_type": "building", "subtype": "no-damage", "uid": "2cc98399-a0d4-477a-9609-7b415d3a1caf" }, "geometry": { "type": "Polygon", "coordinates": [ [ [ 340.53508521228872, 722.548361978726462 ], [ 345.968418544835288, 719.281695311632916 ], [ 348.468418543946086, 723.681695311549106 ], [ 342.968418545475004, 726.215028645639791 ], [ 340.53508521228872, 722.548361978726462 ] ] ] } },
{ "type": "Feature", "properties": { "feature_type": "building", "subtype": "no-damage", "uid": "7daa041c-055d-4103-8ce0-461502eed74c" }, "geometry": { "type": "Polygon", "coordinates": [ [ [ 339.349516654702313, 951.482494455752658 ], [ 346.495601014564272, 965.547080875454753 ], [ 334.888903488926928, 971.91938540138176 ], [ 327.424203897309496, 957.718249599862816 ], [ 339.349516654702313, 951.482494455752658 ] ] ] } }
]
}
