{
"type": "FeatureCollection",
"name": "guatemala-volcano_00000014_post_disaster",
"features": [
{ "type": "Feature", "properties": { "feature_type": "building", "subtype": "major-damage", "uid": "cf1fea2d-716c-4f96-af3c-bf20b9f44e31" }, "geometry": { "type": "Polygon", "coordinates": [ [ [ 809.103450908910645, 110.309112889299598 ], [ 827.450310679995141, 113.930203635369097 ], [ 826.001874382421647, 119.482542777094906 ], [ 834.209680071203707, 120.689573026576099 ], [ 833.002649823384104, 131.552845262410614 ], [ 807.172202509218096, 127.448942416833603 ], [ 809.103450908910645, 110.309112889299598 ] ] ] } },
{ "type": "Feature", "properties": { "feature_type": "building", "subtype": "destroyed", "uid": "99812516-8156-40d5-9024-b2c995a6425e" }, "geometry": { "type": "Polygon", "coordinates": [ [ [ 824.801438108025877, 134.908721684456111 ], [ 847.2928906965941, 142.303171852373708 ], [ 841.438950982639312, 162.021705630638309 ], [ 818.331294213292495, 155.551561733769802 ], [ 824.801438108025877, 134.908721684456111 ] ] ] } },
{ "type": "Feature", "properties": { "feature_type": "building", "subtype": "major-damage", "uid": "36468d66-222d-406c-8476-e3b6c1559275" }, "geometry": { "type": "Polygon", "coordinates": [ [ [ 851.914422051840347, 143.843682303963789 ], [ 874.713976732340825, 150.313826199407913 ], [ 868.243832838794447, 170.648564157738889 ], [ 844.828073974903873, 164.794624442361112 ], [ 851.914422051840347, 143.843682303963789 ] ] ] } },
{ "type": "Feature", "properties": { "feature_type": "building", "subtype": "major-damage", "uid": "cb5b604b-bc2e-4c37-8e39-bc5c39709c51" }, "geometry": { "type": "Polygon", "coordinates": [ [ [ 878.103099723181117, 152.470540832488695 ], [ 899.362143953040686, 158.324480546442089 ], [ 894.124408421051498, 176.810605962200214 ], [ 871.632955830109495, 170.956666247772006 ], [ 878.103099723181117, 152.470540832488695 ] ] ] } },
{ "type": "Feature", "properties": { "feature_type": "building", "subtype": "major-damage", "uid": "28cf90c7-eddb-47e8-a65d-f719c8159615" }, "geometry": { "type": "Polygon", "coordinates": [ [ [ 875.330180910982904, 174.037687150477495 ], [ 897.20542932185856, 182.0483414975117 ], [ 890.73528542498866, 201.458773185268512 ], [ 866.395220293609782, 192.523812567659888 ], [ 875.330180910982904, 174.037687150477495 ] ] ] } },
{ "type": "Feature", "properties": { "feature_type": "building", "subtype": "un-classified", "uid": "ce095d44-87cd-43b3-9591-daed75062cbd" }, "geometry": { "type": "Polygon", "coordinates": [ [ [ 797.956121058211352, 429.617528154616707 ], [ 804.773430230053918, 432.581575623111576 ], [ 801.21657326904608, 441.473718025747814 ], [ 794.547466467067466, 438.509670558202401 ], [ 797.956121058211352, 429.617528154616707 ] ] ] } },
{ "type": "Feature", "properties": { "feature_type": "building", "subtype": "major-damage", "uid": "89d5c115-9c3e-4821-9d32-0dc03b88f9d9" }, "geometry": { "type": "Polygon", "coordinates": [ [ [ 844.468769353613197, 170.135440517741301 ], [ 864.574681322355445, 176.795127448945607 ], [ 858.105271161908149, 196.457060290265701 ], [ 836.857698574549545, 189.607096591389109 ], [ 844.468769353613197, 170.135440517741301 ] ] ] } }
]
}
