{
"type": "FeatureCollection",
"name": "hurricane-florence_00000412_post_disaster",
"features": [
{ "type": "Feature", "properties": { "feature_type": "building", "subtype": "no-damage", "uid": "d3d63a25-3c7a-49c4-936e-d7ec7ac25737" }, "geometry": { "type": "Polygon", "coordinates": [ [ [ 76.964123755836255, 889.620506304699575 ], [ 59.886356776949228, 875.688498790125095 ], [ 64.479326289360571, 870.023836392487055 ], [ 55.905783201174494, 862.062689238388316 ], [ 80.401620594498795, 835.576565064951069 ], [ 105.969150868716298, 857.775917703599475 ], [ 93.721232174220873, 870.789331311307251 ], [ 96.17081591108068, 873.238915052755374 ], [ 86.066282988568048, 883.8027449261524 ], [ 84.598542846512984, 882.415987542227299 ], [ 76.964123755836255, 889.620506304699575 ] ] ] } },
{ "type": "Feature", "properties": { "feature_type": "building", "subtype": "no-damage", "uid": "dc3958d8-e59f-48be-b5f4-c80a050802db" }, "geometry": { "type": "Polygon", "coordinates": [ [ [ 43.417016609245593, 849.80256764481976 ], [ 51.379809364497653, 841.724372094978776 ], [ 59.712532901770977, 848.571752958483671 ], [ 56.460806429847239, 852.010594215306014 ], [ 53.812607074959168, 850.875651633474376 ], [ 49.984273905933279, 854.952885605356187 ], [ 43.417016609245593, 849.80256764481976 ] ] ] } },
{ "type": "Feature", "properties": { "feature_type": "building", "subtype": "no-damage", "uid": "ba896adc-d2ed-4e49-8101-20cf02443989" }, "geometry": { "type": "Polygon", "coordinates": [ [ [ 52.303031714325442, 839.704823208538187 ], [ 61.419852407053433, 829.087766200175793 ], [ 71.113687068137011, 836.588947782170976 ], [ 61.881463585408611, 847.263706186298236 ], [ 52.303031714325442, 839.704823208538187 ] ] ] } },
{ "type": "Feature", "properties": { "feature_type": "building", "subtype": "no-damage", "uid": "bde14e45-96cf-43a6-bcd7-d2a79a8ae1a6" }, "geometry": { "type": "Polygon", "coordinates": [ [ [ 122.451335052414706, 825.045617096477372 ], [ 132.472785996878201, 806.487211014672766 ], [ 142.24252200693499, 794.025206962533844 ], [ 156.862212176383792, 803.539608502911051 ], [ 147.811927788831611, 814.446361481879876 ], [ 166.508962348581008, 827.105663901193566 ], [ 164.738867303061909, 834.032926604039972 ], [ 155.245928290003604, 845.3116660279386 ], [ 146.22293675047689, 846.345550475112304 ], [ 136.636008241386804, 838.732401363827762 ], [ 138.045850669119204, 836.570642975487772 ], [ 122.451335052414706, 825.045617096477372 ] ] ] } },
{ "type": "Feature", "properties": { "feature_type": "building", "subtype": "no-damage", "uid": "a080f9e9-f486-4571-8e50-e8d567f2d509" }, "geometry": { "type": "Polygon", "coordinates": [ [ [ 71.546983575499922, 733.175218379211856 ], [ 91.756049422564459, 746.954126911857657 ], [ 79.048833777694611, 765.326004950287142 ], [ 56.543283172130216, 750.781601499840804 ], [ 61.572299530655663, 740.859230189964478 ], [ 71.546983575499922, 733.175218379211856 ] ] ] } },
{ "type": "Feature", "properties": { "feature_type": "building", "subtype": "no-damage", "uid": "2f0a4ab3-d4fc-432a-8323-29a0233385c7" }, "geometry": { "type": "Polygon", "coordinates": [ [ [ 39.205289236490977, 761.545817357182727 ], [ 47.872669060181423, 750.221522809317548 ], [ 57.520636369301982, 756.297889300326574 ], [ 48.449210463572953, 767.551419862177113 ], [ 39.205289236490977, 761.545817357182727 ] ] ] } },
{ "type": "Feature", "properties": { "feature_type": "building", "subtype": "no-damage", "uid": "776c7738-1680-4fcd-99c0-5f94b93d4cd3" }, "geometry": { "type": "Polygon", "coordinates": [ [ [ 146.471215204682295, 749.20639610749231 ], [ 170.967052597241889, 715.983916655778785 ], [ 189.03273267104899, 727.466340429924685 ], [ 165.149291215126112, 761.607413789524571 ], [ 146.471215204682295, 749.20639610749231 ] ] ] } },
{ "type": "Feature", "properties": { "feature_type": "building", "subtype": "no-damage", "uid": "60878d47-86d0-4efd-a49f-66b8982824cd" }, "geometry": { "type": "Polygon", "coordinates": [ [ [ 429.350009929905184, 762.820007764042657 ], [ 429.209094662000325, 763.077664869660225 ], [ 430.700450740862095, 764.031750976887338 ], [ 434.609697407905117, 766.301636139530956 ], [ 443.096130595263787, 772.896544835536588 ], [ 436.744554097934099, 782.619214348521837 ], [ 421.909916015239787, 776.381447237484622 ], [ 417.723714265087381, 771.44476477371154 ], [ 420.612072235465575, 767.562683449391784 ], [ 420.050009926785378, 767.230007764269772 ], [ 424.918551289484526, 760.9221211973869 ], [ 429.350009929905184, 762.820007764042657 ] ] ] } },
{ "type": "Feature", "properties": { "feature_type": "building", "subtype": "no-damage", "uid": "b7fd3ee5-49b8-48c2-a997-6577703c5e6f" }, "geometry": { "type": "Polygon", "coordinates": [ [ [ 431.330974394772795, 759.239771186365147 ], [ 429.590009927031986, 762.380007764891616 ], [ 424.759344797020219, 760.309906054004045 ], [ 419.62000992691992, 766.97000776296386 ], [ 408.25380857405321, 760.24860903303022 ], [ 415.063464062493722, 749.529706879330888 ], [ 431.330974394772795, 759.239771186365147 ] ] ] } },
{ "type": "Feature", "properties": { "feature_type": "building", "subtype": "no-damage", "uid": "a03ffc93-68cc-447e-8b07-866e0180e454" }, "geometry": { "type": "Polygon", "coordinates": [ [ [ 423.164941720057016, 741.590073570556569 ], [ 408.119341139349899, 729.866228962623836 ], [ 411.441097114163597, 723.41811442785297 ], [ 417.88921164740492, 718.337781765978889 ], [ 433.130209636595794, 730.257023784179864 ], [ 423.164941720057016, 741.590073570556569 ] ] ] } },
{ "type": "Feature", "properties": { "feature_type": "building", "subtype": "no-damage", "uid": "19efc403-9ba2-42b6-8687-e94811fd7d3b" }, "geometry": { "type": "Polygon", "coordinates": [ [ [ 450.194990881669128, 688.626853490359281 ], [ 461.590911562019983, 675.791448098076785 ], [ 481.863654664478588, 690.306252328848245 ], [ 470.347776926202073, 703.741443021464988 ], [ 450.194990881669128, 688.626853490359281 ] ] ] } },
{ "type": "Feature", "properties": { "feature_type": "building", "subtype": "no-damage", "uid": "6b020546-2bc3-411a-a3e3-3f98e03c52b4" }, "geometry": { "type": "Polygon", "coordinates": [ [ [ 343.076469531803696, 672.423372055936056 ], [ 340.437414217164417, 670.144187918132388 ], [ 347.39492368442211, 662.107064917308321 ], [ 387.58053871352331, 692.456201042033854 ], [ 378.103930992100913, 703.252336419501489 ], [ 374.865090376107617, 700.97315228577645 ], [ 365.748353835089688, 712.129158843648611 ], [ 350.993635482094476, 701.452980521557492 ], [ 358.670887305317876, 692.216286920064704 ], [ 340.380460918001688, 677.977071166351834 ], [ 343.076469531803696, 672.423372055936056 ] ] ] } },
{ "type": "Feature", "properties": { "feature_type": "building", "subtype": "no-damage", "uid": "23d6eaa4-e2ab-409d-90e4-976a875aef4d" }, "geometry": { "type": "Polygon", "coordinates": [ [ [ 419.005041750640316, 630.631536133395798 ], [ 414.105786735924994, 626.986510507067919 ], [ 428.82858668198719, 610.705730240096727 ], [ 450.80200756241959, 627.613625210056057 ], [ 428.77442526836478, 653.986847781769143 ], [ 410.4964354718241, 640.209116480369403 ], [ 419.005041750640316, 630.631536133395798 ] ] ] } },
{ "type": "Feature", "properties": { "feature_type": "building", "subtype": "no-damage", "uid": "9220eea6-1f03-4adb-92ab-5fb268da7910" }, "geometry": { "type": "Polygon", "coordinates": [ [ [ 582.442872281626933, 684.467986169944197 ], [ 601.778193379467439, 655.276763823387228 ], [ 612.359005326086049, 660.668683844566658 ], [ 592.517888423688305, 690.730343964454278 ], [ 588.50847712062523, 690.070842162674239 ], [ 582.442872281626933, 684.467986169944197 ] ] ] } },
{ "type": "Feature", "properties": { "feature_type": "building", "subtype": "no-damage", "uid": "0709b55d-9ba4-424f-826e-aeac45a8a195" }, "geometry": { "type": "Polygon", "coordinates": [ [ [ 522.954843844537095, 649.599581792122763 ], [ 547.29758225083458, 613.162023677081834 ], [ 558.473808061887667, 620.510774894288943 ], [ 533.706652709233026, 657.243880453088991 ], [ 522.954843844537095, 649.599581792122763 ] ] ] } },
{ "type": "Feature", "properties": { "feature_type": "building", "subtype": "no-damage", "uid": "1744aeaf-f267-48b5-96e0-5e0aef69f008" }, "geometry": { "type": "Polygon", "coordinates": [ [ [ 478.275703774479211, 614.190481033711308 ], [ 499.3418324682915, 583.186900820677693 ], [ 509.298268429573511, 589.784539111099775 ], [ 487.919944226046823, 620.409437677858932 ], [ 478.275703774479211, 614.190481033711308 ] ] ] } },
{ "type": "Feature", "properties": { "feature_type": "building", "subtype": "no-damage", "uid": "4972631f-ac04-436f-8c71-da1f69f18fdb" }, "geometry": { "type": "Polygon", "coordinates": [ [ [ 450.594391314310087, 594.883794021031918 ], [ 461.251034208811177, 582.980078831108131 ], [ 474.749691577569706, 594.225867554926708 ], [ 466.00866852358962, 604.376733035619736 ], [ 460.557277802429496, 604.094764549563479 ], [ 450.594391314310087, 594.883794021031918 ] ] ] } },
{ "type": "Feature", "properties": { "feature_type": "building", "subtype": "no-damage", "uid": "32c3d428-c34c-4aff-b265-e1156f86fce9" }, "geometry": { "type": "Polygon", "coordinates": [ [ [ 500.519558974254778, 565.235649264847211 ], [ 477.401612435877496, 546.251375289526209 ], [ 487.812343327090787, 533.544159641597275 ], [ 483.831769754884817, 529.410487082619284 ], [ 489.802630118419472, 522.827230784232256 ], [ 494.089401659835914, 526.807804360262026 ], [ 514.757764459569103, 502.771263924194386 ], [ 529.149068925027677, 515.325380588155326 ], [ 523.637505513142059, 521.755537901554703 ], [ 529.455266892708664, 526.501606398443869 ], [ 519.503832953654182, 537.984030171570112 ], [ 513.839170556780914, 533.544159644656133 ], [ 502.662944745727827, 547.169969193333941 ], [ 510.77719088124519, 553.753225490701311 ], [ 500.519558974254778, 565.235649264847211 ] ] ] } },
{ "type": "Feature", "properties": { "feature_type": "building", "subtype": "no-damage", "uid": "4881212f-ad55-441e-9134-68068dc1fa81" }, "geometry": { "type": "Polygon", "coordinates": [ [ [ 577.190871870640194, 459.760641839010702 ], [ 602.23266400954742, 428.435208943370981 ], [ 616.88746976793368, 440.549848373879286 ], [ 591.876601272472271, 471.813433984157314 ], [ 577.190871870640194, 459.760641839010702 ] ] ] } },
{ "type": "Feature", "properties": { "feature_type": "building", "subtype": "no-damage", "uid": "fe3f6427-949e-4597-8ff9-7453b6348454" }, "geometry": { "type": "Polygon", "coordinates": [ [ [ 630.681149484619027, 422.060854985002322 ], [ 615.85743686150488, 410.536806655905309 ], [ 624.124781981500064, 399.972976787606513 ], [ 619.684911452546885, 396.298601177473415 ], [ 629.483246409162803, 384.663078417320321 ], [ 633.923116938625867, 388.144887769852687 ], [ 640.905816071411436, 379.915278077049209 ], [ 646.890986759241855, 384.902920317120277 ], [ 649.13542576370503, 381.910334972058024 ], [ 657.614417570296382, 389.142416218886581 ], [ 630.681149484619027, 422.060854985002322 ] ] ] } },
{ "type": "Feature", "properties": { "feature_type": "building", "subtype": "no-damage", "uid": "8ff456d8-9dae-4767-b910-612e908743d9" }, "geometry": { "type": "Polygon", "coordinates": [ [ [ 726.033111363957801, 405.22242506651952 ], [ 757.687491805477976, 365.361353406481612 ], [ 786.21551368270741, 389.786029672668292 ], [ 756.319709933090962, 426.911537589971488 ], [ 739.515532666343233, 417.141667082681124 ], [ 726.033111363957801, 405.22242506651952 ] ] ] } },
{ "type": "Feature", "properties": { "feature_type": "building", "subtype": "no-damage", "uid": "989b0795-e6f0-47e6-83ed-a02cb66f5532" }, "geometry": { "type": "Polygon", "coordinates": [ [ [ 652.954479977451001, 356.568469944414176 ], [ 688.12601379997443, 311.822463030731114 ], [ 714.89545898835911, 335.07475483734811 ], [ 684.999655240017205, 364.384366350042626 ], [ 683.045681138610121, 360.867212970313801 ], [ 671.517233939416201, 373.76344203271799 ], [ 652.954479977451001, 356.568469944414176 ] ] ] } },
{ "type": "Feature", "properties": { "feature_type": "building", "subtype": "no-damage", "uid": "6737206c-4379-4948-a970-b74e6d0c4423" }, "geometry": { "type": "Polygon", "coordinates": [ [ [ 713.756863698519396, 277.913187460419408 ], [ 743.458066534009049, 240.710134428597598 ], [ 759.227261854159678, 253.876647027410797 ], [ 729.21986104945961, 291.079700059232607 ], [ 713.756863698519396, 277.913187460419408 ] ] ] } },
{ "type": "Feature", "properties": { "feature_type": "building", "subtype": "no-damage", "uid": "d92b8a19-fd34-4ba6-8a55-39241a8aa224" }, "geometry": { "type": "Polygon", "coordinates": [ [ [ 944.621633641773997, 323.651150424618322 ], [ 965.724553935440895, 288.479616606937782 ], [ 985.655089767753793, 300.594256035406886 ], [ 977.253001131575957, 314.076677330655002 ], [ 980.770154515383297, 316.030651432316972 ], [ 978.425385593949613, 319.938599634621426 ], [ 974.322039981122316, 317.789228123710814 ], [ 964.552169475361438, 334.593405391478427 ], [ 944.621633641773997, 323.651150424618322 ] ] ] } },
{ "type": "Feature", "properties": { "feature_type": "building", "subtype": "no-damage", "uid": "6b123b3f-630a-49fc-b811-e771db52fb7b" }, "geometry": { "type": "Polygon", "coordinates": [ [ [ 425.790746399508294, 238.923759624082493 ], [ 474.281899825561197, 246.631062609712302 ], [ 472.469114866271184, 265.302409994990228 ], [ 423.663164326738922, 257.725312990176292 ], [ 422.911511610334628, 248.046933687950514 ], [ 425.790746399508294, 238.923759624082493 ] ] ] } },
{ "type": "Feature", "properties": { "feature_type": "building", "subtype": "no-damage", "uid": "81eeaa4f-de66-41cb-a9f2-838a2c7bb61e" }, "geometry": { "type": "Polygon", "coordinates": [ [ [ 153.578310157147911, 120.7010996371434 ], [ 162.462076686361314, 120.386544779838403 ], [ 162.212694574357698, 115.648284652535594 ], [ 169.943540046722802, 115.398902541806606 ], [ 170.19292215617719, 120.1371626670701 ], [ 203.610125151397909, 119.454189080439505 ], [ 204.108889375659913, 130.361829256921709 ], [ 153.983084882828905, 131.359357699837688 ], [ 153.578310157147911, 120.7010996371434 ] ] ] } },
{ "type": "Feature", "properties": { "feature_type": "building", "subtype": "no-damage", "uid": "951f693c-8cdb-4e08-999d-360b4eda3c72" }, "geometry": { "type": "Polygon", "coordinates": [ [ [ 595.260622870571297, 183.782016902554005 ], [ 605.518254780620623, 184.2413138544579 ], [ 604.90585884500365, 202.460092912997993 ], [ 594.342028968802765, 202.153894946081692 ], [ 595.260622870571297, 183.782016902554005 ] ] ] } },
{ "type": "Feature", "properties": { "feature_type": "building", "subtype": "no-damage", "uid": "92cfc78e-b6ba-42da-8f1a-1bdb35345637" }, "geometry": { "type": "Polygon", "coordinates": [ [ [ 567.549706822841586, 182.404126047861894 ], [ 588.218069619005973, 183.475818936657305 ], [ 588.064970638351838, 199.091915268761596 ], [ 576.582546862676622, 199.857410185542506 ], [ 567.396607836834278, 198.173321365973408 ], [ 567.549706822841586, 182.404126047861894 ] ] ] } },
{ "type": "Feature", "properties": { "feature_type": "building", "subtype": "no-damage", "uid": "dd3ab552-3362-4bbc-b0bf-ee7cd219ded7" }, "geometry": { "type": "Polygon", "coordinates": [ [ [ 782.803270987315955, 114.726511942432694 ], [ 803.301071822450126, 120.4674535768021 ], [ 820.174084397334582, 126.968794300311899 ], [ 812.533796131523331, 155.316079131920702 ], [ 826.561233961962557, 159.763803321879692 ], [ 823.139907661445022, 171.396312743027408 ], [ 809.112469831515682, 167.119654866106004 ], [ 802.790262737047783, 191.77593357270149 ], [ 764.492370352018156, 179.856691553480999 ], [ 782.803270987315955, 114.726511942432694 ] ] ] } },
{ "type": "Feature", "properties": { "feature_type": "building", "subtype": "no-damage", "uid": "0e2eb54e-c2dd-48a6-aaec-7f368ab069ce" }, "geometry": { "type": "Polygon", "coordinates": [ [ [ 1023.597218410561027, 189.344104646812298 ], [ 1004.910561779150953, 182.964641525942113 ], [ 1017.617777425040003, 143.618202722647311 ], [ 1023.597124728015046, 145.446529801765706 ], [ 1023.597218410561027, 189.344104646812298 ] ] ] } },
{ "type": "Feature", "properties": { "feature_type": "building", "subtype": "no-damage", "uid": "4d0f8e58-9faa-46df-8f89-cc0f85bb77ad" }, "geometry": { "type": "Polygon", "coordinates": [ [ [ 822.256150338216798, 125.745406676693904 ], [ 813.131068827939202, 123.011429195084006 ], [ 820.688363594511543, 96.980747225016302 ], [ 829.565186021207751, 99.259931360780627 ], [ 836.522695487955616, 72.389549973507712 ], [ 874.66904049943787, 82.345985935809438 ], [ 853.31668385780506, 153.000694143483599 ], [ 828.605529542508179, 146.403055854081089 ], [ 833.043940752542426, 129.729024547000506 ], [ 822.256150338216798, 125.745406676693904 ] ] ] } },
{ "type": "Feature", "properties": { "feature_type": "building", "subtype": "no-damage", "uid": "f82000fd-ea46-4c71-859a-7a80b4c7183a" }, "geometry": { "type": "Polygon", "coordinates": [ [ [ 605.373313899423806, 64.679010869619447 ], [ 654.870505522802432, 63.989077440023408 ], [ 656.429947299287164, 97.786438009874686 ], [ 606.812798619002479, 98.551254429196732 ], [ 605.373313899423806, 64.679010869619447 ] ] ] } },
{ "type": "Feature", "properties": { "feature_type": "building", "subtype": "no-damage", "uid": "159c2ce2-de1d-4767-94ad-4533c168ac4f" }, "geometry": { "type": "Polygon", "coordinates": [ [ [ 199.051415395322692, 724.443325268947888 ], [ 175.845557984518905, 708.199225079651683 ], [ 178.630260874957287, 700.541292134259606 ], [ 184.431725227403405, 695.668062081345397 ], [ 207.637582636677791, 711.680103690915416 ], [ 199.051415395322692, 724.443325268947888 ] ] ] } },
{ "type": "Feature", "properties": { "feature_type": "building", "subtype": "no-damage", "uid": "dae8389c-29f2-41f8-8ee6-702b71b8ff7a" }, "geometry": { "type": "Polygon", "coordinates": [ [ [ 166.36450852679539, 709.777864812485404 ], [ 161.950842934635489, 709.651760082417013 ], [ 158.167700994602001, 706.246932333863242 ], [ 160.185376692775293, 703.094314052583627 ], [ 160.311481424628113, 700.950533624087029 ], [ 162.581366587526588, 698.680648461443411 ], [ 165.355670676306687, 696.662972759956233 ], [ 173.174164014981102, 704.355361368562285 ], [ 170.904278852592398, 706.625246528146931 ], [ 169.895441002613609, 706.246932335902443 ], [ 166.36450852679539, 709.777864812485404 ] ] ] } },
{ "type": "Feature", "properties": { "feature_type": "building", "subtype": "no-damage", "uid": "495a3187-15f0-42a4-a5ca-4c6a1d8591d4" }, "geometry": { "type": "Polygon", "coordinates": [ [ [ 152.802896945653913, 664.157188457582834 ], [ 157.421687447375888, 657.485602176722864 ], [ 171.106992647151486, 666.381050558680158 ], [ 169.738462128066089, 668.433846333484553 ], [ 169.738462128321089, 670.486642116446205 ], [ 168.198865291864593, 672.368371579232644 ], [ 164.9486053089731, 672.710504209386386 ], [ 152.802896945653913, 664.157188457582834 ] ] ] } },
{ "type": "Feature", "properties": { "feature_type": "building", "subtype": "no-damage", "uid": "ea734342-f939-4ed6-9e4c-958b473d8363" }, "geometry": { "type": "Polygon", "coordinates": [ [ [ 544.834546002167713, 575.197098902339917 ], [ 527.88592644729988, 563.400285747355383 ], [ 544.554016311447754, 540.718736692188145 ], [ 557.394116378726153, 549.815538846983486 ], [ 546.773753128866701, 565.918662639896411 ], [ 549.921724243523386, 567.807445305988381 ], [ 544.834546002167713, 575.197098902339917 ] ] ] } },
{ "type": "Feature", "properties": { "feature_type": "building", "subtype": "no-damage", "uid": "e8c020f5-e6e8-4830-80c6-f6f34101317e" }, "geometry": { "type": "Polygon", "coordinates": [ [ [ 482.982583605374884, 582.607474350352845 ], [ 479.324506104711077, 582.696256369109165 ], [ 463.581938692524716, 571.835708586022974 ], [ 469.104521665609184, 564.459397620155414 ], [ 486.694835640397514, 576.435538460666521 ], [ 482.982583605374884, 582.607474350352845 ] ] ] } },
{ "type": "Feature", "properties": { "feature_type": "building", "subtype": "no-damage", "uid": "ee7598ad-eda2-48d9-abd1-db5884875e26" }, "geometry": { "type": "Polygon", "coordinates": [ [ [ 552.327070861549259, 498.661955751675919 ], [ 535.154736376290089, 484.970499879209683 ], [ 553.023246580590126, 462.228759620720723 ], [ 570.195581065084639, 475.920215496245817 ], [ 552.327070861549259, 498.661955751675919 ] ] ] } },
{ "type": "Feature", "properties": { "feature_type": "building", "subtype": "no-damage", "uid": "b2db7d5e-0eb3-4b09-b9a2-7f6ca9348ced" }, "geometry": { "type": "Polygon", "coordinates": [ [ [ 683.904282377411732, 534.166917597374322 ], [ 701.308675431690858, 544.609553433204837 ], [ 694.346918208398733, 556.212482135038158 ], [ 677.174583727218078, 546.46602202513111 ], [ 683.904282377411732, 534.166917597374322 ] ] ] } },
{ "type": "Feature", "properties": { "feature_type": "building", "subtype": "no-damage", "uid": "b0bcf063-c255-40df-b45c-4cdba20467aa" }, "geometry": { "type": "Polygon", "coordinates": [ [ [ 673.103506021775502, 459.51441628499748 ], [ 653.271288005888096, 446.922531826370914 ], [ 667.122360905941719, 428.349502260832423 ], [ 685.695390477852811, 442.515372271816489 ], [ 673.103506021775502, 459.51441628499748 ] ] ] } },
{ "type": "Feature", "properties": { "feature_type": "building", "subtype": "no-damage", "uid": "c1c38e49-69d1-41a1-959d-00c78c8f96b4" }, "geometry": { "type": "Polygon", "coordinates": [ [ [ 691.600009953902145, 427.890007787194691 ], [ 690.875782691833251, 428.735619252366178 ], [ 685.230594297865764, 435.06507290613132 ], [ 676.677278545807326, 427.880287674942622 ], [ 676.305436710652316, 426.541466362642893 ], [ 675.62931385906154, 424.511190858280827 ], [ 675.993013286519613, 422.577231911638592 ], [ 677.703676434994009, 420.695502448852096 ], [ 679.243273270175791, 419.669104555332126 ], [ 681.220009950201302, 419.520007786451572 ], [ 691.600009953902145, 427.890007787194691 ] ] ] } },
{ "type": "Feature", "properties": { "feature_type": "building", "subtype": "no-damage", "uid": "68c8f1f0-7b2e-4d03-889a-d0376939acdc" }, "geometry": { "type": "Polygon", "coordinates": [ [ [ 697.889501606670478, 420.524436133775282 ], [ 691.9200099527053, 427.51000778426652 ], [ 681.62000995068081, 419.200007786883589 ], [ 683.041425860431559, 416.466245210861473 ], [ 685.272476886146478, 414.607036021576221 ], [ 688.138721651113315, 412.484319329241487 ], [ 697.889501606670478, 420.524436133775282 ] ] ] } },
{ "type": "Feature", "properties": { "feature_type": "building", "subtype": "no-damage", "uid": "4025a878-dfdb-4900-84cc-f8a5785e315a" }, "geometry": { "type": "Polygon", "coordinates": [ [ [ 694.689612851750212, 448.53028164908801 ], [ 692.671937155616092, 448.656386382215317 ], [ 689.141004676484158, 446.260396489503307 ], [ 688.132166825740569, 443.612197130536572 ], [ 690.654261452089713, 438.441903147769892 ], [ 696.202869627100768, 432.514980779494579 ], [ 697.2117074791189, 429.236257764068114 ], [ 700.238221029565352, 428.47962937957908 ], [ 706.543457592379241, 433.019399704866373 ], [ 694.689612851750212, 448.53028164908801 ] ] ] } },
{ "type": "Feature", "properties": { "feature_type": "building", "subtype": "no-damage", "uid": "b1af72ca-6f6f-41d2-81d0-d877ac47c884" }, "geometry": { "type": "Polygon", "coordinates": [ [ [ 719.729847823959744, 415.291731479502914 ], [ 725.32307452842133, 408.695927813262927 ], [ 737.407774475472934, 417.562658051136111 ], [ 731.948442749866786, 425.229203745352777 ], [ 719.729847823959744, 415.291731479502914 ] ] ] } },
{ "type": "Feature", "properties": { "feature_type": "building", "subtype": "no-damage", "uid": "21937b0f-ab0b-4ee1-b8c8-ccda7441849c" }, "geometry": { "type": "Polygon", "coordinates": [ [ [ 790.368032840052251, 380.637581962861987 ], [ 791.296267134995787, 376.460527630773015 ], [ 796.169497190713969, 372.051414720997116 ], [ 805.451840156717935, 378.549054799366615 ], [ 806.84419159989784, 377.620820501874107 ], [ 814.03800739705332, 383.190226278672526 ], [ 811.021245934026069, 386.671104887896888 ], [ 812.413597378735517, 389.687866356022425 ], [ 805.451840158757136, 394.32903783736748 ], [ 790.368032840052251, 380.637581962861987 ] ] ] } },
{ "type": "Feature", "properties": { "feature_type": "building", "subtype": "no-damage", "uid": "92553a44-2e7b-4d67-99bb-458a2ed9b37c" }, "geometry": { "type": "Polygon", "coordinates": [ [ [ 867.949445717031836, 457.702907184757407 ], [ 876.303554385798066, 446.099978480884772 ], [ 895.33235746145408, 459.559375778722881 ], [ 886.51413164496114, 471.858480203420811 ], [ 867.949445717031836, 457.702907184757407 ] ] ] } },
{ "type": "Feature", "properties": { "feature_type": "building", "subtype": "no-damage", "uid": "098a738e-2ec8-4847-89c1-9ac719e09ae2" }, "geometry": { "type": "Polygon", "coordinates": [ [ [ 819.871934749833713, 277.438550708849789 ], [ 795.002962951413451, 265.476260477691994 ], [ 796.576948507084921, 258.550724025498425 ], [ 800.669310956061963, 254.143564470944 ], [ 825.853079868471582, 266.735448922433079 ], [ 819.871934749833713, 277.438550708849789 ] ] ] } },
{ "type": "Feature", "properties": { "feature_type": "building", "subtype": "no-damage", "uid": "b496ec69-faf7-4705-910e-cc44fd373d20" }, "geometry": { "type": "Polygon", "coordinates": [ [ [ 603.290256431648686, 220.029990791952287 ], [ 623.75206866786732, 193.587033438115213 ], [ 643.269489574098884, 208.067700562833693 ], [ 622.807677333801735, 234.510657913611794 ], [ 615.882140884922023, 234.510657915651109 ], [ 609.586198655863654, 231.36268679870031 ], [ 608.641807325366813, 228.844309910237797 ], [ 603.290256431648686, 220.029990791952287 ] ] ] } },
{ "type": "Feature", "properties": { "feature_type": "building", "subtype": "no-damage", "uid": "7363cd04-d3fe-4baa-bc2f-0420d8252f6f" }, "geometry": { "type": "Polygon", "coordinates": [ [ [ 788.715435845697812, 106.231705060241893 ], [ 788.092162843921869, 103.0438772851967 ], [ 788.78833856729625, 99.562998671893681 ], [ 792.501275751403682, 96.546237207846772 ], [ 807.585083067559481, 101.651525840487295 ], [ 804.56832160453223, 110.933868804197104 ], [ 800.855384420934683, 110.701810227529805 ], [ 788.715435845697812, 106.231705060241893 ] ] ] } },
{ "type": "Feature", "properties": { "feature_type": "building", "subtype": "no-damage", "uid": "e0cc2887-be9a-4826-b663-e0cf241e5899" }, "geometry": { "type": "Polygon", "coordinates": [ [ [ 123.330009899432298, 148.860007743409 ], [ 124.034440377317907, 162.354612590557991 ], [ 122.749996734742396, 162.354612590557991 ], [ 113.931770918504398, 161.658436868713096 ], [ 113.467653770522801, 147.966980995227289 ], [ 123.330009899432298, 148.860007743409 ] ] ] } },
{ "type": "Feature", "properties": { "feature_type": "building", "subtype": "no-damage", "uid": "56d8b8d1-c31a-4a1f-b4f0-efb400b353cb" }, "geometry": { "type": "Polygon", "coordinates": [ [ [ 136.209394031050891, 162.354612590557991 ], [ 124.533769575304305, 162.354612590557991 ], [ 123.910289604059002, 143.325809515921407 ], [ 135.745276883834094, 143.325809518980293 ], [ 136.209394031050891, 162.354612590557991 ] ] ] } },
{ "type": "Feature", "properties": { "feature_type": "building", "subtype": "no-damage", "uid": "23f6536a-b5ba-4f09-8f35-c0efa13040b4" }, "geometry": { "type": "Polygon", "coordinates": [ [ [ 372.730887915324502, 726.781436671642609 ], [ 375.075656836503185, 726.195244442877424 ], [ 381.328373962025523, 732.252564156092376 ], [ 373.707874965645715, 740.850050201773797 ], [ 367.064363022136206, 734.79273048448033 ], [ 372.730887915324502, 726.781436671642609 ] ] ] } }
]
}
