{
"type": "FeatureCollection",
"name": "hurricane-michael_00000383_post_disaster",
"features": [
{ "type": "Feature", "properties": { "feature_type": "building", "subtype": "minor-damage", "uid": "13693731-1317-45ef-b4b6-e91082e00f18" }, "geometry": { "type": "Polygon", "coordinates": [ [ [ 77.929691454672707, 113.365334725998906 ], [ 92.655460484972494, 113.606740776589703 ], [ 93.138272584154478, 129.539540055590408 ], [ 110.7609142095462, 128.57391585622679 ], [ 110.278102110364202, 110.951274229089705 ], [ 128.14214978659669, 111.192680279680502 ], [ 128.624961886028586, 139.678594142408912 ], [ 111.967944457001195, 140.644218338772987 ], [ 112.450756560682507, 153.197332921500902 ], [ 90.24139998631297, 153.197332921500902 ], [ 89.758587887380941, 133.643442898636209 ], [ 77.929691457422294, 133.402036850045107 ], [ 77.929691454672707, 113.365334725998906 ] ] ] } },
{ "type": "Feature", "properties": { "feature_type": "building", "subtype": "no-damage", "uid": "096c2b14-305e-466f-9db1-d859c278eadd" }, "geometry": { "type": "Polygon", "coordinates": [ [ [ 0.077170654892772, 296.087854079147291 ], [ 8.646155196811517, 295.144090133961527 ], [ 8.404749148720303, 303.834707920234905 ], [ 22.647706078588289, 303.834707920234905 ], [ 23.854736325793361, 326.285470541190307 ], [ 0.077186779760345, 327.24797031418359 ], [ 0.077170654892772, 296.087854079147291 ] ] ] } },
{ "type": "Feature", "properties": { "feature_type": "building", "subtype": "no-damage", "uid": "abebb4f4-e500-4727-a971-3900f1660f88" }, "geometry": { "type": "Polygon", "coordinates": [ [ [ 38.580505358342812, 307.455798666098588 ], [ 52.58205623662009, 307.938610764280611 ], [ 52.582056239869623, 299.972211126779996 ], [ 67.54923131826061, 299.972211126779996 ], [ 67.54923132001035, 307.938610766280306 ], [ 72.377352315079719, 307.938610764280611 ], [ 72.377352310580392, 338.838585124918097 ], [ 59.100019579826267, 338.838585124918097 ], [ 59.341425629667228, 330.630779434826991 ], [ 38.339099307751972, 331.354997583599811 ], [ 38.580505358342812, 307.455798666098588 ] ] ] } },
{ "type": "Feature", "properties": { "feature_type": "building", "subtype": "no-damage", "uid": "d5d7e817-597a-4039-abdf-f7f71750cbf4" }, "geometry": { "type": "Polygon", "coordinates": [ [ [ 88.068745539494103, 306.490174465735208 ], [ 101.587484322588793, 306.731580518325586 ], [ 101.587484323088702, 299.006586927416379 ], [ 115.347629152524902, 299.247992976007481 ], [ 115.347629154024702, 307.938610766280306 ], [ 122.106998544822204, 308.180016816871102 ], [ 122.348404595163004, 339.804209321282087 ], [ 107.139823463681594, 339.804209321282087 ], [ 106.898417414840495, 327.975312889326688 ], [ 88.310151591584727, 328.699531038099508 ], [ 88.068745539494103, 306.490174465735208 ] ] ] } },
{ "type": "Feature", "properties": { "feature_type": "building", "subtype": "no-damage", "uid": "2d7ce3d6-d0ed-48fc-8305-14b4117364d9" }, "geometry": { "type": "Polygon", "coordinates": [ [ [ 135.142925227485108, 301.420647423325818 ], [ 144.316355114692414, 300.937835325143681 ], [ 144.557761164283392, 295.868308281734414 ], [ 160.731966492379087, 295.86830827973472 ], [ 160.973372541720096, 302.869083723870915 ], [ 170.146802431677003, 303.110489772462017 ], [ 171.112426629041209, 319.284695101053615 ], [ 171.353832678132193, 336.183118577418213 ], [ 158.07649995037761, 337.148742775781784 ], [ 157.110875749014099, 330.389373387235821 ], [ 141.660888567941697, 331.596403635190427 ], [ 142.385106718214388, 326.044064492599318 ], [ 135.384331279825687, 326.044064492599318 ], [ 133.453082879348301, 315.905010404780796 ], [ 134.418707077712213, 300.937835325143681 ], [ 135.142925227485108, 301.420647423325818 ] ] ] } },
{ "type": "Feature", "properties": { "feature_type": "building", "subtype": "no-damage", "uid": "ab35f3fb-5506-487c-81fa-729fad88b74b" }, "geometry": { "type": "Polygon", "coordinates": [ [ [ 185.113977514067386, 296.109714329325584 ], [ 194.287407399524994, 295.626902231143674 ], [ 194.770219498956891, 288.384720740416128 ], [ 210.461612728620594, 288.626126792006687 ], [ 211.910049023916912, 300.696429276552578 ], [ 222.531915211169689, 300.455023226961714 ], [ 223.497539410283593, 323.388597942099807 ], [ 205.874897781392406, 324.595628193053926 ], [ 207.323334081437991, 339.804209321282087 ], [ 186.321007760522605, 339.321397224099883 ], [ 186.321007758272913, 322.6643797963265 ], [ 185.355383560658908, 320.49172534900822 ], [ 185.113977514067386, 296.109714329325584 ] ] ] } },
{ "type": "Feature", "properties": { "feature_type": "building", "subtype": "no-damage", "uid": "db442c58-9c05-437f-b508-f184a63ba91e" }, "geometry": { "type": "Polygon", "coordinates": [ [ [ 183.424135161681193, 407.39790323473909 ], [ 203.219431235891506, 407.639309282330373 ], [ 203.21943123689141, 419.951017816467186 ], [ 209.978800627938796, 420.192423865058288 ], [ 209.978800626189098, 423.572108561330992 ], [ 221.083478911624098, 423.33070251273989 ], [ 221.324884962464893, 446.747089331059328 ], [ 185.113977513567505, 446.26427723087761 ], [ 183.424135161681193, 407.39790323473909 ] ] ] } },
{ "type": "Feature", "properties": { "feature_type": "building", "subtype": "minor-damage", "uid": "80b4e852-9e32-440c-818e-7a600e811ede" }, "geometry": { "type": "Polygon", "coordinates": [ [ [ 0.077218210366517, 412.514405500624491 ], [ 6.232094699901737, 412.950242377330312 ], [ 4.542252352764788, 430.090071899286386 ], [ 25.785984723771119, 430.57288400046798 ], [ 24.096142375134392, 455.437707115333012 ], [ 0.077226844840785, 454.419643274853684 ], [ 0.077218210366517, 412.514405500624491 ] ] ] } },
{ "type": "Feature", "properties": { "feature_type": "building", "subtype": "no-damage", "uid": "ee3e02ad-94da-4560-a6f8-bb8a33ee19c1" }, "geometry": { "type": "Polygon", "coordinates": [ [ [ 42.201596100707917, 412.708836326739515 ], [ 55.720334883052743, 412.467430274149024 ], [ 55.720334883802629, 415.364302870240124 ], [ 65.376576869941971, 415.364302870240124 ], [ 65.376576870941818, 420.192423867057983 ], [ 74.79141280774013, 420.675235963240311 ], [ 75.757037005354221, 446.747089329059577 ], [ 67.790637366351831, 446.988495379650374 ], [ 67.549231317760686, 460.024422061560074 ], [ 55.478928832711858, 460.507234160741973 ], [ 55.720334884802483, 446.988495381650125 ], [ 42.925814251980533, 446.505683281468407 ], [ 42.201596100707917, 412.708836326739515 ] ] ] } },
{ "type": "Feature", "properties": { "feature_type": "building", "subtype": "minor-damage", "uid": "c3f8211f-7f9e-4366-a3c3-e3848f8195cc" }, "geometry": { "type": "Polygon", "coordinates": [ [ [ 93.138272583654555, 418.261175465331291 ], [ 103.760138768407799, 418.261175465331291 ], [ 104.001544818498701, 406.91509113355761 ], [ 118.244501748866696, 407.397903231739576 ], [ 118.968719899139401, 421.640860163603691 ], [ 132.970270781166107, 421.64086016160411 ], [ 133.45308288334769, 437.090847341422773 ], [ 121.382780395549304, 436.608035243240806 ], [ 121.865592497230907, 449.402555877559394 ], [ 112.2093505095918, 449.643961926150382 ], [ 111.967944457751102, 437.573659441604491 ], [ 92.896866534563486, 437.332253394013321 ], [ 93.138272583654555, 418.261175465331291 ] ] ] } },
{ "type": "Feature", "properties": { "feature_type": "building", "subtype": "minor-damage", "uid": "d25efbc9-9b36-43f5-b684-0bdc4cf85208" }, "geometry": { "type": "Polygon", "coordinates": [ [ [ 141.902294617782587, 416.571333118194673 ], [ 169.905396382585991, 417.054145218376391 ], [ 169.181178233063093, 439.022095739150075 ], [ 140.936670420168497, 439.022095739150075 ], [ 141.902294617782587, 416.571333118194673 ] ] ] } },
{ "type": "Feature", "properties": { "feature_type": "building", "subtype": "no-damage", "uid": "0d6b87ce-77a0-484b-940e-0f8da1dc501d" }, "geometry": { "type": "Polygon", "coordinates": [ [ [ 0.077227275777115, 457.327794591529425 ], [ 13.23287014129005, 457.127549464469212 ], [ 13.23287014029019, 471.12910034474271 ], [ 0.077229055264198, 471.319316260604921 ], [ 0.077227275777115, 457.327794591529425 ] ] ] } },
{ "type": "Feature", "properties": { "feature_type": "building", "subtype": "no-damage", "uid": "fd63cbb0-c418-41eb-bcc7-a8e285ad7fdb" }, "geometry": { "type": "Polygon", "coordinates": [ [ [ 0.077231080215014, 498.477430678860003 ], [ 18.060991134609679, 498.166577909925593 ], [ 19.509427431655709, 517.720467932790257 ], [ 15.64693063869975, 518.203280034971613 ], [ 15.646930636200119, 522.548588929608172 ], [ 22.647706078088358, 522.548588927608421 ], [ 23.613330280451741, 550.068878589973451 ], [ 0.077229734413855, 550.068878629967571 ], [ 0.077231080215014, 498.477430678860003 ] ] ] } },
{ "type": "Feature", "properties": { "feature_type": "building", "subtype": "minor-damage", "uid": "4cafb9a4-2878-4401-af07-eba6822cbcbe" }, "geometry": { "type": "Polygon", "coordinates": [ [ [ 37.614881158479058, 515.065001388289829 ], [ 45.581280796981517, 515.065001387289954 ], [ 45.822686845822631, 509.029850145516889 ], [ 66.342201072555312, 509.029850145516889 ], [ 66.100795023464244, 513.375159040153449 ], [ 72.860164411762085, 513.375159040153449 ], [ 73.342976509444284, 540.171230554745534 ], [ 54.271898585256821, 540.895448702518479 ], [ 53.547680435234028, 552.000126984701183 ], [ 36.649256959615172, 552.482939086882652 ], [ 37.614881158479058, 515.065001388289829 ] ] ] } },
{ "type": "Feature", "properties": { "feature_type": "building", "subtype": "minor-damage", "uid": "77105bda-a3d8-49fe-ac87-f23308fd63c6" }, "geometry": { "type": "Polygon", "coordinates": [ [ [ 86.137497141766318, 521.824370776835963 ], [ 93.138272584154478, 522.065776827426703 ], [ 93.138272582404738, 514.823595337699089 ], [ 108.346853711886496, 514.582189289107987 ], [ 108.588259762477307, 521.582964729244736 ], [ 123.072622743686097, 520.858746580471916 ], [ 123.796840895458601, 550.551690691155045 ], [ 104.725762968771505, 549.586066489791733 ], [ 104.725762968521494, 557.069654029110325 ], [ 86.861715292039065, 556.345435883337132 ], [ 86.137497141766318, 521.824370776835963 ] ] ] } },
{ "type": "Feature", "properties": { "feature_type": "building", "subtype": "no-damage", "uid": "565bebe1-4d2a-4269-99e7-8a90080edccc" }, "geometry": { "type": "Polygon", "coordinates": [ [ [ 137.798391773235892, 516.754843734426458 ], [ 136.349955475190086, 498.890796058698413 ], [ 161.697590692242812, 498.649390008107616 ], [ 161.697590693492714, 506.857195699198485 ], [ 171.595238728473106, 506.857195699198485 ], [ 171.112426629291093, 524.238431276744677 ], [ 166.76711773815299, 523.997025226153937 ], [ 167.249929833835495, 540.654042652927501 ], [ 154.455409202513408, 540.654042653927377 ], [ 154.455409201513504, 555.138405632382842 ], [ 135.867143375508192, 555.379811684973333 ], [ 134.901519178644008, 516.272031635244616 ], [ 137.798391773235892, 516.754843734426458 ] ] ] } },
{ "type": "Feature", "properties": { "feature_type": "building", "subtype": "no-damage", "uid": "e3e60492-283b-426e-9afd-0023d894471b" }, "geometry": { "type": "Polygon", "coordinates": [ [ [ 204.185055436255197, 484.889245177424982 ], [ 204.185055435755288, 498.890796058698413 ], [ 195.977249748661706, 498.649390008107616 ], [ 196.218655798502596, 510.236880394471484 ], [ 181.010074665021392, 508.7884440969259 ], [ 181.010074665021392, 495.028299264243628 ], [ 179.290000137647212, 494.940000050330013 ], [ 179.155019805553991, 484.889245177424982 ], [ 204.185055436255197, 484.889245177424982 ] ] ] } },
{ "type": "Feature", "properties": { "feature_type": "building", "subtype": "no-damage", "uid": "2e65de88-d51f-45a0-aeb6-3384a696d48a" }, "geometry": { "type": "Polygon", "coordinates": [ [ [ 178.630000135232194, 482.950000051203176 ], [ 178.790000134704087, 494.920000049302416 ], [ 166.284305636721399, 494.304081116470627 ], [ 165.560087487198501, 482.716590732106511 ], [ 178.630000135232194, 482.950000051203176 ] ] ] } },
{ "type": "Feature", "properties": { "feature_type": "building", "subtype": "minor-damage", "uid": "2c2dbc40-93a8-4d10-8f38-ad6c1d8e952c" }, "geometry": { "type": "Polygon", "coordinates": [ [ [ 196.7014678941851, 513.375159040153449 ], [ 216.013951872712909, 514.340783238517133 ], [ 216.013951871463092, 552.965751188064246 ], [ 204.42646148434639, 551.758720939109708 ], [ 204.185055438254892, 539.688418452564065 ], [ 187.528038010727187, 539.44701240697259 ], [ 186.562413810113611, 533.411861161200136 ], [ 192.356158999797486, 532.687643015426943 ], [ 192.356159004296813, 524.721243374926644 ], [ 182.941323062999203, 524.479837327335417 ], [ 183.182729111840302, 516.51343768583547 ], [ 197.184279993117087, 517.237655836607928 ], [ 196.7014678941851, 513.375159040153449 ] ] ] } },
{ "type": "Feature", "properties": { "feature_type": "building", "subtype": "minor-damage", "uid": "399b5c5d-69f4-451a-94f2-9f05810d07b3" }, "geometry": { "type": "Polygon", "coordinates": [ [ [ 0.077213932748529, 630.943165699202154 ], [ 5.025064450197032, 631.181311283522291 ], [ 5.266470501537766, 643.251613764068793 ], [ 15.405524588108911, 643.251613766068431 ], [ 15.405524588358871, 645.182862165795541 ], [ 26.027390773112149, 645.182862162795914 ], [ 25.544578674430081, 667.150812684569473 ], [ 0.077202095747429, 665.466077493857711 ], [ 0.077213932748529, 630.943165699202154 ] ] ] } },
{ "type": "Feature", "properties": { "feature_type": "building", "subtype": "minor-damage", "uid": "58239000-cd9a-4549-b448-4247f1990036" }, "geometry": { "type": "Polygon", "coordinates": [ [ [ 41.718784001275971, 629.491468934386035 ], [ 59.341425628917342, 629.491468934386035 ], [ 59.582831678008397, 635.285214125568245 ], [ 71.653134165556864, 636.009432274341066 ], [ 71.170322063125354, 665.943782433615297 ], [ 41.718784001775902, 664.978158235251499 ], [ 41.718784001275971, 629.491468934386035 ] ] ] } },
{ "type": "Feature", "properties": { "feature_type": "building", "subtype": "minor-damage", "uid": "71fc983d-6576-4770-9b81-aebedb3fd7f6" }, "geometry": { "type": "Polygon", "coordinates": [ [ [ 86.378903193357004, 629.008656834204317 ], [ 112.692162608523802, 628.525844734022598 ], [ 112.450756560182597, 634.802402025386527 ], [ 125.728089292936403, 634.802402025386527 ], [ 125.969495340027805, 649.045358960250269 ], [ 118.003095700775404, 649.045358959250393 ], [ 117.761689653184106, 655.080510201023458 ], [ 113.416380760046394, 654.839104149432842 ], [ 113.174974705456094, 663.288315888114994 ], [ 87.585933440812042, 663.288315888114994 ], [ 86.378903193357004, 629.008656834204317 ] ] ] } },
{ "type": "Feature", "properties": { "feature_type": "building", "subtype": "minor-damage", "uid": "28ab096b-948c-417c-8a93-78495e609d8d" }, "geometry": { "type": "Polygon", "coordinates": [ [ [ 130.314804236665111, 638.906304871431985 ], [ 134.418707080961809, 638.906304871431985 ], [ 134.177301027871295, 627.801626586249654 ], [ 147.937445861306912, 627.801626585249778 ], [ 147.937445860057096, 662.564097740342049 ], [ 135.625737327416914, 663.046909837524254 ], [ 135.625737326667092, 647.11411056252291 ], [ 129.83199213623331, 646.87270451193217 ], [ 130.314804236665111, 638.906304871431985 ] ] ] } },
{ "type": "Feature", "properties": { "feature_type": "building", "subtype": "minor-damage", "uid": "f065baac-4266-4764-a842-f4edf26d3f0e" }, "geometry": { "type": "Polygon", "coordinates": [ [ [ 185.355383559159094, 626.594596339294867 ], [ 200.322558641299509, 626.594596340294743 ], [ 200.563964690640603, 642.768801667886464 ], [ 215.531139769531507, 643.010207715477691 ], [ 215.772545819872391, 650.735201305387136 ], [ 209.254582476916113, 649.28676500684162 ], [ 209.254582478665895, 667.875030831342542 ], [ 185.596789610249914, 667.633624783751316 ], [ 185.355383559159094, 626.594596339294867 ] ] ] } },
{ "type": "Feature", "properties": { "feature_type": "building", "subtype": "no-damage", "uid": "a9d5b118-58a9-475d-a6bf-741e9786f072" }, "geometry": { "type": "Polygon", "coordinates": [ [ [ 0.07716267107237, 745.93885857204566 ], [ 4.783658400856003, 746.331996980390954 ], [ 5.025064452196736, 735.227318691209234 ], [ 24.820360524907219, 735.951536841981806 ], [ 24.82036052715689, 773.128068491983527 ], [ 0.077145910798678, 772.669513322873854 ], [ 0.07716267107237, 745.93885857204566 ] ] ] } },
{ "type": "Feature", "properties": { "feature_type": "building", "subtype": "no-damage", "uid": "3470a4c1-0cf2-439e-a83e-2ac013b777b5" }, "geometry": { "type": "Polygon", "coordinates": [ [ [ 35.200820660819389, 748.746057474300642 ], [ 49.443777595436671, 749.953087721255429 ], [ 50.167995744209648, 742.228094135345373 ], [ 76.722661205717884, 742.469500180936961 ], [ 76.239849107285792, 773.128068490983651 ], [ 50.409401790551122, 772.403850344210582 ], [ 51.133619940073991, 769.989789843301992 ], [ 35.925038810342258, 769.024165646937945 ], [ 35.200820660819389, 748.746057474300642 ] ] ] } },
{ "type": "Feature", "properties": { "feature_type": "building", "subtype": "no-damage", "uid": "d92381d6-951e-482e-8de9-57015e107b68" }, "geometry": { "type": "Polygon", "coordinates": [ [ [ 89.034369738358009, 768.541353547756103 ], [ 88.310151589335064, 738.124191291299667 ], [ 110.278102109364298, 737.399973138527457 ], [ 110.760914208796294, 770.714007996074201 ], [ 89.034369738358009, 768.541353547756103 ] ] ] } },
{ "type": "Feature", "properties": { "feature_type": "building", "subtype": "no-damage", "uid": "1df2d52b-68bb-4a0f-94e1-813c0a0412f0" }, "geometry": { "type": "Polygon", "coordinates": [ [ [ 138.764015971599889, 727.260919053708676 ], [ 146.006197462579195, 727.50232510329954 ], [ 145.764791412988188, 724.364046458617395 ], [ 159.766342293015299, 724.364046457617633 ], [ 159.766342295264906, 726.295294857344629 ], [ 168.939772181472392, 727.019513005117574 ], [ 168.939772182472211, 743.435124382300273 ], [ 157.110875747014404, 743.435124381300398 ], [ 156.628063648332386, 770.231195896892245 ], [ 138.522609926508295, 769.748383795710765 ], [ 139.729640170213912, 740.296845736618252 ], [ 133.211676829757295, 740.538251784209479 ], [ 132.970270780416314, 727.985137201481621 ], [ 138.764015971599889, 727.260919053708676 ] ] ] } },
{ "type": "Feature", "properties": { "feature_type": "building", "subtype": "no-damage", "uid": "70217b45-e717-41c7-b2f1-301af0291523" }, "geometry": { "type": "Polygon", "coordinates": [ [ [ 205.874897783392214, 702.87890803402604 ], [ 217.2209821161685, 703.361720134207758 ], [ 218.428012369372709, 724.605452505208859 ], [ 205.633491731801513, 724.364046457617633 ], [ 205.874897783392214, 702.87890803402604 ] ] ] } },
{ "type": "Feature", "properties": { "feature_type": "building", "subtype": "no-damage", "uid": "32308a36-9d35-44f5-a6e3-684b840f670c" }, "geometry": { "type": "Polygon", "coordinates": [ [ [ 183.906947262863014, 728.226543252072361 ], [ 207.564740131028998, 728.709355352254079 ], [ 207.564740129529213, 732.813258196299785 ], [ 218.669418414214391, 733.537476345072605 ], [ 218.428012369622593, 754.539802665482853 ], [ 210.220206677029893, 754.781208718073344 ], [ 210.703018776961699, 758.643705508528683 ], [ 201.770994940345304, 757.436675263573647 ], [ 201.77099493884549, 750.918711919619113 ], [ 184.389759361045094, 750.677305871028011 ], [ 183.906947262863014, 728.226543252072361 ] ] ] } },
{ "type": "Feature", "properties": { "feature_type": "building", "subtype": "no-damage", "uid": "00c25d61-4759-49e4-9634-a558b0366e53" }, "geometry": { "type": "Polygon", "coordinates": [ [ [ 0.077089352155139, 847.422258809388495 ], [ 6.980241036318178, 846.435746970144692 ], [ 7.744339499330041, 853.999095132941761 ], [ 26.815417421767769, 853.991119070394006 ], [ 26.550083183533459, 879.113300360945459 ], [ 0.077061741484577, 878.383231389623575 ], [ 0.077089352155139, 847.422258809388495 ] ] ] } },
{ "type": "Feature", "properties": { "feature_type": "building", "subtype": "no-damage", "uid": "aff884be-dc01-4828-a6e7-4a1bf9ce7533" }, "geometry": { "type": "Polygon", "coordinates": [ [ [ 42.201596105707182, 845.067071296077643 ], [ 56.685959083166452, 844.584259194896049 ], [ 56.203146982734651, 856.171749579260222 ], [ 60.065643777940281, 856.171749580260098 ], [ 59.824237727099472, 852.067846736214392 ], [ 72.860164410512269, 853.033470934578077 ], [ 71.170322063375309, 879.105324300397342 ], [ 70.687509964443294, 882.002196896488385 ], [ 40.753159802412078, 881.760790845897645 ], [ 39.546129558956437, 860.999870570078997 ], [ 42.201596105707182, 845.067071296077643 ] ] ] } },
{ "type": "Feature", "properties": { "feature_type": "building", "subtype": "no-damage", "uid": "a3d9b9e9-ab24-4bdd-837a-fc0a82943bdf" }, "geometry": { "type": "Polygon", "coordinates": [ [ [ 85.17187294490212, 883.933445293215868 ], [ 86.137497141766318, 867.517833914033417 ], [ 88.310151589834987, 867.759239964624271 ], [ 88.068745540493964, 860.999870570078997 ], [ 87.344527390971095, 859.551434276532859 ], [ 87.58593344131198, 843.618634997532126 ], [ 109.071071861659306, 845.791289443850587 ], [ 108.588259762977302, 864.379555267351634 ], [ 117.037471503161399, 864.620961317942374 ], [ 115.589035205615403, 887.071723937898014 ], [ 85.17187294490212, 883.933445293215868 ] ] ] } },
{ "type": "Feature", "properties": { "feature_type": "building", "subtype": "minor-damage", "uid": "c40ff8c0-2fe4-4bdb-934c-3785e0241603" }, "geometry": { "type": "Polygon", "coordinates": [ [ [ 141.17807646825969, 841.204574500622925 ], [ 151.317130555080809, 840.963168450032185 ], [ 151.799942657012394, 850.860816487259854 ], [ 168.215554033699306, 850.860816490259367 ], [ 168.93977218322209, 883.933445292215993 ], [ 141.660888567441702, 884.416257393397586 ], [ 141.17807646825969, 841.204574500622925 ] ] ] } },
{ "type": "Feature", "properties": { "feature_type": "building", "subtype": "minor-damage", "uid": "96db60e5-1caa-4116-9756-7693d13db64a" }, "geometry": { "type": "Polygon", "coordinates": [ [ [ 185.113977509068206, 852.309252783805618 ], [ 184.872571460977014, 841.445980548214152 ], [ 200.563964689890696, 841.445980550213903 ], [ 200.563964689390787, 851.585034638032312 ], [ 208.530364329142998, 851.343628584441944 ], [ 208.288958280051986, 872.587360956442922 ], [ 200.322558643299203, 872.587360956442922 ], [ 200.322558638799904, 875.725639604124581 ], [ 184.631165412885707, 875.967045654715321 ], [ 185.113977509068206, 852.309252783805618 ] ] ] } },
{ "type": "Feature", "properties": { "feature_type": "building", "subtype": "no-damage", "uid": "89d42264-fcb6-4e14-a7c7-41a461c792a8" }, "geometry": { "type": "Polygon", "coordinates": [ [ [ 0.076992456221379, 946.418684617754479 ], [ 3.576628155650632, 944.043551663354833 ], [ 11.06021569322137, 953.699793646992134 ], [ 17.819585087018389, 962.63181748685588 ], [ 22.406300029247259, 962.149005388673913 ], [ 34.959414612978136, 978.323210717265511 ], [ 22.88911212892917, 987.979452704902201 ], [ 20.475051630519609, 984.841174057220542 ], [ 11.060215692971409, 992.566167647129987 ], [ 16.371148785972949, 999.808349139857228 ], [ 7.43912494860659, 1006.084906430221054 ], [ 0.076929871218226, 999.751567560256831 ], [ 0.076992456221379, 946.418684617754479 ] ] ] } },
{ "type": "Feature", "properties": { "feature_type": "building", "subtype": "no-damage", "uid": "c1c2f95d-f6ba-46a9-b638-43f7fa8bcee2" }, "geometry": { "type": "Polygon", "coordinates": [ [ [ 46.064092899163057, 916.281855948399311 ], [ 68.997667619556012, 916.523261997990289 ], [ 68.514855519124211, 947.664642407218821 ], [ 72.860164410512269, 947.664642407218821 ], [ 71.653134161807415, 973.25368367485612 ], [ 56.685959083916337, 972.77087157267465 ], [ 57.168771184348152, 965.770096134537653 ], [ 43.891438448094831, 965.528690082946923 ], [ 43.891438448594762, 920.868570894626487 ], [ 45.822686848822187, 920.144352744853791 ], [ 46.064092899163057, 916.281855948399311 ] ] ] } },
{ "type": "Feature", "properties": { "feature_type": "building", "subtype": "no-damage", "uid": "56d37517-1105-4aee-8364-52528b2db924" }, "geometry": { "type": "Polygon", "coordinates": [ [ [ 87.10312134237995, 950.320108953719 ], [ 97.966393578723924, 950.320108954718762 ], [ 98.207799626315207, 943.319333511582499 ], [ 115.106223105183602, 943.319333512582375 ], [ 115.347629153274795, 950.561515002309989 ], [ 123.555434841868205, 950.802921051900967 ], [ 124.279652991641001, 988.462264803084281 ], [ 110.278102113863696, 988.220858754493179 ], [ 110.036696061773, 973.253683672856369 ], [ 87.103121341130134, 973.253683671856493 ], [ 87.10312134237995, 950.320108953719 ] ] ] } },
{ "type": "Feature", "properties": { "feature_type": "building", "subtype": "no-damage", "uid": "ca9914d3-0856-406a-a165-7b6cb4dc56e7" }, "geometry": { "type": "Polygon", "coordinates": [ [ [ 135.142925226235292, 949.837296856536796 ], [ 144.799167216374002, 950.802921051900967 ], [ 144.316355114942411, 942.112303263627837 ], [ 161.69759069249281, 941.870897214036859 ], [ 161.938996742333813, 947.906048454810048 ], [ 168.698366133631112, 948.388860556991517 ], [ 171.595238727723199, 983.875549861856371 ], [ 158.317905997218986, 984.358361959038575 ], [ 157.352281797355289, 971.322435276128886 ], [ 133.453082882597812, 970.839623177946919 ], [ 133.211676828507393, 950.320108953719 ], [ 135.142925226235292, 949.837296856536796 ] ] ] } },
{ "type": "Feature", "properties": { "feature_type": "building", "subtype": "minor-damage", "uid": "1aae71f4-3be7-48bc-b008-a4f7ece46e79" }, "geometry": { "type": "Polygon", "coordinates": [ [ [ 181.975698865385112, 943.802145613763855 ], [ 191.390534804683114, 943.802145613763855 ], [ 190.666316653160493, 941.388085118854406 ], [ 210.461612727370692, 942.353709316218328 ], [ 210.703018775711911, 948.871672656173359 ], [ 220.359260762101201, 949.595890802946428 ], [ 220.359260767100494, 969.632592928992381 ], [ 198.149904193480808, 969.873998976583607 ], [ 198.632716291912914, 982.185707508720725 ], [ 184.148353312203994, 981.70289541153852 ], [ 181.975698865385112, 943.802145613763855 ] ] ] } },
{ "type": "Feature", "properties": { "feature_type": "building", "subtype": "no-damage", "uid": "1569ae54-5f69-40e0-b809-fe9b088852c6" }, "geometry": { "type": "Polygon", "coordinates": [ [ [ 280.469367132005175, 926.834065057136399 ], [ 290.608421218826322, 926.592659008545297 ], [ 290.608421221326012, 921.523131964136155 ], [ 312.817777788946501, 921.040319864954313 ], [ 312.817777791696074, 925.627034808181861 ], [ 321.991207678153501, 925.627034808181861 ], [ 322.232613726744717, 955.319978919864866 ], [ 298.816226907669716, 955.078572869274012 ], [ 299.299039007601607, 974.149650791957015 ], [ 282.1592094841414, 974.391056841547879 ], [ 280.469367132005175, 926.834065057136399 ] ] ] } },
{ "type": "Feature", "properties": { "feature_type": "building", "subtype": "no-damage", "uid": "17130443-e593-4eab-b886-7a57f50127f5" }, "geometry": { "type": "Polygon", "coordinates": [ [ [ 342.752127948728116, 934.317652598454742 ], [ 380.652877749011793, 934.317652598454742 ], [ 381.618501948625578, 964.493408804320211 ], [ 360.133363527028393, 964.734814854911065 ], [ 360.616175627960104, 974.632462894138371 ], [ 341.545097701272994, 975.356681039911678 ], [ 340.820879554249814, 958.216851514956033 ], [ 342.993534000568673, 957.975445465365055 ], [ 342.752127948728116, 934.317652598454742 ] ] ] } },
{ "type": "Feature", "properties": { "feature_type": "building", "subtype": "no-damage", "uid": "e47880a8-8306-45d1-89dd-08b917894bd0" }, "geometry": { "type": "Polygon", "coordinates": [ [ [ 329.957607318655675, 865.275522387452042 ], [ 345.407594495478804, 865.51692843704302 ], [ 345.407594495478804, 882.898164016588794 ], [ 329.233389167632993, 882.656757964998178 ], [ 329.957607318655675, 865.275522387452042 ] ] ] } },
{ "type": "Feature", "properties": { "feature_type": "building", "subtype": "no-damage", "uid": "d56ab9e4-da5c-4b75-a785-e8d0c3378da3" }, "geometry": { "type": "Polygon", "coordinates": [ [ [ 307.506844698194584, 804.682603919131111 ], [ 342.730570299340911, 804.36432212782438 ], [ 343.301036965682101, 829.075393762257477 ], [ 335.268540412657103, 830.513051234359523 ], [ 335.027134363066125, 855.377874352224126 ], [ 297.126384561282578, 855.619280402814866 ], [ 296.621632276482615, 835.370337648027544 ], [ 302.295768965906518, 834.881341748493583 ], [ 306.694971982512413, 833.608214583266772 ], [ 306.058408397649089, 825.202118145358668 ], [ 304.851378150694018, 825.44352419394977 ], [ 304.127160001171092, 816.994312454267742 ], [ 305.334190253125485, 817.477124553449585 ], [ 305.092784199785115, 805.648228119494547 ], [ 307.506844698194584, 804.682603919131111 ] ] ] } },
{ "type": "Feature", "properties": { "feature_type": "building", "subtype": "minor-damage", "uid": "3021e4b1-b4e1-473d-b018-3fe8915048af" }, "geometry": { "type": "Polygon", "coordinates": [ [ [ 298.617394701602279, 739.272258668936729 ], [ 321.725051472863697, 739.580360759280097 ], [ 322.033153564207112, 759.298894537258207 ], [ 330.660012091324688, 759.298894537258207 ], [ 330.968114183167984, 770.698671881963719 ], [ 324.806072377548276, 770.390569788620837 ], [ 324.806072375548581, 789.492899387911848 ], [ 301.082211424600075, 789.801001475255703 ], [ 301.082211427099821, 756.834077814511033 ], [ 297.38498634072829, 757.450281999197273 ], [ 298.617394701602279, 739.272258668936729 ] ] ] } },
{ "type": "Feature", "properties": { "feature_type": "building", "subtype": "no-damage", "uid": "07ce4b8b-5d9b-4a6e-a844-95c5bec6c9ff" }, "geometry": { "type": "Polygon", "coordinates": [ [ [ 296.768782160041383, 683.81388242212256 ], [ 296.768782158791623, 672.722207169760168 ], [ 312.790090853402774, 672.414105082416313 ], [ 312.173886674465621, 685.662494964182997 ], [ 314.638703396463484, 685.662494962183246 ], [ 315.254907576400626, 704.456722471130888 ], [ 298.001190524664821, 704.45672246913125 ], [ 297.384986339978525, 692.748843038081759 ], [ 291.53104662670188, 692.440740947738391 ], [ 290.914842447514786, 685.662494962183246 ], [ 296.152577979354476, 685.970597054526365 ], [ 296.768782160041383, 683.81388242212256 ] ] ] } },
{ "type": "Feature", "properties": { "feature_type": "building", "subtype": "minor-damage", "uid": "344ea481-68fa-4777-9677-23410aab3863" }, "geometry": { "type": "Polygon", "coordinates": [ [ [ 310.633376224498022, 615.107116289542432 ], [ 334.049135084103114, 614.799014199199064 ], [ 334.973441354633621, 622.19346436444107 ], [ 344.216504063937975, 622.809668544128044 ], [ 344.524606154531511, 637.598568876611807 ], [ 327.578991188389921, 637.906670968954813 ], [ 328.50329745792061, 647.765937856944106 ], [ 308.784763680937374, 648.38214203663108 ], [ 308.784763682937125, 640.3714876917021 ], [ 300.157905153569686, 641.295793962732205 ], [ 299.233598880789486, 628.971710350995977 ], [ 310.017172045310815, 628.971710353995491 ], [ 310.633376224498022, 615.107116289542432 ] ] ] } },
{ "type": "Feature", "properties": { "feature_type": "building", "subtype": "no-damage", "uid": "e9e215cd-258f-47ee-80b8-191f5b2c673f" }, "geometry": { "type": "Polygon", "coordinates": [ [ [ 322.957459834237625, 541.162614622124352 ], [ 347.297524967872675, 541.47071671246772 ], [ 347.605627058716209, 552.254289871487117 ], [ 335.897747626913883, 552.254289873486869 ], [ 336.513951806350974, 588.30223443566581 ], [ 320.492643114989278, 587.377928164635591 ], [ 320.800745203333122, 575.361946643242732 ], [ 308.784763680437379, 574.745742463555757 ], [ 309.400967859624586, 558.724433769698408 ], [ 322.033153564956876, 558.416331678355164 ], [ 322.957459834237625, 541.162614622124352 ] ] ] } },
{ "type": "Feature", "properties": { "feature_type": "building", "subtype": "no-damage", "uid": "c0089221-77e2-4807-932a-b14bf313b7eb" }, "geometry": { "type": "Polygon", "coordinates": [ [ [ 291.222944533608882, 478.61789029541228 ], [ 335.58964553757022, 478.61789029541228 ], [ 336.82205389569458, 521.135978754802636 ], [ 309.400967863623976, 520.519774572116148 ], [ 309.709069951217884, 495.871607349643398 ], [ 290.298638266077887, 495.25540316995648 ], [ 291.222944533608882, 478.61789029541228 ] ] ] } },
{ "type": "Feature", "properties": { "feature_type": "building", "subtype": "no-damage", "uid": "f4a442b5-4fc8-4df8-ae35-4f34e892a0ce" }, "geometry": { "type": "Polygon", "coordinates": [ [ [ 313.714397126182973, 413.91645133729628 ], [ 336.82205389694451, 414.224553427639705 ], [ 336.513951806100977, 424.700024496315677 ], [ 348.529933325747209, 424.700024496315677 ], [ 348.838035418590323, 437.640312288738812 ], [ 339.903074797629586, 437.33221019939532 ], [ 338.722277421554224, 453.96112124284798 ], [ 313.714397128182725, 453.661620983595981 ], [ 314.638703394963784, 441.029435280516509 ], [ 309.400967860124524, 441.337537372859572 ], [ 309.709069951467825, 428.089147493092696 ], [ 315.871111756837593, 428.089147493092696 ], [ 313.714397126182973, 413.91645133729628 ] ] ] } },
{ "type": "Feature", "properties": { "feature_type": "building", "subtype": "minor-damage", "uid": "f57220e5-96eb-4733-971f-c56f8f3370f6" }, "geometry": { "type": "Polygon", "coordinates": [ [ [ 296.460680070197782, 389.268284113823825 ], [ 295.844475890510807, 388.960182024480218 ], [ 296.152577979604416, 364.620116894350588 ], [ 301.698415604537217, 364.928218982694318 ], [ 300.774109335006472, 347.366399837120014 ], [ 336.205849718507181, 348.598808198493487 ], [ 334.357237172946782, 391.116896656884023 ], [ 296.460680070197782, 389.268284113823825 ] ] ] } },
{ "type": "Feature", "properties": { "feature_type": "building", "subtype": "no-damage", "uid": "afc798d9-b19e-4b76-8cbb-5521eb7055f9" }, "geometry": { "type": "Polygon", "coordinates": [ [ [ 302.00651769538058, 285.745981781438218 ], [ 345.757014512655928, 286.362185963124773 ], [ 346.065116607248683, 298.070065391174694 ], [ 353.151464680149388, 297.761963301831088 ], [ 352.22715840961888, 318.712905443182592 ], [ 347.297524965623097, 317.788599172152374 ], [ 346.989422875029618, 327.647866059141791 ], [ 319.568336840709321, 327.33976396779849 ], [ 320.184541022646101, 303.924005107699315 ], [ 298.925496791695878, 303.615903016356128 ], [ 298.925496791945818, 295.913350763770211 ], [ 298.309292610258979, 285.745981781438218 ], [ 302.00651769538058, 285.745981781438218 ] ] ] } },
{ "type": "Feature", "properties": { "feature_type": "building", "subtype": "no-damage", "uid": "841e437e-bf58-44f0-b4c6-78a016e97a74" }, "geometry": { "type": "Polygon", "coordinates": [ [ [ 297.693088432571585, 219.1959302822616 ], [ 315.871111757087476, 219.195930281261809 ], [ 315.563009665494292, 221.35264491266571 ], [ 337.746360167974899, 221.660747005008801 ], [ 338.362564347661987, 245.692710047794606 ], [ 331.584318360855377, 245.692710047794606 ], [ 331.892420450698921, 258.632997838217875 ], [ 307.552355322313019, 258.324895747874621 ], [ 307.552355319313506, 244.460301686420991 ], [ 304.471334416378625, 245.076505866107908 ], [ 304.779436506222225, 236.757749426836114 ], [ 298.309292612508727, 236.757749428835808 ], [ 297.693088432571585, 219.1959302822616 ] ] ] } },
{ "type": "Feature", "properties": { "feature_type": "building", "subtype": "no-damage", "uid": "36270092-8974-46ce-ab0f-46ec9a648b3a" }, "geometry": { "type": "Polygon", "coordinates": [ [ [ 294.61206752913688, 148.64055160862091 ], [ 313.406295036339372, 148.640551606621187 ], [ 312.790090854152709, 154.494491325145503 ], [ 330.351910002981015, 154.494491325145503 ], [ 330.351910002231079, 151.105368330368293 ], [ 343.292197794907281, 151.7215725140546 ], [ 343.600299885750815, 169.899595840315811 ], [ 343.600299881751312, 172.672514649406992 ], [ 345.448912423562206, 172.672514650406811 ], [ 345.75701451365569, 187.769517075233694 ], [ 340.211176890722697, 187.461414985890087 ], [ 340.827381069659907, 200.401702775313709 ], [ 308.476661590094011, 201.017906957000292 ], [ 309.709069951467825, 183.764189898769814 ], [ 306.936151140126299, 183.456087809426293 ], [ 307.552355318563627, 171.748208378376802 ], [ 306.011844867346213, 167.12667702522549 ], [ 292.455352898732201, 167.742881204912408 ], [ 291.839148714045791, 157.575512226579804 ], [ 291.839148715295721, 147.716245339590387 ], [ 294.61206752913688, 148.64055160862091 ] ] ] } },
{ "type": "Feature", "properties": { "feature_type": "building", "subtype": "no-damage", "uid": "d624c1d0-15b8-480a-8ff4-60ec4f8f1509" }, "geometry": { "type": "Polygon", "coordinates": [ [ [ 295.228271709073908, 97.495604621615129 ], [ 306.01184486784598, 97.80370670895897 ], [ 306.93615113912648, 90.409256545716644 ], [ 322.341255653550718, 90.71735863805975 ], [ 322.649357744144083, 97.495604620615282 ], [ 339.594972709285912, 97.495604620615282 ], [ 339.286870618692376, 110.743994505381494 ], [ 322.957459835487384, 111.052096595724805 ], [ 322.34125565330072, 130.154426192016388 ], [ 314.638703395713719, 130.154426191016512 ], [ 314.638703395963603, 137.856978448601609 ], [ 300.466007246162803, 136.932672177571391 ], [ 300.157905153819627, 130.462528282359813 ], [ 294.303965439293279, 128.613915740299404 ], [ 295.228271709073908, 97.495604621615129 ] ] ] } },
{ "type": "Feature", "properties": { "feature_type": "building", "subtype": "no-damage", "uid": "702957a8-056a-4723-b791-6c75b1c22e6e" }, "geometry": { "type": "Polygon", "coordinates": [ [ [ 433.566110242049319, 76.236560392919827 ], [ 489.640690677312989, 77.160866664949879 ], [ 489.332588582970175, 98.419910893645181 ], [ 465.608727632521607, 98.419910893645181 ], [ 465.300625545427579, 112.284504957098406 ], [ 473.927484073045321, 112.284504957098406 ], [ 473.61938198320172, 124.916690657178407 ], [ 434.798518605422885, 123.684282297804501 ], [ 433.566110242049319, 76.236560392919827 ] ] ] } },
{ "type": "Feature", "properties": { "feature_type": "building", "subtype": "minor-damage", "uid": "87290758-5760-4684-a75c-295eb08c726c" }, "geometry": { "type": "Polygon", "coordinates": [ [ [ 438.187641597701372, 134.775957547167394 ], [ 484.094853052380302, 134.775957548167213 ], [ 484.711057230067695, 146.483836976217106 ], [ 489.024486496376085, 146.791939067560406 ], [ 488.40828231543918, 180.683168997335514 ], [ 467.45734017258269, 180.683168996335695 ], [ 467.149238083989019, 179.142658546618293 ], [ 439.11194786848182, 179.142658546618293 ], [ 438.187641597701372, 134.775957547167394 ] ] ] } },
{ "type": "Feature", "properties": { "feature_type": "building", "subtype": "no-damage", "uid": "32f2e1f9-c3c1-44d4-a200-5cddd81364cb" }, "geometry": { "type": "Polygon", "coordinates": [ [ [ 440.344356230855624, 191.774844248698003 ], [ 488.408282316938994, 190.850537976667994 ], [ 488.408282314189421, 233.368626433058807 ], [ 453.388788447837612, 231.333857289378102 ], [ 452.809815588274603, 215.881269933731687 ], [ 440.03625413851239, 214.266296838766891 ], [ 440.344356230855624, 191.774844248698003 ] ] ] } },
{ "type": "Feature", "properties": { "feature_type": "building", "subtype": "no-damage", "uid": "7dc51226-ee4b-48b9-ae47-e8ec57184614" }, "geometry": { "type": "Polygon", "coordinates": [ [ [ 444.965887586007682, 241.071178692643599 ], [ 489.024486493626512, 240.763076602300202 ], [ 489.332588587719385, 251.546649762319504 ], [ 476.392300791543676, 252.162853942006393 ], [ 477.316607064073878, 287.286492234154991 ], [ 444.657785492914684, 288.210798506184972 ], [ 444.965887586007682, 241.071178692643599 ] ] ] } },
{ "type": "Feature", "properties": { "feature_type": "building", "subtype": "no-damage", "uid": "0935f661-91e5-4a66-91e1-be36da71978e" }, "geometry": { "type": "Polygon", "coordinates": [ [ [ 396.285757318987521, 266.951754275489975 ], [ 414.155678556159387, 266.643652184146788 ], [ 414.15567855565962, 286.978390141811872 ], [ 396.285757319237405, 287.286492235154924 ], [ 396.285757318987521, 266.951754275489975 ] ] ] } },
{ "type": "Feature", "properties": { "feature_type": "building", "subtype": "no-damage", "uid": "d5b4fcf6-0154-4bf6-a339-90460985fbec" }, "geometry": { "type": "Polygon", "coordinates": [ [ [ 437.879539507107893, 299.610575841891773 ], [ 470.846463166111107, 297.761963300831326 ], [ 470.538361079767014, 301.767290477295205 ], [ 483.478648871693281, 301.767290477295205 ], [ 485.327261413504175, 335.966622497413709 ], [ 455.441358652436691, 337.199030857787477 ], [ 456.057562832873714, 319.329109622869623 ], [ 437.263335326420986, 318.712905443182592 ], [ 437.879539507107893, 299.610575841891773 ] ] ] } },
{ "type": "Feature", "properties": { "feature_type": "building", "subtype": "minor-damage", "uid": "d73ab5e1-ed99-4914-a579-676997abd920" }, "geometry": { "type": "Polygon", "coordinates": [ [ [ 440.652458318699473, 350.755522831897224 ], [ 476.700402882137212, 349.523114468523886 ], [ 477.008504971730815, 355.685156275391876 ], [ 478.857117517540985, 373.555077509310024 ], [ 489.024486496376085, 373.555077509310024 ], [ 489.640690678062924, 390.500692475197411 ], [ 480.705730055102492, 389.884488296510312 ], [ 480.397627966008884, 394.506019646662025 ], [ 443.733479221884181, 395.122223831348208 ], [ 440.652458318699473, 350.755522831897224 ] ] ] } },
{ "type": "Feature", "properties": { "feature_type": "building", "subtype": "no-damage", "uid": "98817ecd-bcdc-49c9-8142-07d7c6156e59" }, "geometry": { "type": "Polygon", "coordinates": [ [ [ 400.599186582796278, 347.674501928463201 ], [ 416.620495277157488, 347.674501930462895 ], [ 416.620495277907423, 363.695810622320607 ], [ 399.366778221672291, 363.695810622320607 ], [ 400.599186582796278, 347.674501928463201 ] ] ] } },
{ "type": "Feature", "properties": { "feature_type": "building", "subtype": "no-damage", "uid": "31ab5873-ce85-419f-b80c-64ed64b7f661" }, "geometry": { "type": "Polygon", "coordinates": [ [ [ 426.03956626098352, 401.979697458129181 ], [ 488.090245899128604, 401.615763852814723 ], [ 488.272212699786223, 422.359979333743581 ], [ 465.435378995042413, 423.997680554659212 ], [ 455.882121862533722, 423.815713752002011 ], [ 455.700155062625981, 446.379597255503825 ], [ 427.040383675598605, 446.743530861818215 ], [ 426.676450071283909, 435.006672106423707 ], [ 415.940408724752388, 435.18863890608128 ], [ 415.84942532542351, 424.998497968274194 ], [ 425.129732250946574, 424.816531164617118 ], [ 424.856782045460875, 401.979697459129113 ], [ 426.03956626098352, 401.979697458129181 ] ] ] } },
{ "type": "Feature", "properties": { "feature_type": "building", "subtype": "no-damage", "uid": "f74fb78f-b411-457c-8f16-dcfff4f84858" }, "geometry": { "type": "Polygon", "coordinates": [ [ [ 446.69279833808929, 456.387771390653825 ], [ 479.082889174091918, 456.660721593639778 ], [ 479.082889175091793, 486.412293794103903 ], [ 484.268943044325511, 486.503277197432226 ], [ 484.268943046075208, 500.33275418338502 ], [ 442.780512087456714, 499.968820579070382 ], [ 443.235429091600224, 456.296787990325015 ], [ 446.69279833808929, 456.387771390653825 ] ] ] } },
{ "type": "Feature", "properties": { "feature_type": "building", "subtype": "no-damage", "uid": "6c603d93-89d3-42a4-a7be-6e4263915002" }, "geometry": { "type": "Polygon", "coordinates": [ [ [ 474.533719113158895, 512.979446955065328 ], [ 475.898470131338911, 512.888463550737129 ], [ 475.625519931102417, 533.632679029666292 ], [ 491.365648339460904, 533.814645835323063 ], [ 491.54761514436791, 555.104761719224371 ], [ 446.601814937010602, 554.649844714581036 ], [ 446.692798340088984, 545.369537791059884 ], [ 441.688711272762703, 545.27855438773156 ], [ 442.416578482141972, 523.26057129020171 ], [ 437.503474815894492, 523.533521497187166 ], [ 437.867408421709001, 512.251579744436299 ], [ 474.533719113158895, 512.979446955065328 ] ] ] } },
{ "type": "Feature", "properties": { "feature_type": "building", "subtype": "minor-damage", "uid": "e68ae0c1-5b7d-4d6e-8746-6dfca7f2637a" }, "geometry": { "type": "Polygon", "coordinates": [ [ [ 425.2207156525252, 573.210458562623103 ], [ 433.045288156540096, 573.301441965951426 ], [ 433.136271556119027, 568.570305102862221 ], [ 452.333769215216023, 568.843255305848288 ], [ 452.424752616294711, 565.931786464332276 ], [ 474.169785511343775, 566.750637076289877 ], [ 474.62470251873691, 575.576026996167457 ], [ 467.437013819273318, 575.394060193510199 ], [ 467.52799722060189, 607.966117833161888 ], [ 434.228072374562316, 608.421034838805099 ], [ 434.319055773891307, 589.405503984119946 ], [ 425.2207156525252, 589.223537180462813 ], [ 425.2207156525252, 573.210458562623103 ] ] ] } },
{ "type": "Feature", "properties": { "feature_type": "building", "subtype": "minor-damage", "uid": "3ced0103-bef3-4600-8fed-bb55fe9eab3e" }, "geometry": { "type": "Polygon", "coordinates": [ [ [ 444.509196710951073, 618.429208973955042 ], [ 471.804217077799024, 618.793142577269805 ], [ 472.623067692256427, 646.452096551175146 ], [ 489.727947121044508, 646.725046755160974 ], [ 490.364830926845514, 660.64550713944277 ], [ 472.896017891742986, 661.100424148085608 ], [ 472.896017891992926, 667.378278830761815 ], [ 458.429657096736207, 667.287295429433129 ], [ 458.338673694907584, 663.193042376644144 ], [ 438.049375222866502, 663.011075573987 ], [ 435.501839987914082, 635.625071803067726 ], [ 443.053462291442486, 635.807038608724497 ], [ 443.053462289442791, 618.338225574626108 ], [ 444.509196710951073, 618.429208973955042 ] ] ] } },
{ "type": "Feature", "properties": { "feature_type": "building", "subtype": "minor-damage", "uid": "9b8220fd-8502-4988-bc07-5c5707659f34" }, "geometry": { "type": "Polygon", "coordinates": [ [ [ 455.700155063875911, 673.474166712780402 ], [ 476.717320744046503, 673.292199911123021 ], [ 476.990270950032084, 702.224921501629296 ], [ 488.090245896128977, 701.770004493986335 ], [ 489.091063310744119, 717.692099708497722 ], [ 444.236246507215128, 717.419149504511893 ], [ 444.145263105136621, 703.953606121873804 ], [ 446.32886473502441, 703.953606124873431 ], [ 446.237881335945417, 696.674934023582978 ], [ 450.15016758957762, 696.765917426911301 ], [ 450.059184185249421, 683.391357448601525 ], [ 456.064088669190426, 683.30037404727284 ], [ 455.700155063875911, 673.474166712780402 ] ] ] } },
{ "type": "Feature", "properties": { "feature_type": "building", "subtype": "minor-damage", "uid": "e506442b-1299-4e2f-b310-f5d475d633b2" }, "geometry": { "type": "Polygon", "coordinates": [ [ [ 452.879669624437724, 726.335522825718044 ], [ 464.616528380585009, 726.335522825718044 ], [ 464.798495182492275, 724.788805005131167 ], [ 492.00253214851142, 725.152738609445805 ], [ 492.366465756325624, 757.542829446440237 ], [ 485.087793656283225, 757.26987924445416 ], [ 484.814843452297282, 770.280505616449545 ], [ 442.780512087456714, 769.552638408820144 ], [ 442.689528685877974, 752.083825372722117 ], [ 453.60753683231718, 751.99284197039367 ], [ 452.879669624437724, 726.335522825718044 ] ] ] } },
{ "type": "Feature", "properties": { "feature_type": "building", "subtype": "no-damage", "uid": "f088552b-732c-42f9-a5b4-642d615d506d" }, "geometry": { "type": "Polygon", "coordinates": [ [ [ 449.69525057843498, 781.653430769529109 ], [ 474.624702515237516, 782.199331178500756 ], [ 473.805851905029385, 812.496803784936901 ], [ 484.814843453547098, 812.951720791579987 ], [ 484.99681025395472, 821.413177105143291 ], [ 466.52717980698668, 821.04924350282829 ], [ 466.436196406407873, 824.142679142002294 ], [ 447.693615754454072, 823.50579533670134 ], [ 447.966565955690385, 816.500073438396953 ], [ 440.960844062633498, 816.409090037068381 ], [ 441.324777666198315, 799.304210608284507 ], [ 448.785416568148207, 799.486177409941888 ], [ 449.69525057843498, 781.653430769529109 ] ] ] } },
{ "type": "Feature", "properties": { "feature_type": "building", "subtype": "no-damage", "uid": "3f24ae59-a44c-4d39-ae8f-ddaae5dccde8" }, "geometry": { "type": "Polygon", "coordinates": [ [ [ 454.094465342055173, 832.853056003899724 ], [ 483.338055066233096, 832.783758396525172 ], [ 483.753840701982085, 840.475792661129162 ], [ 487.565209031847473, 840.406495053754497 ], [ 487.56520903159759, 841.099471114502535 ], [ 487.56520903434722, 848.514314954607357 ], [ 484.654709579354915, 848.514314954607357 ], [ 484.793304793604193, 877.203523832779183 ], [ 440.327926223866427, 876.909924806628169 ], [ 440.402693361625381, 861.48019261316324 ], [ 455.502295601086985, 861.394486405136604 ], [ 454.926036617552711, 846.573981987112688 ], [ 450.698882648938593, 846.643279593487364 ], [ 450.698882652188104, 835.971448273766214 ], [ 453.678679706306184, 836.110043482516289 ], [ 454.094465342055173, 832.853056003899724 ] ] ] } },
{ "type": "Feature", "properties": { "feature_type": "building", "subtype": "minor-damage", "uid": "59bf59ce-c828-4928-8de8-6ff2a8b37e7f" }, "geometry": { "type": "Polygon", "coordinates": [ [ [ 451.702220050979122, 889.713320658645557 ], [ 478.354198031697479, 890.145514895546398 ], [ 478.066068539930313, 911.323032530682895 ], [ 491.752219397623207, 911.755226769583373 ], [ 491.752219393873816, 927.602348811277125 ], [ 437.151680721234015, 927.026089829742546 ], [ 437.727939706518214, 911.467097280315897 ], [ 451.558155305595392, 911.467097281315773 ], [ 451.702220050979122, 889.713320658645557 ] ] ] } },
{ "type": "Feature", "properties": { "feature_type": "building", "subtype": "minor-damage", "uid": "2bb23b71-e36e-4dc7-9c8a-dafa36e09849" }, "geometry": { "type": "Polygon", "coordinates": [ [ [ 452.422543778897307, 942.008823394634987 ], [ 487.718406509382703, 941.144434920833305 ], [ 488.294665493667026, 959.440657644297403 ], [ 480.227039726434725, 959.728787133564992 ], [ 481.235492948619822, 983.643534942738938 ], [ 449.829378357991573, 984.36385867390652 ], [ 449.109054626823877, 949.06799594268 ], [ 452.422543779897183, 949.356125432947351 ], [ 452.422543778897307, 942.008823394634987 ] ] ] } },
{ "type": "Feature", "properties": { "feature_type": "building", "subtype": "major-damage", "uid": "f95dcdc1-1097-4a73-a3ef-d0947bffd57c" }, "geometry": { "type": "Polygon", "coordinates": [ [ [ 574.004438685303739, 1022.982741374540979 ], [ 573.72505977640003, 990.504946643674884 ], [ 604.410850641109619, 990.360881899041146 ], [ 604.410850639109981, 1003.90296800759802 ], [ 610.173440472454558, 1004.191097499865009 ], [ 610.317505219088048, 1016.148471402451946 ], [ 614.92757708661361, 1016.004406656817991 ], [ 615.179043386316607, 1022.982596570935016 ], [ 574.004438685303739, 1022.982741374540979 ] ] ] } },
{ "type": "Feature", "properties": { "feature_type": "building", "subtype": "no-damage", "uid": "5133cdf8-8de4-4b2c-808d-b9efd836f2ba" }, "geometry": { "type": "Polygon", "coordinates": [ [ [ 571.131894351245023, 977.971313756553513 ], [ 569.403117401141685, 978.403507994454117 ], [ 568.970923162740974, 947.717717130502024 ], [ 584.67398046180449, 947.285522890601669 ], [ 584.241786222903784, 937.633184923151362 ], [ 620.834231665841799, 936.768796446350166 ], [ 621.122361160858532, 951.751530012242483 ], [ 627.60527471912178, 951.463400521975132 ], [ 628.325598449039717, 965.869875108332621 ], [ 620.113907939173373, 965.005486631531426 ], [ 610.749699460488273, 969.471493751172488 ], [ 611.470023186156936, 977.395054773019183 ], [ 571.131894351245023, 977.971313756553513 ] ] ] } },
{ "type": "Feature", "properties": { "feature_type": "building", "subtype": "no-damage", "uid": "41ba3438-51bd-437c-81cb-bccba7d48f78" }, "geometry": { "type": "Polygon", "coordinates": [ [ [ 603.258332673540849, 879.431027603185953 ], [ 605.707433352812359, 880.151351332353897 ], [ 606.283692336846684, 908.676171008802271 ], [ 603.690526910191807, 908.964300501069374 ], [ 603.978656402459023, 922.074192371725076 ], [ 572.716606554714872, 922.074192371725076 ], [ 573.292865540248954, 906.3711350736653 ], [ 568.826858418107122, 906.803329313565655 ], [ 568.970923163740736, 880.007286586720284 ], [ 603.258332673540849, 879.431027603185953 ] ] ] } },
{ "type": "Feature", "properties": { "feature_type": "building", "subtype": "no-damage", "uid": "cdc694f2-7eda-45d2-8522-e757e63ceba4" }, "geometry": { "type": "Polygon", "coordinates": [ [ [ 569.403117401141685, 829.872755035235059 ], [ 604.554915385243476, 830.737143512036255 ], [ 603.690526909941923, 873.524373025209115 ], [ 567.818405197671837, 871.939660820239851 ], [ 569.403117401141685, 829.872755035235059 ] ] ] } },
{ "type": "Feature", "properties": { "feature_type": "building", "subtype": "no-damage", "uid": "77862414-a92a-42e6-b59f-3c65f75b534f" }, "geometry": { "type": "Polygon", "coordinates": [ [ [ 565.081175027133099, 781.034806194452244 ], [ 607.436210301915821, 782.475453652788019 ], [ 607.580275049299189, 798.178510949848032 ], [ 604.122721148842516, 797.602251965313826 ], [ 603.97865640395878, 809.127431634999766 ], [ 599.512649281816948, 808.695237395099298 ], [ 599.080455043166239, 823.101711981456788 ], [ 575.30977198311939, 821.805129266754875 ], [ 576.462289946188889, 797.602251966313702 ], [ 565.369304517150567, 797.31412247604635 ], [ 565.081175027133099, 781.034806194452244 ] ] ] } },
{ "type": "Feature", "properties": { "feature_type": "building", "subtype": "no-damage", "uid": "7bc20b38-f6e5-482f-9c77-d4d53284975a" }, "geometry": { "type": "Polygon", "coordinates": [ [ [ 567.818405196921844, 728.163044471929084 ], [ 614.63944759459639, 727.730850233028491 ], [ 614.639447596096147, 743.289842784454891 ], [ 612.622541151226073, 743.001713295187301 ], [ 612.622541151476071, 749.340562111064969 ], [ 615.79196556216516, 749.484626856698583 ], [ 616.080095051932744, 769.509626529765683 ], [ 580.063908595028806, 770.374015001567614 ], [ 574.157254013550983, 763.74703669242308 ], [ 574.157254014300861, 753.806569228706394 ], [ 577.614807915007532, 753.086245502537963 ], [ 577.902937406024762, 744.154231261256086 ], [ 568.826858417357244, 744.154231261256086 ], [ 567.818405196921844, 728.163044471929084 ] ] ] } },
{ "type": "Feature", "properties": { "feature_type": "building", "subtype": "no-damage", "uid": "26b48044-cbad-40d9-bef9-a2e0b29679a1" }, "geometry": { "type": "Polygon", "coordinates": [ [ [ 588.563728597662362, 480.515746376808011 ], [ 634.952576756436201, 480.803875867075419 ], [ 634.376317775901271, 495.354415200066285 ], [ 614.49538284746302, 494.634091468898703 ], [ 614.207253357445552, 488.871501635555489 ], [ 601.097361486536556, 489.015566381189217 ], [ 600.809231992769696, 482.820782308945525 ], [ 588.275599105145147, 483.397041295479312 ], [ 588.563728597662362, 480.515746376808011 ] ] ] } },
{ "type": "Feature", "properties": { "feature_type": "building", "subtype": "minor-damage", "uid": "b4482a5f-ab90-4c36-84d6-048b4dcae869" }, "geometry": { "type": "Polygon", "coordinates": [ [ [ 591.300958769700856, 435.423480931497693 ], [ 615.359771324014446, 435.711610420765282 ], [ 615.071641832997102, 443.923300934879023 ], [ 627.605274720871535, 443.779236187245715 ], [ 627.461209974987923, 475.041286034732082 ], [ 566.809951976236562, 474.320962307563889 ], [ 567.098081467003908, 455.880674837466302 ], [ 590.724699784416657, 456.024739584099791 ], [ 591.300958769700856, 435.423480931497693 ] ] ] } },
{ "type": "Feature", "properties": { "feature_type": "building", "subtype": "no-damage", "uid": "8441a4a3-c17e-474d-af14-87eb37eaf249" }, "geometry": { "type": "Polygon", "coordinates": [ [ [ 567.818405200421353, 383.41610768077652 ], [ 588.419663851528753, 383.272042936142725 ], [ 588.275599105895139, 390.043085990920872 ], [ 619.969843192039889, 389.178697516119428 ], [ 620.257972685806863, 426.347401940582813 ], [ 576.318225200555275, 426.491466689215883 ], [ 576.606354694072252, 399.551359214737317 ], [ 568.106534689688942, 399.695423961370693 ], [ 567.818405200421353, 383.41610768077652 ] ] ] } },
{ "type": "Feature", "properties": { "feature_type": "building", "subtype": "no-damage", "uid": "306f535d-b8f7-4414-bda1-ba07d4d0712c" }, "geometry": { "type": "Polygon", "coordinates": [ [ [ 568.97092316699036, 334.29002934972641 ], [ 604.410850638609986, 334.434094098359481 ], [ 604.410850638859984, 355.755676480129523 ], [ 611.902217424057653, 355.611611732496101 ], [ 611.90221742705728, 377.365388356166079 ], [ 566.665887229353075, 377.221323608532828 ], [ 566.665887232102705, 356.331935465663378 ], [ 575.165707237235779, 356.331935463663683 ], [ 575.1657072364859, 351.865928342022926 ], [ 573.148800792365705, 352.586252073190508 ], [ 573.580995030516419, 348.264309697183307 ], [ 568.394664181206167, 347.688050714648909 ], [ 568.97092316699036, 334.29002934972641 ] ] ] } },
{ "type": "Feature", "properties": { "feature_type": "building", "subtype": "no-damage", "uid": "0072d7b2-7b40-487b-8d0b-f122fa392906" }, "geometry": { "type": "Polygon", "coordinates": [ [ [ 569.69124689265891, 282.858915088538481 ], [ 616.656354035717072, 282.858915088538481 ], [ 616.512289290833337, 303.46017374014059 ], [ 601.385490978053895, 303.892367980041115 ], [ 601.673620470071, 322.476720192772689 ], [ 568.970923163490852, 322.332655446139199 ], [ 569.69124689265891, 282.858915088538481 ] ] ] } },
{ "type": "Feature", "properties": { "feature_type": "building", "subtype": "no-damage", "uid": "74f21cd8-ef93-4eb2-9890-e71d0dd9b982" }, "geometry": { "type": "Polygon", "coordinates": [ [ [ 579.343584863860997, 231.571865567984986 ], [ 612.766605899109322, 231.571865567984986 ], [ 613.919123864928451, 258.944167277364784 ], [ 617.376677766135003, 256.062872360693177 ], [ 617.23261302050139, 273.350641860722703 ], [ 564.937110281499372, 272.630318129555121 ], [ 564.504916044098536, 261.537332703768982 ], [ 569.114987908374587, 261.537332701769287 ], [ 569.114987909874344, 253.181577443021808 ], [ 577.038548933722723, 253.037512697388195 ], [ 576.894484187339231, 262.257656433936802 ], [ 583.233333001468623, 262.545785923204278 ], [ 583.809591985003067, 250.012153034083212 ], [ 578.19106689604223, 250.012153036082907 ], [ 578.335131641925841, 243.673304218205601 ], [ 584.385850969037392, 244.24956320173979 ], [ 577.614807913507661, 233.012513026320789 ], [ 579.343584863860997, 231.571865567984986 ] ] ] } },
{ "type": "Feature", "properties": { "feature_type": "building", "subtype": "no-damage", "uid": "2da2fc2f-4277-4293-9858-a0f9ed83d576" }, "geometry": { "type": "Polygon", "coordinates": [ [ [ 586.546822159291196, 185.327082154606302 ], [ 614.783512340480002, 184.174564188537488 ], [ 615.071641834996854, 198.1488445329949 ], [ 621.842684886777079, 197.284456058193399 ], [ 622.707073361828748, 213.419707590154388 ], [ 617.088548275867538, 209.818088944315008 ], [ 617.808872001786085, 225.233016751107499 ], [ 571.852218082412833, 224.080498784039008 ], [ 572.284412318813793, 205.784276064574186 ], [ 585.682433680240138, 206.072405554841595 ], [ 585.250239442589304, 201.606398435200504 ], [ 582.224879782033099, 201.606398435200504 ], [ 582.080815034399734, 185.615211643873806 ], [ 586.546822159291196, 185.327082154606302 ] ] ] } },
{ "type": "Feature", "properties": { "feature_type": "building", "subtype": "no-damage", "uid": "477f2182-4f5e-485a-a9aa-530f6b57fe64" }, "geometry": { "type": "Polygon", "coordinates": [ [ [ 584.673980461304495, 128.853701784243896 ], [ 619.105454716238341, 128.421507547343111 ], [ 620.257972685806863, 172.36125502858431 ], [ 572.28441232031355, 173.225643500386298 ], [ 572.140347572180303, 154.209097050753797 ], [ 585.826498430623019, 154.065032308119811 ], [ 585.538368936856159, 135.480680095388095 ], [ 584.673980461304495, 128.853701784243896 ] ] ] } },
{ "type": "Feature", "properties": { "feature_type": "building", "subtype": "no-damage", "uid": "8a2ede98-563c-435a-ab37-e399f97ccb11" }, "geometry": { "type": "Polygon", "coordinates": [ [ [ 577.902937407274635, 82.897047865131952 ], [ 592.597541480153609, 83.04111260776601 ], [ 592.309411990386138, 86.786795999239089 ], [ 591.877217753485183, 87.507119729406838 ], [ 599.944843518967787, 87.36305498177353 ], [ 599.368584535433342, 94.422227528818709 ], [ 601.673620467821365, 94.134098039551205 ], [ 601.673620468321246, 111.133738045313905 ], [ 596.055095382860031, 111.421867536581104 ], [ 596.199160126493894, 122.514852967366494 ], [ 576.894484184339603, 121.938593986831705 ], [ 576.894484184839598, 114.879421439786498 ], [ 570.987829607611047, 114.879421439786498 ], [ 570.411570621576971, 90.820608883979091 ], [ 577.61480791300778, 90.244349900444803 ], [ 577.470743170623678, 83.473306844666837 ], [ 577.902937407274635, 82.897047865131952 ] ] ] } },
{ "type": "Feature", "properties": { "feature_type": "building", "subtype": "no-damage", "uid": "88e54b1a-8a7f-435c-a057-a577d825915e" }, "geometry": { "type": "Polygon", "coordinates": [ [ [ 757.11948122874071, 79.439493963926239 ], [ 777.864804629231116, 80.30388243872774 ], [ 777.000416158428834, 113.006579744549896 ], [ 772.822538526804351, 113.438773981450694 ], [ 772.822538527304232, 131.158737718380991 ], [ 747.755272748555853, 130.582478734846688 ], [ 748.475596477473914, 106.667730926672604 ], [ 756.975416485356732, 106.955860417939803 ], [ 757.11948122874071, 79.439493963926239 ] ] ] } },
{ "type": "Feature", "properties": { "feature_type": "building", "subtype": "no-damage", "uid": "762d0f42-8b2f-423a-97fd-84fe7de6e8b6" }, "geometry": { "type": "Polygon", "coordinates": [ [ [ 736.518222573883804, 155.361615018822192 ], [ 745.162107324650606, 155.649744511089295 ], [ 745.162107324650606, 139.370428233494607 ], [ 762.593941572817698, 139.658557722762112 ], [ 761.729553095016399, 196.996326568925895 ], [ 744.009589358331596, 196.852261819292892 ], [ 744.297718850348815, 173.945967234553393 ], [ 734.933510369914075, 173.513772995652886 ], [ 736.518222573883804, 155.361615018822192 ] ] ] } },
{ "type": "Feature", "properties": { "feature_type": "building", "subtype": "no-damage", "uid": "da25e4a7-b64b-48a2-bd0c-23d1001e4531" }, "geometry": { "type": "Polygon", "coordinates": [ [ [ 761.009229365848341, 208.233376744345009 ], [ 800.915163965359056, 207.513053013177398 ], [ 801.203293454376649, 225.521146243374602 ], [ 787.229013111915492, 225.665210989008187 ], [ 787.373077856549344, 247.274922863045191 ], [ 762.017682587283502, 245.834275406709111 ], [ 762.305812078050849, 228.834635394947298 ], [ 754.670380551968833, 228.54650590467989 ], [ 754.814445294352936, 207.945247250078211 ], [ 761.009229365848341, 208.233376744345009 ] ] ] } },
{ "type": "Feature", "properties": { "feature_type": "building", "subtype": "no-damage", "uid": "7a7f99fe-7b4c-485f-914c-43b60955a6ff" }, "geometry": { "type": "Polygon", "coordinates": [ [ [ 743.145200885279678, 277.816648982363517 ], [ 794.144120909329445, 277.240389998829187 ], [ 794.288185658462567, 296.25693645046141 ], [ 779.88171107235155, 296.112871703827977 ], [ 780.169840564118658, 322.33265544513938 ], [ 743.289265632163165, 323.485173412207928 ], [ 743.145200885279678, 277.816648982363517 ] ] ] } },
{ "type": "Feature", "properties": { "feature_type": "building", "subtype": "minor-damage", "uid": "7ca3a5f2-0834-4fb8-b058-b8e77fd6e53e" }, "geometry": { "type": "Polygon", "coordinates": [ [ [ 735.941963589349598, 403.873301590744518 ], [ 758.704193432210559, 403.297042607210187 ], [ 759.136387670611271, 425.050819230880222 ], [ 775.415703950709599, 424.474560245346197 ], [ 775.703833441976826, 440.465747032673391 ], [ 735.653834098082257, 440.897941271573984 ], [ 735.941963589349598, 403.873301590744518 ] ] ] } },
{ "type": "Feature", "properties": { "feature_type": "building", "subtype": "no-damage", "uid": "9d88810a-ee2d-4c24-bc55-ff88c2d216fb" }, "geometry": { "type": "Polygon", "coordinates": [ [ [ 784.203653447859892, 591.157471178396463 ], [ 804.660847357832949, 590.293082706594419 ], [ 806.101494814419311, 610.462147123295495 ], [ 814.025055838517687, 610.606211869928984 ], [ 814.457250075418528, 616.512866449905573 ], [ 806.821818545587121, 617.089125431440152 ], [ 807.398077527121814, 635.961607136438829 ], [ 791.839084977441416, 635.961607137438705 ], [ 791.406890741040343, 629.478693574927661 ], [ 772.24627954177015, 629.910887811828502 ], [ 771.381891066968365, 605.852075254021315 ], [ 786.076495143346961, 604.843622035586009 ], [ 784.203653447859892, 591.157471178396463 ] ] ] } },
{ "type": "Feature", "properties": { "feature_type": "building", "subtype": "no-damage", "uid": "f2518901-f426-4293-b4b5-e9094a85236a" }, "geometry": { "type": "Polygon", "coordinates": [ [ [ 715.484769682626052, 643.741103408652521 ], [ 716.493222905561083, 636.249736628705932 ], [ 725.137107654578017, 626.7414634048896 ], [ 737.670740540952693, 635.241283407270998 ], [ 728.018402573250114, 644.461427137820465 ], [ 725.425237143845607, 654.25782985990304 ], [ 715.628834430759298, 650.224016975163067 ], [ 715.484769682626052, 643.741103408652521 ] ] ] } },
{ "type": "Feature", "properties": { "feature_type": "building", "subtype": "no-damage", "uid": "9e80f50a-4039-4235-8cd9-9da19aedc096" }, "geometry": { "type": "Polygon", "coordinates": [ [ [ 708.137467644311755, 666.071139016856705 ], [ 720.527035785302814, 666.503333254757422 ], [ 720.382971039669087, 674.715023770870857 ], [ 733.492862911827842, 675.00315325713882 ], [ 733.20473342281025, 693.011246488335814 ], [ 743.001136137146432, 693.731570217503759 ], [ 742.713006646878966, 709.002433275663179 ], [ 745.738366307685169, 709.146498022296555 ], [ 745.306172070284219, 718.798835994746128 ], [ 705.256172727139642, 717.502253281044091 ], [ 708.137467644311755, 666.071139016856705 ] ] ] } },
{ "type": "Feature", "properties": { "feature_type": "building", "subtype": "no-damage", "uid": "6af7641e-4f15-403f-8c47-65c472836966" }, "geometry": { "type": "Polygon", "coordinates": [ [ [ 637.689806930474447, 736.662864478309871 ], [ 643.164267270302048, 736.518799733676133 ], [ 642.876137781284456, 738.247576681279497 ], [ 656.418223888844295, 737.81538244737817 ], [ 657.570741855413189, 760.433547539850565 ], [ 636.681353708789175, 760.721677032117668 ], [ 636.105094725254844, 736.95099396757746 ], [ 637.689806930474447, 736.662864478309871 ] ] ] } },
{ "type": "Feature", "properties": { "feature_type": "building", "subtype": "minor-damage", "uid": "0f321626-aa06-4d8d-9fb6-dd514c5754d2" }, "geometry": { "type": "Polygon", "coordinates": [ [ [ 716.637287649194946, 781.611065176986699 ], [ 741.704553424943811, 781.322935687719223 ], [ 740.984229696275634, 774.840022125208179 ], [ 764.898977503955848, 774.407827888307338 ], [ 764.898977503455853, 795.297216031176731 ], [ 748.331531732590179, 794.576892304008538 ], [ 749.195920208641724, 823.822035707625105 ], [ 722.399877481289764, 824.686424184426301 ], [ 722.399877483039518, 800.915741120885968 ], [ 715.196640192358586, 801.347935358786685 ], [ 714.908510697841848, 782.331388908154281 ], [ 716.637287649194946, 781.611065176986699 ] ] ] } },
{ "type": "Feature", "properties": { "feature_type": "building", "subtype": "minor-damage", "uid": "7cba3181-30a3-4a2f-8a86-5857667c4763" }, "geometry": { "type": "Polygon", "coordinates": [ [ [ 722.543942226923377, 829.440560798334218 ], [ 754.382251057701978, 829.440560798334218 ], [ 754.526315805585341, 847.736783519798678 ], [ 742.568941900245477, 848.024913011065905 ], [ 742.568941902495112, 856.236603523179951 ], [ 754.382251058201973, 856.236603523179951 ], [ 753.950056820801024, 872.659984546408168 ], [ 721.39142426460387, 871.651531327972748 ], [ 722.543942226923377, 829.440560798334218 ] ] ] } },
{ "type": "Feature", "properties": { "feature_type": "building", "subtype": "no-damage", "uid": "a5aad937-c7da-4e76-8a51-73dc017c539b" }, "geometry": { "type": "Polygon", "coordinates": [ [ [ 733.204733419560739, 880.439480823621125 ], [ 753.085668345749355, 879.719157092453543 ], [ 754.670380549469201, 922.79451610089302 ], [ 725.569301889479334, 924.235163558228919 ], [ 721.535489006737976, 917.608185252084013 ], [ 720.959230023703526, 889.803689303803594 ], [ 732.340344943759192, 889.659624559169856 ], [ 733.204733419560739, 880.439480823621125 ] ] ] } },
{ "type": "Feature", "properties": { "feature_type": "building", "subtype": "no-damage", "uid": "e51a0a25-b31d-4aa4-847b-a24246570880" }, "geometry": { "type": "Polygon", "coordinates": [ [ [ 710.298438830316286, 938.209443902686303 ], [ 741.272359187792972, 938.353508649319792 ], [ 741.128294441909361, 941.522933060258083 ], [ 742.568941898495723, 941.522933060258083 ], [ 742.568941900495474, 935.328148988014391 ], [ 763.170200554852272, 935.760343224915232 ], [ 763.314265301485761, 954.20063069101343 ], [ 744.29771885259845, 952.904047980310906 ], [ 744.153654105715077, 973.217177143645472 ], [ 728.162467318383733, 973.361241891278723 ], [ 728.01840257150036, 984.022033082163716 ], [ 723.264265955591554, 983.445774099629261 ], [ 723.840524940875753, 974.513759859347147 ], [ 719.086388328466455, 974.657824601981247 ], [ 719.086388328216458, 963.276709678928796 ], [ 710.154374086932307, 963.276709676929158 ], [ 710.298438830316286, 938.209443902686303 ] ] ] } },
{ "type": "Feature", "properties": { "feature_type": "building", "subtype": "no-damage", "uid": "4cd72836-f6c4-4acc-8d6d-1c1242b1a9d3" }, "geometry": { "type": "Polygon", "coordinates": [ [ [ 691.425957127562469, 983.157644608362034 ], [ 715.628834426759909, 982.293256131560838 ], [ 715.772899173393398, 987.767716474636586 ], [ 715.628834427759784, 1003.038579533795996 ], [ 694.739446281885648, 1004.19109749786503 ], [ 695.45977001005383, 1016.436600895719039 ], [ 689.409050686941782, 1016.00440665981796 ], [ 688.400597464256748, 983.733903589896613 ], [ 691.425957127562469, 983.157644608362034 ] ] ] } },
{ "type": "Feature", "properties": { "feature_type": "building", "subtype": "no-damage", "uid": "34bdd3b8-3307-475c-bc52-1120d239710f" }, "geometry": { "type": "Polygon", "coordinates": [ [ [ 723.552395448358652, 988.199910708537914 ], [ 760.577035129197384, 988.488040202804655 ], [ 760.721099877830511, 996.987860209185556 ], [ 763.60239479025347, 996.411601223651473 ], [ 763.746459539886473, 996.411601223651473 ], [ 763.314265300236002, 1004.911421226032985 ], [ 752.653474106848762, 1004.911421227032974 ], [ 752.926231354843708, 1022.981587971954013 ], [ 740.423225986795615, 1022.98171282150804 ], [ 740.696100204508411, 1004.76735648139902 ], [ 722.976136464574211, 1003.758903262964054 ], [ 723.552395448358652, 988.199910708537914 ] ] ] } },
{ "type": "Feature", "properties": { "feature_type": "building", "subtype": "minor-damage", "uid": "e2361bb2-97ce-4a63-ac8b-7ab81bc72faf" }, "geometry": { "type": "Polygon", "coordinates": [ [ [ 825.118041264806379, 967.022393072401655 ], [ 869.634047731092778, 966.013939852966359 ], [ 871.218759933562865, 991.081205630208729 ], [ 854.507249419063214, 991.945594102010659 ], [ 838.371997883098743, 992.665917832178479 ], [ 836.066961948461085, 983.30170935199601 ], [ 824.397717535638321, 983.733903589896613 ], [ 825.118041264806379, 967.022393072401655 ] ] ] } },
{ "type": "Feature", "properties": { "feature_type": "building", "subtype": "no-damage", "uid": "b6a8b241-88ad-434a-8589-9c7b89ff39b2" }, "geometry": { "type": "Polygon", "coordinates": [ [ [ 820.50796939853069, 851.626531655905524 ], [ 869.922177223359995, 852.779049621974195 ], [ 869.48998298370941, 884.473293708361098 ], [ 855.22757314573164, 883.897034723827005 ], [ 854.939443654714296, 875.685344211712959 ], [ 840.244839577835933, 875.541279463079718 ], [ 840.38890432646906, 882.888581505391585 ], [ 820.21983990601359, 882.312322520857379 ], [ 820.50796939853069, 851.626531655905524 ] ] ] } },
{ "type": "Feature", "properties": { "feature_type": "building", "subtype": "minor-damage", "uid": "e265f8b0-c932-4d26-b319-459d0aad65be" }, "geometry": { "type": "Polygon", "coordinates": [ [ [ 882.455810107984803, 731.764663119768215 ], [ 883.032069094768758, 732.48498684893616 ], [ 903.777392492009767, 733.205310579103866 ], [ 903.489263000242545, 718.942900739379866 ], [ 923.37019793043055, 719.519159723914072 ], [ 923.658327419948137, 757.408187879545039 ], [ 879.862644686079307, 756.687864149377333 ], [ 880.72703315838146, 732.196857357668932 ], [ 882.455810107984803, 731.764663119768215 ] ] ] } },
{ "type": "Feature", "properties": { "feature_type": "building", "subtype": "no-damage", "uid": "86357e9a-b3d6-4017-8930-1ec4603edf53" }, "geometry": { "type": "Polygon", "coordinates": [ [ [ 827.711206692711016, 612.623118310799214 ], [ 844.998976189745235, 612.767183057432703 ], [ 845.287105681762455, 602.970780338349641 ], [ 875.396637563937475, 603.54703932388361 ], [ 874.676313832269784, 638.266643070576038 ], [ 844.134587714943564, 639.13103154437772 ], [ 843.846458224426101, 634.376894933469316 ], [ 827.13494770667694, 634.520959676103416 ], [ 827.711206692711016, 612.623118310799214 ] ] ] } },
{ "type": "Feature", "properties": { "feature_type": "building", "subtype": "no-damage", "uid": "76fa2790-d6fd-4f30-a89a-e39415bdcefd" }, "geometry": { "type": "Polygon", "coordinates": [ [ [ 814.889444311319608, 514.659091138966346 ], [ 830.016242622349409, 514.515026392332857 ], [ 830.304372115116507, 519.125098263606674 ], [ 842.261746022956004, 518.981033513973671 ], [ 842.117681277072393, 506.159271135585016 ], [ 861.278292472343196, 506.159271135585016 ], [ 861.278292473343072, 525.608011822118328 ], [ 855.803832128266208, 525.75207656975158 ], [ 856.091961620533311, 548.802435904124081 ], [ 830.880631097401078, 548.226176923589378 ], [ 830.592501607633608, 540.878874882277387 ], [ 813.736926345750589, 541.022939626911125 ], [ 814.889444311319608, 514.659091138966346 ] ] ] } },
{ "type": "Feature", "properties": { "feature_type": "building", "subtype": "no-damage", "uid": "76dd9a48-2a3d-4f95-b9d2-2a719c1eac3c" }, "geometry": { "type": "Polygon", "coordinates": [ [ [ 909.107788091952898, 341.493266642405217 ], [ 941.090161663865842, 342.933914101740811 ], [ 940.513902685330663, 359.933554112502691 ], [ 937.63260776665868, 360.077618856136723 ], [ 938.064802001059888, 383.127978190509111 ], [ 915.590701650216147, 382.407654461341224 ], [ 916.022895888116977, 362.238590043640272 ], [ 908.675593850802557, 361.950460550373407 ], [ 909.107788091952898, 341.493266642405217 ] ] ] } },
{ "type": "Feature", "properties": { "feature_type": "building", "subtype": "no-damage", "uid": "0a895350-0635-4040-b9c0-605e743105d7" }, "geometry": { "type": "Polygon", "coordinates": [ [ [ 884.47271655410475, 304.324562216941786 ], [ 902.192680287789926, 304.612691709208889 ], [ 902.480809780307027, 276.808195760928584 ], [ 924.810845385267271, 277.096325253195573 ], [ 924.378651148866197, 322.620784940405997 ], [ 884.184587058088255, 322.764849686039611 ], [ 884.47271655410475, 304.324562216941786 ] ] ] } },
{ "type": "Feature", "properties": { "feature_type": "building", "subtype": "minor-damage", "uid": "eb1dae04-5dc3-41f0-850b-52b2854fd456" }, "geometry": { "type": "Polygon", "coordinates": [ [ [ 895.133507743742598, 215.724743526291292 ], [ 945.268039293740571, 214.140031321322112 ], [ 946.420557264558852, 234.165030995389003 ], [ 915.59070165321566, 233.588772008855187 ], [ 915.734766396849636, 237.766649640228593 ], [ 926.395557589986879, 238.198843875129796 ], [ 927.259946064038786, 259.80855575416598 ], [ 898.158867407048433, 259.088232024998092 ], [ 898.014802659664952, 238.631038115030208 ], [ 908.099334868767869, 238.775102858664098 ], [ 907.811205377500642, 234.165030993389308 ], [ 894.125054525056953, 234.597225232289901 ], [ 893.836925029290342, 215.436614034024188 ], [ 895.133507743742598, 215.724743526291292 ] ] ] } },
{ "type": "Feature", "properties": { "feature_type": "building", "subtype": "no-damage", "uid": "94e5bd83-fc1d-4d03-a22d-1037930dfe21" }, "geometry": { "type": "Polygon", "coordinates": [ [ [ 890.091241639066197, 144.556759081303795 ], [ 927.259946064038786, 144.988953321204207 ], [ 927.115881319155051, 149.310895695211713 ], [ 940.946096920481864, 149.166830949578099 ], [ 941.234226413248848, 157.810715698592986 ], [ 941.378291155633065, 170.34434858671429 ], [ 892.252212825570496, 168.903701128378486 ], [ 890.091241639066197, 144.556759081303795 ] ] ] } },
{ "type": "Feature", "properties": { "feature_type": "building", "subtype": "no-damage", "uid": "bcf5a534-15a4-4f08-8042-664f060a4006" }, "geometry": { "type": "Polygon", "coordinates": [ [ [ 905.938363680513817, 84.193630577834142 ], [ 938.929190478361306, 85.346148541903148 ], [ 939.073255222245166, 99.896687869894791 ], [ 931.293758947280025, 99.176364142726612 ], [ 931.005629456512565, 127.124924834640893 ], [ 907.37901113909993, 126.260536359839406 ], [ 908.243399613901602, 114.447227202885699 ], [ 908.675593853052192, 95.142551260986167 ], [ 901.616421305755352, 94.710357022085631 ], [ 901.472356558621868, 85.634278036169931 ], [ 905.938363680513817, 84.193630577834142 ] ] ] } },
{ "type": "Feature", "properties": { "feature_type": "building", "subtype": "no-damage", "uid": "bfb25928-be56-48e4-9907-a71c75ceee59" }, "geometry": { "type": "Polygon", "coordinates": [ [ [ 893.070975833971602, 616.955530010978237 ], [ 926.914505188698968, 616.656029751726237 ], [ 924.818003371184773, 625.94053780253671 ], [ 933.803011167744671, 625.94053780253671 ], [ 933.503510903993174, 643.311552870148944 ], [ 890.674973758205169, 643.611053132400571 ], [ 893.070975833971602, 616.955530010978237 ] ] ] } },
{ "type": "Feature", "properties": { "feature_type": "building", "subtype": "no-damage", "uid": "f5d04c95-c870-41df-b7af-1f640e3a5ec9" }, "geometry": { "type": "Polygon", "coordinates": [ [ [ 934.102511423997157, 726.872125350439092 ], [ 974.834546756020472, 722.379621453660093 ], [ 976.032547795528444, 754.126648990365425 ], [ 970.042542598738351, 752.629147689106048 ], [ 970.641543118492336, 762.812156524671536 ], [ 955.067529610637621, 762.812156523671661 ], [ 955.666530129391845, 754.725649508869424 ], [ 935.001012205252891, 753.22814821160955 ], [ 934.102511423997157, 726.872125350439092 ] ] ] } },
{ "type": "Feature", "properties": { "feature_type": "building", "subtype": "no-damage", "uid": "643f4d28-3fe0-4862-a1c7-4912cfc1f21c" }, "geometry": { "type": "Polygon", "coordinates": [ [ [ 985.616556109342696, 724.775623532675468 ], [ 1016.465082867299998, 725.075123791927467 ], [ 1017.36358364380601, 748.436144055578438 ], [ 984.718055326837089, 748.735644310831049 ], [ 985.616556109342696, 724.775623532675468 ] ] ] } },
{ "type": "Feature", "properties": { "feature_type": "building", "subtype": "minor-damage", "uid": "484e27a9-ded0-4b3f-b71b-e73456ecaea1" }, "geometry": { "type": "Polygon", "coordinates": [ [ [ 932.652420904860151, 844.875227706701935 ], [ 976.978459352657751, 844.276227184198433 ], [ 978.176460389666204, 883.810261477453764 ], [ 931.753920124104297, 884.109761737705639 ], [ 932.053420384106289, 864.64224485033003 ], [ 934.748922723124224, 864.642244848330279 ], [ 932.652420904860151, 844.875227706701935 ] ] ] } },
{ "type": "Feature", "properties": { "feature_type": "building", "subtype": "no-damage", "uid": "965e8172-40b0-4a04-b0c4-65ccec608e96" }, "geometry": { "type": "Polygon", "coordinates": [ [ [ 986.262967404970254, 847.271229783717558 ], [ 1018.009994941932973, 846.672229263213808 ], [ 1018.608995462186954, 873.028252124384267 ], [ 985.663966885466266, 872.429251604880278 ], [ 986.262967404970254, 847.271229783717558 ] ] ] } },
{ "type": "Feature", "properties": { "feature_type": "building", "subtype": "no-damage", "uid": "6830641d-1eef-487f-92c1-6c7181f527bb" }, "geometry": { "type": "Polygon", "coordinates": [ [ [ 985.963467148467771, 966.172832916736525 ], [ 1010.222988189131001, 966.172832914736773 ], [ 1011.121488967886989, 949.10131810837629 ], [ 1023.053822404920993, 950.488798988000326 ], [ 1023.05378104753197, 985.982537424365773 ], [ 984.166465585456422, 987.736851618876244 ], [ 985.963467148467771, 966.172832916736525 ] ] ] } },
{ "type": "Feature", "properties": { "feature_type": "building", "subtype": "no-damage", "uid": "0e44948c-7834-4847-9bf8-b18394b8cba3" }, "geometry": { "type": "Polygon", "coordinates": [ [ [ 880.539375700010623, 994.625357597670245 ], [ 934.149922201620484, 994.026357075166857 ], [ 935.04842298487597, 1015.889876040557965 ], [ 879.640874925503908, 1014.991375261801977 ], [ 880.539375700010623, 994.625357597670245 ] ] ] } },
{ "type": "Feature", "properties": { "feature_type": "building", "subtype": "no-damage", "uid": "da586a62-b5e8-4fea-aa8c-fdb96f0a1509" }, "geometry": { "type": "Polygon", "coordinates": [ [ [ 344.733410949662584, 451.804753733157384 ], [ 344.73341094766289, 449.708251915393703 ], [ 345.931411987170918, 440.423743863583525 ], [ 358.210922641502918, 441.621744903591093 ], [ 358.510422901254913, 429.941234770765675 ], [ 379.175940824643874, 430.540235289269788 ], [ 378.576940303640072, 453.002754775164703 ], [ 344.733410949662584, 451.804753733157384 ] ] ] } },
{ "type": "Feature", "properties": { "feature_type": "building", "subtype": "no-damage", "uid": "3d27f62a-4df7-422e-9ca2-441d242825a7" }, "geometry": { "type": "Polygon", "coordinates": [ [ [ 337.844904971366873, 900.755643150809874 ], [ 348.626914323939218, 899.857142371054124 ], [ 348.626914323939218, 910.938651983375735 ], [ 337.910320883006591, 911.751086346325224 ], [ 337.844904971366873, 900.755643150809874 ] ] ] } },
{ "type": "Feature", "properties": { "feature_type": "building", "subtype": "no-damage", "uid": "e9c5024f-febc-47e4-bcbd-b7f8a1ae057f" }, "geometry": { "type": "Polygon", "coordinates": [ [ [ 634.54704289100232, 486.678617717113582 ], [ 655.553641121999021, 486.996899510420008 ], [ 655.235359329692301, 503.865834455674076 ], [ 641.549242302251059, 502.592707288447627 ], [ 642.504087674421726, 515.005697154408153 ], [ 633.273915722775655, 513.414288195874974 ], [ 630.409379602764375, 503.547552663367583 ], [ 616.404980780266897, 503.229270871060976 ], [ 616.404980778267259, 514.687415364101298 ], [ 601.127454794292134, 512.459442823954532 ], [ 602.400581958019416, 495.590507875700894 ], [ 614.300898581493584, 495.641771606555722 ], [ 615.146804036635785, 499.401351413852581 ], [ 634.978587518132258, 498.367466966845996 ], [ 634.530002928133285, 487.227604268111975 ], [ 634.54704289100232, 486.678617717113582 ] ] ] } },
{ "type": "Feature", "properties": { "feature_type": "building", "subtype": "no-damage", "uid": "ba4810a1-6000-4f13-bc91-656f3f166507" }, "geometry": { "type": "Polygon", "coordinates": [ [ [ 755.52562890596073, 768.570568959219486 ], [ 730.063085594169593, 768.570568959219486 ], [ 731.017930969339773, 750.746788639045462 ], [ 724.970576933011216, 751.383352218659297 ], [ 725.607140514374919, 739.606925938311747 ], [ 729.744803801363105, 738.015516983777957 ], [ 729.744803801862986, 725.602527116817555 ], [ 751.069683826915934, 724.329399951590744 ], [ 751.387965618222779, 730.376753988417818 ], [ 755.207347114404001, 730.695035779724435 ], [ 756.480474280880912, 741.516616688151657 ], [ 749.478274869382176, 742.789743852378592 ], [ 749.159993078575326, 749.473661473818652 ], [ 757.753601446357948, 749.155379680512283 ], [ 757.117037864494364, 767.934005377606013 ], [ 755.52562890596073, 768.570568959219486 ] ] ] } },
{ "type": "Feature", "properties": { "feature_type": "building", "subtype": "no-damage", "uid": "b98dd7ba-5831-41c4-b48d-82b4c1b0e32c" }, "geometry": { "type": "Polygon", "coordinates": [ [ [ 967.345841266120033, 794.687242650897815 ], [ 966.709277684256449, 780.046280246790275 ], [ 983.259930835958244, 778.773153081563464 ], [ 983.578212629764721, 795.323806233511164 ], [ 970.846940971744402, 795.005524443204308 ], [ 967.345841266120033, 794.687242650897815 ] ] ] } },
{ "type": "Feature", "properties": { "feature_type": "building", "subtype": "minor-damage", "uid": "877021d3-66fe-4054-a940-e189e82c32d3" }, "geometry": { "type": "Polygon", "coordinates": [ [ [ 867.887693448015966, 752.373951636968854 ], [ 820.708970965577919, 749.781714142464011 ], [ 819.672075962626536, 716.601074150011073 ], [ 838.854633457112072, 719.711759149616 ], [ 837.29929095705927, 727.488471647128449 ], [ 851.815820954136029, 726.970024147027743 ], [ 855.963400950443997, 716.082626649910253 ], [ 875.145958447679163, 717.637969150212598 ], [ 874.627510943828838, 751.855504136868149 ], [ 867.887693448015966, 752.373951636968854 ] ] ] } }
]
}
