{
"type": "FeatureCollection",
"name": "hurricane-florence_00000429_post_disaster",
"features": [
{ "type": "Feature", "properties": { "feature_type": "building", "subtype": "major-damage", "uid": "af40fc28-27f7-48c7-9263-a5fafad7f525" }, "geometry": { "type": "Polygon", "coordinates": [ [ [ 103.283116580659097, 620.022039320573867 ], [ 114.099285290920605, 621.693731721294057 ], [ 112.874746118875393, 629.76093451524207 ], [ 102.268617501364503, 628.73453497395144 ], [ 103.283116580659097, 620.022039320573867 ] ] ] } },
{ "type": "Feature", "properties": { "feature_type": "building", "subtype": "major-damage", "uid": "a44d1508-e75f-4df7-871e-478d165f8852" }, "geometry": { "type": "Polygon", "coordinates": [ [ [ 112.256068704713798, 575.928654653313174 ], [ 125.792475107073301, 576.801971198040633 ], [ 123.172525483342895, 609.987999789596756 ], [ 108.981131673202697, 608.459695843206646 ], [ 112.256068704713798, 575.928654653313174 ] ] ] } },
{ "type": "Feature", "properties": { "feature_type": "building", "subtype": "major-damage", "uid": "7f57c6fc-8753-4924-8403-942d23095b61" }, "geometry": { "type": "Polygon", "coordinates": [ [ [ -0.000009574969605, 869.477111138730038 ], [ 8.103127046002648, 867.285283725381191 ], [ 16.18396110243911, 897.304687960298793 ], [ -0.000009576626604, 901.40969333579892 ], [ -0.000009574969605, 869.477111138730038 ] ] ] } },
{ "type": "Feature", "properties": { "feature_type": "building", "subtype": "major-damage", "uid": "95f92e86-161a-4a1a-8a0d-2127cd6a3694" }, "geometry": { "type": "Polygon", "coordinates": [ [ [ 3.295683870833992, 837.755172547408051 ], [ 11.15553274878045, 835.571881193237118 ], [ 19.015381628256439, 863.081352264968359 ], [ 9.849760128829432, 865.538650641024674 ], [ 3.295683870833992, 837.755172547408051 ] ] ] } },
{ "type": "Feature", "properties": { "feature_type": "building", "subtype": "major-damage", "uid": "d7324494-db85-4d22-b0d2-e4054d5b029f" }, "geometry": { "type": "Polygon", "coordinates": [ [ [ 423.041291463563823, 479.011483553382675 ], [ 437.977968006531512, 479.011483551343304 ], [ 437.622332848464396, 487.902362442095182 ], [ 423.04129146203428, 488.257997597358212 ], [ 422.330021152145719, 483.990375729103789 ], [ 423.041291463563823, 479.011483553382675 ] ] ] } }
]
}
