{
"type": "FeatureCollection",
"name": "hurricane-michael_00000026_post_disaster",
"features": [
{ "type": "Feature", "properties": { "feature_type": "building", "subtype": "no-damage", "uid": "32bec3ab-0923-4f7e-839f-e6a341d8f398" }, "geometry": { "type": "Polygon", "coordinates": [ [ [ 988.211794801688029, 80.423690506343831 ], [ 988.067730054796812, 92.144014234822691 ], [ 984.067730054585127, 91.999949489929691 ], [ 984.347406326488681, 101.737179662435693 ], [ 958.194888360213668, 101.152467454990102 ], [ 958.635535821517465, 70.423690505692164 ], [ 983.635535819905954, 70.423690503693948 ], [ 983.635535818157564, 80.423690506343831 ], [ 988.211794801688029, 80.423690506343831 ] ] ] } },
{ "type": "Feature", "properties": { "feature_type": "building", "subtype": "no-damage", "uid": "b5403325-d15c-4c4d-9fff-e69ca14513ff" }, "geometry": { "type": "Polygon", "coordinates": [ [ [ 978.870729283405694, 120.870729199863604 ], [ 987.023348378097012, 121.929955334295997 ], [ 987.423690592781668, 130.870729199516205 ], [ 986.506315527846596, 151.192671574124688 ], [ 980.243545699008564, 151.912995302586097 ], [ 980.963869428968792, 157.743570896243995 ], [ 956.497862306003185, 157.879182422255411 ], [ 957.082574514447856, 121.870729200228496 ], [ 978.870729283405694, 120.870729199863604 ] ] ] } },
{ "type": "Feature", "properties": { "feature_type": "building", "subtype": "destroyed", "uid": "b1400ece-7bfe-464f-98e8-d6f89f3ab16f" }, "geometry": { "type": "Polygon", "coordinates": [ [ [ 954.570231533417086, 176.448722302280203 ], [ 954.570231533666856, 179.523888577384099 ], [ 954.298749095922858, 190.207079693181896 ], [ 937.60453921268163, 189.070300222946088 ], [ 935.746814182030562, 188.175446428890496 ], [ 936.572905946257038, 179.188339484071008 ], [ 939.157386587746487, 179.095317595112704 ], [ 939.382824059331369, 176.206361173885 ], [ 944.204927082110657, 176.283680142015612 ], [ 954.570231533417086, 176.448722302280203 ] ] ] } },
{ "type": "Feature", "properties": { "feature_type": "building", "subtype": "no-damage", "uid": "d973c814-164b-4bc6-9da1-3fb954c3a76b" }, "geometry": { "type": "Polygon", "coordinates": [ [ [ 837.240453036672534, 59.734426178138058 ], [ 837.632883974124297, 49.637143106613451 ], [ 855.911775869524604, 50.080373584107292 ], [ 856.042585144439727, 59.734426178138058 ], [ 837.240453036672534, 59.734426178138058 ] ] ] } },
{ "type": "Feature", "properties": { "feature_type": "building", "subtype": "destroyed", "uid": "fc5fb9d4-0aea-4052-9be4-9e2f2466e660" }, "geometry": { "type": "Polygon", "coordinates": [ [ [ 718.912967088675032, 177.810835181988693 ], [ 719.149201523559896, 158.519538484590413 ], [ 738.63765578685377, 157.928952396504201 ], [ 738.637655787852964, 178.92895239717339 ], [ 718.912967088675032, 177.810835181988693 ] ] ] } },
{ "type": "Feature", "properties": { "feature_type": "building", "subtype": "no-damage", "uid": "95be4439-02d7-4ce9-9834-f0d1719097f2" }, "geometry": { "type": "Polygon", "coordinates": [ [ [ 743.112861935586579, 86.317329864089359 ], [ 712.368432146509008, 86.494000929299858 ], [ 711.368432146643386, 69.494000928092106 ], [ 742.936190870376095, 68.768443905112903 ], [ 743.112861935586579, 86.317329864089359 ] ] ] } },
{ "type": "Feature", "properties": { "feature_type": "building", "subtype": "no-damage", "uid": "9d0a3715-b85b-4e9f-a5ce-74675814f555" }, "geometry": { "type": "Polygon", "coordinates": [ [ [ 710.062119576917553, 108.882019203564795 ], [ 710.125053502525361, 91.6460602045385 ], [ 734.431833427491711, 91.607593678308277 ], [ 733.909806937651524, 104.294255739927806 ], [ 733.99130404597031, 109.444068388342401 ], [ 710.062119576917553, 108.882019203564795 ] ] ] } },
{ "type": "Feature", "properties": { "feature_type": "building", "subtype": "no-damage", "uid": "2c4d9abf-fab1-44e2-8407-885bfe37ca12" }, "geometry": { "type": "Polygon", "coordinates": [ [ [ 696.667562086882981, 37.432304513225759 ], [ 700.717811168131789, 150.404744184786409 ], [ 673.730149781050841, 148.96704408983129 ], [ 673.487229027876083, 37.810996258303433 ], [ 676.348840070743449, 37.684875918677037 ], [ 696.667562086882981, 37.432304513225759 ] ] ] } },
{ "type": "Feature", "properties": { "feature_type": "building", "subtype": "no-damage", "uid": "dc698d9d-8b0b-4181-ab32-9f331382b96c" }, "geometry": { "type": "Polygon", "coordinates": [ [ [ 840.368563346049541, 35.64553239375573 ], [ 840.0465553294041, 40.393148114199377 ], [ 839.742465258520724, 45.369009524566351 ], [ 830.632074332407569, 46.804456221773819 ], [ 820.438332790741129, 48.37809870981237 ], [ 819.139806667773996, 56.861074517829039 ], [ 805.906517310655431, 58.233289409753027 ], [ 805.776139080660414, 36.531443554142093 ], [ 826.446144123609315, 35.818681502653057 ], [ 840.368563346049541, 35.64553239375573 ] ] ] } },
{ "type": "Feature", "properties": { "feature_type": "building", "subtype": "no-damage", "uid": "72e89d84-0ee2-40bd-9866-58a15e4ed3ab" }, "geometry": { "type": "Polygon", "coordinates": [ [ [ 650.782227078746928, 140.6711420044345 ], [ 618.483356408654458, 140.934470367338008 ], [ 616.273341504761788, 141.724455462042812 ], [ 610.273341501821619, 141.724455462042812 ], [ 603.803197606871663, 142.421680543775807 ], [ 604.035605967116226, 113.032557551354401 ], [ 624.32665495818253, 112.215569883396995 ], [ 623.835540536371923, 99.215569883648811 ], [ 651.700441434982167, 100.477030580005604 ], [ 651.700441432734124, 120.365105357649895 ], [ 651.273341503305119, 122.724455461104398 ], [ 650.782227078746928, 140.6711420044345 ] ] ] } },
{ "type": "Feature", "properties": { "feature_type": "building", "subtype": "no-damage", "uid": "1bb26412-4294-4804-94b8-14f00d411a64" }, "geometry": { "type": "Polygon", "coordinates": [ [ [ 604.265149321734725, 50.825264346531768 ], [ 642.912965195846823, 49.106363862452007 ], [ 643.404079619905474, 59.070821556609559 ], [ 643.15852240850063, 65.999736948173819 ], [ 644.140751257367128, 71.053050404244416 ], [ 605.265149325346897, 70.825264343838697 ], [ 604.265149321734725, 50.825264346531768 ] ] ] } },
{ "type": "Feature", "properties": { "feature_type": "building", "subtype": "minor-damage", "uid": "e64e762b-1f90-41b4-b905-ae7e442b812d" }, "geometry": { "type": "Polygon", "coordinates": [ [ [ 427.723980477370617, 40.773982580348523 ], [ 427.72398047612171, 44.147263842017558 ], [ 427.72398047362401, 59.147263840497303 ], [ 427.897159953515711, 118.140157763207299 ], [ 411.904266027758979, 118.376392200839604 ], [ 373.314566561608672, 118.4314544586681 ], [ 355.251511604538791, 114.297351849058501 ], [ 355.723980476056909, 73.147263842608567 ], [ 369.007284476102825, 73.974084363331556 ], [ 369.83410499582692, 61.564670450670476 ], [ 386.188456647877217, 60.619732712130428 ], [ 386.18845664762739, 46.092201580922499 ], [ 398.64295957059818, 45.379672203626157 ], [ 398.165021555718624, 41.141071352208591 ], [ 427.723980477370617, 40.773982580348523 ] ] ] } },
{ "type": "Feature", "properties": { "feature_type": "building", "subtype": "destroyed", "uid": "6e0172df-dc96-4f8b-bf3b-5a386b9a0a17" }, "geometry": { "type": "Polygon", "coordinates": [ [ [ 315.824997266582216, 54.501615495121293 ], [ 336.014162138365123, 55.619732712304149 ], [ 335.368513791451221, 90.974084364539308 ], [ 314.943114484034083, 90.737849928905192 ], [ 315.824997266582216, 54.501615495121293 ] ] ] } },
{ "type": "Feature", "properties": { "feature_type": "building", "subtype": "minor-damage", "uid": "41f5cda8-aeba-4628-a91f-6c51923cad25" }, "geometry": { "type": "Polygon", "coordinates": [ [ [ 284.31258523966568, 42.554643121493378 ], [ 292.760000138884607, 42.450000052656577 ], [ 293.000000138962321, 48.000000051484633 ], [ 307.000000135582127, 47.000000053117937 ], [ 307.000000137830114, 60.000000052866099 ], [ 293.000000135965024, 60.000000052866099 ], [ 275.000000138883593, 60.000000051866991 ], [ 275.000000137634686, 42.670242198149843 ], [ 284.31258523966568, 42.554643121493378 ] ] ] } },
{ "type": "Feature", "properties": { "feature_type": "building", "subtype": "minor-damage", "uid": "380bed89-2af6-4865-b443-1deab3d7cc56" }, "geometry": { "type": "Polygon", "coordinates": [ [ [ 168.830450625133096, 43.987886946610331 ], [ 186.657381045443088, 43.865374131506172 ], [ 190.847381042916709, 44.894077438844988 ], [ 200.887344528395204, 45.413615870777001 ], [ 212.782831842435513, 46.758304569357477 ], [ 215.891905854685405, 47.693102594515963 ], [ 219.847381042266392, 47.894077437941483 ], [ 229.240809560255201, 46.712905262768217 ], [ 233.847381043631913, 43.984077437353967 ], [ 266.687381045722475, 43.574077437044508 ], [ 265.847381044576593, 78.894077438263182 ], [ 236.976651897009305, 78.894077438263182 ], [ 226.82168334079941, 75.160384430613249 ], [ 217.753988089078888, 75.00000005134585 ], [ 217.588839338720589, 83.834851302023779 ], [ 198.262067321957403, 82.785472397454569 ], [ 197.375209194151807, 96.187121019236443 ], [ 181.953303657669409, 97.434509088701162 ], [ 162.658592148798704, 92.096802486761234 ], [ 163.294419737842787, 74.68223220871819 ], [ 166.010348736469808, 44.022880030989363 ], [ 168.830450625133096, 43.987886946610331 ] ] ] } },
{ "type": "Feature", "properties": { "feature_type": "building", "subtype": "minor-damage", "uid": "0a5bd765-03a0-434f-872f-6898427466a4" }, "geometry": { "type": "Polygon", "coordinates": [ [ [ 97.580000133624068, 473.670000050870783 ], [ 97.152035188980136, 482.084143009113689 ], [ 92.505377318074991, 483.181914922652879 ], [ 91.779820296344482, 506.084143008879323 ], [ 28.1142896579933, 504.907471944302984 ], [ 29.114289659857121, 480.907471944537406 ], [ 29.830000136110261, 469.170000052225987 ], [ 97.580000133624068, 473.670000050870783 ] ] ] } },
{ "type": "Feature", "properties": { "feature_type": "building", "subtype": "no-damage", "uid": "91250964-af5e-4dfb-a44a-28557203dbc7" }, "geometry": { "type": "Polygon", "coordinates": [ [ [ 93.094558265917399, 446.421702125436525 ], [ 98.650000137331816, 452.510000052980672 ], [ 97.600000134650458, 473.170000050688316 ], [ 29.8600001349023, 468.670000053042713 ], [ 31.114289658339452, 447.907471944484996 ], [ 31.260000138061152, 442.380000051402419 ], [ 93.094558265917399, 446.421702125436525 ] ] ] } },
{ "type": "Feature", "properties": { "feature_type": "building", "subtype": "major-damage", "uid": "e55f0d41-91eb-4ad1-a225-b47fd487802f" }, "geometry": { "type": "Polygon", "coordinates": [ [ [ 122.667899988354094, 414.635650869090114 ], [ 121.667899989487594, 450.907471946578823 ], [ 98.700921146115036, 451.554129817521812 ], [ 98.690000138135701, 451.810000050527321 ], [ 93.328051779819518, 445.935889713976621 ], [ 31.28000013359247, 441.880000050220872 ], [ 32.114289659204147, 410.907471941973881 ], [ 122.667899988354094, 414.635650869090114 ] ] ] } },
{ "type": "Feature", "properties": { "feature_type": "building", "subtype": "minor-damage", "uid": "2d381a02-a221-48a7-8c79-4b1c52a64661" }, "geometry": { "type": "Polygon", "coordinates": [ [ [ 12.00000013851151, 383.000000050835808 ], [ 45.000000134825811, 383.000000050835808 ], [ 45.000000135824912, 400.000000052043617 ], [ 12.00000013501465, 400.000000052043617 ], [ 12.00000013851151, 383.000000050835808 ] ] ] } },
{ "type": "Feature", "properties": { "feature_type": "building", "subtype": "no-damage", "uid": "aeda606a-f5f1-4029-82e5-b54d5cf6bbcf" }, "geometry": { "type": "Polygon", "coordinates": [ [ [ 518.785583544331416, 951.725557072264564 ], [ 512.236697585620504, 946.451114093054343 ], [ 523.236697585391084, 935.451114095035109 ], [ 529.060026521372379, 941.823328989782681 ], [ 518.785583544331416, 951.725557072264564 ] ] ] } },
{ "type": "Feature", "properties": { "feature_type": "building", "subtype": "no-damage", "uid": "07884ce4-d0f0-4d39-bcec-12cea2bcfa06" }, "geometry": { "type": "Polygon", "coordinates": [ [ [ 427.547071649034308, 1022.982660086874034 ], [ 435.259103217384677, 1014.306822579504001 ], [ 446.435607646408926, 1021.322729062207031 ], [ 444.747932427038108, 1022.982715354275001 ], [ 427.547071649034308, 1022.982660086874034 ] ] ] } },
{ "type": "Feature", "properties": { "feature_type": "building", "subtype": "no-damage", "uid": "7503abb9-989a-4ee1-a143-88bdc7292799" }, "geometry": { "type": "Polygon", "coordinates": [ [ [ 306.227081322942126, 900.151387508974494 ], [ 322.000000134565312, 914.000000049771643 ], [ 304.00000013548572, 933.000000049710934 ], [ 291.00000013673332, 920.000000052960104 ], [ 292.000000138347275, 920.000000052960104 ], [ 286.000000137654979, 914.000000049771643 ], [ 295.000000135696212, 905.000000050483891 ], [ 299.767591778026713, 909.383795872503242 ], [ 306.227081322942126, 900.151387508974494 ] ] ] } },
{ "type": "Feature", "properties": { "feature_type": "building", "subtype": "no-damage", "uid": "7defe1b6-db43-444e-a320-123de3293f2d" }, "geometry": { "type": "Polygon", "coordinates": [ [ [ 948.014992342746723, 862.198001090965818 ], [ 929.918490525929087, 847.101499269502824 ], [ 939.116491564406942, 835.705497195106318 ], [ 956.212993383606772, 851.700499793735958 ], [ 948.014992342746723, 862.198001090965818 ] ] ] } },
{ "type": "Feature", "properties": { "feature_type": "building", "subtype": "major-damage", "uid": "c327907e-bf60-4fef-9014-0413a7429cfe" }, "geometry": { "type": "Polygon", "coordinates": [ [ [ 709.60399806099349, 906.502498751638313 ], [ 689.603998057436911, 886.502498751334088 ], [ 808.507496240690784, 763.106496673035736 ], [ 831.603998058584693, 785.502498753444343 ], [ 709.60399806099349, 906.502498751638313 ] ] ] } },
{ "type": "Feature", "properties": { "feature_type": "building", "subtype": "no-damage", "uid": "e123e48b-2c29-45f2-bbd0-5bb765f7a2fa" }, "geometry": { "type": "Polygon", "coordinates": [ [ [ 767.098004837968801, 936.075166324814745 ], [ 758.098004837679696, 928.075166328889395 ], [ 770.098004838564748, 915.075166329141211 ], [ 779.098004840102703, 923.075166329063109 ], [ 767.098004837968801, 936.075166324814745 ] ] ] } },
{ "type": "Feature", "properties": { "feature_type": "building", "subtype": "minor-damage", "uid": "4adfc505-1801-468e-aedd-1fecd38657c2" }, "geometry": { "type": "Polygon", "coordinates": [ [ [ 804.116250414480191, 899.264531334666003 ], [ 798.116250413787839, 893.264531334474782 ], [ 817.116250413232592, 874.264531336533651 ], [ 823.116250409928398, 880.264531334726712 ], [ 804.116250414480191, 899.264531334666003 ] ] ] } },
{ "type": "Feature", "properties": { "feature_type": "building", "subtype": "minor-damage", "uid": "7843d210-79fb-4e16-98a0-3e1dd2814d51" }, "geometry": { "type": "Polygon", "coordinates": [ [ [ 818.000000137093366, 905.000000053481244 ], [ 813.000000138015139, 900.000000052655878 ], [ 828.000000136998324, 886.00000005154368 ], [ 833.000000139823214, 891.000000051369966 ], [ 818.000000137093366, 905.000000053481244 ] ] ] } },
{ "type": "Feature", "properties": { "feature_type": "building", "subtype": "no-damage", "uid": "2f340dc0-2039-40d8-9604-a882f75dd6e0" }, "geometry": { "type": "Polygon", "coordinates": [ [ [ 843.399411877195007, 874.867988288002834 ], [ 823.399411881381525, 851.867988286603918 ], [ 831.399411880056618, 844.867988288046035 ], [ 851.39941187861757, 867.867988286447712 ], [ 843.399411877195007, 874.867988288002834 ] ] ] } },
{ "type": "Feature", "properties": { "feature_type": "building", "subtype": "no-damage", "uid": "1b8255ce-75e6-42d9-b3ff-bd706fd8e99f" }, "geometry": { "type": "Polygon", "coordinates": [ [ [ 859.719529530145223, 910.415858868777832 ], [ 853.71952953045195, 904.415858870584771 ], [ 859.71952952914603, 899.415858870758484 ], [ 864.71952952972299, 905.415858866953272 ], [ 859.719529530145223, 910.415858868777832 ] ] ] } },
{ "type": "Feature", "properties": { "feature_type": "building", "subtype": "no-damage", "uid": "24f44218-3f8b-4e6f-96ba-809491a1f2a4" }, "geometry": { "type": "Polygon", "coordinates": [ [ [ 875.115564826442437, 909.359764749600913 ], [ 854.115564825767933, 891.359764748028283 ], [ 866.115564824404942, 878.359764748280099 ], [ 886.115564825713477, 896.359764749852729 ], [ 875.115564826442437, 909.359764749600913 ] ] ] } },
{ "type": "Feature", "properties": { "feature_type": "building", "subtype": "minor-damage", "uid": "bcc5190a-b972-4941-9eac-3fd724683c6b" }, "geometry": { "type": "Polygon", "coordinates": [ [ [ 878.648546904575255, 976.000000051414077 ], [ 867.648546904554905, 988.000000051796519 ], [ 862.648546904227828, 984.000000052335054 ], [ 834.648546903245119, 1018.000000051752977 ], [ 816.648546902916678, 1003.000000051275038 ], [ 841.729025403745027, 972.768770723981902 ], [ 845.648546905013859, 968.000000051492293 ], [ 853.990287807075333, 957.000000050475705 ], [ 857.276772923157637, 951.809009974657556 ], [ 872.744041942128661, 961.507508321019714 ], [ 867.648546904804675, 966.000000052760697 ], [ 878.648546904575255, 976.000000051414077 ] ] ] } },
{ "type": "Feature", "properties": { "feature_type": "building", "subtype": "major-damage", "uid": "245a70e0-a61c-4315-b931-57585e832595" }, "geometry": { "type": "Polygon", "coordinates": [ [ [ 887.266300243302567, 1018.675726665719026 ], [ 863.884053583832952, 1000.293480007331027 ], [ 889.529062704540593, 971.080664156713397 ], [ 914.000000139427812, 990.000000050528115 ], [ 887.266300243302567, 1018.675726665719026 ] ] ] } },
{ "type": "Feature", "properties": { "feature_type": "building", "subtype": "major-damage", "uid": "466f1071-4c25-482b-823b-7b74a1889fc3" }, "geometry": { "type": "Polygon", "coordinates": [ [ [ 964.633873611167246, 1013.103203127048005 ], [ 933.979068998837761, 993.000000051622806 ], [ 954.243600282021816, 958.425859546464153 ], [ 986.369342323337605, 978.529062618892226 ], [ 964.633873611167246, 1013.103203127048005 ] ] ] } },
{ "type": "Feature", "properties": { "feature_type": "building", "subtype": "no-damage", "uid": "e6e2f272-41ba-4c11-b62f-3186fe4e785e" }, "geometry": { "type": "Polygon", "coordinates": [ [ [ 865.059992731249281, 648.588204976618158 ], [ 850.58905529851495, 633.852736259514359 ], [ 865.221320941500494, 618.381798830415278 ], [ 882.082531698210801, 633.668869083263985 ], [ 865.059992731249281, 648.588204976618158 ] ] ] } },
{ "type": "Feature", "properties": { "feature_type": "building", "subtype": "no-damage", "uid": "a8c6286f-974f-42ad-908b-cb18906ae82a" }, "geometry": { "type": "Polygon", "coordinates": [ [ [ 954.715448820241704, 628.856260846640453 ], [ 956.686104870177019, 630.131979840264194 ], [ 958.626037454326593, 633.202480123739178 ], [ 909.667061391567017, 673.771138827587265 ], [ 899.600843311582253, 662.034692558857159 ], [ 947.878723149691155, 622.014827796355462 ], [ 954.715448820241704, 628.856260846640453 ] ] ] } },
{ "type": "Feature", "properties": { "feature_type": "building", "subtype": "no-damage", "uid": "c3e2151e-e980-4612-9b38-d1447b386000" }, "geometry": { "type": "Polygon", "coordinates": [ [ [ 957.106763752453958, 602.159761129452363 ], [ 968.636846256157241, 614.866633658720502 ], [ 956.470000136172871, 624.84000005100188 ], [ 951.639209509354714, 624.94681002420748 ], [ 944.960000136206077, 618.270000052281148 ], [ 944.230047559400646, 615.762300978698704 ], [ 938.565491102244323, 610.235193518565325 ], [ 947.565491099536075, 600.682232212823237 ], [ 957.106763752453958, 602.159761129452363 ] ] ] } },
{ "type": "Feature", "properties": { "feature_type": "building", "subtype": "no-damage", "uid": "5806581b-66fd-4a94-98a1-721e28497879" }, "geometry": { "type": "Polygon", "coordinates": [ [ [ 973.934125337960609, 587.253717107658531 ], [ 965.161206525646435, 582.000000051515144 ], [ 956.161206529353763, 571.000000049499477 ], [ 959.161206525453736, 569.00000005276604 ], [ 939.161206529640253, 548.00000005209688 ], [ 958.161206526337423, 530.00000005152333 ], [ 984.161206525340958, 557.000000049386358 ], [ 998.700545939270683, 563.338897752768958 ], [ 973.934125337960609, 587.253717107658531 ] ] ] } },
{ "type": "Feature", "properties": { "feature_type": "building", "subtype": "minor-damage", "uid": "00e33d2d-1292-4e4b-890d-7a1d3b1e8f2a" }, "geometry": { "type": "Polygon", "coordinates": [ [ [ 842.765465148222574, 532.609726726125245 ], [ 854.317066686235876, 543.345195443767693 ], [ 843.294527716969242, 555.000000051653842 ], [ 845.294527720946689, 557.000000049386358 ], [ 834.991752804407838, 558.232408414991369 ], [ 831.294527717333153, 558.000000050750373 ], [ 811.294527717523238, 558.000000052748533 ], [ 814.294527717369874, 624.000000052853352 ], [ 815.765465149603301, 634.551601588250833 ], [ 816.765465149219153, 649.448398513607572 ], [ 792.375191824203284, 652.39027337857317 ], [ 792.294527718078598, 634.000000050507765 ], [ 792.294527716330094, 625.000000053218287 ], [ 791.294527721460099, 625.000000051220127 ], [ 787.191324643629287, 544.345195439137115 ], [ 805.146246710210903, 543.896796978513407 ], [ 810.294527717407846, 544.000000053634608 ], [ 825.226910813897462, 542.161328263155951 ], [ 832.910731900750761, 541.610877060075381 ], [ 842.765465148222574, 532.609726726125245 ] ] ] } },
{ "type": "Feature", "properties": { "feature_type": "building", "subtype": "minor-damage", "uid": "6e1ca21d-500d-441c-a0f0-c7ee892ca9ee" }, "geometry": { "type": "Polygon", "coordinates": [ [ [ 837.035586309415521, 505.309609271761019 ], [ 815.506523737996076, 525.470937484314504 ], [ 790.219453483739812, 496.058125190232374 ], [ 805.219453483472307, 481.058125189754492 ], [ 799.219453485277882, 474.058125189198392 ], [ 806.219453483587699, 468.058125188008091 ], [ 816.603249305551117, 459.214839821305191 ], [ 845.248113162968025, 487.545480880430489 ], [ 842.998044021944452, 490.057768391240927 ], [ 834.174029732419172, 498.329356704391614 ], [ 837.035586309415521, 505.309609271761019 ] ] ] } },
{ "type": "Feature", "properties": { "feature_type": "building", "subtype": "no-damage", "uid": "5d70d53c-8465-4fe3-a0f6-4e49e169e5f4" }, "geometry": { "type": "Polygon", "coordinates": [ [ [ 813.774501312106509, 388.857831411524216 ], [ 813.766337405339414, 402.218809973578914 ], [ 804.831038110108466, 402.314080733347396 ], [ 791.589822042357355, 402.624384752186927 ], [ 791.210430073676775, 391.9350832729736 ], [ 802.934472779410612, 391.935083270975383 ], [ 802.624168762319414, 389.072864666598775 ], [ 813.774501312106509, 388.857831411524216 ] ] ] } },
{ "type": "Feature", "properties": { "feature_type": "building", "subtype": "major-damage", "uid": "f99df71e-3665-471c-b49c-dec5671a63ac" }, "geometry": { "type": "Polygon", "coordinates": [ [ [ 883.557849868816106, 408.019624370637985 ], [ 860.441205188602794, 386.451865647065688 ], [ 884.887224467382225, 364.87007745886649 ], [ 906.112359200826631, 384.391684562263094 ], [ 883.557849868816106, 408.019624370637985 ] ] ] } },
{ "type": "Feature", "properties": { "feature_type": "building", "subtype": "no-damage", "uid": "00c9110b-1eff-44d4-ae70-7819a225cc5c" }, "geometry": { "type": "Polygon", "coordinates": [ [ [ 1023.054528223973989, 437.598191127747384 ], [ 1002.249697819990047, 456.057073874099387 ], [ 973.900918589481535, 428.206032776633322 ], [ 1011.639055299175993, 391.068358326425482 ], [ 1023.054513950532964, 390.081718797058102 ], [ 1023.054528223973989, 437.598191127747384 ] ] ] } },
{ "type": "Feature", "properties": { "feature_type": "building", "subtype": "destroyed", "uid": "016a3be5-83b6-452b-9493-42c34c6f47f0" }, "geometry": { "type": "Polygon", "coordinates": [ [ [ 963.630991816991923, 322.350769935372284 ], [ 910.376994112414422, 273.552961360112874 ], [ 924.376994111531985, 258.552961357636775 ], [ 980.686671470717897, 307.170376907860373 ], [ 963.630991816991923, 322.350769935372284 ] ] ] } },
{ "type": "Feature", "properties": { "feature_type": "building", "subtype": "un-classified", "uid": "8ce43680-8ca1-444b-b015-2bfc6fa17942" }, "geometry": { "type": "Polygon", "coordinates": [ [ [ 639.768950036857859, 1022.982464404483949 ], [ 675.589779611039944, 981.864231145830217 ], [ 721.554438566490944, 980.142322180632505 ], [ 770.759690474736203, 1022.981390356359952 ], [ 639.768950036857859, 1022.982464404483949 ] ] ] } },
{ "type": "Feature", "properties": { "feature_type": "building", "subtype": "major-damage", "uid": "03942f8f-5cd1-47bb-9c42-e4aa32e778e2" }, "geometry": { "type": "Polygon", "coordinates": [ [ [ 683.619517746757992, 671.35001999185306 ], [ 683.356189383854598, 715.296706533680435 ], [ 678.128403326368698, 717.752278656220824 ], [ 673.217259085532987, 719.542263746295021 ], [ 665.708373508168961, 716.350019992287912 ], [ 665.708373511166315, 711.350019991462432 ], [ 649.708373508071304, 711.350019991462432 ], [ 649.708373512567277, 752.350019991436739 ], [ 608.708373508835734, 751.350019991071804 ], [ 609.708373508951126, 723.350019990845681 ], [ 602.708373507893725, 723.350019990845681 ], [ 602.708373509392345, 697.350019992348507 ], [ 609.708373509950206, 697.350019989351154 ], [ 609.708373507952047, 671.35001999185306 ], [ 650.708373508936006, 671.350019992852253 ], [ 683.619517746757992, 671.35001999185306 ] ] ] } },
{ "type": "Feature", "properties": { "feature_type": "building", "subtype": "major-damage", "uid": "c7e8b15c-fa23-4838-be71-505b6bf642c5" }, "geometry": { "type": "Polygon", "coordinates": [ [ [ 669.000000138634732, 774.059799623089589 ], [ 669.000000136886342, 793.059799627025313 ], [ 669.000000138634732, 806.059799623776144 ], [ 644.686570873193659, 806.676003804580432 ], [ 644.378468784040365, 813.443595442893752 ], [ 614.00000013728436, 814.059799625696201 ], [ 615.000000137149982, 823.059799623984759 ], [ 600.820601415685815, 824.940200477815779 ], [ 588.597995874773574, 825.342204739689805 ], [ 588.164996584070764, 813.432999340086781 ], [ 586.911396015848936, 793.059799627025313 ], [ 614.777394597372563, 792.119599197112507 ], [ 615.344395308783305, 775.05979962345441 ], [ 669.000000138634732, 774.059799623089589 ] ] ] } },
{ "type": "Feature", "properties": { "feature_type": "building", "subtype": "no-damage", "uid": "cc32f616-6db1-43bf-8d76-a6ce4eaed89b" }, "geometry": { "type": "Polygon", "coordinates": [ [ [ 505.353829024790286, 809.001302436630112 ], [ 505.593056442201885, 780.687902295097956 ], [ 557.714940755094062, 780.698498397904928 ], [ 557.714940754844292, 808.698498396132777 ], [ 505.353829024790286, 809.001302436630112 ] ] ] } },
{ "type": "Feature", "properties": { "feature_type": "building", "subtype": "no-damage", "uid": "7f9d9787-d95a-42cb-84b6-f80605f2b9ca" }, "geometry": { "type": "Polygon", "coordinates": [ [ [ 479.000000134945992, 855.000000053220219 ], [ 429.596086725477221, 848.529314082743326 ], [ 433.081243585341213, 832.641221504534428 ], [ 481.472469005196274, 839.818827875935654 ], [ 479.000000134945992, 855.000000053220219 ] ] ] } },
{ "type": "Feature", "properties": { "feature_type": "building", "subtype": "no-damage", "uid": "2250adf7-516b-4123-8c3b-d0b976126c96" }, "geometry": { "type": "Polygon", "coordinates": [ [ [ 448.499446010083489, 671.771625537072282 ], [ 448.454528099977608, 656.8755153773958 ], [ 447.336300246082487, 643.215254756134414 ], [ 521.188497126890752, 642.552961358882271 ], [ 521.188497124892592, 672.682232211121004 ], [ 448.499446010083489, 671.771625537072282 ] ] ] } },
{ "type": "Feature", "properties": { "feature_type": "building", "subtype": "no-damage", "uid": "1efa437d-6c4a-4a28-b9d3-f75a1ecb28e5" }, "geometry": { "type": "Polygon", "coordinates": [ [ [ 456.026034013621825, 524.949200508407898 ], [ 437.295379391519589, 526.035117516819128 ], [ 435.593603812394974, 497.248667483440272 ], [ 455.204466511465625, 496.808962033503406 ], [ 456.026034013621825, 524.949200508407898 ] ] ] } },
{ "type": "Feature", "properties": { "feature_type": "building", "subtype": "minor-damage", "uid": "d8f99fbf-9e98-4b56-8680-d5b720035e47" }, "geometry": { "type": "Polygon", "coordinates": [ [ [ 731.741458431348974, 274.824032720632488 ], [ 731.741458433846674, 299.824032720763114 ], [ 731.741458430599664, 302.824032721857691 ], [ 745.741458430216767, 302.824032719859474 ], [ 745.741458430466537, 329.824032720719913 ], [ 747.741458433694561, 329.824032719720719 ], [ 747.741458430697321, 347.824032721293406 ], [ 745.741458432214927, 347.824032722292486 ], [ 746.357662611770479, 357.910380795143283 ], [ 763.43335634214111, 356.986074527433686 ], [ 764.281968884189382, 387.758993334785089 ], [ 620.817152160688465, 388.683299610487495 ], [ 621.741458430396506, 350.82403271839172 ], [ 622.741458431760748, 301.824032718495516 ], [ 622.741458433509138, 298.824032720398122 ], [ 661.741458430016223, 298.824032720398122 ], [ 661.741458431514843, 274.824032720632488 ], [ 731.741458431348974, 274.824032720632488 ] ] ] } },
{ "type": "Feature", "properties": { "feature_type": "building", "subtype": "minor-damage", "uid": "2afd19e0-9d93-42ca-b74e-b53060456589" }, "geometry": { "type": "Polygon", "coordinates": [ [ [ 779.492004728540792, 335.248667485272108 ], [ 805.025945397702003, 334.279080164849518 ], [ 806.152398759082303, 350.000000048785182 ], [ 780.943870323541773, 350.000000051782479 ], [ 779.492004728540792, 335.248667485272108 ] ] ] } },
{ "type": "Feature", "properties": { "feature_type": "building", "subtype": "minor-damage", "uid": "bc7a8869-c69b-4a6c-8999-8946936a7571" }, "geometry": { "type": "Polygon", "coordinates": [ [ [ 803.757942397313172, 329.940565392545921 ], [ 779.757942395792952, 330.940565394909015 ], [ 779.757942396292492, 322.940565393987981 ], [ 802.75794239719778, 321.940565393623217 ], [ 803.757942397313172, 329.940565392545921 ] ] ] } },
{ "type": "Feature", "properties": { "feature_type": "building", "subtype": "no-damage", "uid": "5b9ac65c-029a-4fdc-a3ff-f03f93ebffb2" }, "geometry": { "type": "Polygon", "coordinates": [ [ [ 783.339641545074642, 253.006880696502407 ], [ 804.572049906743132, 254.855493236917113 ], [ 804.496356177834514, 302.223307538835002 ], [ 783.572049908066788, 302.763817988982225 ], [ 783.339641545074642, 253.006880696502407 ] ] ] } },
{ "type": "Feature", "properties": { "feature_type": "building", "subtype": "destroyed", "uid": "a295d7ca-c8a1-49e1-990c-034794a2e7bd" }, "geometry": { "type": "Polygon", "coordinates": [ [ [ 313.580463492739284, 693.939364060591743 ], [ 316.011776658341603, 687.861081141342311 ], [ 320.063965276504121, 683.241586122353056 ], [ 334.976019370720792, 677.730609607927818 ], [ 342.918309050250173, 677.730609608926898 ], [ 353.453999446432817, 680.729229181850542 ], [ 362.855077029220126, 689.319869041602487 ], [ 367.042219529828913, 702.007325739097041 ], [ 365.525861894758975, 712.116376650883694 ], [ 358.112557888484105, 723.910269385797392 ], [ 344.802307517498321, 731.660541755197073 ], [ 333.682351511333025, 731.997510118823357 ], [ 320.990352770971924, 724.302922849298966 ], [ 313.464249678263116, 716.328481199709358 ], [ 309.926081858187672, 705.208525194046501 ], [ 313.29576549545078, 694.088569186385484 ], [ 313.580463492739284, 693.939364060591743 ] ] ] } },
{ "type": "Feature", "properties": { "feature_type": "building", "subtype": "no-damage", "uid": "30f92d95-b3db-4149-bd28-8156b0cb0551" }, "geometry": { "type": "Polygon", "coordinates": [ [ [ 900.712903575917949, 773.600814117530263 ], [ 907.803394585955289, 773.517792628976281 ], [ 919.024394626066396, 779.062286764895816 ], [ 922.192676990591622, 783.286663249596245 ], [ 926.417053478040657, 791.207369162905593 ], [ 927.605159362989184, 796.619851532304438 ], [ 927.605159362989184, 807.708839807140976 ], [ 927.209124068422625, 811.14114570170932 ], [ 923.365823819900243, 816.176664930739889 ], [ 918.892382862043405, 819.853922203152479 ], [ 907.143335765091251, 821.042028088849975 ], [ 896.186359252526472, 820.7780045618033 ], [ 884.437312151078345, 816.81765160614782 ], [ 879.024829778680783, 807.840851573661553 ], [ 879.024829782427332, 799.128075071219428 ], [ 880.027820534321449, 791.139306732739101 ], [ 884.682263527673626, 782.988608503969431 ], [ 887.08839342658473, 778.798263232853628 ], [ 890.799681913082395, 775.233945573762753 ], [ 896.186359252276702, 774.177851452587674 ], [ 900.712903575917949, 773.600814117530263 ] ] ] } },
{ "type": "Feature", "properties": { "feature_type": "building", "subtype": "no-damage", "uid": "fc1b25e5-8305-4f34-a413-23e596d290c2" }, "geometry": { "type": "Polygon", "coordinates": [ [ [ 944.121415244607306, 758.166697215819681 ], [ 949.712279873052466, 757.09153094244482 ], [ 956.378310777370416, 757.521597451594971 ], [ 964.764607719288733, 759.456896747266683 ], [ 966.269840504561785, 760.74709627871357 ], [ 971.000572114706301, 763.757561845761984 ], [ 975.731303724601048, 769.778492985853518 ], [ 977.236536508625136, 773.86412483127242 ], [ 976.591436743401118, 779.024922946069978 ], [ 975.516270470025916, 786.33605361660932 ], [ 971.215605370030744, 794.722350560523523 ], [ 967.560040034760164, 799.23804891609177 ], [ 960.248909364468659, 801.173348209765322 ], [ 951.647579170223253, 801.388381465838961 ], [ 944.551481755506074, 801.173348209765322 ], [ 936.810284576563845, 799.453082170167363 ], [ 930.57432018339432, 791.926918244553349 ], [ 926.918754846625006, 780.96022224174169 ], [ 926.9187548476242, 771.221442166155384 ], [ 931.219419946120638, 762.46736231731245 ], [ 936.278384966345243, 758.596763726968106 ], [ 942.616182459584138, 757.736630707668724 ], [ 944.98154826340749, 757.736630707668724 ], [ 944.121415244607306, 758.166697215819681 ] ] ] } },
{ "type": "Feature", "properties": { "feature_type": "building", "subtype": "no-damage", "uid": "fe46cc5f-42b9-4f66-9969-7834aafc555b" }, "geometry": { "type": "Polygon", "coordinates": [ [ [ 816.073956076304626, 914.579769176254786 ], [ 818.065895585960106, 914.210817620101352 ], [ 823.288905223667939, 913.536880894846945 ], [ 825.310715407424595, 913.536880895846025 ], [ 828.848883229747912, 915.895659441230237 ], [ 831.544630138509319, 919.770795627428811 ], [ 833.39795613920387, 923.645931810630032 ], [ 833.734924501831188, 926.004710358012403 ], [ 833.060987775577473, 928.86894144933558 ], [ 830.028272501191395, 932.575593453221359 ], [ 822.109515954222616, 934.091951091038482 ], [ 819.750737403842322, 933.754982724414845 ], [ 816.381053765330421, 931.901656722971438 ], [ 811.495012490749446, 926.67864708526497 ], [ 809.978654851433362, 923.814415991943633 ], [ 809.641686487057655, 920.950184900620343 ], [ 811.158044124125695, 918.254437988612608 ], [ 812.1689492200004, 917.075048715420962 ], [ 815.201664492388204, 914.884754349352193 ], [ 816.777824787887312, 914.460579260102577 ], [ 816.073956076304626, 914.579769176254786 ] ] ] } },
{ "type": "Feature", "properties": { "feature_type": "building", "subtype": "no-damage", "uid": "de2d2962-90ff-486f-ac90-53f6388a9885" }, "geometry": { "type": "Polygon", "coordinates": [ [ [ 789.210866657145516, 934.185673330485656 ], [ 792.006298971867523, 927.089575917019147 ], [ 794.58669803301359, 925.584343130497587 ], [ 799.53246289573508, 924.724210111198204 ], [ 805.553394034829012, 924.724210112197284 ], [ 811.027211206677975, 927.479680612845073 ], [ 813.819928485687342, 931.161576103810717 ], [ 814.854275207742603, 934.471485612788456 ], [ 816.095491274858432, 938.091699147599343 ], [ 815.268013897863625, 940.781000627889853 ], [ 813.509624467846834, 943.263432760622209 ], [ 806.579501424805699, 947.19395030927717 ], [ 799.722853578136892, 947.027900515286888 ], [ 792.577697275774881, 943.987475468583511 ], [ 790.756692727295331, 939.811965187197302 ], [ 788.788737789568017, 934.368050942506216 ], [ 789.210866657145516, 934.185673330485656 ] ] ] } },
{ "type": "Feature", "properties": { "feature_type": "building", "subtype": "no-damage", "uid": "51dc0b8b-3c8d-4ef1-95f6-10d1bcf5a54c" }, "geometry": { "type": "Polygon", "coordinates": [ [ [ 774.977352914530343, 942.674886305121618 ], [ 782.600212416001114, 941.970999168074627 ], [ 787.642478521976045, 943.411646625996468 ], [ 790.667838181714501, 945.57261781138061 ], [ 792.972874119735366, 946.869200525408587 ], [ 795.854169033082144, 952.631790360093419 ], [ 796.430428019647934, 955.80121476971965 ], [ 795.566039541797409, 962.140063584975564 ], [ 792.828809372344494, 963.868840535680761 ], [ 789.51532021482717, 965.597617487385037 ], [ 780.871435466044773, 967.758588672769179 ], [ 773.380068683400395, 967.470459180985017 ], [ 768.193737831533213, 966.317941212849064 ], [ 765.744637153864687, 963.292581551113244 ], [ 764.880248679261172, 960.555351381161586 ], [ 763.727730714122345, 956.665603243073974 ], [ 766.032766645149422, 950.470819173710197 ], [ 768.049673085641075, 947.589524254869161 ], [ 771.363162241160239, 944.708229338026285 ], [ 773.263072135867333, 943.3197941385896 ], [ 774.977352914530343, 942.674886305121618 ] ] ] } },
{ "type": "Feature", "properties": { "feature_type": "building", "subtype": "minor-damage", "uid": "bd3c7488-79b1-4532-a607-847de812ffce" }, "geometry": { "type": "Polygon", "coordinates": [ [ [ 956.0501561543349, 889.034671121002248 ], [ 961.79271649071643, 890.267590301190126 ], [ 965.909361172983722, 891.914248175495345 ], [ 970.57489180902337, 898.775322641109938 ], [ 970.57489180802429, 902.343081363109604 ], [ 970.57489180952291, 907.328266257361861 ], [ 969.202676918347834, 911.948585615569527 ], [ 963.173338579573624, 916.665118781232536 ], [ 956.303856919022678, 916.888559231491513 ], [ 947.337661182488318, 916.67352597541776 ], [ 939.950306399267333, 912.42386340304995 ], [ 937.916177350001817, 906.45972604387714 ], [ 937.367291395480038, 900.421980512417804 ], [ 938.190620330135062, 896.305335830651188 ], [ 941.54736126348655, 893.214740992504517 ], [ 945.528858675857919, 890.839891971145335 ], [ 949.331050899693309, 888.82365333435132 ], [ 956.0501561543349, 889.034671121002248 ] ] ] } },
{ "type": "Feature", "properties": { "feature_type": "building", "subtype": "no-damage", "uid": "f8f9a6ef-738b-463c-8ad0-4dd899a18248" }, "geometry": { "type": "Polygon", "coordinates": [ [ [ 987.593747071078838, 859.709731188186197 ], [ 993.996145984975897, 859.03579445993455 ], [ 998.208250531304884, 860.215183734125276 ], [ 1001.409449987253993, 862.236993917881364 ], [ 1004.610649444202977, 865.1012250112027 ], [ 1005.62155453458297, 870.661203015532806 ], [ 1004.779133626764974, 873.86240247148146 ], [ 1001.914902533692953, 878.242991202619919 ], [ 991.805851617158055, 880.938738109632141 ], [ 987.425262886268229, 880.2648013803813 ], [ 980.854379792306418, 875.884212653239274 ], [ 979.506506337301289, 872.851497380602495 ], [ 980.180443063804773, 869.987266287281045 ], [ 981.696800702621317, 865.269709192516302 ], [ 984.224063433815672, 861.731541373940559 ], [ 985.571936886323101, 860.720636280064241 ], [ 986.919810343826043, 860.046699552811674 ], [ 987.593747071078838, 859.709731188186197 ] ] ] } },
{ "type": "Feature", "properties": { "feature_type": "building", "subtype": "minor-damage", "uid": "5f074a19-50a3-40c3-aa37-f836874c619c" }, "geometry": { "type": "Polygon", "coordinates": [ [ [ 965.388809886511126, 178.04203990040989 ], [ 987.188857764561817, 178.749295882176114 ], [ 987.188857761814234, 185.227502649312299 ], [ 965.658890681622438, 185.274843435571796 ], [ 965.388809886511126, 178.04203990040989 ] ] ] } },
{ "type": "Feature", "properties": { "feature_type": "building", "subtype": "destroyed", "uid": "c9b8ceb5-d6ae-4692-887d-6ec51f604b5d" }, "geometry": { "type": "Polygon", "coordinates": [ [ [ 740.944147426493601, 145.059144651149893 ], [ 757.126206225222518, 145.05914465414719 ], [ 756.889971788089724, 179.785606594449888 ], [ 740.70791299485586, 179.195020508361893 ], [ 740.944147426493601, 145.059144651149893 ] ] ] } },
{ "type": "Feature", "properties": { "feature_type": "building", "subtype": "no-damage", "uid": "b743e6dd-862d-4728-b395-2554a908ddad" }, "geometry": { "type": "Polygon", "coordinates": [ [ [ 859.505938271488844, 653.725774297484236 ], [ 866.050739279131335, 648.596065399488907 ], [ 871.534221202603817, 653.902660810347015 ], [ 864.72409042466802, 659.386142734067789 ], [ 859.505938271488844, 653.725774297484236 ] ] ] } },
{ "type": "Feature", "properties": { "feature_type": "building", "subtype": "no-damage", "uid": "db09efcd-87ff-4ac7-a5bb-07359a86f34f" }, "geometry": { "type": "Polygon", "coordinates": [ [ [ 357.758882666986779, 876.095013348712882 ], [ 368.389432244048521, 863.810822729708548 ], [ 381.02797451326029, 873.850786216183451 ], [ 370.633659371333181, 885.544390744104362 ], [ 357.758882666986779, 876.095013348712882 ] ] ] } },
{ "type": "Feature", "properties": { "feature_type": "building", "subtype": "no-damage", "uid": "b2c8f0d1-a60f-490c-99c1-f37a2cf869b4" }, "geometry": { "type": "Polygon", "coordinates": [ [ [ 32.396920459144447, 45.680428320978137 ], [ 30.050003340534939, 91.05415854707536 ], [ 6.063277290406968, 92.233833597803482 ], [ 9.199935694521715, 45.968122525399501 ], [ 32.396920459144447, 45.680428320978137 ] ] ] } },
{ "type": "Feature", "properties": { "feature_type": "building", "subtype": "destroyed", "uid": "2f142c92-929f-43d2-b82a-2a04c480920e" }, "geometry": { "type": "Polygon", "coordinates": [ [ [ 0.07768427229801, 614.898408851911199 ], [ 9.740158680646058, 614.898408836924659 ], [ 10.97256704400341, 593.023160428862525 ], [ 19.907527659923211, 590.866445795547975 ], [ 27.610079918480299, 594.563670878375547 ], [ 25.761467376566468, 636.157453068178825 ], [ 0.077679235318314, 637.078972299041084 ], [ 0.07768427229801, 614.898408851911199 ] ] ] } },
{ "type": "Feature", "properties": { "feature_type": "building", "subtype": "no-damage", "uid": "04b9ebaa-cffe-40dc-a6d4-dd952afb3bac" }, "geometry": { "type": "Polygon", "coordinates": [ [ [ 291.606248753146474, 778.39415676454928 ], [ 303.622230269591796, 762.680950162531985 ], [ 314.713905520075627, 771.615910777700151 ], [ 301.773617731924219, 787.021015293811274 ], [ 291.606248753146474, 778.39415676454928 ] ] ] } },
{ "type": "Feature", "properties": { "feature_type": "building", "subtype": "no-damage", "uid": "8f1eec0a-be46-46fc-9406-fb1c5de7f564" }, "geometry": { "type": "Polygon", "coordinates": [ [ [ 275.893042145879917, 703.833450918201265 ], [ 286.676615304462928, 692.433673578816752 ], [ 305.162740721103376, 708.45498227173573 ], [ 294.071065471119084, 719.546657521217639 ], [ 275.893042145879917, 703.833450918201265 ] ] ] } },
{ "type": "Feature", "properties": { "feature_type": "building", "subtype": "no-damage", "uid": "241d1d42-446f-4bd4-a522-c8ad2593e808" }, "geometry": { "type": "Polygon", "coordinates": [ [ [ 783.029082744632092, 448.416818078226299 ], [ 799.666595617860025, 447.800613895423794 ], [ 800.282799798914311, 461.9733100519245 ], [ 784.261491104992047, 462.281412141826991 ], [ 783.029082744632092, 448.416818078226299 ] ] ] } },
{ "type": "Feature", "properties": { "feature_type": "building", "subtype": "un-classified", "uid": "730be4ea-c38d-4cd8-9741-43a4b5f25b41" }, "geometry": { "type": "Polygon", "coordinates": [ [ [ 0.07769080168838, 506.482014514586524 ], [ 3.289230487820861, 507.427258998845673 ], [ 3.97349574950275, 524.191757864338683 ], [ 0.077691808285037, 524.80812443940647 ], [ 0.07769080168838, 506.482014514586524 ] ] ] } },
{ "type": "Feature", "properties": { "feature_type": "building", "subtype": "no-damage", "uid": "f6ccee1f-486a-4100-837e-66a97ed1fd37" }, "geometry": { "type": "Polygon", "coordinates": [ [ [ 351.443710963329693, 901.862946197754923 ], [ 339.376665114473326, 893.276778958167824 ], [ 354.228413853391089, 878.657088785661699 ], [ 365.59928398628881, 887.70737317654789 ], [ 351.443710963329693, 901.862946197754923 ] ] ] } },
{ "type": "Feature", "properties": { "feature_type": "building", "subtype": "no-damage", "uid": "cb69e25c-4a92-412a-887f-fe98dc6f547d" }, "geometry": { "type": "Polygon", "coordinates": [ [ [ 332.731122276929909, 895.285042047406705 ], [ 308.268639232872488, 876.125614767276602 ], [ 316.308756036528678, 869.282962168443419 ], [ 341.455504339270476, 886.560659983070082 ], [ 332.731122276929909, 895.285042047406705 ] ] ] } }
]
}
