{
"type": "FeatureCollection",
"name": "hurricane-harvey_00000121_post_disaster",
"features": [
{ "type": "Feature", "properties": { "feature_type": "building", "subtype": "major-damage", "uid": "079419e3-4112-444f-9874-c1c636c36bc3" }, "geometry": { "type": "Polygon", "coordinates": [ [ [ 467.602640373561883, 1022.989079708341023 ], [ 468.34442728733319, 923.644836588962676 ], [ 527.965889773417757, 924.681731587645686 ], [ 522.570427067595347, 1022.98911561 ], [ 467.602640373561883, 1022.989079708341023 ] ] ] } },
{ "type": "Feature", "properties": { "feature_type": "building", "subtype": "major-damage", "uid": "3ad8ab12-a834-45b5-9ebb-b8b7bde74eb2" }, "geometry": { "type": "Polygon", "coordinates": [ [ [ 640.334406459601269, 837.125695363831596 ], [ 663.028178641415707, 837.375077477347418 ], [ 663.028178639607972, 838.123223812907895 ], [ 662.529414416753184, 838.621988034952551 ], [ 674.00099156479223, 837.873841701386823 ], [ 674.250373677185848, 842.113337603228615 ], [ 672.754081006439719, 843.11086604931279 ], [ 674.250373677248149, 853.584914748156734 ], [ 683.477511816051219, 855.081207421272438 ], [ 683.477511815490175, 867.79969512580044 ], [ 672.754081005192916, 866.054020343158527 ], [ 673.003463115903514, 880.518182832323305 ], [ 661.531885969173459, 880.268800719804858 ], [ 661.033121746942015, 888.498410413962233 ], [ 650.80845515725548, 887.002117739849155 ], [ 651.057837270708774, 877.774979602599842 ], [ 647.815869815763222, 878.273743826639247 ], [ 648.564016151323244, 859.32070332311423 ], [ 640.334406460598643, 858.073792761519599 ], [ 640.334406459601269, 837.125695363831596 ] ] ] } },
{ "type": "Feature", "properties": { "feature_type": "building", "subtype": "major-damage", "uid": "e2cc7945-559b-4a01-aa34-84d729095867" }, "geometry": { "type": "Polygon", "coordinates": [ [ [ 752.338662844135001, 825.911003796203204 ], [ 751.091752284722816, 804.464142172481047 ], [ 764.807768438133053, 805.212288509038899 ], [ 763.810239992111747, 811.945605527088446 ], [ 771.790467571751947, 811.945605528085821 ], [ 773.536142355390325, 824.414711120095376 ], [ 752.338662844135001, 825.911003796203204 ] ] ] } },
{ "type": "Feature", "properties": { "feature_type": "building", "subtype": "major-damage", "uid": "fb5362a4-5de6-40cf-b75a-9165361672f4" }, "geometry": { "type": "Polygon", "coordinates": [ [ [ 749.298801860330173, 795.92833451457534 ], [ 749.604999827132929, 783.068019881551322 ], [ 771.651253481997742, 784.905207686981385 ], [ 771.498154496258849, 797.153126381537504 ], [ 749.298801860330173, 795.92833451457534 ] ] ] } },
{ "type": "Feature", "properties": { "feature_type": "building", "subtype": "major-damage", "uid": "21e15375-13a2-4a53-a579-0df2188c9205" }, "geometry": { "type": "Polygon", "coordinates": [ [ [ 707.58038369974588, 839.893298402991491 ], [ 717.167312208866633, 840.081277390481887 ], [ 716.227417255955515, 857.563323493392659 ], [ 708.708257644386094, 858.409228952558919 ], [ 707.58038369974588, 839.893298402991491 ] ] ] } },
{ "type": "Feature", "properties": { "feature_type": "building", "subtype": "major-damage", "uid": "3aab6aeb-9575-4b9c-b0a1-ddb4c9fb3342" }, "geometry": { "type": "Polygon", "coordinates": [ [ [ 701.252229707276456, 836.616657227051292 ], [ 701.252229708024515, 828.076850502686625 ], [ 719.832079475139494, 828.942371453274063 ], [ 719.428169696345435, 836.789761417767181 ], [ 701.252229707276456, 836.616657227051292 ] ] ] } },
{ "type": "Feature", "properties": { "feature_type": "building", "subtype": "major-damage", "uid": "8e3bfab0-2210-409c-9afb-2940d96cef88" }, "geometry": { "type": "Polygon", "coordinates": [ [ [ 669.776231276465751, 814.360262896715426 ], [ 670.23552822732438, 791.854712297401079 ], [ 701.161522931561308, 793.844999084206734 ], [ 698.405741225848601, 816.809846636624002 ], [ 669.776231276465751, 814.360262896715426 ] ] ] } },
{ "type": "Feature", "properties": { "feature_type": "building", "subtype": "major-damage", "uid": "13e716e4-9eb9-41a3-b8fe-b499f272bc1c" }, "geometry": { "type": "Polygon", "coordinates": [ [ [ 658.865961233626308, 786.611597337073022 ], [ 658.406664285946817, 767.933521329994505 ], [ 670.654582978501821, 768.392818280105303 ], [ 669.5828900915443, 787.070894291173317 ], [ 666.52091041977701, 785.693003437848802 ], [ 663.612029727764252, 785.999201404589371 ], [ 662.234138875811823, 787.83638920702731 ], [ 658.865961233626308, 786.611597337073022 ] ] ] } },
{ "type": "Feature", "properties": { "feature_type": "building", "subtype": "major-damage", "uid": "e27c727a-93c8-4f3e-81b6-947a861d434d" }, "geometry": { "type": "Polygon", "coordinates": [ [ [ 617.244931171109556, 758.471274269873561 ], [ 653.900834298050086, 759.693137705018103 ], [ 655.592645209961233, 764.204633473607714 ], [ 656.344561172265117, 773.697572485996034 ], [ 645.911727204352587, 773.885551479470678 ], [ 645.253800741715736, 784.882322412727376 ], [ 624.576111800424769, 783.754448475816275 ], [ 624.952069777587212, 771.911772082395828 ], [ 617.714878647939145, 772.099751070883599 ], [ 617.244931171109556, 758.471274269873561 ] ] ] } },
{ "type": "Feature", "properties": { "feature_type": "building", "subtype": "major-damage", "uid": "7ac2df55-b59f-483b-8c16-d28d15ddc814" }, "geometry": { "type": "Polygon", "coordinates": [ [ [ 741.718612553328853, 731.818026755065262 ], [ 742.217376777305617, 718.10201060345571 ], [ 782.617278906900992, 717.60324638041368 ], [ 782.866661017549177, 728.825441415815476 ], [ 741.718612553328853, 731.818026755065262 ] ] ] } },
{ "type": "Feature", "properties": { "feature_type": "building", "subtype": "major-damage", "uid": "20e2aae0-bf62-4a69-befb-b3959357e7fa" }, "geometry": { "type": "Polygon", "coordinates": [ [ [ 289.118228674001386, 449.845532546496088 ], [ 294.373567971654779, 448.390880967057399 ], [ 302.327168046868223, 448.699109082078792 ], [ 303.393118786183322, 470.930649471322113 ], [ 295.475952843231994, 475.489017743758211 ], [ 289.118228676744195, 468.411551215082113 ], [ 289.118228674001386, 449.845532546496088 ] ] ] } },
{ "type": "Feature", "properties": { "feature_type": "building", "subtype": "major-damage", "uid": "e09d1099-f17b-4547-b8e9-871bb0fddac2" }, "geometry": { "type": "Polygon", "coordinates": [ [ [ 477.01111104475541, 438.257989282368214 ], [ 477.401905868977224, 424.384773162744807 ], [ 489.073182317159592, 424.615594224038375 ], [ 489.153990877084425, 423.404015824406827 ], [ 491.173139054474575, 423.368592171857983 ], [ 491.555107268246616, 421.57495817796331 ], [ 500.693447821338225, 421.068924390508528 ], [ 501.919850438465915, 423.506961615754108 ], [ 504.757543281369976, 423.407786111041617 ], [ 504.562145871503219, 417.155068986324977 ], [ 517.653772351278349, 416.178081939608774 ], [ 518.385883017544984, 418.970543073945407 ], [ 520.065307049063108, 421.656627840626584 ], [ 519.998541271861541, 424.580170571489589 ], [ 519.998541274541935, 430.24669546299009 ], [ 522.538707603371108, 433.959246256071083 ], [ 522.92950242609686, 444.119911580618691 ], [ 517.458374943593412, 446.269283092770024 ], [ 519.412349042261212, 459.947101801653787 ], [ 521.561720552291831, 462.096473313804893 ], [ 519.99854127179924, 477.532868711366007 ], [ 506.711517384089575, 477.532868711366007 ], [ 506.516119976529296, 491.406084826999916 ], [ 477.597303276537502, 491.406084829991983 ], [ 477.792700688024979, 486.71654698819998 ], [ 469.390612051036896, 484.957970294535926 ], [ 470.172201691251985, 470.107767127198827 ], [ 485.608597092981825, 470.88935676915969 ], [ 485.803994500479689, 439.430373742816187 ], [ 477.01111104475541, 438.257989282368214 ] ] ] } },
{ "type": "Feature", "properties": { "feature_type": "building", "subtype": "major-damage", "uid": "0f0f8d9a-8e89-471a-9e03-fcb4ed11ce0f" }, "geometry": { "type": "Polygon", "coordinates": [ [ [ 443.785397874668718, 431.628627693591511 ], [ 444.034578983249787, 433.64773311926092 ], [ 450.023797114183992, 433.683804585518203 ], [ 449.113426295771717, 450.157170473389385 ], [ 447.19411333859, 450.157170473389385 ], [ 443.774643185474986, 461.132547492472781 ], [ 439.15331561038181, 461.290884192440899 ], [ 439.92532555818218, 431.518283546263319 ], [ 443.785397874668718, 431.628627693591511 ] ] ] } },
{ "type": "Feature", "properties": { "feature_type": "building", "subtype": "major-damage", "uid": "7c6eb699-b8ce-4867-8f9b-893fd676005f" }, "geometry": { "type": "Polygon", "coordinates": [ [ [ 629.247180554146098, 626.616530336481333 ], [ 629.62313853486171, 617.311570311583523 ], [ 649.078964036645175, 617.875507280039074 ], [ 649.078964038951653, 627.650414783138103 ], [ 647.387153123674238, 627.650414783138103 ], [ 646.635237163739134, 630.000152158185983 ], [ 643.06363634831223, 630.000152159183358 ], [ 641.27783593766901, 627.368446295419517 ], [ 629.247180554146098, 626.616530336481333 ] ] ] } },
{ "type": "Feature", "properties": { "feature_type": "building", "subtype": "major-damage", "uid": "2098b28d-bbaa-4749-a14a-307fbc354bc8" }, "geometry": { "type": "Polygon", "coordinates": [ [ [ 851.908055425480029, 503.501415769797575 ], [ 869.731835743672036, 503.501415769797575 ], [ 870.050117533289495, 514.004714886897773 ], [ 878.643725904575831, 514.322996679382868 ], [ 878.962007698432103, 531.191931622248035 ], [ 882.781389190672598, 529.600522667801556 ], [ 883.099670984341969, 568.430901220327655 ], [ 852.862900798696046, 569.704028385281163 ], [ 851.908055425480029, 503.501415769797575 ] ] ] } },
{ "type": "Feature", "properties": { "feature_type": "building", "subtype": "major-damage", "uid": "7d1e2f25-5211-4a68-8341-f063f8a446e5" }, "geometry": { "type": "Polygon", "coordinates": [ [ [ 925.779995105631315, 436.170002543468911 ], [ 925.940188116680702, 441.830605665889379 ], [ 929.859995106903057, 442.570002538837514 ], [ 930.465516360625998, 466.311358398685115 ], [ 929.149663427872042, 466.405347891931626 ], [ 931.591161972015811, 480.837739405231673 ], [ 903.14971117029495, 480.439526168482416 ], [ 902.563518942190626, 483.761282141081608 ], [ 904.712890451722615, 485.324461421014121 ], [ 903.735903399147219, 500.565459410827714 ], [ 877.748047852518084, 500.565459408832908 ], [ 876.184868573708513, 481.025718395714307 ], [ 889.276495053920144, 480.634923573237813 ], [ 893.77063548602996, 470.474258251682215 ], [ 890.058084690582064, 464.416938535710528 ], [ 890.058084690395049, 439.796864863310077 ], [ 899.29124194316762, 440.049159670000677 ], [ 898.92270238401818, 436.524587869397124 ], [ 903.946137647845035, 436.821393191645427 ], [ 905.328756360044622, 439.368977946530208 ], [ 906.253814475433842, 440.365770290904493 ], [ 918.353617061184536, 439.505027997208401 ], [ 918.39070915735806, 435.888916661484302 ], [ 925.779995105631315, 436.170002543468911 ] ] ] } },
{ "type": "Feature", "properties": { "feature_type": "building", "subtype": "major-damage", "uid": "88c3fab0-f7c0-4dd1-8d34-74417aa251bf" }, "geometry": { "type": "Polygon", "coordinates": [ [ [ 755.984592558468989, 435.014402453914784 ], [ 776.026115062560507, 436.485339886227507 ], [ 775.842247887822737, 440.89815217817852 ], [ 778.809704657632551, 441.082019360459128 ], [ 779.109967286573124, 438.265813948114328 ], [ 788.52908323340921, 438.875613209995322 ], [ 788.902450115193687, 427.549820460335695 ], [ 793.791517258839576, 426.899885501972278 ], [ 795.484694730213619, 427.351399492743212 ], [ 797.290750698158263, 427.125642496360399 ], [ 801.35998332581778, 427.883384907846391 ], [ 801.583652932710152, 438.324011671132723 ], [ 806.915801124716154, 438.691746035693825 ], [ 806.548066765142039, 449.539909589773913 ], [ 811.696347776051994, 452.297917272118582 ], [ 813.902753923522482, 456.52686238877078 ], [ 827.508925166423296, 457.262331100937615 ], [ 826.957323627498567, 475.649048994871976 ], [ 789.080684766411991, 475.832916175157777 ], [ 784.116270936660499, 476.384517712025684 ], [ 780.806661716202825, 501.942055582250703 ], [ 762.052209464636121, 501.574321224671223 ], [ 762.052209463888062, 487.968149985254286 ], [ 749.549241297340586, 487.232681267103203 ], [ 750.65244437138756, 466.63955722769191 ], [ 751.189014891923875, 464.143723575921626 ], [ 752.587483685158645, 464.337788249758717 ], [ 753.226584876375, 455.055924959450294 ], [ 755.984592558468989, 435.014402453914784 ] ] ] } },
{ "type": "Feature", "properties": { "feature_type": "building", "subtype": "major-damage", "uid": "e2f41d68-e611-44fe-a502-bdeac7ecca7a" }, "geometry": { "type": "Polygon", "coordinates": [ [ [ 689.722372559172413, 430.901340408691112 ], [ 689.551296335157531, 435.356042520728693 ], [ 697.641452210815942, 435.907644055601793 ], [ 698.560788100525201, 482.426040323814902 ], [ 681.645007640906897, 482.79377468538388 ], [ 679.806335851140375, 475.622954707098586 ], [ 667.969995092084559, 476.350002549194414 ], [ 666.231812248947904, 464.33466438449102 ], [ 659.130358620591551, 465.267778428426311 ], [ 658.477743094586231, 477.82936085357278 ], [ 658.661610275994008, 487.206586977335007 ], [ 632.000869329802754, 487.390454158618184 ], [ 632.368603688130065, 460.545846035368925 ], [ 638.068486234536181, 459.994244498501018 ], [ 638.436220595419286, 461.83291628739579 ], [ 650.939188758288992, 461.097447571239513 ], [ 653.697196442128302, 431.127097406071186 ], [ 664.809489855413858, 432.130212934707401 ], [ 664.590766774233316, 428.665835397715512 ], [ 675.577390738105805, 428.552956901020195 ], [ 676.410960756894724, 430.730580366143272 ], [ 678.257856170358536, 430.632479062699986 ], [ 680.083256661572932, 429.213919979257582 ], [ 689.722372559172413, 430.901340408691112 ] ] ] } },
{ "type": "Feature", "properties": { "feature_type": "building", "subtype": "major-damage", "uid": "0a6588a3-50ea-4692-85ec-c8d0305d914c" }, "geometry": { "type": "Polygon", "coordinates": [ [ [ 939.306787630155895, 309.561091805566321 ], [ 941.651556550302644, 280.251480290376605 ], [ 957.674144181071711, 282.791646620017389 ], [ 956.892554539672233, 312.882847778165512 ], [ 939.306787630155895, 309.561091805566321 ] ] ] } },
{ "type": "Feature", "properties": { "feature_type": "building", "subtype": "major-damage", "uid": "f530ca0e-9659-4cb0-bcad-0ce6d0d97e86" }, "geometry": { "type": "Polygon", "coordinates": [ [ [ 892.606806610033004, 310.928873678748687 ], [ 892.411409201600009, 286.113402595608818 ], [ 894.756178124302551, 286.504197419082686 ], [ 896.319357401740717, 284.354825905934092 ], [ 905.698433088062757, 285.331812956639908 ], [ 906.089227909604119, 288.458171516504819 ], [ 909.801778703057266, 288.653568925249601 ], [ 910.583368341340019, 280.056082882629084 ], [ 912.732739853053658, 277.515916548001428 ], [ 912.537342443249258, 256.412996261931994 ], [ 936.962018707951984, 257.585380718390525 ], [ 935.398839426773634, 270.481609785313424 ], [ 931.686288635626966, 271.067802016534813 ], [ 930.709301585108733, 278.688301009446775 ], [ 934.421852375195613, 280.251480290376605 ], [ 934.81264719898104, 295.687875686940288 ], [ 932.272480866037654, 295.883273100672 ], [ 932.663275686581642, 318.940167490147815 ], [ 926.215161149944379, 318.940167493139882 ], [ 925.824366331893884, 311.905860731449309 ], [ 921.134828491974304, 311.515065907975327 ], [ 921.33022589710356, 319.721757133106109 ], [ 914.686713954090351, 319.330962314619114 ], [ 913.709726902886359, 311.905860730451877 ], [ 892.606806610033004, 310.928873678748687 ] ] ] } },
{ "type": "Feature", "properties": { "feature_type": "building", "subtype": "major-damage", "uid": "fc7e8a6e-7184-4a5b-8f3b-c460916d6885" }, "geometry": { "type": "Polygon", "coordinates": [ [ [ 818.703571618714932, 312.205750244220383 ], [ 785.785132849520437, 313.702042916338826 ], [ 780.548108498293345, 299.487262541687187 ], [ 774.313555702354051, 301.981083656897511 ], [ 763.340742781533208, 302.978612108965876 ], [ 764.837035452653481, 262.578709980721328 ], [ 784.288840179709268, 262.828092094237093 ], [ 787.032043407872948, 269.561409113284014 ], [ 809.975197702205719, 270.309555446849686 ], [ 809.975197704200468, 273.800905017120613 ], [ 816.957896836260829, 273.551522903604791 ], [ 818.703571618714932, 312.205750244220383 ] ] ] } },
{ "type": "Feature", "properties": { "feature_type": "building", "subtype": "minor-damage", "uid": "eff426a0-0879-4f1b-ad90-872f2c93b553" }, "geometry": { "type": "Polygon", "coordinates": [ [ [ 989.43664817194076, 142.485768778397613 ], [ 990.049044105670873, 158.101865116075999 ], [ 983.059995106713927, 158.160002537551691 ], [ 983.284982540750434, 156.185223749624697 ], [ 978.319995106412534, 155.870002538700788 ], [ 977.648026426379488, 142.638867767752089 ], [ 989.43664817194076, 142.485768778397613 ] ] ] } },
{ "type": "Feature", "properties": { "feature_type": "building", "subtype": "minor-damage", "uid": "8298862a-93d5-49db-a612-bf441fb2c75a" }, "geometry": { "type": "Polygon", "coordinates": [ [ [ 1022.408256746257962, 112.043725537020805 ], [ 1016.252488012800995, 111.733219964584805 ], [ 1016.44788542503602, 106.066695072087001 ], [ 1010.97675793854296, 103.917323562928004 ], [ 1011.172155353522044, 93.756658235388159 ], [ 1022.408302627816965, 89.820156156969816 ], [ 1022.408256746257962, 112.043725537020805 ] ] ] } },
{ "type": "Feature", "properties": { "feature_type": "building", "subtype": "minor-damage", "uid": "3ba880aa-16ed-4d93-abd0-77c80575cf9a" }, "geometry": { "type": "Polygon", "coordinates": [ [ [ 906.872295862123792, 56.59563083680775 ], [ 914.19277706602611, 56.59563083680775 ], [ 918.012158565871573, 59.778448751684998 ], [ 927.786214233811734, 60.165242756304828 ], [ 929.965851478290347, 61.65188802836456 ], [ 948.591378188759222, 62.062849679486618 ], [ 950.267373916996235, 72.344537600084436 ], [ 958.450020627872505, 72.791750723453305 ], [ 958.780386242486543, 78.367723989854227 ], [ 973.465693216235195, 78.484571499980319 ], [ 973.393190270619584, 104.3378995460033 ], [ 955.569409950495242, 104.656181340483101 ], [ 955.637922168240152, 98.181791092990849 ], [ 955.597679969182423, 89.455149024927422 ], [ 945.996788564165968, 88.508396746842067 ], [ 928.72897578321556, 88.282794819975578 ], [ 927.774130409126883, 95.981976932435259 ], [ 923.120820259571929, 100.376349167219601 ], [ 922.669537926438238, 107.556968938114196 ], [ 904.962605115193128, 107.520717460880505 ], [ 906.872295862123792, 56.59563083680775 ] ] ] } },
{ "type": "Feature", "properties": { "feature_type": "building", "subtype": "no-damage", "uid": "1583f6c6-a485-49c3-8639-12e46203f1e6" }, "geometry": { "type": "Polygon", "coordinates": [ [ [ 688.939901406911645, 60.679066776985657 ], [ 692.846759105803017, 60.630606471482608 ], [ 692.455498673395027, 64.587294678830176 ], [ 698.557145852063286, 64.35881532312311 ], [ 698.629548131392085, 67.991677089926398 ], [ 703.413304273929725, 68.170803949582805 ], [ 704.152485989818501, 88.412280333606432 ], [ 708.444415103736787, 87.595234319076638 ], [ 707.417056701651404, 101.114183614828605 ], [ 675.979672377303814, 99.639571039866624 ], [ 675.979672377677844, 118.7868498749 ], [ 669.614036551916115, 118.786849876894706 ], [ 671.205445507670902, 145.8408021473671 ], [ 644.151493235778503, 144.885956771906592 ], [ 642.878366069828303, 97.143688060716272 ], [ 643.099995089745107, 96.190002546432211 ], [ 653.597951346657965, 96.622757242911192 ], [ 653.719995090887437, 93.740002547348055 ], [ 663.769842839029366, 92.951203981625966 ], [ 663.599995090764082, 69.70000254919826 ], [ 668.769149189136442, 69.477875231931478 ], [ 669.279995091812225, 60.610002547413963 ], [ 673.908804545721864, 60.481332931808247 ], [ 673.834725567336591, 63.444492114597629 ], [ 678.300616301735772, 63.030983711698823 ], [ 678.910616301253526, 55.448773385798013 ], [ 686.5122548043488, 55.29736979735619 ], [ 686.749096543564633, 60.526496302826089 ], [ 688.939901406911645, 60.679066776985657 ] ] ] } },
{ "type": "Feature", "properties": { "feature_type": "building", "subtype": "major-damage", "uid": "69f42053-2a28-48b3-8c20-d918dd7fe83d" }, "geometry": { "type": "Polygon", "coordinates": [ [ [ 776.484103494689748, 221.655852456753394 ], [ 775.702513858401858, 193.518625401014191 ], [ 841.356043655674739, 195.081804681944107 ], [ 840.574454014524463, 220.678865406047493 ], [ 776.484103494689748, 221.655852456753394 ] ] ] } },
{ "type": "Feature", "properties": { "feature_type": "building", "subtype": "major-damage", "uid": "694411b2-d651-4ae9-8cd9-922b3bcd254e" }, "geometry": { "type": "Polygon", "coordinates": [ [ [ 750.496247948746372, 212.862969002395886 ], [ 750.300850540437978, 192.150843532818811 ], [ 761.438502916683092, 192.150843532818811 ], [ 762.220092557708654, 201.529919216402902 ], [ 763.978669247382413, 201.529919218397595 ], [ 763.978669250187522, 213.253763824872493 ], [ 750.496247948746372, 212.862969002395886 ] ] ] } },
{ "type": "Feature", "properties": { "feature_type": "building", "subtype": "major-damage", "uid": "5126a79d-4bb3-43b1-8dd0-72242b1cccb1" }, "geometry": { "type": "Polygon", "coordinates": [ [ [ 716.299662476807043, 213.204910755454193 ], [ 717.065157395403389, 188.555974378982313 ], [ 729.619274059498707, 186.718786575546886 ], [ 740.948598849837822, 190.852459133525912 ], [ 741.40789580468595, 212.898712783726808 ], [ 725.485601501085512, 213.970405669313408 ], [ 722.117423856032474, 215.807593475740902 ], [ 716.299662476807043, 213.204910755454193 ] ] ] } },
{ "type": "Feature", "properties": { "feature_type": "building", "subtype": "minor-damage", "uid": "d440e4a9-ea5a-4f09-9c1a-a1f410897c33" }, "geometry": { "type": "Polygon", "coordinates": [ [ [ 637.01653497012137, 183.944115334843303 ], [ 682.530831141934073, 183.944115332848611 ], [ 682.212549350259565, 203.359304609610291 ], [ 695.898666384910484, 203.359304608612888 ], [ 695.580384591241113, 248.873600782381288 ], [ 697.490075341413217, 250.465009739819891 ], [ 697.490075341475631, 262.559717811366625 ], [ 695.2621028021847, 262.559717813361374 ], [ 695.262102799379591, 287.385697542422292 ], [ 657.068287829100314, 286.112570377468785 ], [ 656.750006036553032, 276.245834844341402 ], [ 652.612342751702954, 276.564116636826498 ], [ 654.203751707146012, 253.647827653699807 ], [ 645.928425127970627, 253.647827653699807 ], [ 625.240108683834819, 255.557518403623504 ], [ 625.498840862168777, 241.231141353971509 ], [ 629.267913837416359, 241.463795160272099 ], [ 629.558269037463788, 245.054219286523306 ], [ 630.31593857855944, 244.9598921395459 ], [ 630.4890427689636, 242.074822302592196 ], [ 633.201008418441461, 241.613211123692707 ], [ 633.489515403819723, 245.652308901412198 ], [ 634.701244738705896, 245.652308899417392 ], [ 634.643543337790334, 242.305627886556294 ], [ 638.202185929358507, 242.025820064152612 ], [ 638.049981371475496, 212.907758353244702 ], [ 637.01653497012137, 183.944115334843303 ] ] ] } },
{ "type": "Feature", "properties": { "feature_type": "building", "subtype": "major-damage", "uid": "a8cd4363-71e4-4ca3-b551-d88b02f9d37b" }, "geometry": { "type": "Polygon", "coordinates": [ [ [ 483.745448376610909, 388.334068948041192 ], [ 483.246684155252126, 374.368670682915877 ], [ 501.202196213431876, 374.618052793439517 ], [ 502.449106771846687, 385.341483607794089 ], [ 483.745448376610909, 388.334068948041192 ] ] ] } },
{ "type": "Feature", "properties": { "feature_type": "building", "subtype": "major-damage", "uid": "60920f4a-edfe-4424-98b3-36de891ef07f" }, "geometry": { "type": "Polygon", "coordinates": [ [ [ 510.928098573157286, 369.630410558031997 ], [ 471.429374884917081, 367.788385761996778 ], [ 471.026960672525718, 312.272524824414972 ], [ 482.498537819131002, 307.035500474494313 ], [ 498.957757205629491, 314.267581719575389 ], [ 497.960228756429103, 345.689727815110018 ], [ 509.431805903907218, 346.437874151667813 ], [ 510.928098573157286, 369.630410558031997 ] ] ] } },
{ "type": "Feature", "properties": { "feature_type": "building", "subtype": "major-damage", "uid": "d782d370-f18e-44f0-8c56-9308cbd96240" }, "geometry": { "type": "Polygon", "coordinates": [ [ [ 478.708626558719402, 258.341137480663292 ], [ 479.548325980416223, 257.261523943557108 ], [ 486.745749564798302, 257.261523945551914 ], [ 487.225577802036582, 252.1033703740585 ], [ 496.102400226757879, 252.823112732129289 ], [ 496.102400226446207, 258.461094542669002 ], [ 501.620424977470918, 258.701008661693379 ], [ 501.6204249759748, 275.614954087328272 ], [ 477.868927140014705, 275.37503996730652 ], [ 478.708626558719402, 258.341137480663292 ] ] ] } },
{ "type": "Feature", "properties": { "feature_type": "building", "subtype": "major-damage", "uid": "970c5729-f9bd-4f5b-9bf5-96eb926cdbf7" }, "geometry": { "type": "Polygon", "coordinates": [ [ [ 427.491220369732105, 250.508488126552692 ], [ 427.295822960488692, 218.46331286799051 ], [ 454.651460376621628, 217.681723227026907 ], [ 456.99622929838921, 249.922295895331388 ], [ 427.491220369732105, 250.508488126552692 ] ] ] } },
{ "type": "Feature", "properties": { "feature_type": "building", "subtype": "major-damage", "uid": "dc9d00e4-c2d2-4c2b-ad29-26c1bd1dcff7" }, "geometry": { "type": "Polygon", "coordinates": [ [ [ 401.438815252642428, 246.454074680558193 ], [ 401.15684676804068, 230.663839491990586 ], [ 418.638892872126917, 230.381871004272 ], [ 418.544903380002495, 245.796148215863894 ], [ 401.438815252642428, 246.454074680558193 ] ] ] } },
{ "type": "Feature", "properties": { "feature_type": "building", "subtype": "major-damage", "uid": "b5d98026-22a6-44bf-97f1-bfea69fb0b6c" }, "geometry": { "type": "Polygon", "coordinates": [ [ [ 385.665552230933827, 289.931904875824273 ], [ 392.620774870058426, 290.119883865309475 ], [ 392.244816890215475, 299.048885907247382 ], [ 385.571562734196505, 299.330854392971276 ], [ 385.665552230933827, 289.931904875824273 ] ] ] } },
{ "type": "Feature", "properties": { "feature_type": "building", "subtype": "minor-damage", "uid": "892c1c22-1636-4ce1-a24b-ded0cf3025d4" }, "geometry": { "type": "Polygon", "coordinates": [ [ [ 767.208526065473848, 85.880695220685894 ], [ 789.403534020880329, 82.389345653407176 ], [ 789.652916134209022, 69.421475834365978 ], [ 803.867696513154556, 68.673329501797639 ], [ 804.366460736882118, 64.18445148444529 ], [ 819.08000533862014, 64.18445148444529 ], [ 818.830623226413536, 71.665914842044771 ], [ 833.544167826967168, 73.411589626681504 ], [ 832.297257269362603, 102.090532490497907 ], [ 797.38376160145549, 100.594239821371701 ], [ 796.386233157678362, 123.288012003696394 ], [ 767.956672398353476, 123.038629891178005 ], [ 767.208526065473848, 85.880695220685894 ] ] ] } },
{ "type": "Feature", "properties": { "feature_type": "building", "subtype": "major-damage", "uid": "d17b1522-8d44-408e-a834-8df0ec047bd6" }, "geometry": { "type": "Polygon", "coordinates": [ [ [ 778.097481098611411, 846.691535269005385 ], [ 787.476556785120465, 847.082330090484561 ], [ 788.062749012788458, 857.047598007284819 ], [ 778.292878506732791, 856.461405773071306 ], [ 778.097481098611411, 846.691535269005385 ] ] ] } },
{ "type": "Feature", "properties": { "feature_type": "building", "subtype": "major-damage", "uid": "0eaa1414-1224-4cd9-aa4d-85cc0638a0f6" }, "geometry": { "type": "Polygon", "coordinates": [ [ [ 554.650292082621945, 775.769477976372627 ], [ 561.539746350612631, 775.922576958745481 ], [ 561.539746349365942, 787.405000738444983 ], [ 555.568885986832584, 787.251901752082631 ], [ 554.650292082621945, 775.769477976372627 ] ] ] } },
{ "type": "Feature", "properties": { "feature_type": "building", "subtype": "major-damage", "uid": "68933c2d-a4c4-4798-b232-cc6ee38e9c9f" }, "geometry": { "type": "Polygon", "coordinates": [ [ [ 1022.407847491799998, 492.867336606771914 ], [ 1012.610728622964984, 493.218539060038722 ], [ 1011.97416504179796, 461.072078129752185 ], [ 1022.407855354451954, 457.951314179659676 ], [ 1022.407847491799998, 492.867336606771914 ] ] ] } }
]
}
