{
"type": "FeatureCollection",
"name": "hurricane-harvey_00000201_post_disaster",
"features": [
{ "type": "Feature", "properties": { "feature_type": "building", "subtype": "no-damage", "uid": "d879dfd4-f960-407a-915e-98ddbc1c022c" }, "geometry": { "type": "Polygon", "coordinates": [ [ [ 6.254047906400592, 0.007759824406417 ], [ 37.61758207015064, 36.225254613245347 ], [ 29.86313782636541, 43.803461487328022 ], [ 32.682935733706813, 48.561870458187478 ], [ 20.522557262578051, 57.902451016419747 ], [ -0.00000502349196, 33.052981971994463 ], [ -0.000005023866257, 0.007625930164236 ], [ 6.254047906400592, 0.007759824406417 ] ] ] } },
{ "type": "Feature", "properties": { "feature_type": "building", "subtype": "no-damage", "uid": "747d8155-0cd9-4e3b-b9b4-b6a9cfedf9b0" }, "geometry": { "type": "Polygon", "coordinates": [ [ [ 58.256711044382619, 0.00880927714805 ], [ 65.467998682923437, 4.405448541065226 ], [ 58.470393503628962, 17.973123541879609 ], [ 26.095414007601839, 0.008173696214151 ], [ 58.256711044382619, 0.00880927714805 ] ] ] } },
{ "type": "Feature", "properties": { "feature_type": "building", "subtype": "no-damage", "uid": "a1b044c0-6de3-498e-bda1-b4c1043ab7fb" }, "geometry": { "type": "Polygon", "coordinates": [ [ [ 166.500814902555192, 0.010627883670075 ], [ 157.318770038015487, 22.899212322805731 ], [ 130.046920194624988, 10.26803976609564 ], [ 133.963803772344903, 0.010133183841142 ], [ 166.500814902555192, 0.010627883670075 ] ] ] } },
{ "type": "Feature", "properties": { "feature_type": "building", "subtype": "no-damage", "uid": "257861df-090c-420f-b79f-1c14d28daa15" }, "geometry": { "type": "Polygon", "coordinates": [ [ [ 166.570354657783895, 23.712578474838889 ], [ 203.034370750241209, 0.011130126316446 ], [ 212.223088116838397, 0.011247588455478 ], [ 226.491060162057494, 22.126442152217201 ], [ 184.017854199703692, 49.795709105854463 ], [ 166.570354657783895, 23.712578474838889 ] ] ] } },
{ "type": "Feature", "properties": { "feature_type": "building", "subtype": "no-damage", "uid": "f62f38f6-1916-4bc9-b75c-9181250e054c" }, "geometry": { "type": "Polygon", "coordinates": [ [ [ 177.673308913831107, 85.57189503612436 ], [ 180.845581555395, 65.480834958566007 ], [ 185.251515787292391, 66.009547064110336 ], [ 187.013889474437008, 57.021441238915102 ], [ 224.023736992619092, 61.603612834272923 ], [ 219.441565395014095, 92.621389800670215 ], [ 177.673308913831107, 85.57189503612436 ] ] ] } },
{ "type": "Feature", "properties": { "feature_type": "building", "subtype": "no-damage", "uid": "e22b6412-9d39-41c9-a279-559d01fbb690" }, "geometry": { "type": "Polygon", "coordinates": [ [ [ 154.260438921700796, 111.310091180376304 ], [ 163.680219193362092, 103.980127823542205 ], [ 160.530364802601412, 97.114369127902137 ], [ 171.432061455148101, 89.142858163148887 ], [ 206.450026046181193, 133.710010925873092 ], [ 194.223585457350993, 144.74790151173579 ], [ 183.527652072610294, 151.937440840174304 ], [ 154.260438921700796, 111.310091180376304 ] ] ] } },
{ "type": "Feature", "properties": { "feature_type": "building", "subtype": "no-damage", "uid": "6473609b-ca69-4ac7-bcb1-819331329438" }, "geometry": { "type": "Polygon", "coordinates": [ [ [ 113.606941027601295, 150.551861145204612 ], [ 115.954413060726694, 105.121372965341095 ], [ 143.847904290430989, 106.502238868529503 ], [ 141.265525284328902, 161.393773527724591 ], [ 124.306536725316306, 161.027923948059595 ], [ 123.825348705983401, 152.20890022923021 ], [ 113.795699741060801, 152.325133203428209 ], [ 113.606941027601295, 150.551861145204612 ] ] ] } },
{ "type": "Feature", "properties": { "feature_type": "building", "subtype": "no-damage", "uid": "ea3532e0-ac73-4dfd-9b29-a55ab5f84499" }, "geometry": { "type": "Polygon", "coordinates": [ [ [ 65.276044264139529, 117.409818953796503 ], [ 89.441197556157348, 81.921565267107724 ], [ 106.149674969994805, 93.520838841313733 ], [ 103.802202937181406, 97.387263371039694 ], [ 112.225484940432395, 103.3249867500585 ], [ 108.220973822220401, 109.676969898337106 ], [ 91.512496407384774, 136.603854991047001 ], [ 65.276044264139529, 117.409818953796503 ] ] ] } },
{ "type": "Feature", "properties": { "feature_type": "building", "subtype": "no-damage", "uid": "5074a130-cb59-46cb-98ee-f83abeac3428" }, "geometry": { "type": "Polygon", "coordinates": [ [ [ -0.000005026985392, 144.066840097586407 ], [ 18.984822389110001, 143.616983088879095 ], [ 33.830103714135987, 180.280329376879507 ], [ 25.73267753612885, 183.654256949670412 ], [ 28.96514877990796, 193.660071365190703 ], [ 16.02379197746648, 198.409057990638189 ], [ -0.000005026423947, 166.559690580862991 ], [ -0.000005026985392, 144.066840097586407 ] ] ] } },
{ "type": "Feature", "properties": { "feature_type": "building", "subtype": "no-damage", "uid": "85ee756f-4d72-4e8e-b9cf-522018fe32e1" }, "geometry": { "type": "Polygon", "coordinates": [ [ [ 25.537375602713599, 132.209743135909605 ], [ 41.14116029700687, 123.786461131351302 ], [ 44.593325051360729, 129.033751559275004 ], [ 55.640252271755926, 124.200720901609202 ], [ 58.540070664996463, 130.414617459469014 ], [ 60.887542699618947, 129.171838149693713 ], [ 82.429050771435797, 174.464239739138492 ], [ 54.397472959110573, 188.687158533295104 ], [ 27.432653540556299, 135.929232521918806 ], [ 25.537375602713599, 132.209743135909605 ] ] ] } },
{ "type": "Feature", "properties": { "feature_type": "building", "subtype": "no-damage", "uid": "bacb0f4b-e0c5-488c-8d1f-f6efa1d672b4" }, "geometry": { "type": "Polygon", "coordinates": [ [ [ -0.000005023679108, 220.702022144918004 ], [ 18.505167277428711, 216.973684207606908 ], [ 31.479768536505929, 262.770557222708419 ], [ 5.40971780650082, 269.252947732457585 ], [ -0.000005027297305, 260.196056876944397 ], [ -0.000005023679108, 220.702022144918004 ] ] ] } },
{ "type": "Feature", "properties": { "feature_type": "building", "subtype": "no-damage", "uid": "546bd8ab-1387-40f5-a103-87ef3da317c9" }, "geometry": { "type": "Polygon", "coordinates": [ [ [ 35.851016400642692, 256.956290571254328 ], [ 22.809451084194951, 207.43358984992031 ], [ 51.183667515019607, 200.384095084376298 ], [ 65.282657046798363, 255.193916882113996 ], [ 46.601495921282272, 260.833512694549199 ], [ 44.839122227462767, 253.960255299516291 ], [ 35.851016400642692, 256.956290571254328 ] ] ] } },
{ "type": "Feature", "properties": { "feature_type": "building", "subtype": "no-damage", "uid": "12e2035e-a7da-4fcf-a943-d931f39228df" }, "geometry": { "type": "Polygon", "coordinates": [ [ [ 71.135369634372651, 252.829249669632588 ], [ 60.737364851948008, 202.249124733217513 ], [ 71.135369630380168, 200.310513672568192 ], [ 70.254182785747389, 196.962003660806289 ], [ 87.87791970079833, 193.437256276537113 ], [ 98.099687112025677, 247.542128598219506 ], [ 71.135369634372651, 252.829249669632588 ] ] ] } },
{ "type": "Feature", "properties": { "feature_type": "building", "subtype": "no-damage", "uid": "01adb97f-28bb-438f-a932-744514fa0b59" }, "geometry": { "type": "Polygon", "coordinates": [ [ [ 107.0125024334139, 244.606438340340304 ], [ 100.660519279144495, 203.594721045888605 ], [ 130.763395947500612, 198.623603794809696 ], [ 137.667725460200899, 239.082974728584901 ], [ 107.0125024334139, 244.606438340340304 ] ] ] } },
{ "type": "Feature", "properties": { "feature_type": "building", "subtype": "no-damage", "uid": "da99541a-3b09-4b35-be13-035a72de74f2" }, "geometry": { "type": "Polygon", "coordinates": [ [ [ 140.515523544484097, 237.172953802657702 ], [ 139.105624592123405, 192.056187308166812 ], [ 167.479841022137094, 191.351237831113394 ], [ 168.537265237779991, 241.226413291473108 ], [ 143.511558819778912, 242.460074878063409 ], [ 143.159084082998703, 238.759090123283187 ], [ 140.515523544484097, 237.172953802657702 ] ] ] } },
{ "type": "Feature", "properties": { "feature_type": "building", "subtype": "no-damage", "uid": "2f329cdb-af93-4cd9-b1e4-8a2a3841972f" }, "geometry": { "type": "Polygon", "coordinates": [ [ [ 178.094409898359004, 232.932393051421286 ], [ 177.636013295987198, 189.349926426270798 ], [ 196.353654301407801, 189.674509796702893 ], [ 196.461848758280894, 194.002288062143009 ], [ 205.225599751152401, 194.435065888387498 ], [ 205.874766490768991, 233.809308527333513 ], [ 178.094409898359004, 232.932393051421286 ] ] ] } },
{ "type": "Feature", "properties": { "feature_type": "building", "subtype": "no-damage", "uid": "a81efe3f-9432-425a-98b9-180b2cee788d" }, "geometry": { "type": "Polygon", "coordinates": [ [ [ 205.814888185744792, 178.504750986192107 ], [ 220.833530776208988, 178.974083568491011 ], [ 221.0681970636156, 189.768732927430193 ], [ 249.462818205312004, 191.176730666341996 ], [ 248.054820461409207, 229.662002294081503 ], [ 212.385544321338188, 226.846006809270989 ], [ 213.504529475256788, 193.442139005669986 ], [ 205.923092775003795, 193.054284462358993 ], [ 205.814888185744792, 178.504750986192107 ] ] ] } },
{ "type": "Feature", "properties": { "feature_type": "building", "subtype": "no-damage", "uid": "aa0d37b0-ae73-4ea7-9634-95dfac6e2401" }, "geometry": { "type": "Polygon", "coordinates": [ [ [ -0.000005023679108, 344.079322074307697 ], [ 5.341921087948696, 342.494609869953877 ], [ 6.350374308090458, 345.375904787958916 ], [ 16.002712279754739, 342.494609869953877 ], [ 26.23130923494535, 381.248026503696622 ], [ 16.002712281002388, 384.849645146960825 ], [ 17.011165500270799, 388.019069556666523 ], [ -0.000005027484453, 392.196947187324611 ], [ -0.000005023679108, 344.079322074307697 ] ] ] } },
{ "type": "Feature", "properties": { "feature_type": "building", "subtype": "no-damage", "uid": "cdf0960d-7228-4696-8879-ab5305174b79" }, "geometry": { "type": "Polygon", "coordinates": [ [ [ 36.574864788883623, 390.29356909105968 ], [ 23.88802944419454, 341.75263385392708 ], [ 31.764028163486479, 338.786101546541772 ], [ 30.660825091621948, 336.276420921962199 ], [ 29.925356374966171, 333.821687714201119 ], [ 48.118694628238657, 327.972107895166516 ], [ 66.177480596880315, 383.858217827653675 ], [ 37.14161643780097, 392.089698157851785 ], [ 36.574864788883623, 390.29356909105968 ] ] ] } },
{ "type": "Feature", "properties": { "feature_type": "building", "subtype": "no-damage", "uid": "f52068e4-1161-4c19-b078-4dd77c2288de" }, "geometry": { "type": "Polygon", "coordinates": [ [ [ 67.187879967351847, 372.055780440018509 ], [ 56.393230606911921, 323.245192036636809 ], [ 70.473208031031277, 319.021198809920179 ], [ 71.177206903169861, 321.367861713429818 ], [ 85.961183198679208, 318.551866231613701 ], [ 95.347834817462015, 352.578478336496516 ], [ 98.16383030146244, 366.42378947039748 ], [ 67.187879967351847, 372.055780440018509 ] ] ] } },
{ "type": "Feature", "properties": { "feature_type": "building", "subtype": "no-damage", "uid": "69479a2c-f29f-4139-b97e-ff5b0c3bc7d8" }, "geometry": { "type": "Polygon", "coordinates": [ [ [ 100.512652183564796, 355.517536409960712 ], [ 94.755848781785389, 318.493389056706519 ], [ 101.077044672099305, 317.138847080331402 ], [ 100.286895186878297, 313.865370637924116 ], [ 122.862594792450807, 310.479015692993812 ], [ 130.764089656013795, 361.048582811995118 ], [ 113.945193449600595, 365.450844236711305 ], [ 112.139137481099894, 357.887984870114281 ], [ 102.205829652349806, 360.935704314462896 ], [ 100.512652183564796, 355.517536409960712 ] ] ] } },
{ "type": "Feature", "properties": { "feature_type": "building", "subtype": "no-damage", "uid": "09355b3f-252b-4a1c-94c5-6792463044c7" }, "geometry": { "type": "Polygon", "coordinates": [ [ [ 138.486093432006697, 359.948979488181919 ], [ 135.36035138843431, 310.12097400335881 ], [ 164.595232838477386, 308.650036571295288 ], [ 168.272576419136186, 359.581245130415596 ], [ 153.438580441194091, 361.080081527788877 ], [ 138.486093432006697, 359.948979488181919 ] ] ] } },
{ "type": "Feature", "properties": { "feature_type": "building", "subtype": "no-damage", "uid": "8aab17b2-8b47-47a4-9ba7-5e4a09505d15" }, "geometry": { "type": "Polygon", "coordinates": [ [ [ 174.484070053838707, 360.538109339828509 ], [ 175.060329037926493, 315.589908637515407 ], [ 203.585148715992005, 317.030556095020813 ], [ 202.864824986677689, 372.495483242412718 ], [ 186.297379213757893, 372.783612737107774 ], [ 185.000796504410687, 361.834692048489103 ], [ 174.484070053838707, 360.538109339828509 ] ] ] } },
{ "type": "Feature", "properties": { "feature_type": "building", "subtype": "no-damage", "uid": "c8b9480d-dcee-4eaa-a796-cd93ea448031" }, "geometry": { "type": "Polygon", "coordinates": [ [ [ -0.000005026361565, 416.529575372014619 ], [ 13.45798436336214, 412.540248437445484 ], [ 25.49526277647729, 461.809146608035178 ], [ 10.049811744503851, 466.699342422561301 ], [ 8.764658553471673, 462.289502002430709 ], [ -0.000005027609219, 463.932166035486318 ], [ -0.000005026361565, 416.529575372014619 ] ] ] } },
{ "type": "Feature", "properties": { "feature_type": "building", "subtype": "no-damage", "uid": "72ab0740-4847-4f98-a944-a58354141b60" }, "geometry": { "type": "Polygon", "coordinates": [ [ [ 32.821854446757222, 458.46665518368178 ], [ 23.996229860549679, 425.370562978723683 ], [ 25.651034469562941, 421.325485041297782 ], [ 23.62849550078699, 411.76439174037148 ], [ 32.82185444819202, 409.006384054628711 ], [ 35.763729310947411, 417.096539927484173 ], [ 51.576306698959442, 413.051461992054612 ], [ 62.519268220259598, 451.254164977175208 ], [ 32.821854446757222, 458.46665518368178 ] ] ] } },
{ "type": "Feature", "properties": { "feature_type": "building", "subtype": "no-damage", "uid": "f3afb2e5-25b9-4fd4-b3e5-fd714c3bcc44" }, "geometry": { "type": "Polygon", "coordinates": [ [ [ 67.906882257583305, 450.7084731571411 ], [ 61.135839202802082, 409.794085337639615 ], [ 69.347529717833936, 408.065308390429777 ], [ 68.05094700405752, 401.58239482416991 ], [ 89.372529392223541, 397.692646686210708 ], [ 98.160478888535948, 446.962789761039687 ], [ 67.906882257583305, 450.7084731571411 ] ] ] } },
{ "type": "Feature", "properties": { "feature_type": "building", "subtype": "no-damage", "uid": "00f820aa-dc53-4beb-bced-418f0d7fef45" }, "geometry": { "type": "Polygon", "coordinates": [ [ [ 105.939975160402199, 447.250919253738516 ], [ 96.431701934151619, 392.794445328297115 ], [ 112.278823977944199, 389.480956171742889 ], [ 114.583859910302706, 398.557035161312683 ], [ 124.524327375476901, 396.540128721404074 ], [ 132.591953143036392, 441.632394164576908 ], [ 105.939975160402199, 447.250919253738516 ] ] ] } },
{ "type": "Feature", "properties": { "feature_type": "building", "subtype": "no-damage", "uid": "51332408-3c56-4f42-883a-c60a61b2fe83" }, "geometry": { "type": "Polygon", "coordinates": [ [ [ 139.159311074344004, 438.143419874101085 ], [ 138.727116837479002, 398.381550022400404 ], [ 166.099418546620399, 398.81374425995142 ], [ 167.972260241178304, 438.143419874101085 ], [ 139.159311074344004, 438.143419874101085 ] ] ] } },
{ "type": "Feature", "properties": { "feature_type": "building", "subtype": "no-damage", "uid": "07e798d9-2a4d-4869-bfdd-80c2c6c0a8d6" }, "geometry": { "type": "Polygon", "coordinates": [ [ [ 174.45517380650449, 433.389283259043509 ], [ 174.455173803946792, 382.390363236006579 ], [ 192.319202291017291, 382.534427979860709 ], [ 192.751396529316992, 388.87327679527948 ], [ 203.268122973525891, 389.017341543126122 ], [ 202.547799247143587, 434.541801226844427 ], [ 174.45517380650449, 433.389283259043509 ] ] ] } },
{ "type": "Feature", "properties": { "feature_type": "building", "subtype": "no-damage", "uid": "ba6dbb34-7011-4eed-a3ac-07ca3b32ab4e" }, "geometry": { "type": "Polygon", "coordinates": [ [ [ 210.489675723722513, 370.803578817769278 ], [ 213.071004916448601, 323.166321867140596 ], [ 217.764330725091412, 323.166321866142425 ], [ 218.233663306205187, 319.411661216734103 ], [ 241.934958641629407, 320.350326381332025 ], [ 239.822962027334597, 373.150241722277087 ], [ 210.489675723722513, 370.803578817769278 ] ] ] } },
{ "type": "Feature", "properties": { "feature_type": "building", "subtype": "no-damage", "uid": "891c8baf-8689-4b4a-930c-4736b5dfb06f" }, "geometry": { "type": "Polygon", "coordinates": [ [ [ -0.00000502717254, 542.737861398760629 ], [ 1.743208169001341, 545.763221060619685 ], [ 12.11586986860754, 543.458185126016019 ], [ 20.6156898727201, 580.050630570007343 ], [ 13.844646818749849, 582.355666502614667 ], [ 13.70058207583144, 586.821673622977187 ], [ 6.461276995935638, 588.427607184371936 ], [ -0.000005024989145, 589.703341501714021 ], [ -0.00000502717254, 542.737861398760629 ] ] ] } },
{ "type": "Feature", "properties": { "feature_type": "building", "subtype": "no-damage", "uid": "80f71709-9ca4-47a1-afbe-24cfbabd8df0" }, "geometry": { "type": "Polygon", "coordinates": [ [ [ 31.164716034994331, 588.362651412999185 ], [ 17.006943256931311, 532.650896198924102 ], [ 26.93577091806014, 530.26062287194577 ], [ 27.487372455707931, 532.099294663771843 ], [ 44.954754453980883, 526.951013653046971 ], [ 58.928660051975413, 578.249956570931772 ], [ 46.388717659584579, 584.081432431363169 ], [ 31.164716034994331, 588.362651412999185 ] ] ] } },
{ "type": "Feature", "properties": { "feature_type": "building", "subtype": "no-damage", "uid": "ba75bb3b-f8d2-4878-ae99-a95c382f92f8" }, "geometry": { "type": "Polygon", "coordinates": [ [ [ 64.30987232362061, 576.210314586069899 ], [ 55.95411706236407, 526.796106766388675 ], [ 65.606455032032102, 525.211394562034911 ], [ 64.598001812389398, 519.448804726024832 ], [ 85.919584197685822, 515.270927098361085 ], [ 96.724440135654163, 568.286753562304739 ], [ 79.724800128364791, 572.896825432510127 ], [ 64.30987232362061, 576.210314586069899 ] ] ] } },
{ "type": "Feature", "properties": { "feature_type": "building", "subtype": "no-damage", "uid": "fa2fd7af-c40e-431a-bceb-53736529d279" }, "geometry": { "type": "Polygon", "coordinates": [ [ [ 101.147486862689902, 562.836837571892829 ], [ 96.176369614541429, 516.854003031352818 ], [ 124.346034020404502, 513.539924867293962 ], [ 129.17906467832151, 559.798932586674937 ], [ 101.147486862689902, 562.836837571892829 ] ] ] } },
{ "type": "Feature", "properties": { "feature_type": "building", "subtype": "no-damage", "uid": "f6f9ecad-fdb0-4fd0-b2b2-4f232dbccec4" }, "geometry": { "type": "Polygon", "coordinates": [ [ [ 136.319635000458391, 563.123973439878 ], [ 134.028549201468707, 516.773545360793037 ], [ 162.050290892456502, 516.068595886733988 ], [ 165.222563540632905, 562.242786594309791 ], [ 136.319635000458391, 563.123973439878 ] ] ] } },
{ "type": "Feature", "properties": { "feature_type": "building", "subtype": "no-damage", "uid": "e466883b-d0a4-4ba8-b794-36fecbfd5829" }, "geometry": { "type": "Polygon", "coordinates": [ [ [ 173.92942366578049, 566.770171097395064 ], [ 173.877380285328911, 562.031869346459303 ], [ 171.410057113145712, 562.031869344463075 ], [ 172.467481328476708, 524.845784461084349 ], [ 182.689248740016012, 524.317072353543836 ], [ 182.865486107158404, 521.144799710296638 ], [ 200.301400469074707, 520.716461062182248 ], [ 203.590134903220388, 575.552627140462732 ], [ 191.32487982450391, 576.130858873554757 ], [ 191.148642459856802, 572.958586234300128 ], [ 180.531934851973205, 572.527092548520045 ], [ 180.152905098579396, 567.378891527392852 ], [ 173.92942366578049, 566.770171097395064 ] ] ] } },
{ "type": "Feature", "properties": { "feature_type": "building", "subtype": "no-damage", "uid": "33f30bf1-d389-4df4-a6ea-b5a590e37fdf" }, "geometry": { "type": "Polygon", "coordinates": [ [ [ -0.000005023616726, 617.190380957918251 ], [ 10.58375101367516, 615.61008198747686 ], [ 20.74281583942356, 657.600883253108236 ], [ 6.294368090918933, 662.567537165485419 ], [ 3.585284139914604, 655.343313292483117 ], [ -0.000005026611095, 656.020584278674391 ], [ -0.000005023616726, 617.190380957918251 ] ] ] } },
{ "type": "Feature", "properties": { "feature_type": "building", "subtype": "no-damage", "uid": "7da42b9a-911d-41d0-8cd7-7a04257eb97f" }, "geometry": { "type": "Polygon", "coordinates": [ [ [ 28.19279670973847, 651.053930365299038 ], [ 21.30720832758379, 609.853278585387443 ], [ 43.88290793640018, 604.999503169544369 ], [ 54.284228965560878, 666.093632208786744 ], [ 41.19806961815825, 668.754526516258579 ], [ 37.712417794160011, 654.751757571135499 ], [ 29.699654041560329, 656.5833671608342 ], [ 28.19279670973847, 651.053930365299038 ] ] ] } },
{ "type": "Feature", "properties": { "feature_type": "building", "subtype": "no-damage", "uid": "19c45ef4-1dfc-417e-9273-f511cb23a917" }, "geometry": { "type": "Polygon", "coordinates": [ [ [ 61.252228688777663, 647.649746132309929 ], [ 55.000744602568439, 602.234552934693966 ], [ 84.419493234177224, 597.637873465110147 ], [ 91.222578851296902, 643.604668194884084 ], [ 61.252228688777663, 647.649746132309929 ] ] ] } },
{ "type": "Feature", "properties": { "feature_type": "building", "subtype": "no-damage", "uid": "31ff4141-1b9d-4710-8864-9824b90feda0" }, "geometry": { "type": "Polygon", "coordinates": [ [ [ 99.40185205225113, 641.134789999843861 ], [ 94.348320894744603, 601.499084220159375 ], [ 101.886875230266796, 600.395881146860461 ], [ 101.795166759727493, 595.480782210019697 ], [ 120.904799529289406, 593.458243240807747 ], [ 123.667216042605602, 614.930376144482693 ], [ 126.009398168579096, 636.553255514544844 ], [ 99.40185205225113, 641.134789999843861 ] ] ] } },
{ "type": "Feature", "properties": { "feature_type": "building", "subtype": "no-damage", "uid": "84299827-943a-4516-a5d5-ce9a757d26cf" }, "geometry": { "type": "Polygon", "coordinates": [ [ [ 131.976855700192914, 637.573843351098958 ], [ 130.568857957225703, 599.088571726353734 ], [ 162.952806034927306, 598.149906564750268 ], [ 164.360803777894404, 636.869844481642986 ], [ 131.976855700192914, 637.573843351098958 ] ] ] } },
{ "type": "Feature", "properties": { "feature_type": "building", "subtype": "no-damage", "uid": "28054489-5023-45cc-bd41-0b844f8be4f4" }, "geometry": { "type": "Polygon", "coordinates": [ [ [ 169.523462170458288, 640.859171416212121 ], [ 169.054129586537186, 621.851201892992776 ], [ 167.6461318474378, 591.109917850228726 ], [ 198.622082180487894, 590.640585268927907 ], [ 199.560747341904488, 639.920506251614256 ], [ 169.523462170458288, 640.859171416212121 ] ] ] } },
{ "type": "Feature", "properties": { "feature_type": "building", "subtype": "no-damage", "uid": "31dd932c-c135-4de9-a6e0-4dc954b8513b" }, "geometry": { "type": "Polygon", "coordinates": [ [ [ -0.000005022369072, 730.088874259594604 ], [ 9.446470872651803, 728.591372961868615 ], [ 18.43147867055162, 771.419910107774513 ], [ -0.000005026236799, 775.912414005943219 ], [ -0.000005022369072, 730.088874259594604 ] ] ] } },
{ "type": "Feature", "properties": { "feature_type": "building", "subtype": "no-damage", "uid": "72a1b48d-db19-4e05-800a-15231a153abe" }, "geometry": { "type": "Polygon", "coordinates": [ [ [ 24.25845180097469, 769.836988454694279 ], [ 14.88122567262781, 728.834607557261052 ], [ 43.380638408947107, 720.376717325641152 ], [ 54.349693122592029, 761.84522786378011 ], [ 24.25845180097469, 769.836988454694279 ] ] ] } },
{ "type": "Feature", "properties": { "feature_type": "building", "subtype": "no-damage", "uid": "c321daa7-c2f4-420e-9b8b-19833c8fe3ca" }, "geometry": { "type": "Polygon", "coordinates": [ [ [ 60.057205458565008, 775.334675371690309 ], [ 53.251883039931847, 723.004092612046065 ], [ 81.646504175639507, 718.076100510882839 ], [ 87.513161439905261, 761.724030525944386 ], [ 76.953178367682895, 764.30535972160169 ], [ 77.891843532405829, 773.692011337636586 ], [ 60.057205458565008, 775.334675371690309 ] ] ] } },
{ "type": "Feature", "properties": { "feature_type": "building", "subtype": "no-damage", "uid": "28045c30-c5ce-408b-860d-9d0de64be22a" }, "geometry": { "type": "Polygon", "coordinates": [ [ [ 96.440243282329462, 760.319884188344076 ], [ 92.546739904809499, 715.095344960087687 ], [ 120.699764324088804, 712.399842622184678 ], [ 125.589277157308302, 761.088059086302792 ], [ 106.232144413683102, 763.63669688173934 ], [ 105.724751335095903, 760.020383925804481 ], [ 96.440243282329462, 760.319884188344076 ] ] ] } },
{ "type": "Feature", "properties": { "feature_type": "building", "subtype": "no-damage", "uid": "29e392dd-0316-4c51-b54f-388dfb89d7a0" }, "geometry": { "type": "Polygon", "coordinates": [ [ [ 132.228722676908603, 755.22295726587879 ], [ 129.519638725342787, 714.248062483027752 ], [ 140.581731533532491, 713.570791496836478 ], [ 140.243096038128499, 710.63595054602763 ], [ 149.950646870192202, 710.184436554900685 ], [ 150.515039358664296, 713.683669990376188 ], [ 158.529412719010907, 712.893520505654578 ], [ 162.480160152539099, 764.478994106438108 ], [ 150.627917860251387, 765.494900585225992 ], [ 149.273375880444888, 753.755536789975281 ], [ 136.969619596406289, 754.658564776221624 ], [ 132.228722676908603, 755.22295726587879 ] ] ] } },
{ "type": "Feature", "properties": { "feature_type": "building", "subtype": "no-damage", "uid": "769df2f2-2b99-4271-a3de-7da4672bf8d7" }, "geometry": { "type": "Polygon", "coordinates": [ [ [ 169.327403488874211, 747.606532419044356 ], [ 167.310497043101009, 706.980274091243473 ], [ 179.700065187794195, 706.174244155116639 ], [ 179.913427539804701, 708.335215342871834 ], [ 195.835316720667407, 707.700597821493375 ], [ 198.140352654523213, 753.945381235461355 ], [ 186.615172988862497, 754.23351072716207 ], [ 186.038914004712296, 747.462467671197714 ], [ 169.327403488874211, 747.606532419044356 ] ] ] } },
{ "type": "Feature", "properties": { "feature_type": "building", "subtype": "no-damage", "uid": "5292e61d-0019-4bd8-b78c-8031499aedea" }, "geometry": { "type": "Polygon", "coordinates": [ [ [ -0.000005024240553, 806.415629442840554 ], [ 13.28731802965221, 805.496293546927518 ], [ 19.722669291375979, 850.727619561168808 ], [ -0.000005026735861, 856.021618698934844 ], [ -0.000005024240553, 806.415629442840554 ] ] ] } },
{ "type": "Feature", "properties": { "feature_type": "building", "subtype": "no-damage", "uid": "94934a1d-0acb-47bd-8e2f-c0ee560ffd93" }, "geometry": { "type": "Polygon", "coordinates": [ [ [ 32.80128633518602, 845.805886239786673 ], [ 24.846201574234041, 812.57526344016469 ], [ 50.659493517028437, 806.00460730594591 ], [ 59.784362545350568, 845.659663204111894 ], [ 43.453259842277539, 850.356536192459544 ], [ 41.279936268388177, 843.63610984423201 ], [ 32.80128633518602, 845.805886239786673 ] ] ] } },
{ "type": "Feature", "properties": { "feature_type": "building", "subtype": "no-damage", "uid": "36a059c8-4526-48e6-ad76-8a1ef353bf4f" }, "geometry": { "type": "Polygon", "coordinates": [ [ [ 62.960421203354841, 836.172236500820986 ], [ 61.231644254834492, 830.121517175106533 ], [ 59.502867304692167, 828.824934463451541 ], [ 57.485960860790463, 809.952452762047074 ], [ 59.790996793835262, 801.740762248577425 ], [ 87.163298503974744, 796.266301902271834 ], [ 92.205564610797055, 824.50299209093555 ], [ 90.476787659719008, 828.968999210300012 ], [ 76.214377822963229, 831.706229379460297 ], [ 76.646572057894332, 834.875653790164165 ], [ 62.960421203354841, 836.172236500820986 ] ] ] } },
{ "type": "Feature", "properties": { "feature_type": "building", "subtype": "no-damage", "uid": "3e93f743-03b2-497e-94fd-e4cae4de2f7c" }, "geometry": { "type": "Polygon", "coordinates": [ [ [ 97.469293539654345, 835.418579442350847 ], [ 92.859221673439961, 794.216062129152306 ], [ 109.858861682288904, 793.207608911194257 ], [ 109.714796937124703, 789.173796027384697 ], [ 123.545012537140295, 788.309407550286323 ], [ 127.722890169858402, 833.833867235002685 ], [ 121.790216379541405, 834.81180367984598 ], [ 111.443573888577106, 835.706708931057165 ], [ 111.267314905266502, 834.290941583136714 ], [ 97.469293539654345, 835.418579442350847 ] ] ] } },
{ "type": "Feature", "properties": { "feature_type": "building", "subtype": "no-damage", "uid": "74bd7160-5086-451c-8cd6-407e96a75cc7" }, "geometry": { "type": "Polygon", "coordinates": [ [ [ 132.746019524449707, 833.461252100432489 ], [ 131.275082091824402, 783.633246616607494 ], [ 143.778050260562196, 782.897777898080449 ], [ 144.329651798896208, 788.41379326357719 ], [ 162.16476815088069, 787.310590190278276 ], [ 164.143770216449809, 834.699992706076955 ], [ 142.737957280640501, 836.228979344745085 ], [ 142.5938925351644, 833.270901223176793 ], [ 132.746019524449707, 833.461252100432489 ] ] ] } },
{ "type": "Feature", "properties": { "feature_type": "building", "subtype": "no-damage", "uid": "de44d86f-d8cb-4c4d-8057-ef1efedaa8ad" }, "geometry": { "type": "Polygon", "coordinates": [ [ [ 170.798806465212408, 826.514125215257536 ], [ 169.512596514677313, 785.483161573206644 ], [ 185.000571682512401, 784.309830120453739 ], [ 185.000571681701388, 774.453845924116081 ], [ 201.661878300543208, 773.515180759518216 ], [ 203.069876044570805, 825.23682456005929 ], [ 170.798806465212408, 826.514125215257536 ] ] ] } },
{ "type": "Feature", "properties": { "feature_type": "building", "subtype": "no-damage", "uid": "5998ff8e-abdd-4700-8287-aecf4a26293d" }, "geometry": { "type": "Polygon", "coordinates": [ [ [ 37.849881729840021, 971.729221389167151 ], [ 28.697896402705808, 924.561297015846776 ], [ 36.911216570232469, 922.683966693637899 ], [ 36.676550280018667, 919.633304918676004 ], [ 45.828535603908982, 917.286642013170194 ], [ 46.5325344781062, 919.633304917677947 ], [ 58.735181576647413, 917.051975721022586 ], [ 67.924305245410395, 965.28630514200097 ], [ 37.849881729840021, 971.729221389167151 ] ] ] } },
{ "type": "Feature", "properties": { "feature_type": "building", "subtype": "no-damage", "uid": "716f6e50-229a-49df-8f5e-e07fef44421d" }, "geometry": { "type": "Polygon", "coordinates": [ [ [ 73.105049703221809, 951.454337142355826 ], [ 67.016807721305696, 912.662839423475248 ], [ 88.43828526193343, 908.678974121542069 ], [ 89.590803224993607, 913.865304970158149 ], [ 95.33826705285297, 913.053650494704584 ], [ 100.920420697348902, 946.602206797329359 ], [ 73.105049703221809, 951.454337142355826 ] ] ] } },
{ "type": "Feature", "properties": { "feature_type": "building", "subtype": "no-damage", "uid": "addcd874-012f-47c2-a48c-6fe3e3d35d3f" }, "geometry": { "type": "Polygon", "coordinates": [ [ [ 107.736374231575198, 948.54609827235447 ], [ 107.736374229204699, 914.120443157539967 ], [ 118.105013164708396, 913.7527087997737 ], [ 118.334152313897405, 904.876253622803347 ], [ 136.28658607666739, 904.633312355873045 ], [ 137.890591572852912, 954.797582356378371 ], [ 119.320006502091601, 956.268519789439893 ], [ 119.136139321898398, 952.407309029400039 ], [ 112.333053703156807, 952.958910566548525 ], [ 112.149186523213004, 948.729965452734859 ], [ 107.736374231575198, 948.54609827235447 ] ] ] } },
{ "type": "Feature", "properties": { "feature_type": "building", "subtype": "no-damage", "uid": "6187903b-dc20-4762-ad26-28ddd1b670a3" }, "geometry": { "type": "Polygon", "coordinates": [ [ [ 148.183519673197111, 965.030832089257729 ], [ 147.080316597527201, 945.724778303032167 ], [ 147.631918135424513, 925.499388621891626 ], [ 149.4705899241944, 910.054545592711634 ], [ 177.050666764163708, 911.34161584439471 ], [ 177.418401124051201, 955.837473142105182 ], [ 165.467034490840092, 956.572941858635886 ], [ 165.576419743753291, 965.32408452142829 ], [ 148.183519673197111, 965.030832089257729 ] ] ] } },
{ "type": "Feature", "properties": { "feature_type": "building", "subtype": "no-damage", "uid": "f07f2e30-5b91-4abf-870d-fb15da8c0fc1" }, "geometry": { "type": "Polygon", "coordinates": [ [ [ 183.093903308868789, 965.101081663831678 ], [ 184.032568468164499, 913.709164067787128 ], [ 192.480554925780211, 913.47449777563952 ], [ 216.313678443206101, 914.115083189746429 ], [ 216.079012152181292, 965.97633336509557 ], [ 183.093903308868789, 965.101081663831678 ] ] ] } },
{ "type": "Feature", "properties": { "feature_type": "building", "subtype": "no-damage", "uid": "f4526906-b038-48f4-a23e-097076f8db9a" }, "geometry": { "type": "Polygon", "coordinates": [ [ [ 49.315424279475273, 1022.984637604165982 ], [ 48.628040345206337, 1001.796058128443974 ], [ 50.933076279311663, 1001.363863890892958 ], [ 51.077141026783998, 994.592820835926318 ], [ 58.28037831936593, 994.592820833930091 ], [ 58.568507808509018, 988.974295746764824 ], [ 77.152860027264325, 988.830230999916353 ], [ 78.691845753100097, 1022.985191001626958 ], [ 49.315424279475273, 1022.984637604165982 ] ] ] } },
{ "type": "Feature", "properties": { "feature_type": "building", "subtype": "no-damage", "uid": "eab20c48-ab56-43ae-a63d-87c231832275" }, "geometry": { "type": "Polygon", "coordinates": [ [ [ 84.660877760331317, 1022.985299000559053 ], [ 83.132884551180766, 995.649410749722279 ], [ 112.810222197109894, 994.208763290220645 ], [ 114.758467016095196, 1022.985820661693992 ], [ 84.660877760331317, 1022.985299000559053 ] ] ] } },
{ "type": "Feature", "properties": { "feature_type": "building", "subtype": "no-damage", "uid": "c61dcbb4-d294-47af-97ea-e81b3fee97dc" }, "geometry": { "type": "Polygon", "coordinates": [ [ [ 121.4385911894435, 1022.98593126472997 ], [ 120.7337832175714, 976.920993786183089 ], [ 140.038459162334703, 976.632864296478601 ], [ 140.18252390756129, 970.294015481059773 ], [ 151.563638826934891, 970.438080226910074 ], [ 152.128992730371408, 1022.986415216767 ], [ 121.4385911894435, 1022.98593126472997 ] ] ] } },
{ "type": "Feature", "properties": { "feature_type": "building", "subtype": "no-damage", "uid": "37571515-11a6-487d-87f3-7b72b00e0a3c" }, "geometry": { "type": "Polygon", "coordinates": [ [ [ 158.993734553325112, 1022.986518025458963 ], [ 160.752350849580296, 989.219079929509007 ], [ 170.343028414122614, 989.17380796419377 ], [ 170.52689559250669, 984.688918749336494 ], [ 180.998986858379112, 984.821955338140242 ], [ 181.047038138259893, 989.858446087151719 ], [ 188.422971622488291, 990.42851464225248 ], [ 186.828999754398495, 1022.986914542898035 ], [ 158.993734553325112, 1022.986518025458963 ] ] ] } },
{ "type": "Feature", "properties": { "feature_type": "building", "subtype": "no-damage", "uid": "ff5aa159-2964-40ed-944e-240eb6418892" }, "geometry": { "type": "Polygon", "coordinates": [ [ [ 191.867455008604196, 1022.986982823510971 ], [ 194.283528772887593, 986.594197685502195 ], [ 226.905414701560886, 988.738889148595149 ], [ 225.58977096247861, 1022.98741226005302 ], [ 191.867455008604196, 1022.986982823510971 ] ] ] } },
{ "type": "Feature", "properties": { "feature_type": "building", "subtype": "no-damage", "uid": "20d17bd7-23ee-41c9-856c-05fe206b44be" }, "geometry": { "type": "Polygon", "coordinates": [ [ [ 298.91152488645821, 1022.988180473601005 ], [ 300.059701047357123, 976.80517418872364 ], [ 337.840973802533824, 976.101175316273384 ], [ 338.53010586390792, 1022.988501211526 ], [ 298.91152488645821, 1022.988180473601005 ] ] ] } },
{ "type": "Feature", "properties": { "feature_type": "building", "subtype": "no-damage", "uid": "82fb90be-5c13-49be-85f0-d6cc7496b7bc" }, "geometry": { "type": "Polygon", "coordinates": [ [ [ 344.856613523579085, 1022.988546297752009 ], [ 346.433025005313709, 998.921977364853888 ], [ 342.53214132571901, 998.894861065917098 ], [ 343.243234565816692, 975.673539866952865 ], [ 361.060136720102719, 975.84687919857015 ], [ 361.413909747179275, 990.576622901191627 ], [ 385.787173736505792, 992.640070229492721 ], [ 384.492115084950285, 1022.988790355856054 ], [ 344.856613523579085, 1022.988546297752009 ] ] ] } },
{ "type": "Feature", "properties": { "feature_type": "building", "subtype": "no-damage", "uid": "91baf820-37c9-46db-a9c1-809501fe3c68" }, "geometry": { "type": "Polygon", "coordinates": [ [ [ 390.71490225814722, 1007.239029122349962 ], [ 392.633836722932472, 990.871646907318336 ], [ 409.114097438246176, 993.806487856130957 ], [ 406.969405976899225, 1009.722356078038956 ], [ 415.435293326626208, 1009.948113076098025 ], [ 416.11256431512578, 1003.965552675949993 ], [ 428.870694612541911, 1005.165612010968971 ], [ 428.53644654900279, 1013.566753638496039 ], [ 427.755820616084691, 1022.988981125157011 ], [ 390.816450525924722, 1022.988823171153967 ], [ 390.935547887914822, 1018.165380414610013 ], [ 399.435367891029216, 1018.165380412614013 ], [ 400.73195060474319, 1008.368977694791056 ], [ 390.71490225814722, 1007.239029122349962 ] ] ] } },
{ "type": "Feature", "properties": { "feature_type": "building", "subtype": "no-damage", "uid": "2c086628-847e-4e92-91e6-8fabcd1be926" }, "geometry": { "type": "Polygon", "coordinates": [ [ [ 430.927166706069102, 1022.988992004701004 ], [ 431.454612734372802, 1015.854936321823971 ], [ 452.039100113133486, 1015.676001408431944 ], [ 452.427812188050609, 1012.487326219459987 ], [ 463.155041713855894, 1013.026586699174004 ], [ 462.999317395692515, 1022.989078184658979 ], [ 430.927166706069102, 1022.988992004701004 ] ] ] } },
{ "type": "Feature", "properties": { "feature_type": "building", "subtype": "no-damage", "uid": "72bb723d-c490-4e5a-88dd-08e850c40b13" }, "geometry": { "type": "Polygon", "coordinates": [ [ [ 431.988083401706319, 962.238082166428853 ], [ 438.423434660685189, 924.177576127133761 ], [ 469.864722258013217, 933.37093507129191 ], [ 463.797105354118287, 977.131323656464133 ], [ 448.903863858838008, 974.189448794333543 ], [ 449.455465396049078, 967.386363172163101 ], [ 431.988083401706319, 962.238082166428853 ] ] ] } },
{ "type": "Feature", "properties": { "feature_type": "building", "subtype": "no-damage", "uid": "2fa70031-f9bf-4493-93e1-1612321e5fa1" }, "geometry": { "type": "Polygon", "coordinates": [ [ [ 531.531339255860644, 981.597426296224057 ], [ 530.95508027351957, 937.657678815861573 ], [ 562.937453849623921, 937.6576788178578 ], [ 563.945907072947193, 980.877102564976099 ], [ 552.27666265800508, 981.453361547379359 ], [ 551.988533165555737, 987.648145619942284 ], [ 539.45490027781932, 987.936275114637397 ], [ 539.166770788676217, 981.021167315817138 ], [ 531.531339255860644, 981.597426296224057 ] ] ] } },
{ "type": "Feature", "properties": { "feature_type": "building", "subtype": "no-damage", "uid": "ed904f7a-9f09-4a13-abd9-e3c0f29c489a" }, "geometry": { "type": "Polygon", "coordinates": [ [ [ 575.62747674702905, 981.412493380717478 ], [ 574.042764544171973, 962.972205908879005 ], [ 570.585210642764423, 958.938393026067502 ], [ 568.280174709594917, 934.159256742802654 ], [ 589.889886589461639, 931.422026571646029 ], [ 592.194922520884575, 941.362494032325458 ], [ 601.559131000848083, 940.065911318674239 ], [ 605.16074964473728, 978.099004222167082 ], [ 575.62747674702905, 981.412493380717478 ] ] ] } },
{ "type": "Feature", "properties": { "feature_type": "building", "subtype": "no-damage", "uid": "3e208719-e321-42c4-84fe-96db49a22174" }, "geometry": { "type": "Polygon", "coordinates": [ [ [ 612.710536545837044, 944.543520529930674 ], [ 623.803521979498669, 934.170858827707775 ], [ 619.76970909238139, 930.569240180451061 ], [ 634.752442660822112, 914.145859156506162 ], [ 676.394212149979239, 953.015912163945359 ], [ 672.900735751385241, 957.79645881590568 ], [ 678.968352655779199, 964.415677257695847 ], [ 670.694329603226947, 973.057434667699795 ], [ 663.707376806600223, 968.460755193125465 ], [ 647.71093223876926, 980.963723361173038 ], [ 612.710536545837044, 944.543520529930674 ] ] ] } },
{ "type": "Feature", "properties": { "feature_type": "building", "subtype": "no-damage", "uid": "d4169a8e-db16-4925-afa5-a7082153d186" }, "geometry": { "type": "Polygon", "coordinates": [ [ [ 643.374548240335912, 907.539738015206694 ], [ 655.339669035707971, 877.288300543827859 ], [ 701.394096232226161, 895.123103231768368 ], [ 688.977461448222471, 926.390447185927542 ], [ 643.374548240335912, 907.539738015206694 ] ] ] } },
{ "type": "Feature", "properties": { "feature_type": "building", "subtype": "no-damage", "uid": "63cb079b-0260-475d-9e8a-3ac873dfebc7" }, "geometry": { "type": "Polygon", "coordinates": [ [ [ 653.662601108388571, 860.423390317620374 ], [ 653.478733925887127, 840.565734993248157 ], [ 658.443147757917586, 840.565734991251929 ], [ 658.810882114124411, 827.878899648812649 ], [ 686.207091777393998, 828.06276682719681 ], [ 686.207091776021571, 834.681985262998182 ], [ 700.364864556268003, 835.049719625755074 ], [ 700.548731731158682, 861.71046057030162 ], [ 653.662601108388571, 860.423390317620374 ] ] ] } },
{ "type": "Feature", "properties": { "feature_type": "building", "subtype": "no-damage", "uid": "e5bb15cd-e97d-43b7-ad03-caeeb6b4892b" }, "geometry": { "type": "Polygon", "coordinates": [ [ [ 654.916305951296977, 826.058296887264646 ], [ 654.690548955546319, 808.336372699850699 ], [ 661.011744846983106, 807.997737203261636 ], [ 661.525631334434479, 791.980856978563565 ], [ 700.293462162559422, 791.743233486760687 ], [ 701.648004138872579, 826.058296887264646 ], [ 654.916305951296977, 826.058296887264646 ] ] ] } },
{ "type": "Feature", "properties": { "feature_type": "building", "subtype": "no-damage", "uid": "ccd1c9e1-35e2-4af8-bf71-f5a0527812d9" }, "geometry": { "type": "Polygon", "coordinates": [ [ [ 655.605628721336529, 787.073431328843071 ], [ 654.309046009119697, 772.811021494649594 ], [ 657.478470415956849, 760.277388605669671 ], [ 659.783506353618009, 759.268935386713451 ], [ 659.783506350498783, 754.082604535102973 ], [ 693.494656881112292, 755.091057754059079 ], [ 692.054009421048818, 787.793755058094803 ], [ 655.605628721336529, 787.073431328843071 ] ] ] } },
{ "type": "Feature", "properties": { "feature_type": "building", "subtype": "no-damage", "uid": "57838607-cbdd-4e88-9a84-56c8f04792e8" }, "geometry": { "type": "Polygon", "coordinates": [ [ [ 656.094771680829808, 739.887454021978442 ], [ 655.417500692205408, 717.87614690738053 ], [ 657.90082764696001, 717.424632915255415 ], [ 657.787949151049702, 707.152689596906384 ], [ 694.81209650506446, 706.136783109135422 ], [ 695.828002987533182, 721.601137339916704 ], [ 702.036320380065376, 721.262501848318152 ], [ 702.939348366499075, 741.129117497826883 ], [ 693.457554531870414, 741.354874494887554 ], [ 692.780283544244071, 744.402593944226851 ], [ 667.495499980181421, 745.418500424012791 ], [ 667.156864487958956, 739.881614197446766 ], [ 656.094771680829808, 739.887454021978442 ] ] ] } },
{ "type": "Feature", "properties": { "feature_type": "building", "subtype": "no-damage", "uid": "de328cb3-a339-4fc2-b214-ea0785aa6a80" }, "geometry": { "type": "Polygon", "coordinates": [ [ [ 656.730615185524357, 695.418888774743778 ], [ 656.730615186959199, 689.167404691718048 ], [ 659.120888512253941, 688.615803153571392 ], [ 659.304755691823402, 679.422444208415186 ], [ 661.327294662034092, 679.422444207417016 ], [ 662.062763375446025, 660.851859137722158 ], [ 691.68727114356625, 660.700389383314587 ], [ 690.777513136226162, 668.646645830472494 ], [ 691.276398498523463, 681.67690163246084 ], [ 695.698649347215792, 681.596664960363455 ], [ 695.122390367993944, 695.715010049704802 ], [ 656.730615185524357, 695.418888774743778 ] ] ] } },
{ "type": "Feature", "properties": { "feature_type": "building", "subtype": "no-damage", "uid": "e5018e40-21df-4f3a-a1e3-41bb907258af" }, "geometry": { "type": "Polygon", "coordinates": [ [ [ 710.579510355138041, 611.993418139315395 ], [ 711.259022728283753, 622.930002611397299 ], [ 703.845732709314234, 623.500136687301051 ], [ 703.520069629406407, 633.704246543124214 ], [ 701.656990249837122, 634.142618165501176 ], [ 702.968705087267267, 649.445957908585569 ], [ 701.47601695447338, 653.177678248054917 ], [ 701.729995013963276, 653.280002610249994 ], [ 654.981844532889568, 652.610382191897315 ], [ 655.320480028480688, 637.48466345670704 ], [ 660.738647932797448, 637.14602796311226 ], [ 660.851526432762626, 633.308159029051467 ], [ 657.126535998104259, 632.743766541390414 ], [ 657.628555990189625, 620.307812000383819 ], [ 688.339894721968562, 620.177307215096562 ], [ 688.706294680458313, 611.652867823111251 ], [ 710.579510355138041, 611.993418139315395 ] ] ] } },
{ "type": "Feature", "properties": { "feature_type": "building", "subtype": "no-damage", "uid": "3779b9c9-d6e0-4e1d-b951-64a60921302a" }, "geometry": { "type": "Polygon", "coordinates": [ [ [ 623.355589938200637, 547.570122038271393 ], [ 640.243982404750113, 535.997522901822094 ], [ 643.413406815579719, 540.607594766038801 ], [ 649.464126141545648, 537.150040869623012 ], [ 657.573891424221642, 547.611289141850079 ], [ 661.662450175256936, 544.007813628010695 ], [ 665.751008931282854, 548.858646048490527 ], [ 661.801045385269049, 553.640180861437784 ], [ 671.36411501291343, 566.598833177575898 ], [ 647.24854813099887, 585.239889190610825 ], [ 626.613665237535542, 552.70159523927839 ], [ 623.355589938200637, 547.570122038271393 ] ] ] } },
{ "type": "Feature", "properties": { "feature_type": "building", "subtype": "no-damage", "uid": "6d540698-74d6-43bc-a051-e121627beccf" }, "geometry": { "type": "Polygon", "coordinates": [ [ [ 676.161726510046151, 552.514807972459721 ], [ 687.83097092261778, 534.938908981712075 ], [ 707.855970595572558, 548.480995091644445 ], [ 696.474855672331159, 565.624699847835359 ], [ 676.161726510046151, 552.514807972459721 ] ] ] } },
{ "type": "Feature", "properties": { "feature_type": "building", "subtype": "no-damage", "uid": "61655978-b662-4b33-90ae-398684b24d6e" }, "geometry": { "type": "Polygon", "coordinates": [ [ [ 658.363695167407172, 525.654131030306985 ], [ 653.609558553533361, 494.680210671484815 ], [ 655.914594486578153, 489.20575033316419 ], [ 672.914234499107692, 485.316002194206817 ], [ 678.53275958770962, 487.476973381962011 ], [ 680.981860262113287, 488.917620840465418 ], [ 696.108658576029939, 489.061685585317605 ], [ 696.828982305656268, 500.010606268945708 ], [ 690.922327725977311, 500.442800504500383 ], [ 689.711157950002189, 523.614044542232818 ], [ 686.199307557669954, 523.887704645344002 ], [ 686.068121091005196, 526.079847101583482 ], [ 664.414414493809886, 528.391361199467269 ], [ 658.363695167407172, 525.654131030306985 ] ] ] } },
{ "type": "Feature", "properties": { "feature_type": "building", "subtype": "no-damage", "uid": "ee38a7d6-9a75-47e8-9265-b4caef377c61" }, "geometry": { "type": "Polygon", "coordinates": [ [ [ 635.350945060950153, 426.814026216790921 ], [ 640.825405400208297, 409.238127226043275 ], [ 652.206520323387281, 412.695681125453405 ], [ 655.664074226915773, 404.772120103684472 ], [ 671.367131521863598, 410.390645192846023 ], [ 665.460476940500371, 428.686867915839684 ], [ 666.901124399628088, 440.932371308128381 ], [ 680.587275254417136, 462.686147930532286 ], [ 679.578822035023904, 467.440284542595521 ], [ 668.918030842406893, 478.965464208626827 ], [ 655.771878462698851, 487.732878444408811 ], [ 648.316772185801028, 488.185607944046978 ], [ 638.088175230735146, 473.923198107857274 ], [ 637.655980995304958, 464.847119117289424 ], [ 628.86803149743298, 454.474457420056979 ], [ 648.346919150631606, 438.606633777191519 ], [ 649.245419930203184, 432.017628065200824 ], [ 649.60522702751382, 430.540229043693898 ], [ 635.350945060950153, 426.814026216790921 ] ] ] } },
{ "type": "Feature", "properties": { "feature_type": "building", "subtype": "no-damage", "uid": "3e7cb717-6196-4a94-ad90-6258b795173b" }, "geometry": { "type": "Polygon", "coordinates": [ [ [ 308.863418499347517, 958.216390292802771 ], [ 306.043620593191406, 912.74714905828796 ], [ 317.146574848365276, 911.865962216712205 ], [ 317.85152432342278, 907.460027983880423 ], [ 332.479225963303691, 906.755078507825147 ], [ 335.217469161942176, 958.324200915326969 ], [ 320.318847491239183, 960.507476090481759 ], [ 308.863418499347517, 958.216390292802771 ] ] ] } },
{ "type": "Feature", "properties": { "feature_type": "building", "subtype": "no-damage", "uid": "7c64ed94-a7e2-459f-8b60-2345c42faf88" }, "geometry": { "type": "Polygon", "coordinates": [ [ [ 350.53784995475678, 951.215056452538647 ], [ 354.266187890883828, 911.169945289021371 ], [ 360.203911269904609, 908.27012689422213 ], [ 368.351020094252021, 911.031858700598946 ], [ 368.212933504956197, 912.550811190213494 ], [ 374.150656882604494, 913.103157550889932 ], [ 374.841089833076126, 914.207850273240979 ], [ 384.369064559738888, 914.069763686814895 ], [ 381.054986395179981, 954.943394387853459 ], [ 371.803184849354523, 954.114874845341546 ], [ 366.555894422052916, 954.391048028175192 ], [ 365.727374883034088, 959.085992094424228 ], [ 359.237305141402828, 958.119385963490004 ], [ 357.027919694204684, 952.595922354728941 ], [ 350.53784995475678, 951.215056452538647 ] ] ] } },
{ "type": "Feature", "properties": { "feature_type": "building", "subtype": "no-damage", "uid": "b5a0f7ff-7056-48f1-8e1b-d35e391d6c91" }, "geometry": { "type": "Polygon", "coordinates": [ [ [ 387.656537773324487, 959.868790064006248 ], [ 389.455965814829426, 940.524938650664126 ], [ 398.00324899830008, 916.457588633418368 ], [ 406.325603674609908, 919.381659195505677 ], [ 404.976032647676391, 927.029228357504167 ], [ 413.748244335188986, 927.479085367209564 ], [ 416.672314901706386, 916.907445639131311 ], [ 425.894383597427407, 918.481945176094769 ], [ 424.994669581571998, 923.205443777004007 ], [ 433.991809773064006, 924.330086297275102 ], [ 424.769741072851389, 976.063642414400874 ], [ 408.799817229113614, 974.489142876439246 ], [ 409.924459753315091, 966.166788199882717 ], [ 388.106394783653911, 964.592288665913543 ], [ 387.656537773324487, 959.868790064006248 ] ] ] } },
{ "type": "Feature", "properties": { "feature_type": "building", "subtype": "no-damage", "uid": "3b413b5b-4ed8-458d-beb6-579cc3433af8" }, "geometry": { "type": "Polygon", "coordinates": [ [ [ 311.037034372446783, 838.85001624704671 ], [ 311.24340132416188, 789.902643298045859 ], [ 324.845693392170517, 789.208825004321284 ], [ 325.674212931376417, 794.80039396538109 ], [ 341.966734603346708, 798.691897266153887 ], [ 345.282508748123689, 808.056706625608967 ], [ 348.137257525389316, 814.46002908393416 ], [ 347.803890053783903, 841.161363521604017 ], [ 333.025275401418128, 840.853244673364202 ], [ 333.025275399484201, 838.513935804257244 ], [ 327.373375236531103, 838.551494672306262 ], [ 327.175925436817408, 840.938017859573506 ], [ 311.069019741012823, 841.022791048777208 ], [ 311.037034372446783, 838.85001624704671 ] ] ] } },
{ "type": "Feature", "properties": { "feature_type": "building", "subtype": "no-damage", "uid": "108b216a-c8f3-4fa1-8a9c-215f051aac3f" }, "geometry": { "type": "Polygon", "coordinates": [ [ [ 361.694055537611007, 807.809305605235636 ], [ 362.109841173449013, 799.424295283439619 ], [ 363.149305266038482, 799.354997678901441 ], [ 363.426495687248178, 794.781355683561287 ], [ 375.969362369548719, 794.781355681564946 ], [ 375.969362369423891, 799.077807251765648 ], [ 385.74032481386439, 799.077807253761875 ], [ 385.225442067215397, 805.981936796707714 ], [ 388.902785645378913, 806.165803975091762 ], [ 388.535051287050976, 837.97482592736867 ], [ 373.825676973461213, 837.97482592736867 ], [ 373.641809792519325, 842.571505401943114 ], [ 361.138841626276815, 842.387638224557122 ], [ 357.829232406066922, 833.562013635170956 ], [ 358.338949949773507, 809.086736844899292 ], [ 361.694055537611007, 807.809305605235636 ] ] ] } },
{ "type": "Feature", "properties": { "feature_type": "building", "subtype": "no-damage", "uid": "2a3ef534-16d4-4e3d-b58a-0394ed7216ae" }, "geometry": { "type": "Polygon", "coordinates": [ [ [ 274.671292692323789, 769.727823186275145 ], [ 274.332657198292281, 727.059750932456268 ], [ 295.77957182267852, 727.285507930514996 ], [ 300.181833243902702, 725.366573464482713 ], [ 308.534842098655076, 725.592330456552759 ], [ 311.018169055655392, 727.962778915708213 ], [ 314.856037989156107, 728.075657414238435 ], [ 315.871944471562472, 746.587731091364617 ], [ 313.840131510742196, 747.152123579025556 ], [ 313.727253012898075, 753.811954962370692 ], [ 303.003795696244595, 755.279375437276144 ], [ 303.342431191398987, 764.196776785238853 ], [ 296.90835680068318, 764.535412276837292 ], [ 296.908356802554692, 769.502066188216418 ], [ 274.671292692323789, 769.727823186275145 ] ] ] } },
{ "type": "Feature", "properties": { "feature_type": "building", "subtype": "no-damage", "uid": "f2abfede-d72c-4bf0-9b10-e25810196559" }, "geometry": { "type": "Polygon", "coordinates": [ [ [ 326.036144039028727, 753.907900948658153 ], [ 325.923265538689293, 714.06179114512156 ], [ 336.420965857096689, 714.06179114512156 ], [ 336.53384435544001, 709.998165214000096 ], [ 347.821694156510716, 710.336800710589159 ], [ 355.610310522603811, 716.770875096873624 ], [ 353.352740560667883, 762.825302293626464 ], [ 341.613376765974806, 763.051059290687135 ], [ 341.048984275568785, 757.632891385186781 ], [ 326.600536525192695, 758.084405373319328 ], [ 326.036144039028727, 753.907900948658153 ] ] ] } },
{ "type": "Feature", "properties": { "feature_type": "building", "subtype": "no-damage", "uid": "c521eb69-9b1f-467c-8f3d-09a8b7dd4cd7" }, "geometry": { "type": "Polygon", "coordinates": [ [ [ 366.09874983292849, 759.995625074221493 ], [ 367.904805800930092, 713.602562385870101 ], [ 374.903272677310781, 711.796506420364381 ], [ 381.675982560061811, 713.828319380934545 ], [ 382.353253547812812, 718.456337800715119 ], [ 395.672916317252202, 719.020730291370455 ], [ 393.866860347690988, 761.350167050596497 ], [ 366.09874983292849, 759.995625074221493 ] ] ] } },
{ "type": "Feature", "properties": { "feature_type": "building", "subtype": "no-damage", "uid": "d4ce723b-430c-4100-900a-9034b0f96fc1" }, "geometry": { "type": "Polygon", "coordinates": [ [ [ 456.705599517258577, 866.816561191702249 ], [ 462.324124607794374, 832.529151683312762 ], [ 504.679159884690193, 836.562964565126094 ], [ 508.568908022962717, 845.06278456730206 ], [ 507.128260565706398, 853.706669318322724 ], [ 511.162073449205423, 855.435446268526903 ], [ 507.560454801822686, 877.04515814508045 ], [ 463.332577827811292, 872.291021535013442 ], [ 459.15470020101958, 868.977532378459273 ], [ 456.705599517258577, 866.816561191702249 ] ] ] } },
{ "type": "Feature", "properties": { "feature_type": "building", "subtype": "no-damage", "uid": "51c12e61-896b-49e7-9e07-5640112b5fce" }, "geometry": { "type": "Polygon", "coordinates": [ [ [ 536.477286038435636, 878.157964458659535 ], [ 533.768202088304633, 873.529946040875075 ], [ 535.57425805742912, 861.2261897529728 ], [ 532.639417105745906, 860.887554259378135 ], [ 533.54244509099442, 852.534545405065046 ], [ 528.124277185679489, 852.647423906589779 ], [ 528.575791175683548, 838.763368647247944 ], [ 583.434741221637069, 840.230789120157169 ], [ 584.745031616783535, 857.176326435371379 ], [ 580.676641804061887, 866.728198174357885 ], [ 575.104716622007231, 878.668037848091103 ], [ 554.841067221852882, 881.334091145250341 ], [ 536.477286038435636, 878.157964458659535 ] ] ] } },
{ "type": "Feature", "properties": { "feature_type": "building", "subtype": "no-damage", "uid": "70026506-0398-409a-ae7b-27c16e754a4b" }, "geometry": { "type": "Polygon", "coordinates": [ [ [ 449.013760070758394, 805.818081529453821 ], [ 449.445954309370109, 791.843801180972264 ], [ 464.71681736739049, 792.564124911222166 ], [ 464.716817369760975, 789.970959483919728 ], [ 479.548446553798385, 790.786405455323234 ], [ 479.5484465526755, 789.206106485880014 ], [ 516.685472408027863, 789.770498972542896 ], [ 516.378821133036126, 830.631169174866045 ], [ 466.676483817146618, 829.334586465207394 ], [ 466.676483816210805, 822.851672903938152 ], [ 460.769829239838202, 822.70760815609151 ], [ 461.34608822292779, 807.868939335502318 ], [ 449.013760070758394, 805.818081529453821 ] ] ] } },
{ "type": "Feature", "properties": { "feature_type": "building", "subtype": "minor-damage", "uid": "09baefc8-1acd-4b9e-bdb3-a505e55d877b" }, "geometry": { "type": "Polygon", "coordinates": [ [ [ 532.321369754246916, 832.365580724481219 ], [ 533.674958299770879, 814.837239054954239 ], [ 539.190973671008692, 814.653371872577736 ], [ 542.977104158946645, 795.918248891187432 ], [ 583.502963790162198, 796.634388341029535 ], [ 582.583627894436063, 833.959425662795752 ], [ 573.574136127598535, 838.004503596229142 ], [ 537.16843469998696, 837.45290206107677 ], [ 535.998713332659918, 832.983700554035408 ], [ 532.321369754246916, 832.365580724481219 ] ] ] } },
{ "type": "Feature", "properties": { "feature_type": "building", "subtype": "minor-damage", "uid": "612c60cb-0b8a-4570-a747-0841fd4efc14" }, "geometry": { "type": "Polygon", "coordinates": [ [ [ 538.791175241285259, 794.794706522330557 ], [ 538.05570652300753, 772.362910699582699 ], [ 535.297698842504019, 772.17904351920231 ], [ 535.849300377282134, 757.837403565317459 ], [ 541.549182923784997, 756.550333309641928 ], [ 541.549182926529852, 753.240724087748731 ], [ 584.941837152452536, 753.792325625895387 ], [ 585.12570433046244, 790.198027052746738 ], [ 574.277540771985514, 789.09482397944771 ], [ 573.7259392360844, 793.139901914877328 ], [ 538.791175241285259, 794.794706522330557 ] ] ] } },
{ "type": "Feature", "properties": { "feature_type": "building", "subtype": "no-damage", "uid": "0db6a295-a030-4170-af54-b1e71cd27417" }, "geometry": { "type": "Polygon", "coordinates": [ [ [ 464.385351447285416, 779.555972332125521 ], [ 465.014476290527227, 766.376171898970938 ], [ 466.694898173679178, 766.376171899969108 ], [ 467.582764222018511, 750.333968078563316 ], [ 515.085633114054417, 751.058176424672183 ], [ 514.65343887612903, 780.15925508344742 ], [ 464.385351447285416, 779.555972332125521 ] ] ] } },
{ "type": "Feature", "properties": { "feature_type": "building", "subtype": "no-damage", "uid": "a58c397a-bad7-4e05-9b2b-45a42911d21c" }, "geometry": { "type": "Polygon", "coordinates": [ [ [ 464.45348080432359, 740.314943555660307 ], [ 464.679237795333222, 722.367262371185689 ], [ 469.64589170933391, 722.818776361314576 ], [ 471.113312184052575, 713.788496518813986 ], [ 468.629985228611815, 713.224104029156706 ], [ 469.307256216862015, 705.774123161090074 ], [ 512.669098673655753, 706.672623937729441 ], [ 518.958604126976638, 711.764128353990372 ], [ 524.450100625779896, 718.719798044353638 ], [ 522.858122002469372, 735.612460103519993 ], [ 517.551526590893673, 734.904914046747081 ], [ 517.551526588086517, 742.511034135347245 ], [ 517.551526590519416, 744.456785789726155 ], [ 468.58553783550019, 744.34717832974809 ], [ 464.45348080432359, 740.314943555660307 ] ] ] } },
{ "type": "Feature", "properties": { "feature_type": "building", "subtype": "no-damage", "uid": "7fc5c1de-ef90-4cd3-a06f-2b882abec6f0" }, "geometry": { "type": "Polygon", "coordinates": [ [ [ 537.441924890642667, 730.67362353891599 ], [ 538.30631336474687, 717.131537430979847 ], [ 554.29750015382831, 716.987472687125774 ], [ 554.585629644593382, 710.792688613564792 ], [ 570.576816433612407, 711.080818107261621 ], [ 570.595641152239523, 713.390209365664646 ], [ 584.839226272925885, 714.394307259823336 ], [ 585.271420510102757, 737.876860835425759 ], [ 579.220701188503654, 738.164990323133907 ], [ 578.788506947521455, 744.936033378100092 ], [ 546.08580964166606, 744.071644903996116 ], [ 546.373939132431133, 731.249882522317421 ], [ 537.441924890642667, 730.67362353891599 ] ] ] } },
{ "type": "Feature", "properties": { "feature_type": "building", "subtype": "no-damage", "uid": "309ee706-fb2c-4fd1-9074-04f2fc0e0bea" }, "geometry": { "type": "Polygon", "coordinates": [ [ [ 544.696164343330338, 700.281496154078354 ], [ 545.260556833673945, 685.833048408073751 ], [ 541.084052405642751, 685.833048408073751 ], [ 541.422687902294342, 675.109591098597775 ], [ 554.968107663179921, 674.996712597073042 ], [ 554.96810766561282, 671.94899315372254 ], [ 581.321514558046601, 672.921237195840831 ], [ 581.321514557235673, 688.195750440631286 ], [ 587.611020010307016, 687.896250182084145 ], [ 587.611020012240942, 705.866265768770063 ], [ 545.38148338079543, 706.165766031309659 ], [ 544.696164343330338, 700.281496154078354 ] ] ] } },
{ "type": "Feature", "properties": { "feature_type": "building", "subtype": "no-damage", "uid": "98e932ab-fbfb-4ec3-928b-da9dd1563a26" }, "geometry": { "type": "Polygon", "coordinates": [ [ [ 474.135313340571884, 681.024574581844035 ], [ 470.161143108315628, 662.078365695724415 ], [ 490.712747478818812, 656.539952153928994 ], [ 492.649546128297686, 660.875075077401902 ], [ 496.713172054554718, 659.97204709215373 ], [ 498.406349523464485, 663.809916022222069 ], [ 515.112367234092176, 659.069019106905557 ], [ 521.085653633090146, 678.101355374975924 ], [ 514.650302373549721, 680.491628699958028 ], [ 516.305106982001575, 690.97205789679731 ], [ 482.473546059129319, 696.304206088900628 ], [ 478.612335300148686, 680.307761521573866 ], [ 474.135313340571884, 681.024574581844035 ] ] ] } },
{ "type": "Feature", "properties": { "feature_type": "building", "subtype": "no-damage", "uid": "e61217ba-d1ca-4920-be6e-2210dc6cbb52" }, "geometry": { "type": "Polygon", "coordinates": [ [ [ 541.994658576578104, 664.289299722668147 ], [ 536.808327724342121, 649.162501408382013 ], [ 534.071097554619541, 634.467897334641179 ], [ 577.722715546539348, 621.646134951964314 ], [ 584.781888092834265, 642.967717337815316 ], [ 580.604010462424299, 645.128688523574169 ], [ 582.476852161972829, 653.196314292191573 ], [ 541.994658576578104, 664.289299722668147 ] ] ] } },
{ "type": "Feature", "properties": { "feature_type": "building", "subtype": "no-damage", "uid": "03f96ec1-0d9e-4847-bc4c-38867b080c1a" }, "geometry": { "type": "Polygon", "coordinates": [ [ [ 527.561733322161444, 622.818426158664579 ], [ 518.685340568877223, 609.774177822469937 ], [ 522.807596713278258, 606.539109878573754 ], [ 516.036553656313572, 597.607095635852374 ], [ 524.392308916883962, 590.547923092179872 ], [ 521.655078744042157, 585.79378647911858 ], [ 538.07845976905287, 573.404218337985185 ], [ 546.434215029685561, 575.565189522745982 ], [ 553.758717347083234, 585.695321174838455 ], [ 557.605621670765004, 583.498772590325984 ], [ 564.730437754868603, 594.149541739436586 ], [ 527.561733322161444, 622.818426158664579 ] ] ] } },
{ "type": "Feature", "properties": { "feature_type": "building", "subtype": "no-damage", "uid": "ef8c26b2-8384-4960-85d6-c1d45bdc7cb2" }, "geometry": { "type": "Polygon", "coordinates": [ [ [ 474.109093439224807, 577.753157408320817 ], [ 488.082999037219281, 556.240697474499143 ], [ 481.096046240155886, 552.379486717453688 ], [ 491.944209796324685, 534.54437036129525 ], [ 495.437686197102209, 536.199174970744707 ], [ 500.585967206331475, 534.728237538681242 ], [ 525.22416918117483, 552.747221073223727 ], [ 499.850498492295685, 596.065393373037637 ], [ 474.109093439224807, 577.753157408320817 ] ] ] } },
{ "type": "Feature", "properties": { "feature_type": "building", "subtype": "no-damage", "uid": "79eccbdf-512f-4f25-80a8-7377ba92d2a0" }, "geometry": { "type": "Polygon", "coordinates": [ [ [ 435.566326720915811, 569.50113541806536 ], [ 443.016307590918814, 526.155792173064583 ], [ 453.852643400799991, 528.187605140621599 ], [ 455.207185380294675, 522.317923241998074 ], [ 472.251838582895175, 525.591399681411076 ], [ 464.040807089784323, 575.20325804697336 ], [ 435.566326720915811, 569.50113541806536 ] ] ] } },
{ "type": "Feature", "properties": { "feature_type": "building", "subtype": "no-damage", "uid": "fec85514-cde4-4504-aa5b-d29582cd8d1a" }, "geometry": { "type": "Polygon", "coordinates": [ [ [ 392.371878302954428, 566.709080265877674 ], [ 392.841210885503017, 522.357151379363927 ], [ 407.155854599773818, 520.949153637457812 ], [ 407.15585459902519, 522.591817669515308 ], [ 422.174497188553687, 522.3571513773677 ], [ 424.051827511262218, 569.525075747693791 ], [ 408.706528193469182, 570.637080243908827 ], [ 408.618084939491723, 566.793976339025903 ], [ 400.018042251391421, 566.692369189275155 ], [ 392.371878302954428, 566.709080265877674 ] ] ] } },
{ "type": "Feature", "properties": { "feature_type": "building", "subtype": "no-damage", "uid": "a76d7fee-2eef-41cd-98d7-70e55f810e6f" }, "geometry": { "type": "Polygon", "coordinates": [ [ [ 350.729150914160584, 560.459937720121047 ], [ 351.380839998516421, 519.348195278321214 ], [ 364.803144057989812, 519.532062459699659 ], [ 364.803144058426426, 523.393273215747058 ], [ 383.005994771670828, 523.761007575509552 ], [ 382.199537374537385, 559.760601781079799 ], [ 350.729150914160584, 560.459937720121047 ] ] ] } },
{ "type": "Feature", "properties": { "feature_type": "building", "subtype": "no-damage", "uid": "622a68d5-164a-4af3-a96e-ca89b287b95e" }, "geometry": { "type": "Polygon", "coordinates": [ [ [ 308.600561684036109, 559.017319609981996 ], [ 310.519496153999114, 544.343114866916721 ], [ 307.133141212249313, 541.972666407761267 ], [ 307.584655202814872, 520.525751780824294 ], [ 319.77553298925892, 520.412873285288356 ], [ 319.888411490035026, 516.349247357161175 ], [ 339.077756157475903, 518.493938816261675 ], [ 337.045943188982505, 567.596085458361358 ], [ 324.177794415099413, 568.386234945079195 ], [ 324.403551409914314, 562.855188544042903 ], [ 316.614935044569791, 563.080945541103461 ], [ 310.745253150810186, 560.146104589296442 ], [ 308.600561684036109, 559.017319609981996 ] ] ] } },
{ "type": "Feature", "properties": { "feature_type": "building", "subtype": "no-damage", "uid": "571e5f43-d2bb-4abe-9c9c-eda3d4be8e0f" }, "geometry": { "type": "Polygon", "coordinates": [ [ [ 270.331458014362397, 564.523668050942547 ], [ 271.685999987805928, 520.388175323216387 ], [ 281.732186314899195, 520.16241832515766 ], [ 284.892784259962582, 516.776063386216151 ], [ 299.228353509812109, 517.001820379284254 ], [ 299.624903137484978, 566.216845519914273 ], [ 281.300118996892081, 567.933786240469431 ], [ 275.454275222756223, 566.451511809067483 ], [ 270.331458014362397, 564.523668050942547 ] ] ] } },
{ "type": "Feature", "properties": { "feature_type": "building", "subtype": "no-damage", "uid": "dab3e4fc-6536-4d20-b740-39cd11e72f1e" }, "geometry": { "type": "Polygon", "coordinates": [ [ [ 292.630269026581288, 578.31035175545594 ], [ 292.793158494177874, 568.80846643232735 ], [ 300.340370264478281, 568.808466430331123 ], [ 300.231777285872681, 578.093165805481135 ], [ 292.630269026581288, 578.31035175545594 ] ] ] } },
{ "type": "Feature", "properties": { "feature_type": "building", "subtype": "no-damage", "uid": "2b97e023-0899-4e91-a8b9-37443f7d1ae6" }, "geometry": { "type": "Polygon", "coordinates": [ [ [ 270.383691456383815, 630.283468735596557 ], [ 270.496569954789322, 585.35782652015439 ], [ 300.748007428049277, 585.132069523093719 ], [ 301.98967090976231, 641.458440038195704 ], [ 287.202587663919815, 642.248589522917314 ], [ 286.638195175322892, 630.960739724782229 ], [ 270.383691456383815, 630.283468735596557 ] ] ] } },
{ "type": "Feature", "properties": { "feature_type": "building", "subtype": "no-damage", "uid": "0e3414be-788a-4ccd-b835-68fcb067e7e3" }, "geometry": { "type": "Polygon", "coordinates": [ [ [ 312.734527149022313, 635.249682198139908 ], [ 313.907858599030817, 593.24441621313963 ], [ 334.089159576070074, 590.428420730325456 ], [ 334.323825865535298, 596.060411699946371 ], [ 342.771812323026325, 596.060411697950144 ], [ 341.598480869337209, 642.524337196824035 ], [ 326.345171993337772, 642.993669778124854 ], [ 325.875839414906523, 636.657679939047966 ], [ 312.734527149022313, 635.249682198139908 ] ] ] } },
{ "type": "Feature", "properties": { "feature_type": "building", "subtype": "no-damage", "uid": "bf568292-d8a5-4e28-a221-e5db53d49e3f" }, "geometry": { "type": "Polygon", "coordinates": [ [ [ 356.250616477857477, 636.787622945632961 ], [ 353.767289522354304, 627.983100100193042 ], [ 356.137737982695796, 602.021045555000228 ], [ 366.974073792265187, 601.908167052477324 ], [ 367.312709286733423, 603.375587529379004 ], [ 384.921754980363687, 603.149830531320276 ], [ 387.3279257509231, 615.546765520762619 ], [ 386.563432433210721, 641.157291709471565 ], [ 383.974928149494417, 646.082887119070847 ], [ 372.79995684059088, 646.421522613663683 ], [ 371.219657867778608, 643.486681665849119 ], [ 370.993900873400321, 638.181392259877157 ], [ 356.250616477857477, 636.787622945632961 ] ] ] } },
{ "type": "Feature", "properties": { "feature_type": "building", "subtype": "no-damage", "uid": "29a789f8-be64-455f-9e2c-d2b74fb3903c" }, "geometry": { "type": "Polygon", "coordinates": [ [ [ 399.425052835469216, 637.95951209031989 ], [ 402.16228300781188, 592.002858168052512 ], [ 414.984045384441799, 592.867246643154544 ], [ 414.695915893302526, 595.460412067462585 ], [ 431.263361667594609, 596.324800544560958 ], [ 427.974529960536074, 633.04242298254519 ], [ 416.59341503479942, 632.46616399914376 ], [ 415.729026560944703, 640.10159552721575 ], [ 399.425052835469216, 637.95951209031989 ] ] ] } },
{ "type": "Feature", "properties": { "feature_type": "building", "subtype": "no-damage", "uid": "32af02f7-8383-422d-a229-9379503ad279" }, "geometry": { "type": "Polygon", "coordinates": [ [ [ 447.938199096435426, 626.318062153218875 ], [ 446.467261666055776, 619.514976537037114 ], [ 462.647573413830628, 598.921852495135909 ], [ 488.021244101898674, 622.089117039405096 ], [ 486.36643949413309, 626.68579651397954 ], [ 463.199174949793985, 655.18520924536142 ], [ 448.30593345513762, 644.337045687761361 ], [ 456.992962830459589, 633.350286921084944 ], [ 447.938199096435426, 626.318062153218875 ] ] ] } },
{ "type": "Feature", "properties": { "feature_type": "building", "subtype": "no-damage", "uid": "d003079a-6714-4ac4-a39c-eb2833dcea81" }, "geometry": { "type": "Polygon", "coordinates": [ [ [ 580.491002121844986, 464.091393297656282 ], [ 569.542081440022571, 429.803983788268681 ], [ 595.329670941877566, 421.016034291397716 ], [ 598.499095351521987, 424.185458702101585 ], [ 608.439562813701741, 419.14319259534318 ], [ 611.176792986418718, 409.202725131669524 ], [ 625.113100740836444, 412.590129024290889 ], [ 627.209602557965468, 403.904621490493184 ], [ 636.494110613289536, 406.300623567852881 ], [ 630.80360567899686, 431.758145650155882 ], [ 613.589131547032252, 430.191428292565377 ], [ 609.977019606412682, 426.127802363440082 ], [ 603.768702216375914, 430.53006379015261 ], [ 611.586871942813445, 456.035412647030114 ], [ 580.491002121844986, 464.091393297656282 ] ] ] } },
{ "type": "Feature", "properties": { "feature_type": "building", "subtype": "no-damage", "uid": "78f9682e-b8f8-4b57-a064-7695543b68ff" }, "geometry": { "type": "Polygon", "coordinates": [ [ [ 517.060499506633164, 468.335039497405091 ], [ 528.729743923321962, 451.911658474458307 ], [ 533.772010024280348, 455.369212372870379 ], [ 544.000606982964428, 442.691514738039984 ], [ 580.01679344263016, 470.351945937313701 ], [ 557.974887326147837, 501.181801551283627 ], [ 517.060499506633164, 468.335039497405091 ] ] ] } },
{ "type": "Feature", "properties": { "feature_type": "building", "subtype": "no-damage", "uid": "d035fe67-d12e-4377-a0d9-899cb0b74f4b" }, "geometry": { "type": "Polygon", "coordinates": [ [ [ 536.066879561369319, 423.653061653259215 ], [ 542.134496469631131, 417.58544474761942 ], [ 548.5698477282981, 424.388530369789919 ], [ 541.9506292871921, 430.456147272435317 ], [ 536.066879561369319, 423.653061653259215 ] ] ] } },
{ "type": "Feature", "properties": { "feature_type": "building", "subtype": "no-damage", "uid": "da2b44a2-39f6-4b63-a13b-82e279892e5f" }, "geometry": { "type": "Polygon", "coordinates": [ [ [ 477.844425647268906, 450.026169469805325 ], [ 488.505216843878372, 422.941997250938698 ], [ 484.90359819487378, 421.213220303728917 ], [ 488.217087348621817, 413.721853516516717 ], [ 490.233993791026307, 414.298112500916091 ], [ 493.115288706661715, 407.094875211393287 ], [ 500.894784983081877, 408.391457922050222 ], [ 501.038849731115704, 410.552429110803473 ], [ 523.334773030400243, 417.092196511295299 ], [ 507.72215021843698, 462.677335665003227 ], [ 490.591511014863272, 456.810678404232817 ], [ 488.199325784099074, 455.863316166512618 ], [ 485.703562776402521, 454.646735210661916 ], [ 477.844425647268906, 450.026169469805325 ] ] ] } },
{ "type": "Feature", "properties": { "feature_type": "building", "subtype": "no-damage", "uid": "25e822e4-e07b-4af1-a7cd-3ae1f7fd4ca5" }, "geometry": { "type": "Polygon", "coordinates": [ [ [ 428.883362336503978, 442.600783028485409 ], [ 429.802698231606314, 414.28523747648569 ], [ 454.80863456421622, 414.469104653871682 ], [ 455.544103283117693, 397.553324191630111 ], [ 476.68882886098902, 398.288792907162701 ], [ 476.872696037189826, 427.155939998307076 ], [ 464.921329406411587, 428.075275892223885 ], [ 464.921329409530813, 455.471485552303022 ], [ 435.870315134191173, 455.655352730687127 ], [ 435.68644795724191, 446.645860964913084 ], [ 428.699495157683089, 446.645860964913084 ], [ 428.883362336503978, 442.600783028485409 ] ] ] } },
{ "type": "Feature", "properties": { "feature_type": "building", "subtype": "no-damage", "uid": "8693364e-c8c4-4b9b-bed1-40dbb4dd158f" }, "geometry": { "type": "Polygon", "coordinates": [ [ [ 392.293793730445827, 454.000548121237728 ], [ 392.904222620384019, 411.149350291618873 ], [ 422.58156026662499, 411.005285540777891 ], [ 422.338432874723026, 449.243956896518114 ], [ 420.746454253658328, 449.420843408465487 ], [ 420.481124481806887, 459.238044916870422 ], [ 404.207565223559186, 458.972715149448277 ], [ 403.942235453205001, 453.754562996592881 ], [ 392.293793730445827, 454.000548121237728 ] ] ] } },
{ "type": "Feature", "properties": { "feature_type": "building", "subtype": "no-damage", "uid": "6e475d18-9bd4-44f8-8539-80996cc9974a" }, "geometry": { "type": "Polygon", "coordinates": [ [ [ 350.572370277228117, 448.064696059630023 ], [ 351.701155258352003, 412.959483175402511 ], [ 357.119323166848517, 412.959483173406284 ], [ 357.345080161975318, 410.927670206847381 ], [ 381.049564747985528, 411.153427204906222 ], [ 380.485172258016178, 453.934377959251606 ], [ 360.957192099475719, 452.918471475473098 ], [ 360.957192095857522, 448.403331554222916 ], [ 350.572370277228117, 448.064696059630023 ] ] ] } },
{ "type": "Feature", "properties": { "feature_type": "building", "subtype": "no-damage", "uid": "0d6871e2-1d8f-4937-a2ad-d13976faac7e" }, "geometry": { "type": "Polygon", "coordinates": [ [ [ 309.306365156781624, 441.249269172415381 ], [ 311.035142109543983, 405.80934169722309 ], [ 320.54341533280018, 405.953406442075277 ], [ 320.399350587573622, 411.139737290691528 ], [ 324.721292964769702, 410.995672548833682 ], [ 325.585681437189578, 402.495852543663318 ], [ 343.017515685461092, 402.639917285521221 ], [ 341.720932972620517, 451.765995618492411 ], [ 338.551508566843893, 453.494772568696476 ], [ 328.611041100172486, 454.071031552097907 ], [ 326.161940419967323, 450.037218666292006 ], [ 326.161940420840722, 441.681463409966398 ], [ 309.306365156781624, 441.249269172415381 ] ] ] } },
{ "type": "Feature", "properties": { "feature_type": "building", "subtype": "no-damage", "uid": "4bd5c158-2e0f-449f-8dbd-50935e72e789" }, "geometry": { "type": "Polygon", "coordinates": [ [ [ 410.065720569321115, 357.153397894669013 ], [ 411.536658000137322, 315.967149816855397 ], [ 421.83322002121588, 315.783282637473178 ], [ 422.200954377672417, 313.025274954724807 ], [ 439.852203557885275, 312.841407774344418 ], [ 439.668336376070101, 361.933944549623675 ], [ 432.313649219431113, 361.933944547627391 ], [ 432.12978204092218, 367.633827094502692 ], [ 420.362282589838287, 367.633827094502692 ], [ 420.54614977096719, 361.382343011477019 ], [ 410.065720569695316, 361.750077367247115 ], [ 410.065720569321115, 357.153397894669013 ] ] ] } },
{ "type": "Feature", "properties": { "feature_type": "building", "subtype": "no-damage", "uid": "949f8aec-2fbf-40e3-91b2-78913ce12430" }, "geometry": { "type": "Polygon", "coordinates": [ [ [ 442.84933160253712, 363.608366498106875 ], [ 444.320269036035825, 313.780361011287425 ], [ 473.922884845217823, 314.331962544443513 ], [ 472.635814591038979, 358.460085485385775 ], [ 461.419916674171816, 358.643952668760505 ], [ 461.419916676729486, 364.15996803325919 ], [ 442.84933160253712, 363.608366498106875 ] ] ] } },
{ "type": "Feature", "properties": { "feature_type": "building", "subtype": "no-damage", "uid": "b64e8319-5f1d-4d59-861f-2dd86963e8a2" }, "geometry": { "type": "Polygon", "coordinates": [ [ [ 474.210587046466628, 368.357443304988578 ], [ 474.5195300243671, 357.509330744500005 ], [ 476.680501212871491, 357.365265999647818 ], [ 477.977083926647879, 315.730554450894488 ], [ 489.35819884658298, 315.730554450894488 ], [ 489.358198845273023, 317.315266654250195 ], [ 505.781579872155191, 317.315266653252024 ], [ 506.64596834588508, 367.881992445724791 ], [ 474.210587046466628, 368.357443304988578 ] ] ] } },
{ "type": "Feature", "properties": { "feature_type": "building", "subtype": "no-damage", "uid": "dcc79537-cbc1-46e6-b841-dc2ab2cf867c" }, "geometry": { "type": "Polygon", "coordinates": [ [ [ 508.518810044747511, 366.009150747674084 ], [ 509.959457503687986, 317.747460890803097 ], [ 539.492730400585287, 318.467784617060374 ], [ 540.789313114299262, 362.695661593116085 ], [ 530.128521920746493, 363.271920573523175 ], [ 529.408198189186351, 360.534690404362891 ], [ 521.628701918006414, 360.678755150213192 ], [ 521.340572424122229, 366.729474474929475 ], [ 508.518810044747511, 366.009150747674084 ] ] ] } },
{ "type": "Feature", "properties": { "feature_type": "building", "subtype": "no-damage", "uid": "3ecf7441-974e-4a69-9414-4dc313459951" }, "geometry": { "type": "Polygon", "coordinates": [ [ [ 542.623252404960681, 362.138580022929489 ], [ 542.335122914070894, 322.08858068252249 ], [ 559.911021908192879, 320.503868479166783 ], [ 559.478827667647352, 317.334444067464915 ], [ 568.987100894147488, 316.902249830912012 ], [ 571.868395811155324, 366.460522400435991 ], [ 562.936381568368688, 367.324910874540024 ], [ 562.9363815714878, 371.502788502203828 ], [ 552.563719868013891, 371.646853250050412 ], [ 552.275590377186404, 367.901169856943284 ], [ 543.199511387052212, 368.333364095492414 ], [ 542.623252404960681, 362.138580022929489 ] ] ] } },
{ "type": "Feature", "properties": { "feature_type": "building", "subtype": "no-damage", "uid": "f11b756c-c65a-4fd7-99c3-31126b11ae39" }, "geometry": { "type": "Polygon", "coordinates": [ [ [ 604.513364240472697, 379.777981387834473 ], [ 607.455239099173241, 326.824233860500328 ], [ 637.609456446751551, 329.030640005101986 ], [ 635.403050300152927, 381.800520354052082 ], [ 604.513364240472697, 379.777981387834473 ] ] ] } },
{ "type": "Feature", "properties": { "feature_type": "building", "subtype": "no-damage", "uid": "d4fa2487-961b-4e89-bf39-bec7fdcc46f2" }, "geometry": { "type": "Polygon", "coordinates": [ [ [ 656.39371308561249, 356.075268443098992 ], [ 644.541470793012877, 339.369250732476701 ], [ 649.056610714451836, 336.547288281196188 ], [ 648.15358272832998, 333.725325830913789 ], [ 661.586123995052048, 322.888990019913194 ], [ 660.231582019362691, 321.647326542068413 ], [ 668.471712375148059, 313.971588673946712 ], [ 698.723149849094284, 347.609381087261283 ], [ 692.853467952028495, 353.027548990765411 ], [ 695.336794907905983, 357.091174920888818 ], [ 684.951973088340765, 366.798725753573081 ], [ 682.694403128775434, 364.654034291478297 ], [ 675.470179254211189, 370.523716190101823 ], [ 659.892946526017454, 353.140427497280712 ], [ 656.39371308561249, 356.075268443098992 ] ] ] } },
{ "type": "Feature", "properties": { "feature_type": "building", "subtype": "no-damage", "uid": "69ea84c7-73d3-4084-a445-0585c357325a" }, "geometry": { "type": "Polygon", "coordinates": [ [ [ 668.169467177525121, 278.430034423904317 ], [ 663.654327255462363, 274.366408492782796 ], [ 664.783112236960619, 248.742989439188392 ], [ 713.998137383407993, 248.855867937718699 ], [ 714.223894377224838, 277.414127939127582 ], [ 713.998137381411766, 279.671697901748985 ], [ 668.169467177525121, 278.430034423904317 ] ] ] } },
{ "type": "Feature", "properties": { "feature_type": "building", "subtype": "no-damage", "uid": "c59c4815-c585-4f16-8e81-5854015d1dd9" }, "geometry": { "type": "Polygon", "coordinates": [ [ [ 661.195487424276394, 201.402836865020703 ], [ 657.018982997991884, 201.177079867960089 ], [ 657.809132482401878, 184.922576148464714 ], [ 665.146234856244973, 185.148333144527186 ], [ 665.146234857305558, 183.229398679492988 ], [ 704.879466164008932, 183.568034171091512 ], [ 705.330980159565115, 215.061135123309413 ], [ 663.227300388403023, 214.27098563659149 ], [ 663.565935883619773, 201.289958364494197 ], [ 661.195487424276394, 201.402836865020703 ] ] ] } },
{ "type": "Feature", "properties": { "feature_type": "building", "subtype": "no-damage", "uid": "49ccbc85-1715-4116-b850-4c86df862bc9" }, "geometry": { "type": "Polygon", "coordinates": [ [ [ 646.903979267575664, 170.466221046453398 ], [ 657.852899947838637, 169.745897319198008 ], [ 658.429158930990639, 150.585286123098399 ], [ 707.123043026800815, 150.585286120104001 ], [ 707.123043031853854, 181.847335970626887 ], [ 646.90397926420701, 182.855789189582993 ], [ 646.903979267575664, 170.466221046453398 ] ] ] } },
{ "type": "Feature", "properties": { "feature_type": "building", "subtype": "no-damage", "uid": "97126dff-c6b3-4dd5-b890-ba3460a80192" }, "geometry": { "type": "Polygon", "coordinates": [ [ [ 668.58870444416516, 115.542374093214306 ], [ 669.30902817322999, 85.000647976933806 ], [ 718.291041762737109, 85.576906956342683 ], [ 718.002912273032621, 116.406762564323898 ], [ 668.58870444416516, 115.542374093214306 ] ] ] } },
{ "type": "Feature", "properties": { "feature_type": "building", "subtype": "no-damage", "uid": "a0a2aeb1-fa07-4ab1-99eb-20dfbefa76f1" }, "geometry": { "type": "Polygon", "coordinates": [ [ [ 645.764034144759989, 45.73464213818135 ], [ 667.517810768356185, 20.37924687450948 ], [ 679.619249417543188, 20.091117381810669 ], [ 691.000364339911243, 29.311261114236459 ], [ 689.41565213611841, 31.9044265415389 ], [ 696.618889429074557, 39.107663829065508 ], [ 682.356479588388652, 55.819174347705463 ], [ 686.822486711622332, 60.71737570761529 ], [ 676.593889756182193, 72.242555375642837 ], [ 671.119429413305852, 67.344354014734876 ], [ 669.102522971150847, 68.785001471242083 ], [ 661.755220934714771, 63.310541131923372 ], [ 655.272307373318654, 70.513778424440588 ], [ 646.916552115056561, 63.02241164221892 ], [ 651.814753469603033, 57.115757062354803 ], [ 645.590815395290178, 49.261493647120297 ], [ 645.764034144759989, 45.73464213818135 ] ] ] } },
{ "type": "Feature", "properties": { "feature_type": "building", "subtype": "no-damage", "uid": "9c1792c1-49ad-451c-91d1-84226d893f61" }, "geometry": { "type": "Polygon", "coordinates": [ [ [ 611.161484675482825, 48.307974688719938 ], [ 611.86903073044698, 23.543862775527501 ], [ 612.930349814296733, 23.455419517058459 ], [ 614.098707568339819, 3.064599960358694 ], [ 620.194146461780065, 2.838842969286797 ], [ 620.532781956185886, 0.807030000731677 ], [ 635.319865200843083, 0.694151505195728 ], [ 635.319865199782498, 2.725964465765862 ], [ 641.641061087725916, 3.064599959360571 ], [ 640.963790103405813, 32.751644942080233 ], [ 643.78575255057001, 32.864523443604917 ], [ 643.898631051782786, 50.81220462708135 ], [ 639.383491130905327, 50.812204628079478 ], [ 638.819098638690207, 59.052334982864053 ], [ 621.322931445648805, 59.052334983862167 ], [ 622.000202432963306, 52.844017593640217 ], [ 612.744165592525746, 53.18265308823306 ], [ 611.161484675482825, 48.307974688719938 ] ] ] } },
{ "type": "Feature", "properties": { "feature_type": "building", "subtype": "no-damage", "uid": "82b9fa97-fe8e-4a60-b310-517ef9e8a0c6" }, "geometry": { "type": "Polygon", "coordinates": [ [ [ 578.414330287920507, 56.941009302967203 ], [ 579.854977748483066, 13.001261822604651 ], [ 601.320624879006118, 13.721585552854499 ], [ 608.235732682382491, 22.941729288274662 ], [ 607.51540895107189, 63.856117104781838 ], [ 591.236092673159305, 64.288311341334762 ], [ 591.236092669478694, 59.101980489724227 ], [ 578.990589275127491, 59.101980490722362 ], [ 578.414330287920507, 56.941009302967203 ] ] ] } },
{ "type": "Feature", "properties": { "feature_type": "building", "subtype": "no-damage", "uid": "f0a4eff5-a3e0-4205-ae65-e20dfa28777f" }, "geometry": { "type": "Polygon", "coordinates": [ [ [ 515.403870023070908, 67.602861584755217 ], [ 515.488168749082774, 63.404247549213402 ], [ 513.731434348037055, 63.157059365648657 ], [ 514.609519831078387, 17.940085011358931 ], [ 523.30815439528169, 17.818535560591869 ], [ 523.393239836304019, 13.61355306250255 ], [ 537.041998145686989, 14.234199756859359 ], [ 537.380633640092697, 17.821931144963951 ], [ 541.490214800183139, 18.160566638558659 ], [ 543.454824577879776, 67.385973359975495 ], [ 540.313818782463159, 67.756705514064308 ], [ 540.452413996654968, 70.597907357023033 ], [ 524.129643526391419, 71.805968896707668 ], [ 523.543798133625501, 67.271622272315767 ], [ 515.403870023070908, 67.602861584755217 ] ] ] } },
{ "type": "Feature", "properties": { "feature_type": "building", "subtype": "no-damage", "uid": "77677930-e71f-4721-b9b9-9a472e1adbbb" }, "geometry": { "type": "Polygon", "coordinates": [ [ [ 480.489259928797992, 65.058241534857416 ], [ 481.166530918295791, 18.66517884151547 ], [ 492.680137717674882, 18.213664850388572 ], [ 492.567259222076586, 19.906842320358361 ], [ 497.19527764273198, 19.793963820829919 ], [ 497.308156140638573, 15.95609488676906 ], [ 509.611912423803801, 15.73033789170467 ], [ 509.724790920836881, 65.848391017582784 ], [ 507.692977958145093, 65.848391017582784 ], [ 507.638681470526592, 72.111004896546106 ], [ 493.901670119577318, 72.219597872032608 ], [ 494.064559579251295, 70.753592707955505 ], [ 491.404031688003386, 70.753592707955505 ], [ 491.295438716322224, 66.627059652444203 ], [ 480.273251738312979, 66.464170188216329 ], [ 480.489259928797992, 65.058241534857416 ] ] ] } },
{ "type": "Feature", "properties": { "feature_type": "building", "subtype": "no-damage", "uid": "91652c25-f42b-4c36-bb8f-af9a634d2c7b" }, "geometry": { "type": "Polygon", "coordinates": [ [ [ 348.380630422237289, 60.986245769315268 ], [ 350.541601610055579, 14.74146235534722 ], [ 365.380270431585416, 14.88552710019944 ], [ 365.812464669011774, 12.29236167489324 ], [ 378.490162304470005, 12.868620659292739 ], [ 376.651034973806077, 61.141082093650112 ], [ 365.511438184437225, 61.85610377620069 ], [ 365.2342477629781, 67.399912257034245 ], [ 360.45271294990448, 67.192019438429071 ], [ 360.452712949031081, 63.103460685835522 ], [ 348.602822322405927, 62.826270262692162 ], [ 348.380630422237289, 60.986245769315268 ] ] ] } },
{ "type": "Feature", "properties": { "feature_type": "building", "subtype": "no-damage", "uid": "f0576f47-6e52-4b85-aacb-31f1ba3ec88d" }, "geometry": { "type": "Polygon", "coordinates": [ [ [ 350.433241265409379, 160.130285931195687 ], [ 352.545237881138974, 115.309024462383107 ], [ 380.939859017907111, 117.421021074743294 ], [ 379.062528696508707, 157.764293759001191 ], [ 374.134536599149214, 157.314290444389002 ], [ 373.899870305941022, 163.802677620763887 ], [ 350.340273161700225, 163.198428047332186 ], [ 350.433241265409379, 160.130285931195687 ] ] ] } },
{ "type": "Feature", "properties": { "feature_type": "building", "subtype": "no-damage", "uid": "54cd3b13-2ac0-4d3f-94fd-1283436ff3ec" }, "geometry": { "type": "Polygon", "coordinates": [ [ [ 384.10791628278281, 162.66640519489809 ], [ 384.730506501469677, 117.953729026004098 ], [ 411.056778449400326, 117.289248988329007 ], [ 411.845751735385193, 158.95071246813049 ], [ 396.411672567382823, 159.505807250022912 ], [ 396.524551065975515, 163.117919185026892 ], [ 384.10791628278281, 162.66640519489809 ] ] ] } },
{ "type": "Feature", "properties": { "feature_type": "building", "subtype": "no-damage", "uid": "b83cf5dc-d160-4be3-a87b-903db044edd5" }, "geometry": { "type": "Polygon", "coordinates": [ [ [ 316.930854176953176, 256.186155315305086 ], [ 316.867986642997494, 251.206644832798304 ], [ 315.287687670684079, 251.206644832798304 ], [ 317.206622138151886, 207.748423088268993 ], [ 328.155836448372611, 207.522666092206492 ], [ 328.155836445128728, 210.118871549420788 ], [ 331.429312890157178, 210.118871550418902 ], [ 332.106583880029291, 206.619638105960206 ], [ 344.618278571079486, 206.732516604490513 ], [ 345.418793386268305, 256.7614242183285 ], [ 316.930854176953176, 256.186155315305086 ] ] ] } },
{ "type": "Feature", "properties": { "feature_type": "building", "subtype": "no-damage", "uid": "80ecfa8b-b1e8-43c6-86e1-a2ec79f84b35" }, "geometry": { "type": "Polygon", "coordinates": [ [ [ 519.31669418522813, 1020.227234713242979 ], [ 520.550355771132558, 1002.074785696333947 ], [ 536.059244254460964, 1002.42726043336404 ], [ 536.76419373176418, 1018.11238628208298 ], [ 539.055279529942936, 1018.464861021108959 ], [ 539.231516898145856, 1021.460896294842996 ], [ 546.809723771108111, 1021.813371034867032 ], [ 547.16219850919822, 1017.407436807025988 ], [ 558.617627504520897, 1017.231199438510998 ], [ 558.467711281486572, 1022.989077957087034 ], [ 532.440053741744237, 1022.989116130311004 ], [ 532.182022133660098, 1020.227234712245036 ], [ 519.31669418522813, 1020.227234713242979 ] ] ] } },
{ "type": "Feature", "properties": { "feature_type": "building", "subtype": "no-damage", "uid": "9d0e87a3-7f0b-487b-ad0a-449e7827893a" }, "geometry": { "type": "Polygon", "coordinates": [ [ [ 563.324361635348509, 1022.989067668431971 ], [ 563.84632327686279, 1005.622808132137038 ], [ 599.610750148829538, 1006.037067899399972 ], [ 599.21980691291833, 1022.988960795383036 ], [ 563.324361635348509, 1022.989067668431971 ] ] ] } },
{ "type": "Feature", "properties": { "feature_type": "building", "subtype": "no-damage", "uid": "aa4b062b-eed1-4b42-b9e1-2a59c02bc641" }, "geometry": { "type": "Polygon", "coordinates": [ [ [ 615.156555707016423, 1022.988895930346985 ], [ 632.685582660090859, 1000.824788572025 ], [ 662.117223304874187, 1022.149510235175967 ], [ 661.557799449761546, 1022.988646063166016 ], [ 615.156555707016423, 1022.988895930346985 ] ] ] } },
{ "type": "Feature", "properties": { "feature_type": "building", "subtype": "no-damage", "uid": "67a023b0-9fc0-478b-a657-649a13d0c52a" }, "geometry": { "type": "Polygon", "coordinates": [ [ [ 860.410733025821742, 1022.986546847266027 ], [ 867.637253424230039, 1002.161848490453963 ], [ 885.965939817083267, 1010.797479576623005 ], [ 884.792497169905914, 1016.686913688679965 ], [ 881.704498135958374, 1022.986223205801025 ], [ 860.410733025821742, 1022.986546847266027 ] ] ] } },
{ "type": "Feature", "properties": { "feature_type": "building", "subtype": "no-damage", "uid": "7450547c-0f81-44d2-b395-2c934857d243" }, "geometry": { "type": "Polygon", "coordinates": [ [ [ 957.200114183019878, 1022.98492166106098 ], [ 958.290112341859867, 991.047976644155369 ], [ 983.931961894767255, 991.272905148009954 ], [ 984.381818901416182, 1008.142543011965017 ], [ 1020.595308182467988, 1007.692686002259052 ], [ 1020.384398341440033, 1022.983647591659974 ], [ 957.200114183019878, 1022.98492166106098 ] ] ] } },
{ "type": "Feature", "properties": { "feature_type": "building", "subtype": "no-damage", "uid": "74264a3a-9b35-4d71-bbfa-a8f7ae53aae0" }, "geometry": { "type": "Polygon", "coordinates": [ [ [ 941.377426657458386, 970.304388710549347 ], [ 941.032020254151917, 926.942927573596535 ], [ 957.598332949692121, 926.237978097541259 ], [ 957.774570319017926, 929.057776002760647 ], [ 963.942878237810419, 929.057776002760647 ], [ 964.471590345912659, 969.944845636927084 ], [ 941.377426657458386, 970.304388710549347 ] ] ] } },
{ "type": "Feature", "properties": { "feature_type": "building", "subtype": "no-damage", "uid": "4cbf986d-3706-4448-bcef-6b6548136e84" }, "geometry": { "type": "Polygon", "coordinates": [ [ [ 839.510506463761544, 788.804541185544508 ], [ 839.510506462326816, 787.943324875903272 ], [ 838.362218047121587, 771.006070764997958 ], [ 842.668299603314495, 765.26462869240504 ], [ 867.069428413651394, 764.116340277886479 ], [ 868.217716824614513, 786.507964360499841 ], [ 839.510506463761544, 788.804541185544508 ] ] ] } },
{ "type": "Feature", "properties": { "feature_type": "building", "subtype": "no-damage", "uid": "ad1a553c-c790-4930-97b4-993451e11979" }, "geometry": { "type": "Polygon", "coordinates": [ [ [ 850.504619569022339, 750.206074033370101 ], [ 851.124195880055481, 736.622820965585106 ], [ 863.624563165665336, 736.270346229553638 ], [ 864.772851580433894, 725.361606291128055 ], [ 881.710105695773791, 725.074534188246957 ], [ 881.710105698019561, 728.232327326925429 ], [ 905.386314492568658, 730.196399950867544 ], [ 905.119212922308179, 751.48516771818197 ], [ 850.504619569022339, 750.206074033370101 ] ] ] } },
{ "type": "Feature", "properties": { "feature_type": "building", "subtype": "no-damage", "uid": "d54a6899-6848-4314-88bd-e75797fa1c97" }, "geometry": { "type": "Polygon", "coordinates": [ [ [ 954.500411251194578, 582.28530139128145 ], [ 950.081640365968497, 554.944156530309897 ], [ 953.671891707559553, 553.701377215543971 ], [ 953.119545348005772, 546.658961115172133 ], [ 964.028385975299898, 544.863835441725882 ], [ 965.961598240724925, 552.872857675028285 ], [ 972.313581390190734, 552.320511314351847 ], [ 973.832533881614836, 561.572312861422006 ], [ 999.324058457557271, 563.294745477710194 ], [ 1000.356336979049956, 573.542774967601531 ], [ 1001.302326477956967, 585.249175649526592 ], [ 988.413480545459038, 585.153604230949327 ], [ 970.38036912501525, 587.118332048947309 ], [ 970.518455715745858, 585.047033196660095 ], [ 959.747701679556712, 585.875552738173837 ], [ 959.333441908238228, 582.699561161539236 ], [ 954.500411251194578, 582.28530139128145 ] ] ] } },
{ "type": "Feature", "properties": { "feature_type": "building", "subtype": "no-damage", "uid": "1b7b3e87-b395-4dfa-afb2-ae4c2a298c57" }, "geometry": { "type": "Polygon", "coordinates": [ [ [ 820.294690751192547, 564.021902261948526 ], [ 819.189998028154946, 508.373006404080513 ], [ 821.813643242055264, 495.116693744850693 ], [ 839.626813381862348, 494.978607150439586 ], [ 839.488726789634597, 501.192503711293909 ], [ 845.840709940223292, 501.054417121873314 ], [ 846.39305630214767, 519.55802021301929 ], [ 855.092511487171805, 520.524626343953628 ], [ 855.368684670067751, 529.085994933940015 ], [ 861.306408049525203, 530.466860837128365 ], [ 861.858754406895628, 563.055296127021734 ], [ 820.294690751192547, 564.021902261948526 ] ] ] } }
]
}
