{
"type": "FeatureCollection",
"name": "hurricane-florence_00000257_post_disaster",
"features": [
{ "type": "Feature", "properties": { "feature_type": "building", "subtype": "no-damage", "uid": "f37af026-43e4-4fc9-bf8a-e2c2f82318e0" }, "geometry": { "type": "Polygon", "coordinates": [ [ [ 0.646118819578414, 156.587466785606807 ], [ 5.693639105601112, 154.33772820138401 ], [ 7.855397494779096, 159.507150437262197 ], [ 10.01715588089945, 158.56725548593289 ], [ 16.408441557683101, 173.605574717393495 ], [ 7.761407995620309, 177.177175532037012 ], [ 4.471775665968577, 169.752005410114691 ], [ 0.646151259254124, 171.451833978556408 ], [ 0.646118819578414, 156.587466785606807 ] ] ] } },
{ "type": "Feature", "properties": { "feature_type": "building", "subtype": "no-damage", "uid": "4df36ea2-8f2e-4b51-8aab-5c378b85dce7" }, "geometry": { "type": "Polygon", "coordinates": [ [ [ 51.615878832971283, 191.788544406608906 ], [ 76.875506331507012, 181.183919455235014 ], [ 77.464652164233812, 182.141281432524409 ], [ 95.875459376812884, 175.292461150388306 ], [ 105.1545062132125, 195.249776170184987 ], [ 61.778644418206277, 213.881513066091287 ], [ 51.984094977533722, 202.76138550662219 ], [ 51.615878832971283, 191.788544406608906 ] ] ] } },
{ "type": "Feature", "properties": { "feature_type": "building", "subtype": "no-damage", "uid": "8215da7f-9234-43a8-a3b2-3d2ce53e8d8d" }, "geometry": { "type": "Polygon", "coordinates": [ [ [ 475.92569951001542, 106.919664914971406 ], [ 479.833647711724893, 119.620496570912294 ], [ 445.516376422333224, 128.245412985896593 ], [ 441.362979178126579, 125.632573765642206 ], [ 436.846217486040814, 108.287446782537899 ], [ 438.800191584602317, 108.092049372885498 ], [ 438.409396765042914, 105.747280449922798 ], [ 442.512742377933478, 104.965690809275003 ], [ 439.777178636685903, 95.782012534210949 ], [ 443.489729430781495, 94.609628075277627 ], [ 470.071613986974285, 87.931982706159715 ], [ 475.92569951001542, 106.919664914971406 ] ] ] } },
{ "type": "Feature", "properties": { "feature_type": "building", "subtype": "no-damage", "uid": "3ffc02e1-c08a-4f35-9e60-649ffc60d692" }, "geometry": { "type": "Polygon", "coordinates": [ [ [ 477.170011636110189, 36.843324809804322 ], [ 477.529882817868611, 56.15641143414377 ], [ 477.649839879304125, 65.153190915170441 ], [ 460.136109148218225, 65.752976212410715 ], [ 460.256066207869992, 37.203195987740791 ], [ 477.170011636110189, 36.843324809804322 ] ] ] } },
{ "type": "Feature", "properties": { "feature_type": "building", "subtype": "no-damage", "uid": "02db60d2-0f0d-409c-aa5b-a10ecc529f9d" }, "geometry": { "type": "Polygon", "coordinates": [ [ [ 475.735459454860177, 0.01098487993192 ], [ 474.577922187276272, 28.631061547818799 ], [ 463.980111536917775, 28.787796894691599 ], [ 464.939402837758109, 0.010963078007431 ], [ 475.735459454860177, 0.01098487993192 ] ] ] } },
{ "type": "Feature", "properties": { "feature_type": "building", "subtype": "no-damage", "uid": "ace3c022-f497-484b-895d-b9981010a981" }, "geometry": { "type": "Polygon", "coordinates": [ [ [ 640.275189893378638, 32.905032603263457 ], [ 655.234434095343545, 33.223314393965239 ], [ 655.234434092031165, 37.997541265703177 ], [ 663.191478879448368, 38.315823058443378 ], [ 663.509760670150058, 36.406132309136673 ], [ 683.561513529712329, 37.042695895636278 ], [ 683.561513530731531, 55.821321586790233 ], [ 680.227029933146014, 57.115811638099203 ], [ 679.74213203517661, 59.004139502980877 ], [ 681.166924884475065, 61.998978427478782 ], [ 684.219439998088774, 62.881197190201171 ], [ 683.561513531241189, 79.374174149682133 ], [ 638.365499145091576, 77.464483399356212 ], [ 640.275189893378638, 32.905032603263457 ] ] ] } },
{ "type": "Feature", "properties": { "feature_type": "building", "subtype": "no-damage", "uid": "1c5b0046-8ae9-45c4-a6d7-0651a23c6185" }, "geometry": { "type": "Polygon", "coordinates": [ [ [ 685.024709227599715, 56.184454645935418 ], [ 686.535584529892276, 57.094963303960839 ], [ 686.904499131277021, 58.158234044440348 ], [ 687.186467619835298, 60.883929406658638 ], [ 686.304132485226091, 62.192738956060367 ], [ 685.216933303492965, 62.619832324441482 ], [ 684.219439998088774, 62.881197190201171 ], [ 682.486992855800736, 62.481750826874119 ], [ 681.166924884475065, 61.998978427478782 ], [ 679.889583919575443, 60.648085249337292 ], [ 679.74213203517661, 59.004139502980877 ], [ 680.227029933146014, 57.115811638099203 ], [ 681.923055886328257, 56.184454645935418 ], [ 683.561513530731531, 55.821321586790233 ], [ 685.024709227599715, 56.184454645935418 ] ] ] } },
{ "type": "Feature", "properties": { "feature_type": "building", "subtype": "no-damage", "uid": "52f85f44-fd77-4eb9-aae7-aa4d590db4ce" }, "geometry": { "type": "Polygon", "coordinates": [ [ [ 687.186467619835298, 60.883929406658638 ], [ 686.904499131277021, 58.158234044440348 ], [ 688.032373071750726, 57.124349600322333 ], [ 689.024553476663982, 56.74596871895384 ], [ 690.194131461948018, 56.560412629320922 ], [ 691.612230040065583, 56.880023554663097 ], [ 692.560704161813305, 57.806813923734467 ], [ 693.013816317973578, 59.004139502980877 ], [ 693.201795308137434, 60.422238080079637 ], [ 692.810537796213794, 61.825037127366173 ], [ 692.106056215451417, 62.651601840934518 ], [ 690.664078938122088, 63.176106967242752 ], [ 689.160247015791811, 62.857708806182771 ], [ 688.032373074553561, 62.199782339334988 ], [ 687.186467619835298, 60.883929406658638 ] ] ] } },
{ "type": "Feature", "properties": { "feature_type": "building", "subtype": "no-damage", "uid": "351a2cbe-5288-42df-98b4-ea5b5a2a2506" }, "geometry": { "type": "Polygon", "coordinates": [ [ [ 960.617031558733743, 240.60187458562919 ], [ 983.428780128835797, 220.392808738265501 ], [ 1000.728965284631954, 239.989478653084404 ], [ 977.764117730119551, 260.045445513999482 ], [ 965.975495987100658, 250.400209543038699 ], [ 960.617031558733743, 240.60187458562919 ] ] ] } },
{ "type": "Feature", "properties": { "feature_type": "building", "subtype": "no-damage", "uid": "04494fe2-1671-4d3f-bf90-22e6cd17c846" }, "geometry": { "type": "Polygon", "coordinates": [ [ [ 958.431054314049902, 244.795405523028904 ], [ 964.903803104892631, 252.390496329160413 ], [ 975.926929929172957, 261.270237388262217 ], [ 971.180861432586312, 265.557008927287484 ], [ 973.783544155329082, 268.925186566985985 ], [ 954.952369161546358, 284.586560262888327 ], [ 951.916966573489617, 281.505880314624619 ], [ 943.559623081496625, 289.890389201494827 ], [ 932.293719577383172, 280.101412375933819 ], [ 931.375125674998912, 279.029719485062174 ], [ 928.006948030459967, 269.690681482921889 ], [ 940.254866724670933, 260.810940431973791 ], [ 939.336272824070306, 259.586148559749574 ], [ 950.053201682842655, 252.237397346788612 ], [ 958.431054314049902, 244.795405523028904 ] ] ] } },
{ "type": "Feature", "properties": { "feature_type": "building", "subtype": "no-damage", "uid": "a496f496-de47-4857-b15a-7c5cb5777e0d" }, "geometry": { "type": "Polygon", "coordinates": [ [ [ 938.605485610805431, 496.902491230179578 ], [ 945.338802629816087, 494.658052218746093 ], [ 942.844981512428376, 487.176588865307394 ], [ 953.817794434081179, 483.435857187059185 ], [ 954.815322884144848, 485.929678308269388 ], [ 960.071283216522829, 484.155599548028192 ], [ 959.323136882606036, 481.829075445969522 ], [ 965.039989469842453, 479.944507624703078 ], [ 966.037517919141806, 482.687710854671025 ], [ 973.768363389744877, 479.944507623683876 ], [ 978.506623514998296, 482.438328741836472 ], [ 985.239940535792584, 500.144458685816403 ], [ 983.743647863117758, 503.885190364064613 ], [ 972.770834940445638, 509.122214713204414 ], [ 976.262184509680651, 518.598734962184494 ], [ 957.309144003061419, 524.833287761642964 ], [ 955.314087107010891, 525.332051983235033 ], [ 949.827680646311819, 508.872832599350716 ], [ 944.091892070230415, 510.618507382057487 ], [ 938.356103498225821, 503.386426136357215 ], [ 938.605485610805431, 496.902491230179578 ] ] ] } },
{ "type": "Feature", "properties": { "feature_type": "building", "subtype": "no-damage", "uid": "5a078f1e-353a-4c27-8c04-2b76e124f6ad" }, "geometry": { "type": "Polygon", "coordinates": [ [ [ 941.186268213766425, 575.965488176004555 ], [ 936.8994966701556, 576.57788410854937 ], [ 935.674704800479617, 569.535330861351213 ], [ 939.655278377308491, 568.922934924729475 ], [ 938.889783459844011, 563.411371513479821 ], [ 944.401346871601959, 562.7989755778774 ], [ 944.095148902271944, 560.80868878971728 ], [ 958.027156419644371, 558.818402005634084 ], [ 960.017443206529947, 573.515904437671338 ], [ 949.759811298949785, 574.893795291248125 ], [ 949.91291028336002, 576.424785127196742 ], [ 941.426182333579732, 577.376520952301235 ], [ 941.186268213766425, 575.965488176004555 ] ] ] } },
{ "type": "Feature", "properties": { "feature_type": "building", "subtype": "no-damage", "uid": "903ed689-ab20-406c-bc2c-ae3a05cea926" }, "geometry": { "type": "Polygon", "coordinates": [ [ [ 842.678339296030686, 544.625301441006741 ], [ 882.330095087389168, 509.961187893588772 ], [ 893.053525900029626, 521.931529263779225 ], [ 852.404241658862247, 556.595642812216283 ], [ 842.678339296030686, 544.625301441006741 ] ] ] } },
{ "type": "Feature", "properties": { "feature_type": "building", "subtype": "no-damage", "uid": "d49160d2-3b5b-4681-adb3-82d71e9124b8" }, "geometry": { "type": "Polygon", "coordinates": [ [ [ 777.674865266709162, 574.153141922869736 ], [ 775.531479495158578, 571.397360217754567 ], [ 786.707705302065506, 561.445926277973285 ], [ 789.616585992864316, 564.967202903101224 ], [ 790.994476847205192, 564.048609004793548 ], [ 811.50974065981768, 588.238248421343087 ], [ 797.271535176427733, 600.179969153361185 ], [ 776.143875430251342, 575.531032777465839 ], [ 777.674865266709162, 574.153141922869736 ] ] ] } },
{ "type": "Feature", "properties": { "feature_type": "building", "subtype": "no-damage", "uid": "7f552cae-d57c-4190-bb0d-cd565164428f" }, "geometry": { "type": "Polygon", "coordinates": [ [ [ 837.167222195126783, 615.564642743625313 ], [ 847.822869226155603, 607.254463693713319 ], [ 861.758419449495136, 624.681379288380754 ], [ 851.082241129267459, 633.198330527742201 ], [ 837.167222195126783, 615.564642743625313 ] ] ] } },
{ "type": "Feature", "properties": { "feature_type": "building", "subtype": "no-damage", "uid": "e6b15ac9-4d62-4831-b31f-a171f32deb22" }, "geometry": { "type": "Polygon", "coordinates": [ [ [ 489.664665721525921, 847.53945423956668 ], [ 489.304794543079879, 842.741171849413945 ], [ 490.984193377696499, 841.421644189166273 ], [ 488.465095120930414, 838.902545934438081 ], [ 498.421531083501691, 830.505551752690053 ], [ 501.199527895042479, 833.430835018336438 ], [ 504.171124989083523, 833.237234732014258 ], [ 517.734617711658871, 846.579797766428328 ], [ 523.97238481712327, 840.342030657395298 ], [ 533.808863719533065, 850.298466616656356 ], [ 508.497924107763197, 875.369492111421209 ], [ 498.781402262711993, 865.892884387710183 ], [ 503.699641714299219, 860.974644934847902 ], [ 489.664665721525921, 847.53945423956668 ] ] ] } },
{ "type": "Feature", "properties": { "feature_type": "building", "subtype": "no-damage", "uid": "0e55d829-c3b5-4e42-aec0-875a46beefff" }, "geometry": { "type": "Polygon", "coordinates": [ [ [ 529.887472859224658, 856.639525729989941 ], [ 534.117000138931417, 852.034040467151499 ], [ 539.380411869890509, 857.015483715413893 ], [ 535.056895092044101, 861.526979482405864 ], [ 529.887472859224658, 856.639525729989941 ] ] ] } },
{ "type": "Feature", "properties": { "feature_type": "building", "subtype": "no-damage", "uid": "44207905-a46d-40c0-876f-b9dd14a3b0a1" }, "geometry": { "type": "Polygon", "coordinates": [ [ [ 545.909583099304996, 867.186004468704482 ], [ 548.415088287278309, 861.548022656911712 ], [ 557.651781890919096, 857.109611447753196 ], [ 569.647487867572181, 867.665832709350525 ], [ 571.926672003760586, 874.38342805597199 ], [ 572.046629063412411, 874.62334217425655 ], [ 564.609291355313985, 879.421624565428374 ], [ 564.402519162042609, 882.321125290604527 ], [ 562.830466749225252, 883.500164598688912 ], [ 556.212297175096751, 881.340937523935622 ], [ 545.909583099304996, 867.186004468704482 ] ] ] } },
{ "type": "Feature", "properties": { "feature_type": "building", "subtype": "no-damage", "uid": "445d546a-c1fb-49c9-9d95-ae2c1917a077" }, "geometry": { "type": "Polygon", "coordinates": [ [ [ 479.133870315575905, 663.449143183354522 ], [ 490.271522694040584, 666.966296562192952 ], [ 494.17947089345688, 676.73616707029089 ], [ 478.743075493723211, 683.379679013759073 ], [ 471.622197653065086, 666.308370096364342 ], [ 479.133870315575905, 663.449143183354522 ] ] ] } },
{ "type": "Feature", "properties": { "feature_type": "building", "subtype": "no-damage", "uid": "fb6a6e0d-2e76-4c14-83ea-afe1b884e68e" }, "geometry": { "type": "Polygon", "coordinates": [ [ [ 265.236957807057593, 816.105535370498728 ], [ 300.08671023301298, 797.523742490565382 ], [ 301.464601087863628, 799.820227245507567 ], [ 306.057570599530379, 797.370643505135945 ], [ 316.77449946034119, 817.273511387756116 ], [ 286.767098655065126, 833.502003656761303 ], [ 281.714832190167613, 824.928460569537606 ], [ 272.069596217170613, 830.133826016043599 ], [ 265.236957807057593, 816.105535370498728 ] ] ] } },
{ "type": "Feature", "properties": { "feature_type": "building", "subtype": "no-damage", "uid": "9345f857-aae8-4054-a0e8-6f82d22ef86d" }, "geometry": { "type": "Polygon", "coordinates": [ [ [ 212.77375768077431, 644.720602439458276 ], [ 224.008854624267087, 638.061811518550599 ], [ 236.477960219868891, 636.814900961512762 ], [ 243.710041463529194, 658.511144695556027 ], [ 215.280480710225191, 666.9901364962559 ], [ 216.776773377294404, 672.476542957210881 ], [ 222.761944064681501, 670.980250290396157 ], [ 224.25823673964959, 670.730868172465648 ], [ 227.001439966049702, 681.454298987656557 ], [ 230.492789537323091, 682.701209547752001 ], [ 231.490317980252314, 683.199973773420993 ], [ 233.984139099933202, 688.187616009726298 ], [ 232.899182647855412, 693.923404580458168 ], [ 204.307667782202287, 706.641892285075187 ], [ 197.324968650357192, 694.671550915904049 ], [ 194.581765418096694, 695.918461472941885 ], [ 188.097830509117614, 685.195030660808698 ], [ 189.843505292843304, 675.718510410809358 ], [ 185.354627278640692, 664.234031354989156 ], [ 203.808903559591101, 656.017323574345824 ], [ 207.549635237838402, 663.000022705173251 ], [ 218.273066049714487, 659.009908918167412 ], [ 212.77375768077431, 644.720602439458276 ] ] ] } },
{ "type": "Feature", "properties": { "feature_type": "building", "subtype": "no-damage", "uid": "bc2d311f-bec4-45c0-89d5-7bb617ed158b" }, "geometry": { "type": "Polygon", "coordinates": [ [ [ 230.583053508928202, 584.622102963555221 ], [ 246.044744447076909, 580.382607064734202 ], [ 242.802776991440709, 565.669062461518251 ], [ 254.024972029749989, 560.432038113397653 ], [ 268.239752410606286, 558.187599110117958 ], [ 271.98048408707001, 571.654233151199833 ], [ 280.739910981523224, 570.657663005078462 ], [ 288.689085585059217, 597.589972784064344 ], [ 236.817606306346903, 611.555371048776806 ], [ 229.474896990059193, 599.086265452917473 ], [ 230.583053508928202, 584.622102963555221 ] ] ] } },
{ "type": "Feature", "properties": { "feature_type": "building", "subtype": "no-damage", "uid": "0767a640-a5a6-4dc5-9f29-a4301dd79f31" }, "geometry": { "type": "Polygon", "coordinates": [ [ [ 108.972189526027705, 364.104658241893389 ], [ 129.283048631188592, 354.355445873126314 ], [ 160.31300142832859, 347.109660289931412 ], [ 184.122368216448308, 413.256937276169708 ], [ 151.372083517838206, 420.619428577459985 ], [ 130.55384317433581, 429.809116712872424 ], [ 108.972189526027705, 364.104658241893389 ] ] ] } },
{ "type": "Feature", "properties": { "feature_type": "building", "subtype": "no-damage", "uid": "329915bd-f4ca-47ea-9da2-614510986752" }, "geometry": { "type": "Polygon", "coordinates": [ [ [ 20.278575877700838, 308.093807262321491 ], [ 21.349552422827959, 310.040362941904675 ], [ 27.406872135299309, 307.500196613366484 ], [ 26.429885088566579, 305.350825103113721 ], [ 56.521086248150702, 294.408570139140124 ], [ 68.244930853024371, 320.591823094727317 ], [ 56.130291425533642, 325.476758348266685 ], [ 54.567112142199903, 322.350399784656076 ], [ 27.797666957151961, 332.90185992728658 ], [ 24.085116164330369, 330.361693596709983 ], [ 16.76637857031065, 309.365137292625491 ], [ 20.278575877700838, 308.093807262321491 ] ] ] } },
{ "type": "Feature", "properties": { "feature_type": "building", "subtype": "no-damage", "uid": "50e8948b-8dff-493d-a4c5-f0cd5d31260a" }, "geometry": { "type": "Polygon", "coordinates": [ [ [ 57.904045372670083, 283.12859004681718 ], [ 113.478976453672502, 263.838118104895614 ], [ 116.166842121152897, 274.271487678647816 ], [ 120.062232753244203, 282.209996147490301 ], [ 63.656576599884652, 300.998579662538418 ], [ 57.612731922496927, 292.443607915481095 ], [ 57.904045372670083, 283.12859004681718 ] ] ] } },
{ "type": "Feature", "properties": { "feature_type": "building", "subtype": "no-damage", "uid": "a5f41295-834c-4333-824f-25480fbcd9db" }, "geometry": { "type": "Polygon", "coordinates": [ [ [ 88.120560625725702, 294.906956424355883 ], [ 103.166161206154797, 289.240431534245488 ], [ 106.016383576035096, 300.573481320581493 ], [ 110.982057609828601, 314.055902617170318 ], [ 94.959469979609125, 320.3086197413337 ], [ 89.097547675261268, 306.240006211711091 ], [ 88.120560625725702, 294.906956424355883 ] ] ] } },
{ "type": "Feature", "properties": { "feature_type": "building", "subtype": "no-damage", "uid": "031caac1-b167-480b-8aad-90567c40dac0" }, "geometry": { "type": "Polygon", "coordinates": [ [ [ 934.403197248737001, 227.802399929198913 ], [ 967.076916051209309, 199.23427930719231 ], [ 979.735843753947165, 212.406406780963295 ], [ 945.522525635071929, 241.316660582637496 ], [ 934.403197248737001, 227.802399929198913 ] ] ] } },
{ "type": "Feature", "properties": { "feature_type": "building", "subtype": "no-damage", "uid": "a77a59de-f5f6-48f7-987d-07846d223e8b" }, "geometry": { "type": "Polygon", "coordinates": [ [ [ 1023.625508102274011, 202.916150201481798 ], [ 1021.990703458939038, 201.280352985300794 ], [ 1016.495262316302956, 193.908419740472311 ], [ 1023.625476114872981, 186.904393066332005 ], [ 1023.625508102274011, 202.916150201481798 ] ] ] } },
{ "type": "Feature", "properties": { "feature_type": "building", "subtype": "no-damage", "uid": "4660573d-69b2-4c54-923a-d4963e8d1d6d" }, "geometry": { "type": "Polygon", "coordinates": [ [ [ 408.176309964836321, 55.347049993292508 ], [ 409.049626510071789, 43.775605811535051 ], [ 428.262590435692118, 45.740568032136437 ], [ 426.952615620769109, 56.875353943441873 ], [ 408.176309964836321, 55.347049993292508 ] ] ] } },
{ "type": "Feature", "properties": { "feature_type": "building", "subtype": "no-damage", "uid": "fa6d86c3-39c6-48c2-85a9-cb62c808f18b" }, "geometry": { "type": "Polygon", "coordinates": [ [ [ 340.095667938297481, 67.237591626391421 ], [ 355.833794272822217, 67.921857991841989 ], [ 356.175927455037822, 85.883850002363559 ], [ 339.75353475761068, 85.19958363895141 ], [ 340.095667938297481, 67.237591626391421 ] ] ] } },
{ "type": "Feature", "properties": { "feature_type": "building", "subtype": "no-damage", "uid": "f4c06c75-6cef-453e-a4d8-a8aefd9cadf3" }, "geometry": { "type": "Polygon", "coordinates": [ [ [ 342.197609504259219, 136.3893851903415 ], [ 340.760254298876873, 131.564119793226013 ], [ 348.668328141344773, 129.285522244843008 ], [ 347.193941494010176, 124.326221697043295 ], [ 355.772191089899422, 122.717799898004898 ], [ 361.937807986212079, 142.286931786815813 ], [ 359.628673675642403, 143.338000551438114 ], [ 360.978349501781622, 147.580142445192109 ], [ 352.204364092987475, 150.828149942028489 ], [ 350.678855392945309, 148.184478384309386 ], [ 340.224113697159225, 151.401321981367204 ], [ 336.605164649578228, 138.131842138025803 ], [ 342.197609504259219, 136.3893851903415 ] ] ] } },
{ "type": "Feature", "properties": { "feature_type": "building", "subtype": "no-damage", "uid": "0282515c-28bb-4407-8f02-acb2c9725e89" }, "geometry": { "type": "Polygon", "coordinates": [ [ [ 94.973670182720141, 146.023531510643011 ], [ 111.785013618306806, 140.565303125406103 ], [ 122.701470394128904, 166.109811980993612 ], [ 104.580152148205698, 172.878015178605807 ], [ 94.973670182720141, 146.023531510643011 ] ] ] } },
{ "type": "Feature", "properties": { "feature_type": "building", "subtype": "no-damage", "uid": "6d1f40cf-155d-4c72-b54b-c511336ec795" }, "geometry": { "type": "Polygon", "coordinates": [ [ [ 231.732789176301509, 448.525165732713276 ], [ 249.555774841137406, 499.930699722063025 ], [ 223.025297351873888, 509.525206502006085 ], [ 216.567556854598394, 506.808737714027586 ], [ 199.677523254996089, 456.182736036622885 ], [ 209.430254008571097, 451.7243448318427 ], [ 224.198674872873511, 446.987304179056878 ], [ 225.034623222750412, 449.495149233529389 ], [ 231.732789176301509, 448.525165732713276 ] ] ] } },
{ "type": "Feature", "properties": { "feature_type": "building", "subtype": "no-damage", "uid": "62ec1dbf-6eee-4bd5-b738-ac7e95103f50" }, "geometry": { "type": "Polygon", "coordinates": [ [ [ 227.818982336238292, 526.114863050432177 ], [ 223.025297351873888, 509.525206502006085 ], [ 228.161115514631888, 508.323937630254079 ], [ 233.293113233597012, 507.810737861262226 ], [ 237.740844589659787, 523.377797603918111 ], [ 227.818982336238292, 526.114863050432177 ] ] ] } },
{ "type": "Feature", "properties": { "feature_type": "building", "subtype": "no-damage", "uid": "95468de2-b3b8-4a0f-ae71-c08e4cb90c6e" }, "geometry": { "type": "Polygon", "coordinates": [ [ [ 441.925064529140116, 731.135421291934676 ], [ 456.136186488513488, 748.411687204852456 ], [ 421.305005208819694, 770.424993766479133 ], [ 408.487130501958973, 753.984676204712514 ], [ 441.925064529140116, 731.135421291934676 ] ] ] } },
{ "type": "Feature", "properties": { "feature_type": "building", "subtype": "no-damage", "uid": "b1211367-e640-4c3c-b75b-30873a29f371" }, "geometry": { "type": "Polygon", "coordinates": [ [ [ 26.72417457226755, 31.12450880032052 ], [ 25.69777502842355, 29.75597607553463 ], [ 41.264834774388397, 18.636647690980929 ], [ 47.936431805934497, 27.36104381072656 ], [ 21.934310037301621, 46.520501948556117 ], [ 16.802312319610479, 38.480372194261058 ], [ 26.72417457226755, 31.12450880032052 ] ] ] } },
{ "type": "Feature", "properties": { "feature_type": "building", "subtype": "no-damage", "uid": "2987ae8b-185c-4000-b96f-7dbf814bbfcf" }, "geometry": { "type": "Polygon", "coordinates": [ [ [ 45.804329440716238, 39.064025028494861 ], [ 48.619067587504126, 38.661919581538072 ], [ 52.640122088666637, 42.548938928959558 ], [ 42.855556142224913, 50.993153374166333 ], [ 38.566431343515923, 46.704028574692003 ], [ 45.804329440716238, 39.064025028494861 ] ] ] } },
{ "type": "Feature", "properties": { "feature_type": "building", "subtype": "no-damage", "uid": "3447456e-9198-40db-b829-a21843aa77b3" }, "geometry": { "type": "Polygon", "coordinates": [ [ [ 0.645960117600312, 952.87210118975031 ], [ 7.548590810845551, 958.956991639780995 ], [ 11.49358657229685, 967.079041731417647 ], [ 0.645908989941949, 971.919126968103683 ], [ 0.645960117600312, 952.87210118975031 ] ] ] } }
]
}
