{
"type": "FeatureCollection",
"name": "hurricane-harvey_00000038_post_disaster",
"features": [
{ "type": "Feature", "properties": { "feature_type": "building", "subtype": "un-classified", "uid": "0021c0ab-c542-431f-a2ea-056ff86c9b78" }, "geometry": { "type": "Polygon", "coordinates": [ [ [ 766.434119911153289, 83.95993332030821 ], [ 747.600861527200664, 95.235896939413038 ], [ 747.960732705272676, 95.47581105954194 ], [ 747.559997251819482, 95.710001391293858 ], [ 726.149997248009868, 62.140001391833437 ], [ 746.281333869735818, 49.892128344861383 ], [ 766.434119911153289, 83.95993332030821 ] ] ] } },
{ "type": "Feature", "properties": { "feature_type": "building", "subtype": "major-damage", "uid": "46e9b99b-b307-4b05-a4c2-eae29d3fac7a" }, "geometry": { "type": "Polygon", "coordinates": [ [ [ 937.165884644084713, 837.681111791585522 ], [ 961.355949496498056, 824.214477750514902 ], [ 975.820111990544547, 849.90083527133811 ], [ 981.057136335927225, 846.908249929765361 ], [ 986.294160685303041, 856.135388065948632 ], [ 981.306518448889733, 858.379827073126535 ], [ 986.792924909106546, 868.10572943922773 ], [ 959.610274715494143, 883.816802486477854 ], [ 955.121396699889488, 873.592135899443292 ], [ 951.380665020177389, 876.085957018086106 ], [ 946.196533475098363, 866.582972952918112 ], [ 950.004825659472658, 864.274917082723618 ], [ 939.494570653013739, 845.53703850707825 ], [ 935.239294945333086, 848.130203929417462 ], [ 933.366453247206096, 843.520132062711582 ], [ 934.663035959998183, 838.765995450264882 ], [ 937.400266130449836, 837.469412735601281 ], [ 937.165884644084713, 837.681111791585522 ] ] ] } },
{ "type": "Feature", "properties": { "feature_type": "building", "subtype": "major-damage", "uid": "f1f5b3f6-369e-48db-b9c3-f07353f0bf12" }, "geometry": { "type": "Polygon", "coordinates": [ [ [ 948.429581782579476, 875.250685492758976 ], [ 962.978891787600787, 902.47197517963923 ], [ 950.872078867954428, 909.745400390339341 ], [ 935.992268389143419, 885.341335980937401 ], [ 936.696267259422257, 882.056007914229554 ], [ 948.898914361059951, 874.546686621606796 ], [ 948.429581782579476, 875.250685492758976 ] ] ] } },
{ "type": "Feature", "properties": { "feature_type": "building", "subtype": "major-damage", "uid": "4729178b-4d09-43ce-9b0d-fc567783a15f" }, "geometry": { "type": "Polygon", "coordinates": [ [ [ 992.174577997163624, 890.684031343868696 ], [ 998.167106311250336, 898.3655360587818 ], [ 986.399606861272332, 906.087957573397375 ], [ 983.46206807710314, 896.381023172752862 ], [ 985.84057356740368, 893.772833141095475 ], [ 992.174577997163624, 890.684031343868696 ] ] ] } },
{ "type": "Feature", "properties": { "feature_type": "building", "subtype": "major-damage", "uid": "5bda8658-8bf6-4e8b-8710-e185cdf59106" }, "geometry": { "type": "Polygon", "coordinates": [ [ [ 740.791925279435532, 106.542179780017804 ], [ 772.177216931683688, 89.08889563776134 ], [ 782.434848838087646, 101.489913315841605 ], [ 794.68276753612497, 93.528766165282534 ], [ 802.490815702646955, 108.379367585989499 ], [ 794.724388000137196, 114.915111589163004 ], [ 782.434848839210645, 119.555593391758194 ], [ 786.568521398779694, 125.220255787597907 ], [ 759.776199254848393, 139.611560253567603 ], [ 740.791925279435532, 106.542179780017804 ] ] ] } },
{ "type": "Feature", "properties": { "feature_type": "building", "subtype": "un-classified", "uid": "c2056170-25b8-4702-bc7f-f7dd5fedddb9" }, "geometry": { "type": "Polygon", "coordinates": [ [ [ 905.26660861817345, 0.008766540330252 ], [ 910.092892843914228, 3.091410044314969 ], [ 913.077423908746368, 5.839782950426586 ], [ 904.92034384407782, 10.63806533803043 ], [ 909.718626235675856, 21.19428660173995 ], [ 888.966054895433331, 33.669820815499612 ], [ 876.370563615367018, 14.116820076405521 ], [ 905.234951501058958, 0.008767067420277 ], [ 905.26660861817345, 0.008766540330252 ] ] ] } },
{ "type": "Feature", "properties": { "feature_type": "building", "subtype": "un-classified", "uid": "d7715f9c-133a-44a7-9588-494aaf3503a3" }, "geometry": { "type": "Polygon", "coordinates": [ [ [ 821.250427290016319, 27.969750191886892 ], [ 837.886567941473913, 18.66479016543158 ], [ 837.510609959495127, 15.563136824278081 ], [ 848.507380899490954, 8.983872164734308 ], [ 864.109637096077336, 31.447361512273719 ], [ 833.563051160074338, 48.459460141962481 ], [ 821.250427290016319, 27.969750191886892 ] ] ] } },
{ "type": "Feature", "properties": { "feature_type": "building", "subtype": "major-damage", "uid": "8c4834c4-15ea-4c4c-a910-3cc7aa932f16" }, "geometry": { "type": "Polygon", "coordinates": [ [ [ 977.438313734290205, 828.196770154885485 ], [ 977.573945395019337, 822.04813478131689 ], [ 982.049790264218245, 815.53781497048567 ], [ 987.791530651108587, 814.045866683498275 ], [ 992.357796629123982, 814.136287793313159 ], [ 996.517167617714449, 815.989920515566496 ], [ 999.907959183236017, 819.606764852255196 ], [ 1001.716381355449016, 824.444294152476346 ], [ 1002.530171328808024, 830.095613433044605 ], [ 1001.490328584032, 833.034299458101486 ], [ 1000.721749160464014, 833.802878880546245 ], [ 994.527903230488732, 838.233513193588806 ], [ 990.232900579921306, 839.18293483366665 ], [ 985.937897928605139, 837.690986541687948 ], [ 980.919526409002742, 834.842721626445837 ], [ 977.076629299523233, 831.858825046481456 ], [ 977.438313734290205, 828.196770154885485 ] ] ] } },
{ "type": "Feature", "properties": { "feature_type": "building", "subtype": "major-damage", "uid": "ca652425-1df6-4784-beb0-a49417e5eaf3" }, "geometry": { "type": "Polygon", "coordinates": [ [ [ 1022.564475001983965, 840.314089354724729 ], [ 1022.010152355966966, 840.876686765205818 ], [ 1019.759797880954011, 841.395999336199225 ], [ 1018.605769942986967, 838.857137876789011 ], [ 1014.335866585547024, 841.395999336199225 ], [ 1012.893331661932962, 838.45322809690947 ], [ 1017.336339218397029, 835.568158257169785 ], [ 1014.508970774338991, 830.317331150680502 ], [ 1009.89285902808399, 832.106074450879873 ], [ 1009.027338077259969, 829.394108802802293 ], [ 1012.431720486995005, 827.778469692268573 ], [ 1010.21757078284395, 825.162724435051359 ], [ 1014.504342326701021, 819.038765083476051 ], [ 1020.169004721917986, 808.015638258626723 ], [ 1022.564429929921971, 806.962619128608821 ], [ 1022.564475001983965, 840.314089354724729 ] ] ] } },
{ "type": "Feature", "properties": { "feature_type": "building", "subtype": "major-damage", "uid": "9fbcb378-1fcc-46de-a7c2-339bc606fbb9" }, "geometry": { "type": "Polygon", "coordinates": [ [ [ 992.471446604946095, 856.672255711631806 ], [ 996.452020184094863, 855.600562821237872 ], [ 998.748504935819938, 846.873920755100926 ], [ 1011.761918551806048, 843.658842096896592 ], [ 1020.335461635028992, 852.079286197201668 ], [ 1018.498273831302981, 865.551996762681142 ], [ 1006.709652086880055, 871.369758144431557 ], [ 999.360900872225443, 866.164392697339508 ], [ 996.452020181224839, 868.307778468144761 ], [ 994.614832376625259, 865.398897780763491 ], [ 997.983010020491633, 863.408610991875889 ], [ 996.298921197310619, 859.428037416097141 ], [ 992.165248638739854, 859.887334365843117 ], [ 992.471446604946095, 857.13155265838293 ], [ 992.471446604946095, 856.672255711631806 ] ] ] } },
{ "type": "Feature", "properties": { "feature_type": "building", "subtype": "major-damage", "uid": "2433735b-c76a-49a3-9e9f-c3bc586a33f9" }, "geometry": { "type": "Polygon", "coordinates": [ [ [ 910.589151176920495, 921.122003910404487 ], [ 917.43797145999099, 916.556123721608628 ], [ 920.751916758287166, 918.839063815008217 ], [ 921.930208419421092, 915.819691431933848 ], [ 925.833299553026109, 916.335194035504855 ], [ 925.538726633936676, 928.191753878703707 ], [ 915.744177199528735, 933.052206984966801 ], [ 909.705432430383667, 925.61424087083185 ], [ 909.779075660249646, 924.141376294477141 ], [ 910.589151176920495, 921.122003910404487 ] ] ] } },
{ "type": "Feature", "properties": { "feature_type": "building", "subtype": "major-damage", "uid": "b4767b0a-a571-457f-afc8-958733c9804d" }, "geometry": { "type": "Polygon", "coordinates": [ [ [ 912.092313375938943, 886.31239972480455 ], [ 917.779353927589341, 894.436743365810571 ], [ 910.061227466685182, 898.092698005960415 ], [ 905.592838463332214, 889.968354366950848 ], [ 912.092313375938943, 886.31239972480455 ] ] ] } }
]
}
