{
"type": "FeatureCollection",
"name": "hurricane-florence_00000339_post_disaster",
"features": [
{ "type": "Feature", "properties": { "feature_type": "building", "subtype": "no-damage", "uid": "7c746208-3d6d-4a8b-88b6-d51dbead3668" }, "geometry": { "type": "Polygon", "coordinates": [ [ [ 806.21640014183879, 648.84448478336742 ], [ 826.473800826996808, 652.497458677592704 ], [ 849.719998333590411, 654.822078430316537 ], [ 851.712529547371105, 655.154166967730248 ], [ 848.059555654675364, 687.698843472229214 ], [ 821.824561324862771, 685.706312255900002 ], [ 802.563426248888277, 680.724984218134637 ], [ 806.21640014183879, 648.84448478336742 ] ] ] } },
{ "type": "Feature", "properties": { "feature_type": "building", "subtype": "no-damage", "uid": "0807c89f-9ed0-4719-867b-4dab840c928b" }, "geometry": { "type": "Polygon", "coordinates": [ [ [ 872.634107305063367, 612.646834387700778 ], [ 893.223596527125665, 615.635631212194539 ], [ 887.578091415553217, 658.807140862974848 ], [ 866.656513660154019, 655.818344040519492 ], [ 872.634107305063367, 612.646834387700778 ] ] ] } },
{ "type": "Feature", "properties": { "feature_type": "building", "subtype": "no-damage", "uid": "b98ee0c0-c5e8-4d3b-a7e2-944a8cde89d7" }, "geometry": { "type": "Polygon", "coordinates": [ [ [ 784.836279557761486, 560.658804284071266 ], [ 789.259680535833354, 550.250801989917818 ], [ 816.32048650368381, 553.373202680202326 ], [ 813.076342085475744, 565.229028623080353 ], [ 813.886439026087601, 579.671857867668223 ], [ 786.415929296612717, 576.940711542241388 ], [ 784.836279557761486, 560.658804284071266 ] ] ] } },
{ "type": "Feature", "properties": { "feature_type": "building", "subtype": "no-damage", "uid": "9b2d6d9a-d2e9-45d6-a02d-1ba3767c461a" }, "geometry": { "type": "Polygon", "coordinates": [ [ [ 1023.603097431842002, 469.743140917300707 ], [ 1022.048509681182054, 469.328584166124926 ], [ 1022.048509681437054, 445.390178886514377 ], [ 1012.681307613897957, 443.828978542391383 ], [ 1013.201707728606038, 421.711973663238609 ], [ 1023.603075535895982, 421.962609139572692 ], [ 1023.603097431842002, 469.743140917300707 ] ] ] } },
{ "type": "Feature", "properties": { "feature_type": "building", "subtype": "no-damage", "uid": "ff2d0e87-ecd4-4200-8bdd-3fde33a4495f" }, "geometry": { "type": "Polygon", "coordinates": [ [ [ 1023.602509552952029, 77.280155709708652 ], [ 1011.054039465803044, 78.070610397503501 ], [ 1010.44241880412801, 35.461037715516447 ], [ 1023.602391553131952, 35.263143526355968 ], [ 1023.602509552952029, 77.280155709708652 ] ] ] } },
{ "type": "Feature", "properties": { "feature_type": "building", "subtype": "no-damage", "uid": "fea6f4f7-2ac9-4eb8-9fda-8bc7f3e1f38c" }, "geometry": { "type": "Polygon", "coordinates": [ [ [ 338.865174904607784, 0.010631829610047 ], [ 338.705632843042679, 8.562322063432632 ], [ 340.462775745831721, 8.881802592046419 ], [ 340.303035481779602, 35.238946120637507 ], [ 323.051086990147382, 34.759725326188018 ], [ 323.849547269753373, 0.010498017508409 ], [ 338.865174904607784, 0.010631829610047 ] ] ] } },
{ "type": "Feature", "properties": { "feature_type": "building", "subtype": "no-damage", "uid": "5a7bb124-4b43-4d8c-96d8-632fb3af7ca8" }, "geometry": { "type": "Polygon", "coordinates": [ [ [ 345.57446418785338, 4.56881547359646 ], [ 358.513425556450215, 4.089594679146963 ], [ 358.513425556704874, 6.325958373328217 ], [ 360.909529515956876, 6.325958372309008 ], [ 361.06926977873502, 17.827257367752232 ], [ 345.893944715447901, 18.306478159144099 ], [ 345.57446418785338, 4.56881547359646 ] ] ] } },
{ "type": "Feature", "properties": { "feature_type": "building", "subtype": "no-damage", "uid": "459381b2-efb5-4c13-8493-c4383a9f3f25" }, "geometry": { "type": "Polygon", "coordinates": [ [ [ 453.156023267651221, 323.751006999095011 ], [ 505.196034749108378, 329.215208213717574 ], [ 508.318435436334482, 332.077408843590604 ], [ 507.017435149565586, 345.868011884363113 ], [ 503.895034460810678, 348.990412572609102 ], [ 449.253022406325385, 343.005811248374926 ], [ 453.156023267651221, 323.751006999095011 ] ] ] } },
{ "type": "Feature", "properties": { "feature_type": "building", "subtype": "no-damage", "uid": "5214f3d4-3d7c-4c78-8214-a14a70a7532c" }, "geometry": { "type": "Polygon", "coordinates": [ [ [ 625.408461266937707, 331.296808679682783 ], [ 649.346866550110121, 334.939609484674918 ], [ 647.005066029594445, 351.852613212674214 ], [ 641.280664768575775, 351.072013044689527 ], [ 639.979664479768417, 361.219815277412181 ], [ 666.780270395361185, 365.122816143835109 ], [ 664.178269821058961, 384.637820445372711 ], [ 608.755657592728767, 376.311418608011479 ], [ 609.015857650082467, 367.204416597569718 ], [ 612.918858510643986, 357.31681441506629 ], [ 633.47466304592399, 360.439215106369886 ], [ 634.775663332947715, 350.551612925904976 ], [ 621.50546040408301, 348.470012468093614 ], [ 620.724860232531341, 339.102810400297926 ], [ 625.408461266937707, 331.296808679682783 ] ] ] } },
{ "type": "Feature", "properties": { "feature_type": "building", "subtype": "no-damage", "uid": "154eaa76-0576-49c9-8e30-3d2bdf795415" }, "geometry": { "type": "Polygon", "coordinates": [ [ [ 662.877269530468084, 321.149006445940927 ], [ 679.269873149106843, 322.710206790063921 ], [ 678.489272974752339, 334.939609489770987 ], [ 661.836469301307716, 333.118209084217312 ], [ 662.877269530468084, 321.149006445940927 ] ] ] } },
{ "type": "Feature", "properties": { "feature_type": "building", "subtype": "no-damage", "uid": "3b32193d-da66-44fd-965d-da49dce5f979" }, "geometry": { "type": "Polygon", "coordinates": [ [ [ 491.452201165717213, 296.620170909674187 ], [ 491.184800764940917, 271.722898523981485 ], [ 505.071737617926772, 271.722898527039092 ], [ 505.763204323997002, 296.099770797005021 ], [ 491.452201165717213, 296.620170909674187 ] ] ] } },
{ "type": "Feature", "properties": { "feature_type": "building", "subtype": "no-damage", "uid": "a158fff8-7994-423f-9b6f-9457ed774a44" }, "geometry": { "type": "Polygon", "coordinates": [ [ [ 755.533376045646264, 379.51771691557451 ], [ 779.313904587090519, 383.022215856513412 ], [ 773.931995497292178, 420.194936781737624 ], [ 750.151466957886214, 416.9407591914661 ], [ 755.533376045646264, 379.51771691557451 ] ] ] } },
{ "type": "Feature", "properties": { "feature_type": "building", "subtype": "no-damage", "uid": "f4f148a0-b83c-487d-af1d-3592be2884dc" }, "geometry": { "type": "Polygon", "coordinates": [ [ [ 676.711171285001001, 572.817992248601399 ], [ 675.284056409458458, 541.829212123659545 ], [ 677.526665498613852, 541.625338566880146 ], [ 677.322791945656604, 536.528499734027832 ], [ 692.001687796294732, 536.120752626584249 ], [ 692.613308456695449, 542.236959229064723 ], [ 696.28303242062907, 542.033085677381337 ], [ 698.321767954024267, 571.798624483050162 ], [ 676.711171285001001, 572.817992248601399 ] ] ] } },
{ "type": "Feature", "properties": { "feature_type": "building", "subtype": "no-damage", "uid": "c491f0b1-1c56-4fa1-965a-529189cf2fa5" }, "geometry": { "type": "Polygon", "coordinates": [ [ [ 667.268017000500549, 579.275014621102741 ], [ 677.030549769529216, 579.149853945259451 ], [ 677.280871125037834, 593.66849241850332 ], [ 667.768659709988924, 593.793653097404217 ], [ 666.016410236462207, 587.160137242037194 ], [ 666.892534970677616, 579.400175298984436 ], [ 667.268017000500549, 579.275014621102741 ] ] ] } },
{ "type": "Feature", "properties": { "feature_type": "building", "subtype": "no-damage", "uid": "356e4277-f7d3-4938-9488-5012c3e31235" }, "geometry": { "type": "Polygon", "coordinates": [ [ [ 679.033771742886984, 597.075343074432908 ], [ 707.148058176299628, 596.596122288137053 ], [ 707.78701922995981, 615.125992884545781 ], [ 679.889392870160805, 614.801002779985652 ], [ 678.869882257719723, 604.852402068120114 ], [ 679.033771742886984, 597.075343074432908 ] ] ] } },
{ "type": "Feature", "properties": { "feature_type": "building", "subtype": "no-damage", "uid": "cb04d64a-fb97-4f6d-a0c4-63c3e2f3620d" }, "geometry": { "type": "Polygon", "coordinates": [ [ [ 713.377928463373223, 612.090927875454895 ], [ 720.246759808183924, 611.931187611657606 ], [ 720.566240333740097, 618.959759218738327 ], [ 713.697408990967801, 619.119499482535616 ], [ 713.377928463373223, 612.090927875454895 ] ] ] } },
{ "type": "Feature", "properties": { "feature_type": "building", "subtype": "no-damage", "uid": "0f7eedd0-14d6-4db8-95ed-308cb4862446" }, "geometry": { "type": "Polygon", "coordinates": [ [ [ 705.267256585254472, 617.23900716571643 ], [ 711.347389821930278, 617.337073832418696 ], [ 711.249323154463582, 624.397873717772768 ], [ 705.169189921609814, 624.299807055147312 ], [ 705.267256585254472, 617.23900716571643 ] ] ] } },
{ "type": "Feature", "properties": { "feature_type": "building", "subtype": "no-damage", "uid": "e4f3959a-5e4d-4723-9aa8-0bc13d84b608" }, "geometry": { "type": "Polygon", "coordinates": [ [ [ 547.061443933500072, 135.37487794732391 ], [ 548.062312077136312, 128.474009835355901 ], [ 556.890729141559518, 129.981478592043487 ], [ 555.778674404244612, 137.320926515835396 ], [ 551.521995945351023, 137.104719881176806 ], [ 547.061443933500072, 135.37487794732391 ] ] ] } },
{ "type": "Feature", "properties": { "feature_type": "building", "subtype": "no-damage", "uid": "bf983930-1304-4d4a-8f05-32c8e72fb3d8" }, "geometry": { "type": "Polygon", "coordinates": [ [ [ 135.572045316032387, 440.022668025734617 ], [ 169.614296843545105, 447.720664603419721 ], [ 170.127496615594509, 448.918130739900619 ], [ 164.653365715687698, 467.906522288405881 ], [ 131.808580325165309, 460.550658896503819 ], [ 132.663913279939891, 450.628796640277187 ], [ 135.572045316032387, 440.022668025734617 ] ] ] } },
{ "type": "Feature", "properties": { "feature_type": "building", "subtype": "no-damage", "uid": "08ea6be7-2b06-45ba-8447-9b44f5a270a6" }, "geometry": { "type": "Polygon", "coordinates": [ [ [ 766.385719651093041, 610.3681623279208 ], [ 788.873620607905764, 612.769782819993452 ], [ 786.908658388833601, 640.06092476044671 ], [ 764.420757431256561, 637.222645995883681 ], [ 766.385719651093041, 610.3681623279208 ] ] ] } },
{ "type": "Feature", "properties": { "feature_type": "building", "subtype": "no-damage", "uid": "2af2ee42-7842-416d-9cca-164a3c33a28a" }, "geometry": { "type": "Polygon", "coordinates": [ [ [ 542.720969599472369, 180.802466858927687 ], [ 575.157475883896382, 185.091591662478891 ], [ 573.951159532579368, 194.474052155341212 ], [ 541.916758698934132, 190.050892203144087 ], [ 542.720969599472369, 180.802466858927687 ] ] ] } },
{ "type": "Feature", "properties": { "feature_type": "building", "subtype": "no-damage", "uid": "b8d12561-c7c2-4a8d-8d69-218f10a8f5f9" }, "geometry": { "type": "Polygon", "coordinates": [ [ [ 529.514754761983681, 127.041823189157299 ], [ 537.288793457079805, 125.433401393176496 ], [ 539.393494771510404, 133.743580687698994 ], [ 531.39124686239029, 134.949897035703799 ], [ 529.514754761983681, 127.041823189157299 ] ] ] } },
{ "type": "Feature", "properties": { "feature_type": "building", "subtype": "no-damage", "uid": "1a7b142d-6997-434d-9700-bc99dfe956e2" }, "geometry": { "type": "Polygon", "coordinates": [ [ [ 640.851675412969598, 225.943283548810314 ], [ 689.605653727595609, 238.77327784699051 ], [ 689.263520546908808, 246.984474192648207 ], [ 683.618323057932685, 249.550473054934201 ], [ 634.522211560326696, 239.286477615982392 ], [ 635.035411333904904, 231.417414449992293 ], [ 640.851675412969598, 225.943283548810314 ] ] ] } },
{ "type": "Feature", "properties": { "feature_type": "building", "subtype": "no-damage", "uid": "e58484ea-005f-4b08-94c7-aa068ca45e44" }, "geometry": { "type": "Polygon", "coordinates": [ [ [ 471.084207557177592, 314.86772941731931 ], [ 485.34821849619459, 315.64931906408242 ], [ 484.175834035477976, 326.982368843284007 ], [ 470.302617918313615, 325.809984385369773 ], [ 471.084207557177592, 314.86772941731931 ] ] ] } }
]
}
