{
"type": "FeatureCollection",
"name": "hurricane-matthew_00000258_post_disaster",
"features": [
{ "type": "Feature", "properties": { "feature_type": "building", "subtype": "minor-damage", "uid": "ce764ae1-672d-4bc4-9647-59894b7d3059" }, "geometry": { "type": "Polygon", "coordinates": [ [ [ 40.917056034899339, 112.142909964121003 ], [ 58.883716935042749, 119.115047031171599 ], [ 54.325011931212721, 133.327480283328811 ], [ 35.553873674262633, 127.427979687541395 ], [ 40.917056034899339, 112.142909964121003 ] ] ] } },
{ "type": "Feature", "properties": { "feature_type": "building", "subtype": "destroyed", "uid": "28a11f73-a57c-49da-a4d6-a991669b0541" }, "geometry": { "type": "Polygon", "coordinates": [ [ [ 750.491713796779663, 726.454018854911283 ], [ 752.942507090510276, 737.934050600021124 ], [ 738.882692928797837, 741.416756860630812 ], [ 736.173921393887099, 729.420768631241344 ], [ 750.491713796779663, 726.454018854911283 ] ] ] } },
{ "type": "Feature", "properties": { "feature_type": "building", "subtype": "destroyed", "uid": "1017a1ca-472f-47bf-86b7-816bb0a7e7a6" }, "geometry": { "type": "Polygon", "coordinates": [ [ [ 784.302186968685419, 811.738738411941313 ], [ 795.524240469978622, 806.579173581621717 ], [ 799.780881455808981, 815.35043379230126 ], [ 801.844707387409471, 819.478085657420706 ], [ 789.461751795407281, 824.766639607010802 ], [ 784.302186968685419, 811.738738411941313 ] ] ] } },
{ "type": "Feature", "properties": { "feature_type": "building", "subtype": "destroyed", "uid": "18aa8e43-95c1-4851-9b2c-544e94426a6b" }, "geometry": { "type": "Polygon", "coordinates": [ [ [ 723.002078208751755, 213.630090270930992 ], [ 729.369258339049225, 203.422388789875498 ], [ 740.385490629808487, 210.294900678334187 ], [ 734.220443201816352, 220.805801212607804 ], [ 723.002078208751755, 213.630090270930992 ] ] ] } },
{ "type": "Feature", "properties": { "feature_type": "building", "subtype": "destroyed", "uid": "98359c29-d37e-4fd1-be4a-0c865287b087" }, "geometry": { "type": "Polygon", "coordinates": [ [ [ 896.143053983068057, 4.501285297220694 ], [ 913.040628799441492, 9.273882766849855 ], [ 909.686911663139995, 21.52784923621974 ], [ 892.660347723177324, 17.142219130640012 ], [ 896.143053983068057, 4.501285297220694 ] ] ] } },
{ "type": "Feature", "properties": { "feature_type": "building", "subtype": "destroyed", "uid": "46fbe56a-cb4d-4f4a-9154-c61b3b47ddbd" }, "geometry": { "type": "Polygon", "coordinates": [ [ [ 869.055338625563422, 2.43745936634047 ], [ 879.632446530264247, 4.630274417450845 ], [ 876.536707632743628, 16.497273527569838 ], [ 866.21757796922293, 14.30445847549975 ], [ 869.055338625563422, 2.43745936634047 ] ] ] } }
]
}
