{
"type": "FeatureCollection",
"name": "hurricane-michael_00000227_post_disaster",
"features": [
{ "type": "Feature", "properties": { "feature_type": "building", "subtype": "minor-damage", "uid": "7b5c14ee-29f2-42a0-916c-febebc9f8971" }, "geometry": { "type": "Polygon", "coordinates": [ [ [ 527.771637353955953, 816.308962637718764 ], [ 579.994672951162784, 817.383795866739888 ], [ 579.994672953161739, 840.383795865439424 ], [ 523.77017326907503, 838.419748399220225 ], [ 527.771637353955953, 816.308962637718764 ] ] ] } },
{ "type": "Feature", "properties": { "feature_type": "building", "subtype": "minor-damage", "uid": "a184f624-4295-4937-9921-9c78063e8fa3" }, "geometry": { "type": "Polygon", "coordinates": [ [ [ 580.998536045087235, 738.741011913874217 ], [ 561.776964528572876, 738.703595300248026 ], [ 560.03595265705917, 728.555392927353182 ], [ 557.516512311419092, 710.555392925502929 ], [ 583.146738419574604, 709.666178685306477 ], [ 584.4431431652431, 728.741011915178433 ], [ 582.035952657483449, 730.815845142969692 ], [ 580.998536045087235, 738.741011913874217 ] ] ] } },
{ "type": "Feature", "properties": { "feature_type": "building", "subtype": "minor-damage", "uid": "3e93da0c-c26c-404b-82e4-22cab6dfb97d" }, "geometry": { "type": "Polygon", "coordinates": [ [ [ 540.887750283493347, 705.666178683229532 ], [ 539.961119429421046, 715.517976315722194 ], [ 547.775500445498096, 715.666178687922184 ], [ 547.775500442249722, 717.666178684463034 ], [ 549.77550044578652, 717.666178687461411 ], [ 549.775500442538259, 727.66617868715673 ], [ 547.775500445997864, 727.66617868715673 ], [ 539.775500444844056, 727.66617868715673 ], [ 539.775500446843012, 732.666178686004969 ], [ 533.109321806233538, 733.110785804603893 ], [ 533.109321807232959, 736.962583434480848 ], [ 516.034488577153979, 736.332357327057139 ], [ 515.44167908435611, 731.035952581809966 ], [ 513.9596553516119, 726.628762073760868 ], [ 515.775500445380771, 716.666178687691854 ], [ 526.775500443094188, 715.666178687922184 ], [ 527.812917056489937, 705.184154953003144 ], [ 540.887750283493347, 705.666178683229532 ] ] ] } },
{ "type": "Feature", "properties": { "feature_type": "building", "subtype": "minor-damage", "uid": "47ba5f88-0c6d-4c1d-94e4-cd463b415ffa" }, "geometry": { "type": "Polygon", "coordinates": [ [ [ 494.553928922831119, 697.035952579647642 ], [ 495.146738416628409, 707.073369191969732 ], [ 505.517976390472711, 705.925166819000651 ], [ 506.553928925811022, 713.073369194585439 ], [ 507.553928926330002, 737.073369193054646 ], [ 502.405726553783779, 738.110785803452131 ], [ 480.034488577459285, 738.66617868662172 ], [ 477.848869588596017, 706.925166819769743 ], [ 487.775500442342206, 706.628762074370229 ], [ 485.552464841351878, 697.035952579647642 ], [ 494.553928922831119, 697.035952579647642 ] ] ] } },
{ "type": "Feature", "properties": { "feature_type": "building", "subtype": "minor-damage", "uid": "0633cdf5-cd82-40f3-b6d2-d1224d33e4f3" }, "geometry": { "type": "Polygon", "coordinates": [ [ [ 466.369774017020916, 715.517976315722194 ], [ 466.3697740172708, 717.517976316260956 ], [ 477.369774017982593, 717.517976314262 ], [ 475.702131297913013, 736.36977393968391 ], [ 450.146738416260405, 735.7395478322602 ], [ 450.294940791708711, 717.221571569861908 ], [ 454.369774018038925, 717.517976313262466 ], [ 454.369774019787883, 715.517976315722194 ], [ 466.369774017020916, 715.517976315722194 ] ] ] } },
{ "type": "Feature", "properties": { "feature_type": "building", "subtype": "destroyed", "uid": "e283c4e1-bd21-40d6-a5ed-1389ac23320c" }, "geometry": { "type": "Polygon", "coordinates": [ [ [ 174.37314159793911, 871.686570783181423 ], [ 200.373141600439396, 870.686570780413376 ], [ 200.373141596941196, 883.535183323972205 ], [ 175.297447871235192, 884.535183323741876 ], [ 174.37314159793911, 871.686570783181423 ] ] ] } },
{ "type": "Feature", "properties": { "feature_type": "building", "subtype": "minor-damage", "uid": "64f3cb2f-ede1-4ae7-85e9-9028da6dec47" }, "geometry": { "type": "Polygon", "coordinates": [ [ [ 387.184155031670286, 943.221571565774411 ], [ 381.220107562875796, 947.000000047705498 ], [ 376.702131297003518, 948.81438105841994 ], [ 372.479095695974593, 944.073369194343513 ], [ 366.702131300558676, 948.666178684220995 ], [ 369.443143163346178, 953.851797671893905 ], [ 357.553928925936418, 960.00000004471076 ], [ 353.479095696857598, 953.073369190271251 ], [ 351.47909569756871, 949.073369194191173 ], [ 349.479095695281273, 951.073369194729821 ], [ 342.402798387337725, 949.851797672815337 ], [ 338.622616616353525, 947.291040511550364 ], [ 336.695985763760973, 951.440706968132417 ], [ 323.145274337253397, 951.185619032610248 ], [ 324.479095696548313, 934.073369191649704 ], [ 347.479095695742387, 933.073369193879103 ], [ 371.479095697204684, 922.073369196413068 ], [ 366.961119433831072, 910.36977394057908 ], [ 382.479095696917113, 902.073369192025098 ], [ 387.479095696763579, 914.073369194258134 ], [ 394.479095697148409, 929.073369193801 ], [ 381.70213129610039, 936.517976311786924 ], [ 387.184155031670286, 943.221571565774411 ] ] ] } },
{ "type": "Feature", "properties": { "feature_type": "building", "subtype": "minor-damage", "uid": "636dc996-6aa5-43c9-b5c3-0b0c35d9fb90" }, "geometry": { "type": "Polygon", "coordinates": [ [ [ 320.844998993085312, 607.666178687814636 ], [ 320.844998992585488, 615.666178686971193 ], [ 322.567674184180305, 622.052802748527711 ], [ 323.844998991643877, 636.666178687130923 ], [ 308.844998993353613, 636.666178687130923 ], [ 309.238444242905473, 623.678488870071078 ], [ 308.219312867332178, 616.943503501681221 ], [ 308.844998994602918, 607.66617868581568 ], [ 320.844998993085312, 607.666178687814636 ] ] ] } },
{ "type": "Feature", "properties": { "feature_type": "building", "subtype": "minor-damage", "uid": "44dd8171-6847-4f12-99f1-7e20d92565e2" }, "geometry": { "type": "Polygon", "coordinates": [ [ [ 205.000000124140001, 699.000000046866262 ], [ 227.000000124814107, 703.00000004594483 ], [ 224.000000124506414, 717.000000045718139 ], [ 203.000000124351288, 713.00000004663957 ], [ 205.000000124140001, 699.000000046866262 ] ] ] } },
{ "type": "Feature", "properties": { "feature_type": "building", "subtype": "minor-damage", "uid": "b7f80e2d-3e43-4e49-9cee-fe6c3b338f9b" }, "geometry": { "type": "Polygon", "coordinates": [ [ [ 390.310157777777022, 850.758593999870982 ], [ 385.673147349382589, 851.640930108235693 ], [ 386.689067032377011, 858.965624243060688 ], [ 375.067976286322903, 858.24140609717881 ], [ 375.792194439700722, 849.551563745074077 ], [ 365.310157779543715, 850.758593999870982 ], [ 364.310157780273983, 827.758593997173534 ], [ 364.31015777752549, 816.758593997708658 ], [ 375.292687211603095, 815.430022654227514 ], [ 374.5684690677204, 799.738629426822627 ], [ 389.777050193952789, 799.980035474783563 ], [ 392.673922792471615, 815.43002265622647 ], [ 399.310157776950973, 816.758593998708079 ], [ 399.310157778700102, 826.758593997403977 ], [ 389.310157777257928, 826.758593996404443 ], [ 390.310157777777022, 850.758593999870982 ] ] ] } },
{ "type": "Feature", "properties": { "feature_type": "building", "subtype": "destroyed", "uid": "82d7a0a4-aee4-477f-96ad-678948c1f997" }, "geometry": { "type": "Polygon", "coordinates": [ [ [ 214.896097279340097, 510.792969799166315 ], [ 227.896097280590311, 510.79296979816678 ], [ 227.896097281339905, 520.792969797862156 ], [ 214.896097279340097, 520.792969799861112 ], [ 214.896097279340097, 510.792969799166315 ] ] ] } },
{ "type": "Feature", "properties": { "feature_type": "building", "subtype": "minor-damage", "uid": "1d9fa212-c13d-4e98-9020-f78ee09e2055" }, "geometry": { "type": "Polygon", "coordinates": [ [ [ 217.723442835544802, 532.275781897246929 ], [ 240.344533578062908, 531.792969799326102 ], [ 241.068751727442702, 544.724218193472893 ], [ 217.723442832296513, 543.275781896711919 ], [ 217.723442835544802, 532.275781897246929 ] ] ] } },
{ "type": "Feature", "properties": { "feature_type": "building", "subtype": "destroyed", "uid": "1852bbc5-bde3-41df-b0da-1b129c99d5bc" }, "geometry": { "type": "Polygon", "coordinates": [ [ [ 210.379821642562206, 564.7844847822671 ], [ 236.541076687145903, 568.297668437590232 ], [ 234.027893033591909, 579.243408221400841 ], [ 209.379821641043691, 576.108520479523918 ], [ 210.379821642562206, 564.7844847822671 ] ] ] } },
{ "type": "Feature", "properties": { "feature_type": "building", "subtype": "destroyed", "uid": "fecb1fba-0f83-4bc7-959d-6154b883c5dc" }, "geometry": { "type": "Polygon", "coordinates": [ [ [ 204.99922468518389, 642.620315350641476 ], [ 223.999224685050592, 644.620315352179659 ], [ 223.240630732742289, 658.724218197195682 ], [ 203.516412588743094, 654.310157697057775 ], [ 204.99922468518389, 642.620315350641476 ] ] ] } },
{ "type": "Feature", "properties": { "feature_type": "building", "subtype": "minor-damage", "uid": "8335e16d-1f1a-4ab6-b249-7ce19210ddc2" }, "geometry": { "type": "Polygon", "coordinates": [ [ [ 339.103810376142803, 607.213109548735815 ], [ 364.510898003401394, 607.838795675506958 ], [ 366.833306755601882, 623.665281110547426 ], [ 336.852438127329208, 625.478124171588433 ], [ 335.738983610210084, 616.057933235736414 ], [ 339.103810376142803, 607.213109548735815 ] ] ] } },
{ "type": "Feature", "properties": { "feature_type": "building", "subtype": "minor-damage", "uid": "3b240826-eeac-4f55-ac88-40d32cc2a6a2" }, "geometry": { "type": "Polygon", "coordinates": [ [ [ 455.860064821219112, 314.376853743309027 ], [ 481.789698267459414, 315.609262100707724 ], [ 479.324881542167873, 343.684955829476223 ], [ 466.927254480664487, 344.337164868129605 ], [ 455.011452278893898, 344.301160012173511 ], [ 455.860064821219112, 314.376853743309027 ] ] ] } },
{ "type": "Feature", "properties": { "feature_type": "building", "subtype": "minor-damage", "uid": "f047f072-f018-4052-a47d-9aa98d917e9c" }, "geometry": { "type": "Polygon", "coordinates": [ [ [ 471.651122725116977, 415.865112308523408 ], [ 472.786010466954622, 432.595336828466486 ], [ 484.082153252817477, 433.351928655359018 ], [ 485.08215325258692, 448.269775527856211 ], [ 474.866637989159301, 447.891479613410525 ], [ 447.055785948590824, 447.75659187484041 ], [ 446.623229814742785, 415.730224569953407 ], [ 471.651122725116977, 415.865112308523408 ] ] ] } },
{ "type": "Feature", "properties": { "feature_type": "building", "subtype": "minor-damage", "uid": "b4c59782-60ab-4bf7-8e58-0663fa8edc2f" }, "geometry": { "type": "Polygon", "coordinates": [ [ [ 552.516512310073267, 421.223035647393203 ], [ 560.667642845288697, 422.258988179483481 ], [ 569.034488576426838, 426.853261751666082 ], [ 570.034488576446165, 441.368309860370516 ], [ 533.477631616024382, 444.887750207529791 ], [ 534.36684585871933, 422.110785805284479 ], [ 543.851797753729215, 420.630226157593711 ], [ 552.516512310073267, 421.223035647393203 ] ] ] } },
{ "type": "Feature", "properties": { "feature_type": "building", "subtype": "minor-damage", "uid": "a82818f4-bff2-44ad-8422-996c071bcf29" }, "geometry": { "type": "Polygon", "coordinates": [ [ [ 385.887750285002312, 197.517976312115508 ], [ 385.998536044325476, 216.925166819707613 ], [ 389.109321803207024, 217.073369194906007 ], [ 389.109321805955517, 219.073369192446307 ], [ 402.109321804457124, 219.073369192446307 ], [ 403.10932180322709, 235.073369192758406 ], [ 390.887750286597793, 235.814381060754812 ], [ 387.035952658470876, 237.741011914347212 ], [ 387.184155034918604, 245.148202422704713 ], [ 374.556857085377317, 245.110785808078901 ], [ 362.553928924783406, 246.1482024204754 ], [ 358.257524177057974, 245.851797674076408 ], [ 357.10932180358941, 221.073369195983503 ], [ 361.109321803666489, 221.07336919398449 ], [ 361.109321805415618, 218.073369192676694 ], [ 365.220107564566206, 217.628762075077191 ], [ 365.109321803993623, 198.073369195285011 ], [ 385.887750285002312, 197.517976312115508 ] ] ] } },
{ "type": "Feature", "properties": { "feature_type": "building", "subtype": "minor-damage", "uid": "791c7245-036b-456b-b5ea-c04f999f07f9" }, "geometry": { "type": "Polygon", "coordinates": [ [ [ 245.256060096821813, 224.814381059290895 ], [ 265.109321803314572, 226.517976312431188 ], [ 264.516512308767688, 238.482023780344605 ], [ 246.589881456866294, 237.371238021001801 ], [ 245.256060096821813, 224.814381059290895 ] ] ] } },
{ "type": "Feature", "properties": { "feature_type": "building", "subtype": "minor-damage", "uid": "3d1b2408-08ea-419b-8523-073359d6da67" }, "geometry": { "type": "Polygon", "coordinates": [ [ [ 239.371238101445499, 243.369773940312911 ], [ 247.369774017045813, 246.592809540073887 ], [ 246.369774018775587, 262.592809541385407 ], [ 234.369774018044495, 261.592809542615328 ], [ 228.515129656431412, 259.918886456340317 ], [ 230.293558134574994, 243.913030129806202 ], [ 239.371238101445499, 243.369773940312911 ] ] ] } },
{ "type": "Feature", "properties": { "feature_type": "building", "subtype": "minor-damage", "uid": "dcee1292-c19f-497a-a8bf-b09a7fb32817" }, "geometry": { "type": "Polygon", "coordinates": [ [ [ 519.861721478544837, 296.310157697571185 ], [ 533.861721480314031, 296.310157697571185 ], [ 533.861721482562757, 307.000000046216826 ], [ 518.413285182283857, 307.275781899105084 ], [ 519.861721478544837, 296.310157697571185 ] ] ] } },
{ "type": "Feature", "properties": { "feature_type": "building", "subtype": "destroyed", "uid": "e368a121-8171-4df9-85c5-4ffa78d88b0d" }, "geometry": { "type": "Polygon", "coordinates": [ [ [ 241.947265511330187, 303.919372522992717 ], [ 252.082153255090503, 304.919372523761922 ], [ 251.082153251073294, 315.810852088919717 ], [ 240.947265510311496, 314.75659187149671 ], [ 241.947265511330187, 303.919372522992717 ] ] ] } },
{ "type": "Feature", "properties": { "feature_type": "building", "subtype": "minor-damage", "uid": "0d8a9df6-4af6-47f9-8b8f-7763a5b71893" }, "geometry": { "type": "Polygon", "coordinates": [ [ [ 17.161131656690191, 0.573807656496705 ], [ 26.91824036818257, 8.18962826018713 ], [ 35.015763073055084, 15.28633355503611 ], [ 33.991008580294647, 18.730319494811621 ], [ 18.861105953790251, 36.925627039506303 ], [ 10.82146403831187, 28.579837825347841 ], [ 1.945739910068496, 26.110046082421562 ], [ 17.161131656690191, 0.573807656496705 ] ] ] } },
{ "type": "Feature", "properties": { "feature_type": "building", "subtype": "minor-damage", "uid": "9cdf8f99-eee7-4642-91e5-ee7bcd1cce15" }, "geometry": { "type": "Polygon", "coordinates": [ [ [ 962.758117558265099, 635.919372525470294 ], [ 962.947265514738319, 658.838745000254676 ], [ 966.947265513316211, 658.83874499825572 ], [ 967.947265512336003, 682.838745001722259 ], [ 963.947265513758111, 682.838745001722259 ], [ 963.947265514257879, 693.351928654433323 ], [ 932.001525730044818, 694.351928655202414 ], [ 931.947265515140089, 682.83874500272168 ], [ 929.947265513102479, 682.838745001722259 ], [ 928.568969599387287, 677.541076610344589 ], [ 919.758117556686329, 677.351928654121252 ], [ 918.812377773820685, 660.838745000793438 ], [ 928.947265512583499, 660.838745001792859 ], [ 928.947265514082687, 659.838745003022723 ], [ 931.947265513141133, 659.838745001023767 ], [ 931.703857342762603, 635.595336828677887 ], [ 962.758117558265099, 635.919372525470294 ] ] ] } },
{ "type": "Feature", "properties": { "feature_type": "building", "subtype": "minor-damage", "uid": "90f55a89-1c4e-43dc-8f37-ed67baeb6279" }, "geometry": { "type": "Polygon", "coordinates": [ [ [ 919.758117556686329, 618.865112305736375 ], [ 928.758117560358073, 618.86511230773533 ], [ 928.758117557109813, 637.86511230835572 ], [ 919.758117556186676, 637.865112310354675 ], [ 919.758117556686329, 618.865112305736375 ] ] ] } },
{ "type": "Feature", "properties": { "feature_type": "building", "subtype": "minor-damage", "uid": "078c9e89-bd81-41c8-ab6b-76a2e5924d79" }, "geometry": { "type": "Polygon", "coordinates": [ [ [ 967.001525729220475, 555.514709305201336 ], [ 966.866637993149084, 568.730224565691287 ], [ 950.542602292799984, 568.919372523913694 ], [ 950.110046165198696, 564.080627570896922 ], [ 926.812377773974958, 566.161255094351418 ], [ 924.752610816981928, 556.531701393342701 ], [ 925.866637988360594, 545.730224566991751 ], [ 950.866637989592277, 545.730224566991751 ], [ 950.866637994089956, 542.730224568682388 ], [ 965.866637988632192, 542.730224568682388 ], [ 965.866637988632192, 544.730224567222194 ], [ 967.001525729220475, 555.514709305201336 ] ] ] } },
{ "type": "Feature", "properties": { "feature_type": "building", "subtype": "minor-damage", "uid": "c49fdee3-1884-4b87-824e-b3faa2b883d3" }, "geometry": { "type": "Polygon", "coordinates": [ [ [ 952.246459507437635, 830.162780697633707 ], [ 953.246459505457892, 840.4061888712057 ], [ 966.947265512566673, 839.271301132866029 ], [ 966.568969599120464, 852.91937252545506 ], [ 953.246459505457892, 852.162780698562528 ], [ 953.435607463180531, 861.082153172574067 ], [ 932.739274120045138, 861.558756314693369 ], [ 932.360978207848348, 873.096781668306448 ], [ 924.416764031726188, 873.096781667306914 ], [ 924.246459505148664, 863.162780697027983 ], [ 924.246459505398548, 831.162780699402333 ], [ 952.246459507437635, 830.162780697633707 ] ] ] } },
{ "type": "Feature", "properties": { "feature_type": "building", "subtype": "major-damage", "uid": "5e9893c6-8f08-4729-8825-956ad1d3918a" }, "geometry": { "type": "Polygon", "coordinates": [ [ [ 956.434081858858463, 768.541076609370975 ], [ 957.244933902154685, 777.054260264541654 ], [ 965.568969602099628, 776.865112308318317 ], [ 966.001525730700337, 793.082153177244663 ], [ 934.434081863181746, 795.541076610147456 ], [ 934.434081860932906, 776.541076610526488 ], [ 944.379821642722845, 776.541076609526954 ], [ 944.947265512392278, 769.486816395485221 ], [ 956.434081858858463, 768.541076609370975 ] ] ] } },
{ "type": "Feature", "properties": { "feature_type": "building", "subtype": "minor-damage", "uid": "307db2fd-8770-4908-b154-3b83805c46b4" }, "geometry": { "type": "Polygon", "coordinates": [ [ [ 904.812780778034949, 771.22892348646451 ], [ 903.677490035211235, 797.810852091824245 ], [ 885.677490031865773, 798.000000047048161 ], [ 885.800852168416895, 770.710627573090619 ], [ 904.812780778034949, 771.22892348646451 ] ] ] } },
{ "type": "Feature", "properties": { "feature_type": "building", "subtype": "minor-damage", "uid": "01396daa-b955-4251-bad8-765419842875" }, "geometry": { "type": "Polygon", "coordinates": [ [ [ 907.660000127269427, 768.270000046680593 ], [ 885.990000127388839, 768.130000048751867 ], [ 886.190673688629431, 749.703857261710368 ], [ 908.027893040091612, 749.514709304487496 ], [ 907.660000127269427, 768.270000046680593 ] ] ] } },
{ "type": "Feature", "properties": { "feature_type": "building", "subtype": "minor-damage", "uid": "7c4ee375-f3c2-48ba-b009-929a5175c15d" }, "geometry": { "type": "Polygon", "coordinates": [ [ [ 876.351928732768783, 774.675964350556683 ], [ 877.351928732288343, 805.675964351411267 ], [ 888.351928733000136, 805.675964352410688 ], [ 888.351928732250599, 816.675964350876143 ], [ 881.891479693142173, 816.108520481206597 ], [ 881.713688339572059, 819.245583520432888 ], [ 877.35192873303788, 819.675964350185041 ], [ 877.35192873278811, 822.675964351492894 ], [ 860.351928732460237, 822.675964351492894 ], [ 856.055472545636803, 822.811216163657491 ], [ 855.351928733363366, 819.675964352183996 ], [ 850.693423449732336, 818.299843737317133 ], [ 849.93683161884212, 811.301369340061228 ], [ 851.171592982900506, 806.353555601517542 ], [ 849.190673686166861, 802.812377694802422 ], [ 847.856204096887382, 784.442359492376113 ], [ 848.758117556066964, 770.893005218093435 ], [ 871.688846637997017, 771.202002526755791 ], [ 876.351928732768783, 774.675964350556683 ] ] ] } },
{ "type": "Feature", "properties": { "feature_type": "building", "subtype": "minor-damage", "uid": "65250ad8-56b8-491f-aac1-156b74ff69b5" }, "geometry": { "type": "Polygon", "coordinates": [ [ [ 866.513183779906512, 692.730224568109861 ], [ 841.055785949441542, 692.919372523333777 ], [ 841.434081859889261, 680.784484781531205 ], [ 865.513183782136139, 681.730224565646495 ], [ 865.51318378063695, 671.730224567950131 ], [ 887.513183781311, 670.73022456718104 ], [ 887.513183779811811, 681.730224566646029 ], [ 869.649597121914894, 683.243408222429821 ], [ 869.703857339568231, 692.541076609887568 ], [ 866.513183779906512, 692.730224568109861 ] ] ] } },
{ "type": "Feature", "properties": { "feature_type": "building", "subtype": "minor-damage", "uid": "3aa65ac6-4fa8-4fba-a0c9-81d15e78a96b" }, "geometry": { "type": "Polygon", "coordinates": [ [ [ 704.755698087637484, 947.733707544787308 ], [ 703.348507579397278, 954.919326531000024 ], [ 709.200305205064183, 954.733707544174194 ], [ 708.496709952193441, 963.956743144551979 ], [ 712.496709952520405, 964.956743144321536 ], [ 708.496709950944023, 980.956743146632562 ], [ 705.496709951385924, 979.956743143864514 ], [ 673.496709954017206, 973.956743145246719 ], [ 673.993425682030875, 961.504098755795553 ], [ 676.014686217102394, 949.326517037354847 ], [ 689.236257736999164, 951.771124158491602 ], [ 690.08805536406885, 945.771124158874272 ], [ 704.755698087637484, 947.733707544787308 ] ] ] } },
{ "type": "Feature", "properties": { "feature_type": "building", "subtype": "minor-damage", "uid": "37b7aedf-3733-419e-9e2a-9eee6aea6554" }, "geometry": { "type": "Polygon", "coordinates": [ [ [ 711.250492215487384, 923.303277423345662 ], [ 758.108520561864111, 923.00000004823687 ], [ 759.108520559134831, 957.134887788969309 ], [ 711.786010465566278, 957.000000046401283 ], [ 711.250492215487384, 923.303277423345662 ] ] ] } },
{ "type": "Feature", "properties": { "feature_type": "building", "subtype": "minor-damage", "uid": "b5b5d797-1e7d-4738-9ca2-80969b5da076" }, "geometry": { "type": "Polygon", "coordinates": [ [ [ 769.649597122485375, 849.541076610700884 ], [ 769.649597123984563, 854.541076609549123 ], [ 775.649597122850878, 854.541076609549123 ], [ 775.649597122850878, 884.541076611633457 ], [ 770.649597124753427, 884.541076611633457 ], [ 745.649597123521744, 885.541076609404172 ], [ 734.324035822387259, 885.541076609404172 ], [ 733.710156659986524, 877.606404318755608 ], [ 734.655896442602398, 870.607929924498194 ], [ 745.105469352104024, 870.483765186946243 ], [ 744.649597123752415, 855.541076610318214 ], [ 744.649597123002764, 850.541076613469045 ], [ 769.649597122485375, 849.541076610700884 ] ] ] } },
{ "type": "Feature", "properties": { "feature_type": "building", "subtype": "minor-damage", "uid": "b6debbb7-c0ab-4804-b4ae-2aaff7aef2e2" }, "geometry": { "type": "Polygon", "coordinates": [ [ [ 911.055785950291579, 439.432556175893126 ], [ 935.110046163160405, 437.108520482559811 ], [ 938.037363493253793, 451.767658570189212 ], [ 938.136413468480669, 463.351928654444919 ], [ 912.055785949561255, 465.432556177899414 ], [ 912.691537299858851, 452.145954484634899 ], [ 911.055785950291579, 439.432556175893126 ] ] ] } },
{ "type": "Feature", "properties": { "feature_type": "building", "subtype": "minor-damage", "uid": "e921769b-3cfe-436d-b353-04a6403e0f9e" }, "geometry": { "type": "Polygon", "coordinates": [ [ [ 680.893005296894671, 410.621704132800119 ], [ 680.893005296894671, 420.621704133494916 ], [ 686.893005298009825, 420.621704133494916 ], [ 686.893005295011449, 431.621704135958282 ], [ 681.893005296913884, 431.621704133959327 ], [ 681.893005296913884, 440.62170413488451 ], [ 661.893005295278954, 441.621704135653601 ], [ 661.893005298777098, 411.621704132569789 ], [ 680.893005296894671, 410.621704132800119 ] ] ] } },
{ "type": "Feature", "properties": { "feature_type": "building", "subtype": "minor-damage", "uid": "6f925798-dbab-4cfa-bbee-b1e929b9b992" }, "geometry": { "type": "Polygon", "coordinates": [ [ [ 681.217040992687544, 683.97363274006193 ], [ 681.217040992937314, 690.756591873833031 ], [ 681.84179628652123, 696.944214225543647 ], [ 688.568874317837981, 694.96858606386877 ], [ 696.21704099597514, 693.97363273975725 ], [ 700.217040991804538, 692.973632738988158 ], [ 700.21704099355361, 684.973632740831022 ], [ 710.217040991997351, 684.973632740831022 ], [ 711.541076688309204, 694.48681639577137 ], [ 711.351928731586099, 711.541076610507957 ], [ 697.217040992496322, 710.973632740838411 ], [ 682.217040995955131, 711.973632740608082 ], [ 667.217040992167654, 712.162780696831419 ], [ 660.407714553635401, 712.756591874761853 ], [ 651.027893039633796, 711.810852090646563 ], [ 650.21704099383885, 690.973632740448352 ], [ 666.217040992648094, 690.973632741447773 ], [ 666.217040995396701, 683.973632738062975 ], [ 681.217040992687544, 683.97363274006193 ] ] ] } },
{ "type": "Feature", "properties": { "feature_type": "building", "subtype": "minor-damage", "uid": "e829555c-071c-492c-a94b-d3cab42e50dc" }, "geometry": { "type": "Polygon", "coordinates": [ [ [ 372.864241328362084, 276.517552276671779 ], [ 351.226694814005384, 277.110361768470284 ], [ 350.041075826660574, 266.291588513913212 ], [ 373.01244370031219, 264.957767150120276 ], [ 372.864241328362084, 276.517552276671779 ] ] ] } },
{ "type": "Feature", "properties": { "feature_type": "building", "subtype": "minor-damage", "uid": "9e41aa64-f61f-473d-932b-b0024fcc361b" }, "geometry": { "type": "Polygon", "coordinates": [ [ [ 343.197707511811018, 287.710940920538576 ], [ 374.785416274068723, 286.76520113942172 ], [ 375.352860146986416, 295.276859188463504 ], [ 372.137344879945715, 296.411746929801609 ], [ 371.380753053553178, 308.51721615508319 ], [ 373.83967648970372, 319.866093554471888 ], [ 343.386855467534474, 322.135869035149199 ], [ 340.73878407391129, 304.923404977843916 ], [ 343.197707511811018, 287.710940920538576 ] ] ] } },
{ "type": "Feature", "properties": { "feature_type": "building", "subtype": "major-damage", "uid": "ab61234d-deca-4ef5-bffc-ab14f8e48037" }, "geometry": { "type": "Polygon", "coordinates": [ [ [ 569.420531866101896, 286.788621193056088 ], [ 569.768893178931989, 295.729894879035385 ], [ 565.124075680028, 296.194376626477208 ], [ 565.704677868078193, 299.329628439949602 ], [ 569.885013617541404, 299.677989751780274 ], [ 571.162338429502711, 316.050971436807117 ], [ 543.641794745910715, 315.818730562586381 ], [ 542.248349496839296, 306.180734252945797 ], [ 544.80299912126145, 297.471701442186713 ], [ 552.583068433387211, 297.820062753017908 ], [ 552.002466245587016, 285.395175942735023 ], [ 569.420531866101896, 286.788621193056088 ] ] ] } },
{ "type": "Feature", "properties": { "feature_type": "building", "subtype": "minor-damage", "uid": "b4f50c7a-940b-4a99-bbc3-40bbad3af59c" }, "geometry": { "type": "Polygon", "coordinates": [ [ [ 564.07487959288494, 357.505834414283186 ], [ 557.33989421800004, 357.389713976673079 ], [ 556.410930714371261, 355.531786980909089 ], [ 547.121295718062584, 355.764027854130291 ], [ 546.308452657041244, 342.9907797290183 ], [ 567.210131404607637, 343.106900167627828 ], [ 567.326251838969256, 354.022221293977395 ], [ 564.07487959288494, 357.505834414283186 ] ] ] } },
{ "type": "Feature", "properties": { "feature_type": "building", "subtype": "minor-damage", "uid": "214a827d-dd7e-4ff6-92fb-0a4f57ea3cee" }, "geometry": { "type": "Polygon", "coordinates": [ [ [ 548.863102279464442, 358.66703879138322 ], [ 567.3262518369703, 358.086436601334015 ], [ 568.371335775960347, 371.20804603827662 ], [ 581.3768247720418, 370.627443850226427 ], [ 580.680102147880802, 382.007246724017705 ], [ 549.095343153435124, 382.239487601236817 ], [ 548.863102279464442, 358.66703879138322 ] ] ] } },
{ "type": "Feature", "properties": { "feature_type": "building", "subtype": "minor-damage", "uid": "3a241c47-a04b-492d-9107-096b1769689e" }, "geometry": { "type": "Polygon", "coordinates": [ [ [ 579.100911825425101, 479.733256901334698 ], [ 540.136432751717393, 479.544108946110782 ], [ 539.568988884046917, 469.519267242284684 ], [ 578.533467955255901, 469.519267242284684 ], [ 579.100911825425101, 479.733256901334698 ] ] ] } },
{ "type": "Feature", "properties": { "feature_type": "building", "subtype": "minor-damage", "uid": "3ad833b5-e4b3-4875-9159-a436a91398f7" }, "geometry": { "type": "Polygon", "coordinates": [ [ [ 552.998493807136811, 485.975139471698128 ], [ 573.237325169258838, 484.651103775136107 ], [ 573.615621083704468, 502.809307615557202 ], [ 557.727192721715369, 503.565899441450085 ], [ 557.159748853545125, 495.054241392408414 ], [ 553.376789719333601, 495.054241392408414 ], [ 552.998493807136811, 485.975139471698128 ] ] ] } },
{ "type": "Feature", "properties": { "feature_type": "building", "subtype": "minor-damage", "uid": "f0b42ab8-7ea5-40f2-b77f-757e38cadc83" }, "geometry": { "type": "Polygon", "coordinates": [ [ [ 366.564414965055903, 599.645793125027126 ], [ 343.57256834750541, 601.735961000009183 ], [ 341.598520907885074, 588.498231129454325 ], [ 345.08213403193821, 576.073344318171962 ], [ 365.983812779254606, 577.234548694272462 ], [ 364.73743272985871, 587.37728597633452 ], [ 366.564414965055903, 599.645793125027126 ] ] ] } },
{ "type": "Feature", "properties": { "feature_type": "building", "subtype": "minor-damage", "uid": "a889b703-6987-4ef7-9b0d-dc976c9d882c" }, "geometry": { "type": "Polygon", "coordinates": [ [ [ 326.136995130722312, 656.097346020173518 ], [ 345.05179079978069, 656.664789889843064 ], [ 342.971163274327807, 692.79204961146354 ], [ 323.110627826901293, 693.926937352801588 ], [ 322.354035996510788, 677.281917165165964 ], [ 316.112153430896285, 674.82299372826526 ], [ 316.301301383871419, 660.636896978529649 ], [ 325.191255349105916, 661.204340849198729 ], [ 326.136995130722312, 656.097346020173518 ] ] ] } },
{ "type": "Feature", "properties": { "feature_type": "building", "subtype": "minor-damage", "uid": "cf5532d6-34b9-4247-a13f-0b1c0eee0f44" }, "geometry": { "type": "Polygon", "coordinates": [ [ [ 395.744220715433812, 657.798915631696445 ], [ 396.337030208731278, 650.536999333927156 ], [ 392.631970877995172, 646.831939998942403 ], [ 392.335566127598383, 640.014630824769483 ], [ 393.817589862341492, 638.384404714577727 ], [ 391.59455426085151, 626.824619595022568 ], [ 412.935696027560027, 624.156976869435994 ], [ 418.715588589834908, 655.131272909108247 ], [ 396.633434959877775, 658.836332245092422 ], [ 395.744220715433812, 657.798915631696445 ] ] ] } },
{ "type": "Feature", "properties": { "feature_type": "building", "subtype": "destroyed", "uid": "41d12520-d96f-49c4-8b7d-fe4df0d3fac6" }, "geometry": { "type": "Polygon", "coordinates": [ [ [ 587.334426839192588, 924.963324563549349 ], [ 587.334426842440962, 929.143660308515905 ], [ 552.962777346853841, 924.03436106266895 ], [ 553.89174084748413, 916.486532624012398 ], [ 563.413616719012794, 917.879977876332532 ], [ 566.548868534983285, 896.397696944459312 ], [ 588.495631214293439, 898.25562394122278 ], [ 587.334426839192588, 924.963324563549349 ] ] ] } },
{ "type": "Feature", "properties": { "feature_type": "building", "subtype": "minor-damage", "uid": "b564d2dc-728f-4cbd-baae-59b4ad3ac889" }, "geometry": { "type": "Polygon", "coordinates": [ [ [ 645.560164650044726, 615.671732245536532 ], [ 645.792405521516798, 599.87935275255802 ], [ 678.88673020339354, 599.995473190168013 ], [ 679.002850641503301, 615.439491376313299 ], [ 645.560164650044726, 615.671732245536532 ] ] ] } },
{ "type": "Feature", "properties": { "feature_type": "building", "subtype": "minor-damage", "uid": "f9f43023-8dea-4082-a989-8ee52bdbdc75" }, "geometry": { "type": "Polygon", "coordinates": [ [ [ 914.451923427903239, 625.45591233707205 ], [ 914.335802990293132, 625.804273649902257 ], [ 899.356266556590413, 625.688153211292729 ], [ 897.962821309018068, 616.514638650093389 ], [ 897.730580429550287, 611.985941590297671 ], [ 913.987441676213734, 611.637580277467578 ], [ 913.174598615442278, 616.74687952631291 ], [ 914.451923427903239, 625.45591233707205 ] ] ] } },
{ "type": "Feature", "properties": { "feature_type": "building", "subtype": "minor-damage", "uid": "e303361a-e9b0-4897-8954-8d0b06de8f68" }, "geometry": { "type": "Polygon", "coordinates": [ [ [ 873.693649873259687, 618.372565650854767 ], [ 874.274252061059997, 622.785142276038755 ], [ 860.339799561849532, 620.927215276276911 ], [ 860.920401751648683, 615.469554715600793 ], [ 864.520135314811, 613.959989029668577 ], [ 864.52013531181251, 612.68266421495855 ], [ 858.365752125227573, 611.985941593296161 ], [ 858.133511252256312, 606.296040153402032 ], [ 865.332978377831296, 606.063799278181932 ], [ 865.797460124773238, 603.625270093368158 ], [ 874.158131623949657, 603.160788340929003 ], [ 874.390372497670455, 606.17991971379297 ], [ 879.15131043593351, 605.831558405960209 ], [ 879.383551309154655, 618.256445214244195 ], [ 873.693649873259687, 618.372565650854767 ] ] ] } },
{ "type": "Feature", "properties": { "feature_type": "building", "subtype": "minor-damage", "uid": "b5d35d02-291d-4cf4-96f3-4ca4c20898d8" }, "geometry": { "type": "Polygon", "coordinates": [ [ [ 651.782107082824155, 286.266921820644427 ], [ 703.68440776522516, 284.577079473923391 ], [ 707.305498510375401, 307.269248143169477 ], [ 700.304723067786085, 326.581732114975807 ], [ 650.575076838521909, 326.581732115975285 ], [ 649.126640540261974, 286.025515771684013 ], [ 651.782107082824155, 286.266921820644427 ] ] ] } },
{ "type": "Feature", "properties": { "feature_type": "building", "subtype": "un-classified", "uid": "e4f410d7-3966-4cc6-bb2e-6d390c94668c" }, "geometry": { "type": "Polygon", "coordinates": [ [ [ 654.920385729803684, 359.654360922503486 ], [ 653.95476152996423, 363.034045617944514 ], [ 631.021186812012616, 361.827015367145407 ], [ 630.296968663632242, 359.17154882358318 ], [ 624.26181742088238, 355.791864128142322 ], [ 606.397769743342451, 355.550458077182896 ], [ 604.466521347411572, 346.135622140739883 ], [ 606.156363698629889, 328.512980512656213 ], [ 654.920385732552177, 329.478604713495315 ], [ 654.920385729803684, 359.654360922503486 ] ] ] } },
{ "type": "Feature", "properties": { "feature_type": "building", "subtype": "minor-damage", "uid": "a858321e-8cc7-4144-bf3a-3e1a0b1206c1" }, "geometry": { "type": "Polygon", "coordinates": [ [ [ 724.686734086746242, 293.509103310446619 ], [ 738.446878918716607, 294.474727511285721 ], [ 778.27887711386893, 294.716133560246078 ], [ 777.07184686606854, 326.581732114975807 ], [ 727.825012732226469, 325.133295818214776 ], [ 727.342200632306799, 315.718459881771821 ], [ 722.031267541185684, 307.269248142170113 ], [ 724.686734086746242, 293.509103310446619 ] ] ] } },
{ "type": "Feature", "properties": { "feature_type": "building", "subtype": "minor-damage", "uid": "96989d97-1387-4ce0-a098-3150abc05e75" }, "geometry": { "type": "Polygon", "coordinates": [ [ [ 499.447864488916025, 98.557692877716548 ], [ 513.9286627315754, 97.01718242647047 ], [ 515.777275277168201, 93.011855253430568 ], [ 525.020337983143349, 93.319957343279981 ], [ 524.712235890545458, 97.017182428469425 ], [ 530.874277699526374, 97.325284516319897 ], [ 530.258073520327343, 117.968124566215707 ], [ 500.680272849062987, 118.276226654066207 ], [ 499.447864488916025, 98.557692877716548 ] ] ] } },
{ "type": "Feature", "properties": { "feature_type": "building", "subtype": "minor-damage", "uid": "1e76e783-ea4b-4eb6-aaba-647e3798731f" }, "geometry": { "type": "Polygon", "coordinates": [ [ [ 554.837088234317548, 195.300604842861702 ], [ 554.647940278094211, 217.241767814746595 ], [ 526.654042692075564, 215.161140291292099 ], [ 527.978078386388461, 192.841681404961605 ], [ 554.837088234317548, 195.300604842861702 ] ] ] } },
{ "type": "Feature", "properties": { "feature_type": "building", "subtype": "minor-damage", "uid": "3b879a5b-fd89-464c-94c6-7e3fa7138742" }, "geometry": { "type": "Polygon", "coordinates": [ [ [ 521.925343773749091, 211.945625028498512 ], [ 520.601308078186776, 210.8107372881598 ], [ 543.866506748127676, 212.89136480861589 ], [ 544.244802660324467, 220.457283079539195 ], [ 549.540945447321064, 219.700691250647793 ], [ 549.540945446821297, 225.942573820011688 ], [ 561.457266720124721, 225.942573822010701 ], [ 560.889822847456799, 244.100777660432811 ], [ 519.46642033809826, 242.587594007647397 ], [ 521.925343773749091, 211.945625028498512 ] ] ] } },
{ "type": "Feature", "properties": { "feature_type": "building", "subtype": "minor-damage", "uid": "4f1b29db-55a6-4514-ac18-e9af72e791d6" }, "geometry": { "type": "Polygon", "coordinates": [ [ [ 356.314197032146581, 225.626377988077991 ], [ 356.662558341728413, 225.394137111858413 ], [ 357.591521842358702, 234.683772110667803 ], [ 348.30188684230211, 235.26437429771849 ], [ 348.650248156131624, 234.335410799836609 ], [ 348.301886844301009, 225.858618864297512 ], [ 356.314197032146581, 225.626377988077991 ] ] ] } },
{ "type": "Feature", "properties": { "feature_type": "building", "subtype": "minor-damage", "uid": "e8502a42-4548-44b5-b3d0-86b1d8e94aca" }, "geometry": { "type": "Polygon", "coordinates": [ [ [ 745.020031481184105, 77.602473792754793 ], [ 743.241603003790033, 79.084497529747097 ], [ 724.716306328371047, 78.93629515254969 ], [ 724.271699209772123, 68.710331388791573 ], [ 744.871829107984581, 69.303140884587975 ], [ 745.020031481184105, 77.602473792754793 ] ] ] } },
{ "type": "Feature", "properties": { "feature_type": "building", "subtype": "minor-damage", "uid": "35c4025e-ba49-4909-837b-89f155af2ef0" }, "geometry": { "type": "Polygon", "coordinates": [ [ [ 758.525261658009072, 55.868274337800351 ], [ 758.88919526274492, 64.96661446019607 ], [ 739.145797201078494, 65.421531467865051 ], [ 738.690880195408567, 60.32646099656489 ], [ 739.509730805064692, 56.778108350139867 ], [ 741.23841542681032, 56.869091751073981 ], [ 743.475734544717966, 56.887701267553098 ], [ 749.206245034137055, 55.75245228913699 ], [ 758.525261658009072, 55.868274337800351 ] ] ] } },
{ "type": "Feature", "properties": { "feature_type": "building", "subtype": "minor-damage", "uid": "c17308ba-9fcb-45b3-bbd7-2fabd5bae44d" }, "geometry": { "type": "Polygon", "coordinates": [ [ [ 754.249041801113663, 52.228938288442279 ], [ 754.950000127060889, 52.43000004591164 ], [ 749.972821944218254, 54.776473524592092 ], [ 741.940000125673123, 54.760000047993522 ], [ 740.874481821324821, 45.40518319439667 ], [ 754.340025204546464, 45.951083602000267 ], [ 754.249041801113663, 52.228938288442279 ] ] ] } },
{ "type": "Feature", "properties": { "feature_type": "building", "subtype": "minor-damage", "uid": "6e90c6cd-162d-4c2a-887c-760714aac6cb" }, "geometry": { "type": "Polygon", "coordinates": [ [ [ 870.696312403485194, 170.46239993501851 ], [ 870.318016487290492, 156.087155230059096 ], [ 897.933618164610493, 154.195675664826894 ], [ 898.690209991752681, 168.949216283232602 ], [ 889.611108068545718, 169.894956066348414 ], [ 889.42196011157273, 177.460874334273313 ], [ 879.207970451025858, 178.406614115390113 ], [ 878.451378626132509, 168.949216283232602 ], [ 870.696312403485194, 170.46239993501851 ] ] ] } },
{ "type": "Feature", "properties": { "feature_type": "building", "subtype": "un-classified", "uid": "50da27a9-61a5-4c9b-bb09-090fbf0a4e80" }, "geometry": { "type": "Polygon", "coordinates": [ [ [ 1023.050855209912015, 126.210037156418196 ], [ 1009.822109782870029, 126.361677237743606 ], [ 1009.357628030429964, 109.872575117105796 ], [ 1023.050838695299035, 109.701453036597599 ], [ 1023.050855209912015, 126.210037156418196 ] ] ] } },
{ "type": "Feature", "properties": { "feature_type": "building", "subtype": "un-classified", "uid": "b275b46b-f09d-4e48-bfe4-791e1b3aee71" }, "geometry": { "type": "Polygon", "coordinates": [ [ [ 1023.050895892885023, 170.247233656019688 ], [ 1010.170471093451056, 170.139082165759902 ], [ 1011.447795906910983, 160.617206293729396 ], [ 1023.050887105979996, 160.269717559552589 ], [ 1023.050895892885023, 170.247233656019688 ] ] ] } },
{ "type": "Feature", "properties": { "feature_type": "building", "subtype": "destroyed", "uid": "2ce7bb3a-288d-4cf0-b0ba-ca5f0c6a5e95" }, "geometry": { "type": "Polygon", "coordinates": [ [ [ 758.905440952222989, 0.005456685228761 ], [ 759.719143011749907, 13.01402684515682 ], [ 749.82149497389014, 13.25543289611621 ], [ 750.304307070811433, 27.981201925680441 ], [ 723.749641608709112, 25.80854748003911 ], [ 722.059799260739169, 4.323409057594123 ], [ 727.129326303649577, 3.116378808794024 ], [ 727.482299364349046, 0.005765027969753 ], [ 758.905440952222989, 0.005456685228761 ] ] ] } },
{ "type": "Feature", "properties": { "feature_type": "building", "subtype": "minor-damage", "uid": "686ad01b-f35d-4b0b-91e7-4ab2ed718b7e" }, "geometry": { "type": "Polygon", "coordinates": [ [ [ 1023.050810693943049, 83.149937401673213 ], [ 1001.343535821307, 83.433923875657669 ], [ 1002.084547688054045, 64.908627201733793 ], [ 1023.050791871286947, 66.184678140663337 ], [ 1023.050810693943049, 83.149937401673213 ] ] ] } },
{ "type": "Feature", "properties": { "feature_type": "building", "subtype": "destroyed", "uid": "cb2fb504-7931-4b28-8c9e-a72ffe6e2580" }, "geometry": { "type": "Polygon", "coordinates": [ [ [ 651.480201603482783, 18.180779163837819 ], [ 671.529885007882285, 18.559075080282469 ], [ 672.475624792996769, 24.800957648646911 ], [ 673.799660486560128, 24.611809695421972 ], [ 673.988808444282654, 37.852166657044329 ], [ 665.855446307189709, 38.2304625724895 ], [ 666.044594262913279, 40.689386010389661 ], [ 661.883339217004732, 41.256829879059779 ], [ 661.883339219753339, 39.365350313827641 ], [ 653.182533209492817, 39.176202355605312 ], [ 652.804237296796259, 33.123467742464769 ], [ 646.184058812988155, 31.799432042904311 ], [ 646.940650641629418, 25.557549476538821 ], [ 651.291053644510953, 24.800957648646911 ], [ 651.480201603482783, 18.180779163837819 ] ] ] } },
{ "type": "Feature", "properties": { "feature_type": "building", "subtype": "minor-damage", "uid": "8ef538cd-556e-4f3b-b8e8-20d468b932a4" }, "geometry": { "type": "Polygon", "coordinates": [ [ [ 648.075538384216657, 108.593502451497699 ], [ 647.129798599851711, 97.055477094886186 ], [ 655.830604604865016, 96.109737314768822 ], [ 656.398048475533983, 97.244625051109566 ], [ 667.746925872671341, 96.677181183438933 ], [ 671.151589093686539, 123.347043073901304 ], [ 656.776344386481469, 124.860226722688793 ], [ 654.88486482349856, 111.998165671514201 ], [ 654.50656890580467, 111.052425890397302 ], [ 648.075538379469208, 111.809017716290299 ], [ 648.075538384216657, 108.593502451497699 ] ] ] } },
{ "type": "Feature", "properties": { "feature_type": "building", "subtype": "minor-damage", "uid": "96163db8-7973-4e8f-b5b9-3b9f11651f6e" }, "geometry": { "type": "Polygon", "coordinates": [ [ [ 637.096425163506524, 149.418743416616707 ], [ 636.528981292837557, 139.204753757566692 ], [ 658.848440178913279, 139.204753756567186 ], [ 658.280996307994542, 130.125651836856406 ], [ 675.493460366795148, 129.936503878634113 ], [ 675.871756281990429, 138.826457843121005 ], [ 681.546194978934864, 138.82645784511999 ], [ 681.924490890881884, 142.609416976583702 ], [ 687.409781637599849, 142.987712888031012 ], [ 688.524784960214902, 158.60236152280109 ], [ 683.248526591191649, 159.254437160221499 ], [ 684.950858202948552, 172.873090040287508 ], [ 652.039113740880794, 174.5754216532942 ], [ 651.471669868962522, 159.632733077665591 ], [ 647.121266867080521, 159.4435851174444 ], [ 647.121266868329826, 153.012554592856588 ], [ 644.09489955801223, 152.445110722187508 ], [ 643.527455691591058, 151.688518896294511 ], [ 636.907277209282142, 151.877666851518399 ], [ 637.096425163506524, 149.418743416616707 ] ] ] } },
{ "type": "Feature", "properties": { "feature_type": "building", "subtype": "minor-damage", "uid": "81317d90-5b32-4501-b6f0-49de6a71f21c" }, "geometry": { "type": "Polygon", "coordinates": [ [ [ 542.156096870442639, 138.034859067380808 ], [ 541.711489750094643, 133.144180748799101 ], [ 544.379132470683317, 127.364288184024204 ], [ 557.865548450074471, 127.216085809825202 ], [ 558.013750825772604, 139.220478053976194 ], [ 543.341715857537451, 139.072275680776698 ], [ 542.156096870442639, 138.034859067380808 ] ] ] } },
{ "type": "Feature", "properties": { "feature_type": "building", "subtype": "minor-damage", "uid": "178194d9-afd1-4b50-aac9-e864d704c852" }, "geometry": { "type": "Polygon", "coordinates": [ [ [ 539.636656523053375, 145.593180109550104 ], [ 546.157560954823794, 146.037787229148591 ], [ 546.453965698724005, 141.147108909567493 ], [ 558.902965064219757, 141.443513652967994 ], [ 558.606560318570473, 163.081060170078104 ], [ 560.829595916812195, 163.9702744082756 ], [ 559.940381679364577, 176.56747614622401 ], [ 547.343179938170692, 176.8638808946219 ], [ 547.046775192771179, 172.26960731744191 ], [ 543.638120608434065, 171.083988332845394 ], [ 543.638120605935342, 159.524203205294498 ], [ 540.08126364265172, 159.376000834093986 ], [ 539.636656523053375, 145.593180109550104 ] ] ] } },
{ "type": "Feature", "properties": { "feature_type": "building", "subtype": "minor-damage", "uid": "de3b5423-47ff-44ae-84ff-02935e50e166" }, "geometry": { "type": "Polygon", "coordinates": [ [ [ 645.017700075048083, 62.954485238073197 ], [ 628.863641373569067, 62.50987811547629 ], [ 627.085212894425922, 54.358747581508453 ], [ 642.646462100358576, 53.617735714511511 ], [ 642.794664472808449, 51.542902487719672 ], [ 666.507044212707228, 51.098295367121722 ], [ 664.580413359365139, 85.036638870783833 ], [ 646.7961285559403, 83.85101988318894 ], [ 645.017700075048083, 62.954485238073197 ] ] ] } },
{ "type": "Feature", "properties": { "feature_type": "building", "subtype": "minor-damage", "uid": "f333712e-82c7-4074-aff4-228f69e1fc50" }, "geometry": { "type": "Polygon", "coordinates": [ [ [ 713.221278213046958, 161.226829950950787 ], [ 721.543788307862428, 161.037681993728 ], [ 725.326747437826157, 194.32772236700049 ], [ 714.734461865832031, 195.084314194892414 ], [ 712.086390472458675, 170.305931868662697 ], [ 714.923609821805485, 170.116783914438287 ], [ 713.221278213046958, 161.226829950950787 ] ] ] } },
{ "type": "Feature", "properties": { "feature_type": "building", "subtype": "minor-damage", "uid": "1c098dd2-bb2d-41d6-b3f3-7c5ad9ec214c" }, "geometry": { "type": "Polygon", "coordinates": [ [ [ 734.191514233603471, 231.114323025389808 ], [ 733.434922406211513, 239.058537204761905 ], [ 731.165146927783553, 240.571720859546303 ], [ 729.273667363051572, 242.841496339224108 ], [ 714.898422654597084, 243.408940207894204 ], [ 714.14183082745501, 234.140690331960087 ], [ 716.033310396934439, 226.196476152587906 ], [ 716.033310395685135, 226.007328196364512 ], [ 729.084519407328003, 226.574772066034086 ], [ 729.462815317275954, 227.898807763595613 ], [ 733.434922406461396, 228.087955718819501 ], [ 734.191514233603471, 231.114323025389808 ] ] ] } },
{ "type": "Feature", "properties": { "feature_type": "building", "subtype": "minor-damage", "uid": "f088ab2d-0c1f-48d7-bec8-4d49102a8a79" }, "geometry": { "type": "Polygon", "coordinates": [ [ [ 660.612959092817505, 215.793338537314497 ], [ 657.019147913580014, 216.739078320430309 ], [ 657.208295870802772, 226.763920022257508 ], [ 660.423811134845096, 226.763920021258002 ], [ 660.423811134845096, 233.19495054884419 ], [ 644.724530729579101, 233.573246463289905 ], [ 645.481122556721175, 206.335940703158002 ], [ 652.290448997502267, 205.957644787712809 ], [ 651.912153086554781, 207.281680487273292 ], [ 660.802107046292235, 207.659976399720108 ], [ 660.612959092817505, 215.793338537314497 ] ] ] } },
{ "type": "Feature", "properties": { "feature_type": "building", "subtype": "minor-damage", "uid": "93d2ab9a-9428-4461-b415-985e07e0d218" }, "geometry": { "type": "Polygon", "coordinates": [ [ [ 739.505702344893962, 84.591494999898885 ], [ 745.730202029016027, 84.739697372098902 ], [ 746.026606774165657, 82.368459399907564 ], [ 762.328867845595937, 82.368459399907564 ], [ 762.773474965444166, 96.595887245049326 ], [ 758.327403764962696, 97.188696737847295 ], [ 757.882796642615745, 103.7096011666207 ], [ 748.842451870202581, 103.413196419222302 ], [ 748.101440001456808, 96.447684870850352 ], [ 740.394916583341114, 96.447684870850352 ], [ 739.505702344893962, 84.591494999898885 ] ] ] } },
{ "type": "Feature", "properties": { "feature_type": "building", "subtype": "minor-damage", "uid": "45eaef37-2145-442b-aa96-95fbcbf4fbef" }, "geometry": { "type": "Polygon", "coordinates": [ [ [ 748.498660971858726, 119.266396507866801 ], [ 764.05682258231127, 119.903280316404505 ], [ 764.511739590979687, 128.910637038865588 ], [ 766.786324617580135, 128.819653639930408 ], [ 766.695341215896519, 133.550790501497289 ], [ 768.60599264175903, 133.095873496826812 ], [ 769.697793458715182, 151.2015703406841 ], [ 748.771611174660961, 150.746653331016091 ], [ 747.58882696101864, 139.282744779336213 ], [ 750.227345595603197, 137.827010358393608 ], [ 750.136362193419814, 131.640139074884701 ], [ 743.949490910911663, 132.095056082553612 ], [ 743.76752410929339, 125.6352345942434 ], [ 747.497843557335955, 125.271300986509104 ], [ 748.498660971858726, 119.266396507866801 ] ] ] } },
{ "type": "Feature", "properties": { "feature_type": "building", "subtype": "minor-damage", "uid": "0598e92b-daf8-4d46-8327-cf967aa41b8f" }, "geometry": { "type": "Polygon", "coordinates": [ [ [ 933.80679949822138, 35.258595802888841 ], [ 956.18535787632652, 35.406798178087293 ], [ 957.222774490471807, 50.375237892224938 ], [ 933.213990004174207, 49.930630769628038 ], [ 933.80679949822138, 35.258595802888841 ] ] ] } },
{ "type": "Feature", "properties": { "feature_type": "building", "subtype": "minor-damage", "uid": "6eb74b26-5af4-48e0-9460-b7001ec7f8ef" }, "geometry": { "type": "Polygon", "coordinates": [ [ [ 947.542366245691483, 115.895172447630202 ], [ 948.025178346610687, 119.274857143071102 ], [ 958.164232431681739, 118.0678268952704 ], [ 958.40563848314082, 145.1053044557992 ], [ 935.954875860861193, 147.519364956397908 ], [ 933.540815365260528, 131.586565674035597 ], [ 932.092379067500246, 116.377984546550493 ], [ 947.542366245691483, 115.895172447630202 ] ] ] } },
{ "type": "Feature", "properties": { "feature_type": "building", "subtype": "minor-damage", "uid": "4d237983-ef34-4272-bfbc-e172d755675f" }, "geometry": { "type": "Polygon", "coordinates": [ [ [ 832.196609162916275, 115.7540151759396 ], [ 836.30051200923549, 117.926669621580899 ], [ 845.956753994386872, 117.443857521661101 ], [ 851.267687088756361, 117.685263573620006 ], [ 850.784874988836577, 122.513384563822996 ], [ 852.716123385766991, 122.271978516861495 ], [ 852.474717337806055, 146.895395580789511 ], [ 837.507542256785996, 144.722741139146109 ], [ 837.507542257535647, 129.996972105584007 ], [ 833.645045463175165, 129.755566055624087 ], [ 832.920827314295138, 121.0649482680614 ], [ 832.196609162916275, 115.7540151759396 ] ] ] } },
{ "type": "Feature", "properties": { "feature_type": "building", "subtype": "minor-damage", "uid": "572d2516-94e5-4da3-99a2-99d22d1e4d90" }, "geometry": { "type": "Polygon", "coordinates": [ [ [ 836.728753632263306, 197.892421917219906 ], [ 835.404717935701569, 197.324978043552392 ], [ 834.837274065032602, 167.439600891295896 ], [ 835.972161806370423, 167.061304978849194 ], [ 835.972161805870769, 161.765162189602592 ], [ 851.671442208638041, 161.954310148824391 ], [ 851.671442209387692, 170.844264111312413 ], [ 857.53502886455442, 170.844264110312906 ], [ 857.345880908580966, 167.628748849518189 ], [ 864.15520734786287, 166.683009065402899 ], [ 865.668391004146088, 181.814845598254294 ], [ 851.293146298939973, 183.328029250040203 ], [ 851.482294253164355, 197.514126000775292 ], [ 836.728753632263306, 197.892421917219906 ] ] ] } },
{ "type": "Feature", "properties": { "feature_type": "building", "subtype": "minor-damage", "uid": "ee8d4578-690e-4304-997f-15227e4bf1d0" }, "geometry": { "type": "Polygon", "coordinates": [ [ [ 844.160342424152873, 442.204847629635822 ], [ 859.873549028208686, 441.896745539786423 ], [ 891.916166414269924, 443.129153902182622 ], [ 893.456676865015879, 466.236810670873808 ], [ 854.943915584372235, 465.928708580024818 ], [ 855.868221852670899, 462.847687678532225 ], [ 846.317057056846352, 463.155789769380988 ], [ 844.160342424152873, 442.204847629635822 ] ] ] } },
{ "type": "Feature", "properties": { "feature_type": "building", "subtype": "minor-damage", "uid": "ddc58b68-6d57-4874-8ca3-c9fffb5bba01" }, "geometry": { "type": "Polygon", "coordinates": [ [ [ 894.7129614707153, 353.839742241009503 ], [ 907.964916091168789, 353.223538064309082 ], [ 908.93054029250743, 363.121186098672922 ], [ 895.894613609916973, 364.569622396433374 ], [ 894.7129614707153, 353.839742241009503 ] ] ] } },
{ "type": "Feature", "properties": { "feature_type": "building", "subtype": "minor-damage", "uid": "889058b5-4c84-49a5-919e-d00c3a2f3f63" }, "geometry": { "type": "Polygon", "coordinates": [ [ [ 727.634596981542245, 423.472698515689785 ], [ 749.843953553112442, 423.71410456764869 ], [ 749.843953552362791, 434.335970751892319 ], [ 729.807251432680232, 435.301594952731421 ], [ 727.634596981542245, 423.472698515689785 ] ] ] } },
{ "type": "Feature", "properties": { "feature_type": "building", "subtype": "minor-damage", "uid": "2489c119-aeff-428c-b59a-1cd351439a2d" }, "geometry": { "type": "Polygon", "coordinates": [ [ [ 656.559524906833872, 530.844247043263977 ], [ 655.111088606075214, 522.877847404581644 ], [ 666.215766890486066, 522.395035304661747 ], [ 689.873559761065735, 522.636441353622217 ], [ 689.873559758817009, 538.32783458202664 ], [ 686.493875064875965, 538.810646684944913 ], [ 686.252469015665724, 554.019227814428973 ], [ 656.318118854125373, 555.467664107192149 ], [ 655.593900706494651, 552.812197563629866 ], [ 651.731403912134283, 552.812197563629866 ], [ 650.765779714793553, 547.018452370588761 ], [ 652.938434161183977, 544.604391872988572 ], [ 652.214216010804648, 531.327059143183874 ], [ 656.559524906833872, 530.844247043263977 ] ] ] } },
{ "type": "Feature", "properties": { "feature_type": "building", "subtype": "minor-damage", "uid": "d3a0df31-645c-473f-81de-3ed92b284349" }, "geometry": { "type": "Polygon", "coordinates": [ [ [ 962.225639074680203, 388.033169885178495 ], [ 961.847343161483877, 395.409940194881074 ], [ 967.332633906702767, 395.977384063551085 ], [ 967.521781859178077, 414.703031772642419 ], [ 949.17443006728513, 414.135587903972294 ], [ 948.985282108063416, 400.706082982128578 ], [ 952.200797371106205, 399.949491152237783 ], [ 951.822501457160342, 388.600613754848098 ], [ 962.225639074680203, 388.033169885178495 ] ] ] } },
{ "type": "Feature", "properties": { "feature_type": "building", "subtype": "minor-damage", "uid": "d9063481-750f-48d1-8c30-9d8f2a040efb" }, "geometry": { "type": "Polygon", "coordinates": [ [ [ 956.465815098061285, 434.85122604047109 ], [ 955.898371228891506, 425.015532292868386 ], [ 974.434870982255006, 424.25894046797498 ], [ 976.137202590513766, 466.628082760958307 ], [ 972.165095500328903, 467.006378672405503 ], [ 970.084467978873818, 467.952118457520328 ], [ 953.061151878545274, 468.70871028241379 ], [ 953.250299836767567, 460.007904276149191 ], [ 950.602228441895022, 460.007904278148089 ], [ 950.034784574224545, 446.578399354305475 ], [ 951.926264139206296, 445.254363658742989 ], [ 951.926264136707687, 435.229521954916891 ], [ 956.465815098061285, 434.85122604047109 ] ] ] } },
{ "type": "Feature", "properties": { "feature_type": "building", "subtype": "minor-damage", "uid": "fbb57b4d-452b-43b9-bf5f-e8e27501378e" }, "geometry": { "type": "Polygon", "coordinates": [ [ [ 928.471917512292407, 424.069792512751121 ], [ 929.606805251881269, 425.582976163537523 ], [ 929.417657297407004, 427.852751644214777 ], [ 932.065728688031754, 428.42019551388438 ], [ 932.444024601977617, 432.959746472240624 ], [ 930.363397077274271, 433.148894430462917 ], [ 930.552545034747027, 434.851226038472191 ], [ 919.960259461003716, 433.338042387685789 ], [ 919.581963547807504, 424.25894046797498 ], [ 928.471917512292407, 424.069792512751121 ] ] ] } },
{ "type": "Feature", "properties": { "feature_type": "building", "subtype": "minor-damage", "uid": "6f768004-6779-4b60-8575-aa1b14441dfd" }, "geometry": { "type": "Polygon", "coordinates": [ [ [ 939.631646954955499, 467.006378672405503 ], [ 939.253351041009637, 477.220368334454008 ], [ 929.606805250382081, 476.08548059311579 ], [ 929.606805251381502, 466.628082760958307 ], [ 939.631646954955499, 467.006378672405503 ] ] ] } },
{ "type": "Feature", "properties": { "feature_type": "building", "subtype": "destroyed", "uid": "165cb29c-8916-442a-b9f8-17a32b5647cf" }, "geometry": { "type": "Polygon", "coordinates": [ [ [ 945.669672962492882, 519.03465831455685 ], [ 959.666621757001508, 519.03465831455685 ], [ 960.80150949684014, 519.034658313557316 ], [ 961.747249277457058, 526.411428624259429 ], [ 951.154963704213628, 527.357168407375184 ], [ 951.722407575632133, 538.895193764986175 ], [ 926.376581381237656, 538.32774989631605 ], [ 927.133173209629149, 522.439321535572844 ], [ 935.455683301696126, 522.43932153457331 ], [ 936.212275128338547, 524.898244970474479 ], [ 946.615412748107246, 525.087392925698396 ], [ 945.669672962492882, 519.03465831455685 ] ] ] } },
{ "type": "Feature", "properties": { "feature_type": "building", "subtype": "minor-damage", "uid": "b491014e-afe7-4c93-8348-f0339067d4f8" }, "geometry": { "type": "Polygon", "coordinates": [ [ [ 359.191131611224989, 371.330709203130425 ], [ 372.080500173194707, 371.91131139218021 ], [ 372.544981921136127, 378.06569457551808 ], [ 381.486255606863381, 377.717333263687522 ], [ 380.789532982202786, 388.052052199987827 ], [ 375.912474610077709, 388.284293075207927 ], [ 373.009463672075924, 389.793858763139212 ], [ 373.009463673075402, 393.625833199273472 ], [ 358.494408986564395, 393.974194512103622 ], [ 359.191131611224989, 371.330709203130425 ] ] ] } },
{ "type": "Feature", "properties": { "feature_type": "building", "subtype": "destroyed", "uid": "af05bad8-b4d9-4d2c-92de-cc2bda8cf96c" }, "geometry": { "type": "Polygon", "coordinates": [ [ [ 379.90469600425871, 554.956432330371968 ], [ 397.768743680299394, 556.646274675093991 ], [ 397.527337632338515, 561.957207768215198 ], [ 379.904696004008827, 560.267365422493754 ], [ 379.90469600425871, 554.956432330371968 ] ] ] } },
{ "type": "Feature", "properties": { "feature_type": "building", "subtype": "minor-damage", "uid": "752d79c2-fc53-4761-8a55-82e280e45abd" }, "geometry": { "type": "Polygon", "coordinates": [ [ [ 380.628914154637982, 548.921281088370392 ], [ 380.628914155637517, 552.059559734850836 ], [ 376.766417360777325, 552.059559734850836 ], [ 376.76641735927808, 554.47362023045207 ], [ 371.696890319865872, 554.956432330371968 ], [ 371.69689031761709, 558.577523072774397 ], [ 351.177376092517591, 557.611898876932628 ], [ 351.660188192937085, 547.955656888530712 ], [ 354.798466837667775, 536.609572554407464 ], [ 380.628914155137693, 537.575196752248189 ], [ 380.628914154637982, 548.921281088370392 ] ] ] } },
{ "type": "Feature", "properties": { "feature_type": "building", "subtype": "minor-damage", "uid": "bf53288d-b14e-43f4-8ab8-38e10870cb5f" }, "geometry": { "type": "Polygon", "coordinates": [ [ [ 685.767251907282343, 478.492635848062775 ], [ 686.008657952744556, 475.354357204580822 ], [ 667.420392130322398, 475.112951152621918 ], [ 667.178986078613434, 465.698115216179019 ], [ 662.350865087412103, 465.698115217178383 ], [ 660.902428788902284, 455.800467179816224 ], [ 666.696173980192953, 455.559061128856797 ], [ 666.696173982441792, 452.179376434415417 ], [ 682.870379311512011, 453.869218783135295 ], [ 683.111785358973179, 456.766091378656427 ], [ 698.320366488953596, 457.007497428616318 ], [ 696.147712043562706, 462.318430521737525 ], [ 708.459420575274066, 462.559836572697009 ], [ 709.907856872784464, 482.596538695382378 ], [ 685.04303375565371, 484.769193139024821 ], [ 685.767251907282343, 478.492635848062775 ] ] ] } },
{ "type": "Feature", "properties": { "feature_type": "building", "subtype": "minor-damage", "uid": "f499a046-c1ab-4c4e-94e9-b60285f3d66b" }, "geometry": { "type": "Polygon", "coordinates": [ [ [ 746.414542991115809, 656.117802973468542 ], [ 745.609190851195876, 630.761804235668706 ], [ 771.251858169519778, 630.2645541875969 ], [ 770.75460812469646, 643.793719366498408 ], [ 767.9816893120543, 645.334229814746095 ], [ 767.673587219706292, 656.117802973468542 ], [ 746.414542991115809, 656.117802973468542 ] ] ] } },
{ "type": "Feature", "properties": { "feature_type": "building", "subtype": "minor-damage", "uid": "ab303dae-f39e-49a7-9789-3c1fa4a20a35" }, "geometry": { "type": "Polygon", "coordinates": [ [ [ 741.986791395733121, 670.42601787209378 ], [ 742.602995575681803, 686.139224477402422 ], [ 761.397223082978712, 685.831122385554067 ], [ 765.094448167917449, 704.933451985203305 ], [ 748.765037382163882, 704.933451985203305 ], [ 749.997445742560785, 711.711697970885893 ], [ 722.268257620387431, 713.252208421132536 ], [ 721.96015552878896, 671.042222054791068 ], [ 741.986791395733121, 670.42601787209378 ] ] ] } },
{ "type": "Feature", "properties": { "feature_type": "building", "subtype": "minor-damage", "uid": "280e4b4f-7c24-4c7c-b17f-844dea628d23" }, "geometry": { "type": "Polygon", "coordinates": [ [ [ 648.670203791646713, 659.028905765792729 ], [ 670.989662678472087, 659.596349635462275 ], [ 671.557106548391403, 654.867650720882693 ], [ 685.554055343649566, 655.813390503998562 ], [ 684.797463513509001, 667.918859730279564 ], [ 680.068764596431834, 668.675451556172561 ], [ 680.447060511377117, 679.835181000337343 ], [ 651.885719053690082, 680.213476911784596 ], [ 651.507423141743175, 675.106482083758806 ], [ 651.696571098216282, 672.836706603081552 ], [ 648.481055835173493, 673.215002517527182 ], [ 648.670203791646713, 659.028905765792729 ] ] ] } },
{ "type": "Feature", "properties": { "feature_type": "building", "subtype": "minor-damage", "uid": "286024d5-5234-45dd-a1c5-207919b370d8" }, "geometry": { "type": "Polygon", "coordinates": [ [ [ 561.419467807435581, 637.088589199249441 ], [ 579.010227779432512, 636.710293286802766 ], [ 579.388523691379419, 647.680874772745142 ], [ 572.200901339401071, 647.11343090107664 ], [ 573.146641121267294, 650.896390035538843 ], [ 563.500095330389854, 650.5180941210931 ], [ 563.500095332888577, 658.462308301464759 ], [ 550.070590410048339, 657.894864429796257 ], [ 549.692294494603289, 637.466885113695184 ], [ 561.419467807435581, 637.088589199249441 ] ] ] } },
{ "type": "Feature", "properties": { "feature_type": "building", "subtype": "minor-damage", "uid": "38cb03d5-395b-4548-868d-6931e0848363" }, "geometry": { "type": "Polygon", "coordinates": [ [ [ 481.079258124621788, 568.762551744022176 ], [ 482.286288373421712, 592.420344611109044 ], [ 476.251137130671907, 592.178938560149618 ], [ 476.492543180131975, 598.455495852111085 ], [ 470.698797989341017, 598.214089801151658 ], [ 471.664422185682326, 605.456271293952227 ], [ 450.903501913371485, 605.214865240993959 ], [ 449.93787771453151, 568.521145691063793 ], [ 481.079258124621788, 568.762551744022176 ] ] ] } },
{ "type": "Feature", "properties": { "feature_type": "building", "subtype": "destroyed", "uid": "2894a4a4-2dd5-43f1-a228-54b28931e798" }, "geometry": { "type": "Polygon", "coordinates": [ [ [ 470.940204038551315, 536.172735038413293 ], [ 489.045657763802183, 534.241486638733932 ], [ 490.976906159733119, 560.796152101341818 ], [ 476.492543180131975, 560.313340004420411 ], [ 476.251137130172083, 547.036007270617802 ], [ 471.423016136721913, 547.277413321577228 ], [ 470.940204038551315, 536.172735038413293 ] ] ] } },
{ "type": "Feature", "properties": { "feature_type": "building", "subtype": "minor-damage", "uid": "a89cbf8a-0996-43cb-93b0-8f572fcbebe5" }, "geometry": { "type": "Polygon", "coordinates": [ [ [ 302.616563145540908, 781.647860190032247 ], [ 308.410308341079428, 793.476756623075971 ], [ 297.788442153090102, 797.822065518356567 ], [ 288.132200164440519, 784.78613883551327 ], [ 289.580636464199699, 783.82051463867208 ], [ 302.616563145540908, 781.647860190032247 ] ] ] } },
{ "type": "Feature", "properties": { "feature_type": "building", "subtype": "minor-damage", "uid": "372ab8f0-d29b-425b-9b79-dd033919b275" }, "geometry": { "type": "Polygon", "coordinates": [ [ [ 442.695341290356794, 903.004424034162753 ], [ 462.721977156551418, 904.54493448540893 ], [ 462.721977160049505, 914.404201377581558 ], [ 461.797670887502989, 918.101426457773641 ], [ 464.262487607797084, 930.7336121585912 ], [ 447.93307682654131, 932.582224701685618 ], [ 447.008770552245721, 927.960693347947426 ], [ 442.387239200257625, 928.268795440795316 ], [ 439.614320386366103, 912.863690924336538 ], [ 441.771035017810277, 904.544934486408351 ], [ 442.695341290356794, 903.004424034162753 ] ] ] } },
{ "type": "Feature", "properties": { "feature_type": "building", "subtype": "minor-damage", "uid": "70db709c-dfce-4f43-b76a-b663b83ba94a" }, "geometry": { "type": "Polygon", "coordinates": [ [ [ 930.399963411085196, 315.451829469805887 ], [ 931.848399710594549, 325.349477504169727 ], [ 924.364812169084985, 325.59088355213072 ], [ 925.330436368424671, 335.005719491572108 ], [ 913.984352035303345, 334.281501343691275 ], [ 913.742945986342988, 323.65963515744869 ], [ 910.846073389073467, 324.383853307328479 ], [ 909.880449188234593, 298.311999938643623 ], [ 919.536691176884119, 298.070593891682108 ], [ 941.021829596325915, 298.311999940642522 ], [ 942.711671947794002, 315.210423420845473 ], [ 930.399963411085196, 315.451829469805887 ] ] ] } },
{ "type": "Feature", "properties": { "feature_type": "building", "subtype": "minor-damage", "uid": "a48b2340-ca63-4ce9-8e57-e8069e1d80c4" }, "geometry": { "type": "Polygon", "coordinates": [ [ [ 410.40346661267688, 148.037439376609711 ], [ 413.058933157238016, 148.037439377609189 ], [ 427.301890087878689, 149.244469626409312 ], [ 427.543296141336782, 163.728832606013611 ], [ 416.921429952847689, 162.521802358212994 ], [ 416.921429951598384, 187.145219424140009 ], [ 392.780824985096785, 185.696783126379501 ], [ 376.606619655526913, 185.696783126379501 ], [ 376.606619658275406, 177.488977438736612 ], [ 372.744122862165909, 174.592104840217104 ], [ 374.192559161175495, 147.313221225730501 ], [ 379.503492254045682, 146.106190979928812 ], [ 379.020680154625722, 139.105415538087613 ], [ 411.369090810767318, 140.553851837847105 ], [ 410.40346661267688, 148.037439376609711 ] ] ] } },
{ "type": "Feature", "properties": { "feature_type": "building", "subtype": "minor-damage", "uid": "0db2331a-c544-47c1-b894-c59118c91e44" }, "geometry": { "type": "Polygon", "coordinates": [ [ [ 767.580121562457975, 212.466120116734288 ], [ 769.428734105801936, 224.173999547004087 ], [ 766.347713201061651, 225.09830581755179 ], [ 767.580121563207626, 229.719837172289601 ], [ 758.953263032433483, 230.336041351988399 ], [ 758.953263034432439, 234.341368525028287 ], [ 744.164362701673781, 234.341368525028287 ], [ 742.931954340277457, 214.622834747679207 ], [ 741.083341796683612, 212.158018025885411 ], [ 742.007648065981812, 199.217730234219005 ], [ 779.904205171674334, 197.67721978397239 ], [ 780.520409355121046, 211.233711756337101 ], [ 767.580121562457975, 212.466120116734288 ] ] ] } },
{ "type": "Feature", "properties": { "feature_type": "building", "subtype": "minor-damage", "uid": "3ea7c0c7-bb5f-40f8-901f-3c3a37da3d06" }, "geometry": { "type": "Polygon", "coordinates": [ [ [ 833.818317313383432, 202.801894467677101 ], [ 860.677327161562403, 201.667006731336301 ], [ 860.299031246617005, 213.96162391384081 ], [ 855.192036417842701, 213.961623914840288 ], [ 855.570332330289375, 233.06556753537879 ], [ 856.137776202957298, 233.822159363270714 ], [ 835.709796884362049, 234.389603232940289 ], [ 835.142353010444822, 214.907363696956594 ], [ 833.818317313383432, 202.801894467677101 ] ] ] } },
{ "type": "Feature", "properties": { "feature_type": "building", "subtype": "minor-damage", "uid": "276b48ed-6439-4fd2-9af0-ae49564746dc" }, "geometry": { "type": "Polygon", "coordinates": [ [ [ 950.798892084767658, 68.298458460661706 ], [ 951.040298131978943, 78.678918594945372 ], [ 958.523885672239089, 80.127354891706432 ], [ 956.834043326018332, 98.232808618710521 ], [ 938.728589598518511, 100.164057016390899 ], [ 938.245777502846522, 68.298458458662751 ], [ 950.798892084767658, 68.298458460661706 ] ] ] } },
{ "type": "Feature", "properties": { "feature_type": "building", "subtype": "major-damage", "uid": "72ddf215-24a4-4499-9bae-17de8ed87421" }, "geometry": { "type": "Polygon", "coordinates": [ [ [ 769.363719949310621, 982.952234103339151 ], [ 775.038158648254011, 982.006494318224441 ], [ 777.118786175206196, 989.38326462892644 ], [ 748.746592676241107, 998.651514506859598 ], [ 744.963633539530974, 999.786402246198804 ], [ 743.639597843968772, 994.679407417173479 ], [ 748.179148802073996, 992.40963193449727 ], [ 746.855113108260866, 986.167749365133318 ], [ 742.315562149405991, 986.356897321356655 ], [ 741.369822361792671, 969.3335812232732 ], [ 747.611704934403519, 969.144433266050328 ], [ 747.800852890127089, 968.198693482934573 ], [ 766.337352642241285, 968.009545526711122 ], [ 767.66138834030221, 980.871606581883611 ], [ 768.985424035364758, 983.33053001678536 ], [ 769.363719949310621, 982.952234103339151 ] ] ] } },
{ "type": "Feature", "properties": { "feature_type": "building", "subtype": "minor-damage", "uid": "2c22f2c1-d254-4019-bc8a-c9659d396e47" }, "geometry": { "type": "Polygon", "coordinates": [ [ [ 846.536086268084773, 959.308739522445535 ], [ 894.201371347555437, 960.065331348338532 ], [ 894.390519304278541, 984.087121844677313 ], [ 843.69886692248599, 984.087121843677778 ], [ 846.536086268084773, 959.308739522445535 ] ] ] } },
{ "type": "Feature", "properties": { "feature_type": "building", "subtype": "minor-damage", "uid": "bb5df71a-9f88-4902-9445-781a04003c3e" }, "geometry": { "type": "Polygon", "coordinates": [ [ [ 330.042981020134789, 643.977628008810825 ], [ 328.810572659488116, 651.372078177190701 ], [ 309.708243062841518, 651.988282355890078 ], [ 310.016345151941323, 642.745219649413116 ], [ 330.042981020134789, 643.977628008810825 ] ] ] } },
{ "type": "Feature", "properties": { "feature_type": "building", "subtype": "minor-damage", "uid": "a78b31dd-00c5-4c31-b72f-872515f1a102" }, "geometry": { "type": "Polygon", "coordinates": [ [ [ 735.15943439043906, 379.940832905990987 ], [ 749.640232634847621, 379.016526632444879 ], [ 752.413151445990479, 397.810754143244083 ], [ 738.856659474878029, 398.426958321943516 ], [ 735.15943439043906, 379.940832905990987 ] ] ] } },
{ "type": "Feature", "properties": { "feature_type": "building", "subtype": "minor-damage", "uid": "8e4aef36-aa25-45cb-a32d-00d1acb51ce8" }, "geometry": { "type": "Polygon", "coordinates": [ [ [ 937.072441866228473, 206.795104090029099 ], [ 937.072441864479401, 196.01153092830819 ], [ 952.169444286587691, 196.011530930307089 ], [ 952.477546375437555, 229.286556679021487 ], [ 932.450910508743277, 228.362250408473699 ], [ 932.450910507993626, 208.027512451425793 ], [ 937.072441866228473, 206.795104090029099 ] ] ] } }
]
}
