{
"type": "FeatureCollection",
"name": "hurricane-michael_00000531_post_disaster",
"features": [
{ "type": "Feature", "properties": { "feature_type": "building", "subtype": "no-damage", "uid": "4ec03444-adcf-4a57-b38d-4b6312fb0ccb" }, "geometry": { "type": "Polygon", "coordinates": [ [ [ 0.05562826049899, 981.311349019804311 ], [ 1.999806176047441, 985.066403534132064 ], [ 2.241212226320296, 994.481239471289541 ], [ 26.623223243158751, 994.481239472289076 ], [ 26.86462929618024, 1014.759347644244031 ], [ 1.516994077750616, 1015.242159745788967 ], [ 0.055585210382133, 1019.893370555160004 ], [ 0.05562826049899, 981.311349019804311 ] ] ] } },
{ "type": "Feature", "properties": { "feature_type": "building", "subtype": "no-damage", "uid": "370b4b86-da28-468f-b576-2ca7d5d4ae3a" }, "geometry": { "type": "Polygon", "coordinates": [ [ [ 681.053322393142366, 770.192106819643527 ], [ 682.260352642007888, 782.745221404852487 ], [ 619.736185775512013, 788.538966596411228 ], [ 617.804937377077295, 785.159281901585132 ], [ 617.080719232255774, 775.26163386288215 ], [ 679.363480045730171, 769.709294722096161 ], [ 681.053322393142366, 770.192106819643527 ] ] ] } },
{ "type": "Feature", "properties": { "feature_type": "building", "subtype": "no-damage", "uid": "6d05abf0-c003-48b0-bfa1-596890e63f4b" }, "geometry": { "type": "Polygon", "coordinates": [ [ [ 719.216715822020092, 666.4646582130963 ], [ 720.757226273855736, 682.177864818578428 ], [ 723.222042998541838, 682.794068998813259 ], [ 723.530145086160246, 689.572314983394904 ], [ 722.60583881480909, 692.345233795950662 ], [ 723.838247176777259, 705.285521589876566 ], [ 723.47645207991377, 707.156575460893919 ], [ 708.26787095070506, 710.053448058172535 ], [ 704.646780205857681, 711.260478308038159 ], [ 703.198343909218011, 713.433132754997587 ], [ 687.02413857841816, 716.812817450823218 ], [ 686.782732529394707, 714.640163001864721 ], [ 683.885859936865131, 714.881569052637474 ], [ 683.644453884093537, 717.295629548370584 ], [ 673.746805847894052, 717.77844164791702 ], [ 672.056963500481856, 713.915944852545067 ], [ 667.953060655338618, 714.640163001864721 ], [ 667.711654604066212, 718.502659796237253 ], [ 652.261667425584164, 719.951096094876561 ], [ 652.261667429582189, 717.295629548370584 ], [ 637.053086297874756, 717.537035598143802 ], [ 635.363243949463026, 705.22532706470713 ], [ 633.19058950400381, 704.01829681784011 ], [ 631.983559252139798, 694.362054832908257 ], [ 631.677405849602678, 691.328292367304698 ], [ 630.019937177073189, 678.618403507424659 ], [ 639.467146791607775, 675.532382954595164 ], [ 639.467146793356847, 674.566758752503802 ], [ 641.639801240815018, 673.11832245886194 ], [ 652.744479523881068, 671.428480110449414 ], [ 655.158540022611533, 672.635510359315504 ], [ 660.952285215166967, 671.911292208996429 ], [ 669.642903002001162, 669.980043810810685 ], [ 670.608527200343929, 669.014419616715259 ], [ 690.886635373538411, 666.35895306621137 ], [ 703.681156007514915, 665.876140964665865 ], [ 705.612404402951029, 667.083171215531024 ], [ 710.44052539741358, 666.841765166757227 ], [ 719.216715822020092, 666.4646582130963 ] ] ] } },
{ "type": "Feature", "properties": { "feature_type": "building", "subtype": "no-damage", "uid": "33f4e07d-3ac2-45a5-bb27-f6cb791c037d" }, "geometry": { "type": "Polygon", "coordinates": [ [ [ 804.363466761354061, 654.581704617586752 ], [ 806.294715156290522, 674.135594640221939 ], [ 807.260339355133056, 687.895739472297919 ], [ 786.25801303461833, 691.034018118350332 ], [ 786.982231181438806, 697.793387508002411 ], [ 781.188485992131746, 698.517605657322179 ], [ 781.429892042404617, 704.552756897654604 ], [ 775.877552897123451, 706.484005295840348 ], [ 768.152559306633066, 706.484005296839882 ], [ 761.393189915484982, 707.208223446159536 ], [ 760.910377816188657, 702.380102453693667 ], [ 754.633820527585272, 701.89729035114874 ], [ 754.392414479561239, 697.79338750700299 ], [ 745.218984587433738, 697.310575408455975 ], [ 744.011954341566707, 692.723860463764368 ], [ 736.045554701053334, 692.48245441399115 ], [ 733.631494207820083, 686.205897123885393 ], [ 733.1486821050255, 681.136370079647349 ], [ 733.872900253845046, 676.30824908718148 ], [ 740.390863594220605, 675.101218837315855 ], [ 740.632269647242083, 669.066067594984361 ], [ 749.081481383803407, 668.341849449662732 ], [ 749.564293482100197, 659.409825609053087 ], [ 751.495541879285497, 657.478577210867343 ], [ 758.979129419503124, 656.271546964000208 ], [ 759.944753618095774, 653.13326831894733 ], [ 771.773650052729863, 652.891862269174112 ], [ 774.42911660223308, 653.61608041649481 ], [ 802.91503046371497, 651.926238068082284 ], [ 804.363466761354061, 654.581704617586752 ] ] ] } },
{ "type": "Feature", "properties": { "feature_type": "building", "subtype": "no-damage", "uid": "3bd79031-b7d9-4148-9657-b5a3439b745a" }, "geometry": { "type": "Polygon", "coordinates": [ [ [ 862.427115958283821, 694.375095802413284 ], [ 857.842283102754095, 681.742751475893215 ], [ 853.97978631238152, 680.294315174255303 ], [ 853.014162111040264, 673.293539734830006 ], [ 850.117289513513128, 671.60369738941597 ], [ 849.634477415466108, 669.431042941457008 ], [ 848.910259267895981, 657.843552555340921 ], [ 851.082913714604501, 654.946679959061839 ], [ 851.082913711855895, 649.152934766503563 ], [ 857.842283106002469, 648.187310569409647 ], [ 856.635252855137992, 634.185759687560449 ], [ 855.911034705568795, 630.081856843414698 ], [ 852.289943960221649, 626.943578196362864 ], [ 851.324319764877373, 620.908426955030905 ], [ 849.875883463989908, 618.011554359751244 ], [ 849.634477417715061, 611.734997067646532 ], [ 853.25556815956395, 606.182657925861008 ], [ 853.738380261858765, 599.90610063475583 ], [ 859.049313352369268, 595.560791739837327 ], [ 862.187591998170205, 593.870949390425267 ], [ 861.946185950895824, 589.042828396959862 ], [ 865.084464596946759, 587.352986051545827 ], [ 872.085240034119806, 585.66314370213388 ], [ 877.637579179900627, 589.525640497505833 ], [ 901.295372048419267, 588.560016299412496 ], [ 902.019590193740555, 592.905325194330885 ], [ 904.433650692471133, 593.388137291878365 ], [ 904.675056741994354, 596.767821988703417 ], [ 911.4344261323929, 597.250634088249853 ], [ 911.43442613264267, 626.702172150587671 ], [ 906.123493039383561, 627.184984248135038 ], [ 905.882086990859875, 635.634195984200801 ], [ 906.364899088407128, 648.428716617183909 ], [ 911.675832180916586, 648.911528718729301 ], [ 911.434426131143482, 659.774800952527244 ], [ 912.158644281212446, 667.258388494497467 ], [ 911.675832182166005, 680.052909124482085 ], [ 907.330523287499432, 683.673999870080934 ], [ 906.12349303838414, 688.019308763999902 ], [ 904.433650690472177, 693.813053957557599 ], [ 895.394039618569877, 694.066993707798133 ], [ 871.978280757665402, 694.375095802413284 ], [ 862.427115958283821, 694.375095802413284 ] ] ] } },
{ "type": "Feature", "properties": { "feature_type": "building", "subtype": "no-damage", "uid": "3343ee24-96c2-4e6a-98e4-f010b3700fde" }, "geometry": { "type": "Polygon", "coordinates": [ [ [ 1023.032529673881982, 654.338883582641529 ], [ 1022.671125914140021, 658.314324652198707 ], [ 1021.946907767070002, 660.245573046386426 ], [ 1018.567223070995965, 661.211197249477323 ], [ 1018.56722307149596, 681.730711470205961 ], [ 1021.946907765821038, 683.179147767845848 ], [ 1022.671125913641049, 685.593208265578028 ], [ 1022.912531967411951, 689.697111109723664 ], [ 1022.188313814594039, 693.559607905095731 ], [ 1019.774253318112983, 696.456480500375392 ], [ 1019.774253317862986, 705.147098288213215 ], [ 1004.324266138130952, 705.388504342983993 ], [ 1002.634423790968981, 711.906467680863898 ], [ 993.46099390508823, 712.147873729637581 ], [ 975.114134127329976, 712.630685829184017 ], [ 973.42429177991778, 709.975219282678154 ], [ 971.010231284185693, 707.802564835718726 ], [ 969.803201035570055, 700.077571243975171 ], [ 966.906328440541756, 697.9049167990147 ], [ 964.492267944060131, 685.593208267576983 ], [ 962.561019544375995, 681.730711471205495 ], [ 962.802425595648401, 673.522905781914574 ], [ 967.389140539588197, 672.315875534047905 ], [ 967.389140539838081, 671.350251335954567 ], [ 966.906328439542222, 657.831512553651805 ], [ 964.250861893287492, 651.072143162000657 ], [ 966.182110290722676, 649.140894763814913 ], [ 967.871952639634173, 643.347149572256058 ], [ 969.561794985796951, 635.139343881965601 ], [ 981.149285370658049, 634.897937832192383 ], [ 983.804751916413011, 637.794810427472044 ], [ 1008.186762934750959, 637.553404377698826 ], [ 1007.945356884477974, 638.519028579790188 ], [ 1017.843004922675959, 639.243246728110421 ], [ 1018.084410974698017, 647.933864514948709 ], [ 1020.739877518204025, 648.416676613495724 ], [ 1022.671125915888979, 650.589331064453177 ], [ 1023.032530300821008, 652.39635302434408 ], [ 1023.032529673881982, 654.338883582641529 ] ] ] } },
{ "type": "Feature", "properties": { "feature_type": "building", "subtype": "no-damage", "uid": "4f323fd4-432b-4245-9128-0bcfe1f3b0e3" }, "geometry": { "type": "Polygon", "coordinates": [ [ [ 1023.032544360837051, 597.50906969038499 ], [ 1018.060559698959992, 598.825765171148078 ], [ 1015.70120959538599, 611.015740702791277 ], [ 1014.128309527334977, 612.58864077184171 ], [ 974.01935777431288, 612.981865790603592 ], [ 971.26678265622445, 602.758015344773753 ], [ 967.727757501112364, 596.07319005080933 ], [ 963.40228230847697, 590.568039809132642 ], [ 959.863257153364884, 585.84933960697856 ], [ 959.86325715536384, 574.44581410586261 ], [ 964.367275965012027, 574.307957868536391 ], [ 966.215888506215265, 568.145916065189112 ], [ 969.913113589871045, 566.605405613102903 ], [ 971.145521949340491, 562.908180529695187 ], [ 971.145521949340491, 552.432709460706405 ], [ 969.296909412884929, 548.73548437729869 ], [ 965.599684326230658, 541.95723838871902 ], [ 961.594357151458098, 534.870890314519784 ], [ 961.594357152707516, 522.546806704826622 ], [ 966.832092686949409, 515.768560719245556 ], [ 967.448296866434362, 509.914621000518423 ], [ 973.610338672777175, 505.909293827493002 ], [ 984.393911832377853, 501.287762473233386 ], [ 991.480259909322285, 501.595864563850512 ], [ 1001.955730978555948, 501.903966655467173 ], [ 1004.728649791609996, 500.055354115762327 ], [ 1011.198793687819943, 496.974333210590373 ], [ 1017.668937582031958, 498.206741572059514 ], [ 1018.285141764514947, 506.525498007727776 ], [ 1023.032552427330984, 508.07762482192652 ], [ 1023.032544360837051, 597.50906969038499 ] ] ] } },
{ "type": "Feature", "properties": { "feature_type": "building", "subtype": "no-damage", "uid": "31b495bd-1e0a-4c09-83fa-4e53b0beea47" }, "geometry": { "type": "Polygon", "coordinates": [ [ [ 802.224203914421423, 518.813079113342042 ], [ 804.689020633860196, 516.040160298787214 ], [ 811.159164528571068, 513.26724148723099 ], [ 818.24551260451608, 512.651037305996738 ], [ 818.861716785749991, 511.110526854910006 ], [ 821.942737688421744, 510.494322674675175 ], [ 821.942737689171281, 505.872791317417125 ], [ 829.645289947099855, 505.256587141180319 ], [ 854.601559261089278, 505.56468922779942 ], [ 854.909661350206989, 511.726731037143793 ], [ 857.990682251129556, 510.802424764292823 ], [ 859.223090613597492, 513.575343576848582 ], [ 868.77425541048035, 512.342935215379498 ], [ 870.622867951933472, 510.494322675674709 ], [ 872.779582585003027, 509.878118495439878 ], [ 872.779582586752213, 505.564689229798375 ], [ 875.552501398057188, 504.948485050563079 ], [ 904.205995796701927, 505.564689229798375 ], [ 906.054608335656212, 508.645710133970908 ], [ 912.524752230866852, 508.645710133970908 ], [ 914.065262681952845, 510.802424764292823 ], [ 916.530079403390573, 512.651037309994649 ], [ 918.07058985497622, 523.126508374985519 ], [ 919.919202398678181, 527.131835551009317 ], [ 919.611100310060237, 540.380225431554436 ], [ 917.454385675241497, 548.698981867222756 ], [ 912.216650141499258, 549.315186050456077 ], [ 911.600445959265812, 557.325840396506692 ], [ 895.271035174556232, 557.633942486124397 ], [ 893.422422637101135, 561.947371750766365 ], [ 879.249726481962853, 563.48788220185304 ], [ 878.017318120994105, 559.482555029827267 ], [ 875.552501401305562, 558.558248756976241 ], [ 869.082357503096432, 556.093432037036678 ], [ 865.077030327074453, 553.320513223481385 ], [ 859.223090612847841, 552.704309044246088 ], [ 856.758273889411157, 557.633942486124397 ], [ 855.525865528942177, 558.866350849592436 ], [ 844.742292368341964, 558.866350849592436 ], [ 839.504556835099493, 564.412188474703953 ], [ 827.180473223413287, 564.104086384086827 ], [ 819.477920968233434, 562.563575933999687 ], [ 817.629308425780778, 558.25014666535958 ], [ 813.007777070773841, 554.244819495332763 ], [ 804.997122722977906, 553.936717402716681 ], [ 802.224203914421423, 518.813079113342042 ] ] ] } },
{ "type": "Feature", "properties": { "feature_type": "building", "subtype": "no-damage", "uid": "7ea6c7e7-c354-4a09-91af-dc97d67a7e69" }, "geometry": { "type": "Polygon", "coordinates": [ [ [ 745.55685104273698, 604.279729609991591 ], [ 737.107639304176701, 605.486759859857216 ], [ 733.969360656376693, 604.521135662763299 ], [ 726.00296101811216, 605.969571961402607 ], [ 719.002185577440855, 596.313329969474353 ], [ 714.656876685023235, 596.07192392170009 ], [ 710.311567789857008, 589.795366632593982 ], [ 709.345943589015519, 585.932869835222959 ], [ 712.967034339610109, 580.863342795982362 ], [ 706.931883094282966, 572.655537102693302 ], [ 708.621725441195508, 566.378979811588124 ], [ 713.20844038713426, 564.206325365628118 ], [ 721.174840023649608, 559.378204372162827 ], [ 729.624051763209536, 554.550083377697888 ], [ 731.796706213166431, 554.791489427471106 ], [ 735.176390906491633, 556.722737824657315 ], [ 745.556851041987329, 550.928992634098108 ], [ 745.556851042237213, 550.20477448377892 ], [ 744.832632891918479, 547.066495838726041 ], [ 752.074814383612306, 542.479780893034899 ], [ 752.799032532431852, 540.789938548620398 ], [ 761.489650321514887, 537.651659901568564 ], [ 763.662304769722709, 537.893065950342248 ], [ 764.386522917792604, 539.100096197209382 ], [ 771.870110458010117, 538.375878051887639 ], [ 773.318546754649788, 539.582908296755818 ], [ 772.352922556057138, 551.411804733644544 ], [ 779.836510094775349, 564.447731415401336 ], [ 787.078691585719639, 565.17194956472099 ], [ 790.699782331816436, 570.000070557186973 ], [ 790.699782331566553, 571.931318955372717 ], [ 784.664631089237901, 576.035221802516958 ], [ 786.113067387376759, 580.380530694436857 ], [ 776.215419349678086, 586.898494034315831 ], [ 771.870110456011162, 583.5188093384902 ], [ 754.006062780547722, 592.933645277646747 ], [ 755.937311178732557, 597.27895417056618 ], [ 745.55685104273698, 604.279729609991591 ] ] ] } },
{ "type": "Feature", "properties": { "feature_type": "building", "subtype": "no-damage", "uid": "621ce499-a787-40ea-a923-8e2aabb08cf5" }, "geometry": { "type": "Polygon", "coordinates": [ [ [ 636.344989319613546, 648.409852190210586 ], [ 633.572070508058573, 639.47489157030941 ], [ 629.87484542190407, 634.853360215050316 ], [ 629.25864124241923, 621.29686824588714 ], [ 632.339662147339823, 616.059132708394145 ], [ 632.339662147089939, 611.129499267515371 ], [ 630.182947511771431, 606.199865819640081 ], [ 629.258641241169812, 600.654028195528099 ], [ 629.874845423653255, 594.183884302563115 ], [ 629.874845423403372, 588.946148764070699 ], [ 628.642437061934857, 577.54637142622903 ], [ 630.799151695004412, 572.308635891734525 ], [ 630.79915169325534, 564.297981543684841 ], [ 630.799151692005921, 558.752143916574369 ], [ 638.193601860317017, 553.206306292462273 ], [ 655.447318916127983, 553.514408382079978 ], [ 673.625342242290571, 552.898204202844681 ], [ 675.165852696624938, 554.438714655930312 ], [ 682.86840495080537, 554.13061256331423 ], [ 684.100813312024002, 554.130612564313765 ], [ 686.5656300337115, 559.676450188425747 ], [ 687.181834212696572, 569.22761498556315 ], [ 686.87373212782677, 582.47600486910676 ], [ 688.106140486296681, 588.021842495217811 ], [ 687.798038395429899, 599.729721925675676 ], [ 687.798038395429899, 602.194538645615353 ], [ 688.106140484797493, 620.064459882418987 ], [ 686.257527943594255, 626.22650168876487 ], [ 688.41424257666381, 629.923726773172007 ], [ 687.798038396929087, 645.328831289036657 ], [ 669.003810888283056, 648.409852190210586 ], [ 666.230892075728661, 647.485545919358628 ], [ 646.820460388597326, 649.334158460063009 ], [ 636.344989319613546, 648.409852190210586 ] ] ] } },
{ "type": "Feature", "properties": { "feature_type": "building", "subtype": "no-damage", "uid": "c7f4ff20-1912-4cd6-8e6c-8b33f5d758c1" }, "geometry": { "type": "Polygon", "coordinates": [ [ [ 625.99900204857579, 527.237481441327191 ], [ 612.134407986303358, 538.637258779168974 ], [ 612.442510077919906, 540.4858713248708 ], [ 596.113099293709979, 549.420831939774416 ], [ 587.794342858045752, 548.804627761538654 ], [ 584.097117771141598, 544.183096405280025 ], [ 579.783688507001443, 544.491198494897617 ], [ 576.086463424844965, 542.33448386257669 ], [ 570.540625798736528, 535.864339968612171 ], [ 570.540625802734553, 533.70762533629113 ], [ 574.854055064625868, 530.934706524734906 ], [ 573.313544613539875, 528.469889802796274 ], [ 566.227196535346025, 531.242808616351567 ], [ 564.378583993393249, 527.545583529945361 ], [ 564.378583995142321, 526.313175168476278 ], [ 561.297563091721031, 520.151133363129929 ], [ 562.529971455938153, 517.07011246395507 ], [ 562.838073546055398, 514.605295741016903 ], [ 556.676031738213283, 501.97311003670859 ], [ 551.130194112854497, 500.740701673240494 ], [ 546.508662757097909, 498.275884955299887 ], [ 543.119539765308559, 494.270557782274579 ], [ 541.270927224355205, 492.113843149953595 ], [ 545.27625439737858, 489.032822244781585 ], [ 543.735743946292587, 486.876107615459091 ], [ 537.26560005133183, 489.34092433739778 ], [ 534.492681237777902, 483.48698462166908 ], [ 530.48735406450453, 476.092534453854228 ], [ 530.795456154871658, 465.308961296247276 ], [ 535.416987507379986, 459.455021579518984 ], [ 551.130194111605192, 448.979550509530725 ], [ 553.595010835041876, 445.590427515740714 ], [ 561.91376727120587, 441.585100342715407 ], [ 564.686686086009217, 441.585100342715407 ], [ 573.313544613789759, 451.136265142851187 ], [ 577.468203682389799, 448.849723166224919 ], [ 583.503354922719268, 457.781747006834621 ], [ 582.537730727874759, 459.712995400022805 ], [ 577.468203683888987, 462.851274049073709 ], [ 579.640858130347738, 465.265334544806819 ], [ 586.641633569019973, 461.402837751433822 ], [ 592.676784810598974, 470.8176736865924 ], [ 589.538506166047341, 475.404388628285517 ], [ 598.22912395513049, 490.854375811772627 ], [ 599.918966301293267, 490.612969759000919 ], [ 602.574432848547531, 493.751248405053218 ], [ 606.67833569668926, 491.820000008866486 ], [ 613.437705083089782, 501.234835947023612 ], [ 607.16114779198756, 505.580144839942989 ], [ 608.85099014039929, 507.994205335676213 ], [ 615.368953482024153, 504.855926690623278 ], [ 622.128322871423165, 515.719198925420642 ], [ 621.886916822399712, 521.030132019432017 ], [ 625.266601518723405, 525.616846965123159 ], [ 625.99900204857579, 527.237481441327191 ] ] ] } },
{ "type": "Feature", "properties": { "feature_type": "building", "subtype": "no-damage", "uid": "b3739976-604f-42ca-a699-98ef863880a0" }, "geometry": { "type": "Polygon", "coordinates": [ [ [ 833.997556039102165, 415.874201240961099 ], [ 834.721774189670896, 413.701546794001615 ], [ 844.378016175597509, 409.597643952854412 ], [ 841.963955677866466, 401.631244309338626 ], [ 831.342089492847435, 401.872650361110914 ], [ 829.652247145185356, 399.458589863378677 ], [ 827.962404800771651, 392.699220472727006 ], [ 824.582720102698772, 390.767972076540275 ], [ 823.375689855332553, 388.353911578808095 ], [ 823.858501951630387, 384.491414784435619 ], [ 819.996005161507583, 372.179706248999878 ], [ 830.376465294004902, 368.800021554173782 ], [ 827.479592700475791, 359.385185618015726 ], [ 817.581944661027933, 361.075027964429296 ], [ 813.719447867157101, 354.798470674323596 ], [ 811.305387369176174, 347.073477083579576 ], [ 813.236635766861241, 343.452386337980784 ], [ 829.169435049387289, 338.624265344515379 ], [ 841.963955680864956, 334.278956450596411 ], [ 850.41316742042477, 332.58911410318342 ], [ 854.758476311343088, 331.623489905090025 ], [ 857.413942858347468, 334.76176855014279 ], [ 859.345191254783231, 341.521137939794983 ], [ 860.793627552172438, 348.763319431992102 ], [ 852.585821864884451, 351.177379927725326 ], [ 854.517070261569984, 360.350809817108711 ], [ 864.656124349041761, 357.6953432696032 ], [ 874.795178433764931, 387.871099479261716 ], [ 866.58737274522764, 391.975002323407409 ], [ 869.242839293231555, 401.389838261564421 ], [ 879.140487328431391, 398.492965663286327 ], [ 885.17563857150958, 416.598419389281219 ], [ 874.795178434014815, 420.460916186652184 ], [ 868.76002719193616, 421.185134333972883 ], [ 846.792076672828784, 428.668721874943685 ], [ 839.791301231657599, 430.117158169585025 ], [ 833.997556039102165, 415.874201240961099 ] ] ] } },
{ "type": "Feature", "properties": { "feature_type": "building", "subtype": "no-damage", "uid": "1c1276ef-ee40-4745-bc93-a2849f446299" }, "geometry": { "type": "Polygon", "coordinates": [ [ [ 901.442391647021964, 272.80974148703109 ], [ 901.925203747567593, 308.296430788701798 ], [ 894.441616207599964, 309.262054988794205 ], [ 893.958804108053755, 312.158927587072412 ], [ 890.337713362456725, 311.917521536299603 ], [ 890.337713362206841, 313.848769934485404 ], [ 877.543192729979523, 313.848769935484881 ], [ 878.026004828526197, 306.84799449306098 ], [ 875.853350381068026, 307.330806590608518 ], [ 874.88772618272526, 313.848769934485404 ], [ 869.335387043441187, 313.365957834939024 ], [ 868.12835679257671, 315.538612281898395 ], [ 861.610393449702428, 314.090175985258099 ], [ 861.851799500974721, 309.986273140112928 ], [ 857.023678507511704, 309.986273141112406 ], [ 857.023678505762632, 308.055024741927127 ], [ 843.263533675942085, 307.330806593607008 ], [ 843.022127629417355, 310.951897335207718 ], [ 840.125255028392075, 310.951897335207718 ], [ 839.159630831798381, 316.262830428219615 ], [ 825.882298102273808, 315.297206232125177 ], [ 826.123704148548654, 308.296430789701276 ], [ 824.192455751863008, 308.296430789701276 ], [ 823.226831551021519, 313.848769932486391 ], [ 811.397935118636269, 313.848769934485404 ], [ 810.915123019090061, 311.193303384980879 ], [ 806.328408074400613, 311.193303384980879 ], [ 804.63856572648865, 309.020648939020987 ], [ 796.430760040449968, 308.055024739928115 ], [ 795.465135839608479, 300.571437200956325 ], [ 795.947947940154222, 272.326929389483723 ], [ 804.879971777511059, 272.568335438257293 ], [ 805.604189924831417, 270.878493090844302 ], [ 808.983874619905691, 270.154274941524591 ], [ 809.949498820997178, 264.601935800738602 ], [ 822.744019451975078, 264.601935797740111 ], [ 822.98542550324737, 273.051147539802798 ], [ 825.158079950205774, 272.809741489030102 ], [ 825.399485999978879, 264.843341847513273 ], [ 830.227606993192126, 264.601935799739124 ], [ 830.951825142261555, 265.808966046606201 ], [ 837.95260058593135, 266.53318419692539 ], [ 837.952600582433092, 270.637087041071084 ], [ 857.023678507761588, 271.119899142616475 ], [ 857.023678508761122, 269.912868891751373 ], [ 860.886175302881838, 269.430056792204994 ], [ 861.368987399929324, 263.636311597647705 ], [ 869.335387041692002, 264.119123698193675 ], [ 869.576793089965918, 263.153499502099294 ], [ 873.43928988383675, 262.912093449327585 ], [ 874.163508037653855, 265.084747899285617 ], [ 874.64632013395169, 272.085523338710914 ], [ 876.818974581409861, 271.602711242163025 ], [ 876.818974580160443, 262.912093449327585 ], [ 881.164283473577598, 263.394905547874487 ], [ 882.129907672170248, 264.843341846513908 ], [ 889.854901262160865, 266.050372097379011 ], [ 890.337713363955913, 269.671462840978677 ], [ 894.924428309894779, 270.154274941524591 ], [ 894.924428308645361, 271.844117288937696 ], [ 901.442391647021964, 272.80974148703109 ] ] ] } },
{ "type": "Feature", "properties": { "feature_type": "building", "subtype": "no-damage", "uid": "40dc58c3-8f0b-4cda-97fa-d725b137c0c6" }, "geometry": { "type": "Polygon", "coordinates": [ [ [ 572.483672771028409, 317.164649598492815 ], [ 582.86413290727387, 328.269327884062875 ], [ 586.485223650372177, 328.510733933836093 ], [ 591.554750695857138, 335.270103323488172 ], [ 592.761780943223471, 339.374006168633514 ], [ 597.056333612434059, 350.478684450205492 ], [ 584.995469426990894, 361.116490452866685 ], [ 581.174290557362838, 361.583362739773577 ], [ 551.239940399241277, 382.585689060048708 ], [ 531.686050374866454, 395.138803643258711 ], [ 528.547771729315286, 392.966149198298183 ], [ 515.75325109558878, 378.240380167129274 ], [ 506.821227257732119, 360.617738539681284 ], [ 512.132160351491052, 355.065399396896225 ], [ 521.5469962898934, 351.927120750843926 ], [ 525.168087036739735, 353.616963098256917 ], [ 528.306365680041949, 350.961496551750997 ], [ 527.582147529973099, 348.30603000724409 ], [ 529.030583827112423, 347.340405808151218 ], [ 533.617298772301638, 340.822442467272822 ], [ 537.962607665468795, 338.408381968541107 ], [ 540.135262116675108, 338.166975918767776 ], [ 542.549322609908359, 332.614636776982309 ], [ 545.929007306731819, 331.166200480342013 ], [ 550.032910154124011, 331.890418628662076 ], [ 554.619625093066247, 330.441982331022416 ], [ 560.171964239346835, 325.131049237010984 ], [ 561.861806587258798, 318.854491946905284 ], [ 568.621175975658275, 314.991995149534318 ], [ 572.483672771028409, 317.164649598492815 ] ] ] } },
{ "type": "Feature", "properties": { "feature_type": "building", "subtype": "no-damage", "uid": "c960706b-02f5-4b5c-ad8e-a1b221d02f65" }, "geometry": { "type": "Polygon", "coordinates": [ [ [ 981.578952135677241, 402.884985141894902 ], [ 982.195156318160571, 439.24103179173909 ], [ 965.865745532701339, 440.473440155207186 ], [ 964.941439263599023, 443.86256314599882 ], [ 956.314580733819525, 444.478767329232028 ], [ 953.233559832397191, 440.781542247823324 ], [ 928.585392612273267, 441.705848518675282 ], [ 927.352984248805797, 446.327379868936873 ], [ 915.953206911219468, 445.094971508467324 ], [ 913.488390186283482, 442.93825687814541 ], [ 900.856204482980843, 442.938256877145818 ], [ 898.699489854408966, 417.673885473526695 ], [ 898.699489852659894, 399.803964237722482 ], [ 908.250654651791592, 399.187760058487186 ], [ 909.791165102377818, 400.420168416957779 ], [ 933.823128144016437, 400.420168418956791 ], [ 967.4062559842871, 400.112066330338678 ], [ 980.038441685590783, 400.112066329339086 ], [ 981.578952135677241, 402.884985141894902 ] ] ] } },
{ "type": "Feature", "properties": { "feature_type": "building", "subtype": "no-damage", "uid": "7372876a-4b85-4b96-9081-8c21ff04fc98" }, "geometry": { "type": "Polygon", "coordinates": [ [ [ 1023.032530234603996, 374.56608745413331 ], [ 1014.443853255164981, 374.566087278220607 ], [ 1014.81145292812505, 365.376438207960973 ], [ 1014.959655300240001, 358.410926660837276 ], [ 1014.218643434668024, 358.410926660837276 ], [ 1014.070441060555027, 352.631034097629822 ], [ 1013.477631566848004, 351.89002223180762 ], [ 1013.181226821617997, 345.220915430413072 ], [ 1023.03251991223101, 345.35586485256448 ], [ 1023.032530234603996, 374.56608745413331 ] ] ] } },
{ "type": "Feature", "properties": { "feature_type": "building", "subtype": "no-damage", "uid": "61505527-81bf-4e4d-9aaf-13a41b04dc55" }, "geometry": { "type": "Polygon", "coordinates": [ [ [ 1023.032500969639955, 301.99436421814471 ], [ 1013.595551427642022, 301.994364025240486 ], [ 1012.854539561320053, 290.13817415409568 ], [ 1014.929372789168951, 287.766936179267077 ], [ 1023.032493951375955, 288.031725484495723 ], [ 1023.032500969639955, 301.99436421814471 ] ] ] } },
{ "type": "Feature", "properties": { "feature_type": "building", "subtype": "no-damage", "uid": "fd635881-c073-4a15-b302-83cdb233f119" }, "geometry": { "type": "Polygon", "coordinates": [ [ [ 994.709551523164578, 334.887722609322509 ], [ 995.655291305666083, 345.480008181140306 ], [ 987.143633255406598, 346.804043879991411 ], [ 986.197893472155442, 335.076870564873275 ], [ 993.763811740413303, 333.941982826570609 ], [ 994.709551523164578, 334.887722609322509 ] ] ] } }
]
}
