{
"type": "FeatureCollection",
"name": "hurricane-florence_00000524_post_disaster",
"features": [
{ "type": "Feature", "properties": { "feature_type": "building", "subtype": "no-damage", "uid": "0418b309-23b8-4e54-94ee-3cec0af3b690" }, "geometry": { "type": "Polygon", "coordinates": [ [ [ 885.440970348692076, 1022.983652743272046 ], [ 885.730748091913711, 1018.781875436976975 ], [ 925.076663701919188, 1010.504838309352976 ], [ 926.2967476432799, 1022.982970540938027 ], [ 885.440970348692076, 1022.983652743272046 ] ] ] } },
{ "type": "Feature", "properties": { "feature_type": "building", "subtype": "no-damage", "uid": "277e98ba-ac62-46e3-a5a2-f2728b7b5ac1" }, "geometry": { "type": "Polygon", "coordinates": [ [ [ 902.554114843968932, 808.662198728151111 ], [ 904.391302646223949, 808.356000759493554 ], [ 903.932005695150224, 800.088655638382193 ], [ 915.108231506526295, 797.48597291652402 ], [ 917.098518294512928, 806.671911938507492 ], [ 921.079091873036418, 805.90641701635343 ], [ 925.212764432700965, 827.034076764977385 ], [ 906.534688417646862, 831.167749327063234 ], [ 901.941718907291033, 818.91983063278542 ], [ 902.554114843968932, 808.662198728151111 ] ] ] } },
{ "type": "Feature", "properties": { "feature_type": "building", "subtype": "no-damage", "uid": "caf11e99-b6eb-416c-8c97-a5477fbc131c" }, "geometry": { "type": "Polygon", "coordinates": [ [ [ 894.393176946727294, 787.183574933405566 ], [ 893.91334870941273, 781.665550180636274 ], [ 917.065061247984318, 776.867267789895436 ], [ 920.183944801176381, 793.541299098000309 ], [ 896.91227520235168, 798.459538549759372 ], [ 894.393176946727294, 787.183574933405566 ] ] ] } },
{ "type": "Feature", "properties": { "feature_type": "building", "subtype": "no-damage", "uid": "866ead7a-ffbc-4bc8-95d1-ba70ab119455" }, "geometry": { "type": "Polygon", "coordinates": [ [ [ 858.040692785345072, 617.463868406459142 ], [ 878.55595660112408, 612.411601945541406 ], [ 877.637362697191179, 602.919464957960599 ], [ 890.344578344715046, 600.469881218900923 ], [ 891.569370214245282, 609.502721256045675 ], [ 917.28999947527268, 603.838058855772374 ], [ 921.423672035319782, 630.630380998548844 ], [ 877.024966764593842, 638.897726119660206 ], [ 876.565669813265004, 633.386162710346525 ], [ 860.490276524150545, 637.366736286573428 ], [ 858.040692785345072, 617.463868406459142 ] ] ] } },
{ "type": "Feature", "properties": { "feature_type": "building", "subtype": "no-damage", "uid": "cb3da53b-8d06-41c6-9de7-61b6a6548835" }, "geometry": { "type": "Polygon", "coordinates": [ [ [ 928.1412132653046, 572.211781237981882 ], [ 952.132625220419982, 566.333885306238471 ], [ 958.370392327696663, 595.72336495067384 ], [ 934.259023313858393, 601.12143264242502 ], [ 928.1412132653046, 572.211781237981882 ] ] ] } },
{ "type": "Feature", "properties": { "feature_type": "building", "subtype": "no-damage", "uid": "5fb75b1a-199f-4f3d-8302-938d489afd36" }, "geometry": { "type": "Polygon", "coordinates": [ [ [ 919.06023054217053, 539.625753712217715 ], [ 940.94474047672054, 533.373036589957223 ], [ 945.243483499551303, 534.350023639099049 ], [ 954.42716177599857, 532.200652126090517 ], [ 959.89828926065627, 552.131187957758584 ], [ 948.956034291468541, 554.86675169964019 ], [ 949.933021342395818, 558.579302493723844 ], [ 924.140563206049251, 564.441224796735582 ], [ 919.646422774614166, 556.429930981735424 ], [ 919.06023054217053, 539.625753712217715 ] ] ] } },
{ "type": "Feature", "properties": { "feature_type": "building", "subtype": "no-damage", "uid": "8c82d5d7-394b-4c70-afab-f358d8ace267" }, "geometry": { "type": "Polygon", "coordinates": [ [ [ 708.567371379225392, 609.702203916590861 ], [ 722.454819726082064, 607.495903503525028 ], [ 736.23372825740455, 608.873794354833308 ], [ 754.961154432577246, 608.350516762503389 ], [ 755.156551843731791, 638.24632051255594 ], [ 709.042763055568571, 638.83251274652946 ], [ 708.567371379225392, 609.702203916590861 ] ] ] } },
{ "type": "Feature", "properties": { "feature_type": "building", "subtype": "no-damage", "uid": "35581a26-71ba-43fd-92e0-3f6816668abd" }, "geometry": { "type": "Polygon", "coordinates": [ [ [ 624.021060269671239, 665.655971926106304 ], [ 636.404768533548577, 661.238465653625553 ], [ 654.640857006906913, 658.919616643182394 ], [ 658.927628549880183, 681.425167244134741 ], [ 627.236138928335777, 687.549126591783761 ], [ 624.021060269671239, 665.655971926106304 ] ] ] } },
{ "type": "Feature", "properties": { "feature_type": "building", "subtype": "no-damage", "uid": "30329e53-adaa-4a5f-b2c4-7c834d34b039" }, "geometry": { "type": "Polygon", "coordinates": [ [ [ 671.614760828799831, 525.966725021519778 ], [ 678.364636762124974, 525.932063873003813 ], [ 678.080205935454956, 508.531838810716977 ], [ 698.55241729124225, 508.274594115442824 ], [ 699.769318458595308, 551.714666443787678 ], [ 676.517026654506708, 552.691653494969728 ], [ 667.919540611268189, 538.036847742540999 ], [ 671.614760828799831, 525.966725021519778 ] ] ] } },
{ "type": "Feature", "properties": { "feature_type": "building", "subtype": "no-damage", "uid": "0d14640e-b0ac-48cf-b297-81f7c9e128ed" }, "geometry": { "type": "Polygon", "coordinates": [ [ [ 772.691355474921238, 474.530520663227378 ], [ 779.838548743662727, 456.961945977292487 ], [ 783.206726387676213, 455.430956141145316 ], [ 785.809409109025182, 448.235303911865799 ], [ 802.650297315448483, 454.818560204850314 ], [ 798.975921704944994, 464.310697192431007 ], [ 805.406079022018957, 467.066478898108016 ], [ 798.363525772730213, 485.132158977498023 ], [ 772.691355474921238, 474.530520663227378 ] ] ] } },
{ "type": "Feature", "properties": { "feature_type": "building", "subtype": "un-classified", "uid": "cd648349-873c-41ea-ac5c-bb4669905b16" }, "geometry": { "type": "Polygon", "coordinates": [ [ [ 533.572025569176731, 692.500180646531703 ], [ 560.976743650170647, 688.825805036922134 ], [ 566.335208082170766, 731.234223517988767 ], [ 545.054449346532692, 733.224510305592162 ], [ 529.7445509770223, 718.373908888435949 ], [ 535.103015407364637, 708.881771903915478 ], [ 533.572025569176731, 692.500180646531703 ] ] ] } },
{ "type": "Feature", "properties": { "feature_type": "building", "subtype": "no-damage", "uid": "ac6eef66-c71b-4ea5-a6fd-9fd5c6750b24" }, "geometry": { "type": "Polygon", "coordinates": [ [ [ 240.169796709204604, 713.117467127518353 ], [ 255.632794061641192, 715.567050866578029 ], [ 256.398288980607674, 710.055487455224124 ], [ 281.506522306997624, 714.036061026350353 ], [ 278.750740600937092, 733.326532972209748 ], [ 284.874699947313104, 734.398225857920806 ], [ 280.894126371084781, 759.812657146328661 ], [ 251.958418452413014, 755.066588656108593 ], [ 252.570814387815687, 749.708124228573524 ], [ 236.49542110061401, 748.024035407587462 ], [ 234.658233297466211, 735.163720778034644 ], [ 237.56711398594291, 728.27426651231201 ], [ 240.169796709204604, 713.117467127518353 ] ] ] } },
{ "type": "Feature", "properties": { "feature_type": "building", "subtype": "no-damage", "uid": "b43bdc64-d269-4729-8851-4ec8c4d80a94" }, "geometry": { "type": "Polygon", "coordinates": [ [ [ 285.598552529309927, 660.370767806012282 ], [ 321.83610682135901, 650.902658696777507 ], [ 329.082009015460017, 671.18746455638518 ], [ 293.921463311177092, 680.394074558504371 ], [ 285.598552529309927, 660.370767806012282 ] ] ] } },
{ "type": "Feature", "properties": { "feature_type": "building", "subtype": "major-damage", "uid": "bb092b70-134c-4ba4-aced-b78ed4ca6735" }, "geometry": { "type": "Polygon", "coordinates": [ [ [ 267.559476842627419, 573.368618871269064 ], [ 328.718866213949696, 555.392057137884535 ], [ 345.913838305145021, 613.815882759397823 ], [ 322.661546502969202, 620.850189526276381 ], [ 313.087073403702618, 588.609616860731876 ], [ 275.570770658650474, 599.551871829278184 ], [ 267.559476842627419, 573.368618871269064 ] ] ] } },
{ "type": "Feature", "properties": { "feature_type": "building", "subtype": "no-damage", "uid": "943319f8-a21e-41f4-98bf-f64210952d1c" }, "geometry": { "type": "Polygon", "coordinates": [ [ [ 265.019310513302116, 544.449802176479125 ], [ 322.270751677727219, 527.254830085672438 ], [ 327.741879161874692, 546.794571092991305 ], [ 270.881232815168289, 563.012556136696389 ], [ 265.019310513302116, 544.449802176479125 ] ] ] } },
{ "type": "Feature", "properties": { "feature_type": "building", "subtype": "no-damage", "uid": "88600d9b-96a0-443c-a77e-0f056b5e3c74" }, "geometry": { "type": "Polygon", "coordinates": [ [ [ 263.260733820306712, 538.392482463843066 ], [ 258.375798570642985, 520.806715555827964 ], [ 316.439753015370513, 503.46086276168819 ], [ 321.910880499390601, 522.205421059392393 ], [ 263.260733820306712, 538.392482463843066 ] ] ] } },
{ "type": "Feature", "properties": { "feature_type": "building", "subtype": "no-damage", "uid": "b8e92efa-a650-4395-bed1-2c8b0ffdff85" }, "geometry": { "type": "Polygon", "coordinates": [ [ [ 252.69935941623001, 498.548253267204416 ], [ 306.74330066269431, 481.248068106908079 ], [ 312.867260009325378, 501.15093598600231 ], [ 258.976417745787217, 518.298022162479811 ], [ 252.69935941623001, 498.548253267204416 ] ] ] } },
{ "type": "Feature", "properties": { "feature_type": "building", "subtype": "major-damage", "uid": "291dd9ff-857c-4fef-b7d6-4e4a136f0145" }, "geometry": { "type": "Polygon", "coordinates": [ [ [ 226.777624194435987, 522.620502600004443 ], [ 252.765479745125106, 522.229707777695353 ], [ 254.914851252396204, 578.504161887220221 ], [ 228.536200886283808, 579.285751528777951 ], [ 226.777624194435987, 522.620502600004443 ] ] ] } },
{ "type": "Feature", "properties": { "feature_type": "building", "subtype": "no-damage", "uid": "eeb04703-9397-4886-9dcc-0e8909e90195" }, "geometry": { "type": "Polygon", "coordinates": [ [ [ 207.8496076891104, 524.651073533098042 ], [ 222.283483761980904, 524.379079290703885 ], [ 223.065073403411304, 580.458135993664769 ], [ 208.2148702340846, 580.653533402268977 ], [ 207.8496076891104, 524.651073533098042 ] ] ] } },
{ "type": "Feature", "properties": { "feature_type": "building", "subtype": "no-damage", "uid": "43deb626-81e5-4718-b605-f40913d47daa" }, "geometry": { "type": "Polygon", "coordinates": [ [ [ 191.972204954165107, 525.242216595644436 ], [ 206.09218660871079, 524.757212938781322 ], [ 207.270478269390907, 579.915991343936184 ], [ 193.815205282478701, 580.222189314633965 ], [ 191.972204954165107, 525.242216595644436 ] ] ] } },
{ "type": "Feature", "properties": { "feature_type": "building", "subtype": "no-damage", "uid": "41199db8-fa85-4bdc-901b-64a1d2bbfe2b" }, "geometry": { "type": "Polygon", "coordinates": [ [ [ 159.560240818432391, 526.385987961710725 ], [ 175.235446642696303, 526.187358447595443 ], [ 176.154040547904287, 591.560624479030366 ], [ 160.384845225024804, 591.560624480050478 ], [ 159.560240818432391, 526.385987961710725 ] ] ] } },
{ "type": "Feature", "properties": { "feature_type": "building", "subtype": "no-damage", "uid": "55d5e20a-c569-4405-a4a9-35e4f9456031" }, "geometry": { "type": "Polygon", "coordinates": [ [ [ 142.958980173769106, 526.188160477688598 ], [ 155.972393788803004, 526.188160476668486 ], [ 156.386160209197698, 591.776563411067286 ], [ 143.794235108084308, 592.093411904259824 ], [ 142.958980173769106, 526.188160477688598 ] ] ] } },
{ "type": "Feature", "properties": { "feature_type": "building", "subtype": "major-damage", "uid": "d00e67f7-ad0b-4a5f-ae4f-a38fa39cad04" }, "geometry": { "type": "Polygon", "coordinates": [ [ [ 220.188657477488192, 461.717341193386289 ], [ 235.345456863179891, 459.573955421964172 ], [ 244.990692837005611, 516.373678363630233 ], [ 227.078111744233411, 518.517064143213247 ], [ 220.188657477488192, 461.717341193386289 ] ] ] } },
{ "type": "Feature", "properties": { "feature_type": "building", "subtype": "major-damage", "uid": "ebcc434a-e988-4445-b11a-11fedd1a1c71" }, "geometry": { "type": "Polygon", "coordinates": [ [ [ 207.020042875497808, 513.870060112096212 ], [ 193.21900686544879, 514.090772570181684 ], [ 192.171543465427106, 458.196064571676118 ], [ 205.637776461998413, 458.196064570655892 ], [ 207.020042875497808, 513.870060112096212 ] ] ] } },
{ "type": "Feature", "properties": { "feature_type": "building", "subtype": "major-damage", "uid": "2e6206ce-3fd0-4060-b5f3-dafe075049ba" }, "geometry": { "type": "Polygon", "coordinates": [ [ [ 219.200303562032104, 513.360157658889875 ], [ 209.023874798499293, 513.192133648387198 ], [ 208.581230009362599, 459.511917502819074 ], [ 218.351469673830508, 459.887875483000016 ], [ 219.200303562032104, 513.360157658889875 ] ] ] } },
{ "type": "Feature", "properties": { "feature_type": "building", "subtype": "no-damage", "uid": "97f3babd-3f2d-4e33-bfa9-9e62834438c1" }, "geometry": { "type": "Polygon", "coordinates": [ [ [ 166.744049925504612, 449.078791487173419 ], [ 181.74775032712239, 448.619494532656915 ], [ 183.584938134733193, 514.911354465984118 ], [ 167.815742813001293, 515.676849387118068 ], [ 166.744049925504612, 449.078791487173419 ] ] ] } },
{ "type": "Feature", "properties": { "feature_type": "building", "subtype": "no-damage", "uid": "4d00b14e-d190-4a0c-bc92-9a71fccbb55a" }, "geometry": { "type": "Polygon", "coordinates": [ [ [ 161.339832936949392, 448.313296566039526 ], [ 162.717723789533409, 515.217552435661787 ], [ 148.632617289935695, 515.676849390178404 ], [ 148.173320337331688, 448.466395551898472 ], [ 161.339832936949392, 448.313296566039526 ] ] ] } },
{ "type": "Feature", "properties": { "feature_type": "building", "subtype": "no-damage", "uid": "f78cb193-471e-4af0-9b53-2e4983c10518" }, "geometry": { "type": "Polygon", "coordinates": [ [ [ 133.350318691020505, 449.492374959426513 ], [ 141.90199561276151, 449.409269472944175 ], [ 142.001421387539011, 515.787944540408603 ], [ 131.364008343654092, 515.635981517913592 ], [ 133.350318691020505, 449.492374959426513 ] ] ] } },
{ "type": "Feature", "properties": { "feature_type": "building", "subtype": "no-damage", "uid": "91561b39-5aed-4bd6-ba93-c26e6b81b9e7" }, "geometry": { "type": "Polygon", "coordinates": [ [ [ 307.598347588442721, 382.574512348014991 ], [ 314.689359798654607, 378.064881806768426 ], [ 325.571012692852321, 376.772259233842988 ], [ 342.695823290771273, 438.141721327772984 ], [ 325.607846605356485, 442.769570846056581 ], [ 307.598347588442721, 382.574512348014991 ] ] ] } },
{ "type": "Feature", "properties": { "feature_type": "building", "subtype": "destroyed", "uid": "26987cf9-529e-4dc9-87e9-5d1647ee3eb1" }, "geometry": { "type": "Polygon", "coordinates": [ [ [ 323.203337068677286, 364.295411275222875 ], [ 340.288566163649818, 357.372947766992183 ], [ 350.96683434802361, 391.543405949019188 ], [ 332.703313591733377, 397.213934571196717 ], [ 323.203337068677286, 364.295411275222875 ] ] ] } },
{ "type": "Feature", "properties": { "feature_type": "building", "subtype": "destroyed", "uid": "7581674f-ebf9-4b25-be12-e8df7beba904" }, "geometry": { "type": "Polygon", "coordinates": [ [ [ 340.550217299098279, 483.82628959491592 ], [ 381.815445863335128, 470.031227715542684 ], [ 385.414157659197372, 481.067277213940713 ], [ 344.868671451251203, 495.102253215350117 ], [ 341.150002599598906, 490.064056701552772 ], [ 340.550217299098279, 483.82628959491592 ] ] ] } },
{ "type": "Feature", "properties": { "feature_type": "building", "subtype": "un-classified", "uid": "0423111b-ac46-432d-b3c3-c83bb2bd2d62" }, "geometry": { "type": "Polygon", "coordinates": [ [ [ 399.625780144562725, 405.370758095163126 ], [ 412.639193761636818, 367.86150709119562 ], [ 434.316789067722993, 376.966858014465174 ], [ 429.21013944412249, 383.297510189639127 ], [ 435.838517713138174, 388.845723705264277 ], [ 429.173883996341885, 399.552996713111384 ], [ 421.978231763106919, 397.409610942709378 ], [ 416.466668351113412, 411.341618457973311 ], [ 399.625780144562725, 405.370758095163126 ] ] ] } },
{ "type": "Feature", "properties": { "feature_type": "building", "subtype": "no-damage", "uid": "aa1db28f-ec99-4ccb-a6d6-9dc3dbcc0a0c" }, "geometry": { "type": "Polygon", "coordinates": [ [ [ 339.252050464479908, 0.008276171310243 ], [ 364.668458768874075, 14.51352532408386 ], [ 348.954083936667473, 38.145066099834168 ], [ 318.484990754916907, 20.031550074812991 ], [ 320.764174887484728, 8.635629395400819 ], [ 327.841641414492983, 3.117604645691807 ], [ 330.354148051564891, 0.008165269629451 ], [ 339.252050464479908, 0.008276171310243 ] ] ] } },
{ "type": "Feature", "properties": { "feature_type": "building", "subtype": "no-damage", "uid": "639b3ce5-3ae1-42ce-8d63-f92f9cf22f77" }, "geometry": { "type": "Polygon", "coordinates": [ [ [ 145.507863497466388, 44.658874886876973 ], [ 154.246491241339413, 31.888127844193569 ], [ 149.091961997697695, 28.429115627355749 ], [ 169.003833538177787, 0.005471185290068 ], [ 184.063161853570904, 0.005777413033063 ], [ 198.512669919206587, 8.426845561029335 ], [ 185.030248623881505, 29.334368443879491 ], [ 192.064555390124895, 33.633111464795952 ], [ 180.926903009910092, 51.609673193079857 ], [ 171.547827322435609, 45.356956072859703 ], [ 161.688923397646704, 59.322943111695537 ], [ 145.401079943617503, 48.214584183155672 ], [ 145.507863497466388, 44.658874886876973 ] ] ] } },
{ "type": "Feature", "properties": { "feature_type": "building", "subtype": "no-damage", "uid": "87efb5ea-281e-4c82-b6ce-f77ed7918411" }, "geometry": { "type": "Polygon", "coordinates": [ [ [ 158.105666179046608, 864.146706513619506 ], [ 172.95204739522049, 871.788226257130759 ], [ 175.135338750000102, 874.626505018190187 ], [ 147.625407801373512, 927.316700014942512 ], [ 144.8821140031379, 928.447981032538905 ], [ 126.884599798582499, 919.383977797532566 ], [ 135.836094356570896, 903.009292634905933 ], [ 127.102928934009498, 898.206051656534669 ], [ 131.032853373862508, 892.966152403229216 ], [ 129.067891154382295, 892.092835862541847 ], [ 134.307790406669511, 884.014657847156741 ], [ 141.512651878691912, 876.591467242642807 ], [ 148.49918421707261, 880.521391678286363 ], [ 158.105666179046608, 864.146706513619506 ] ] ] } },
{ "type": "Feature", "properties": { "feature_type": "building", "subtype": "no-damage", "uid": "408a2bae-afa1-4e03-bba8-1f8635990d2f" }, "geometry": { "type": "Polygon", "coordinates": [ [ [ 116.732200459392601, 1002.884745011524046 ], [ 127.438191854760007, 981.30805376800879 ], [ 146.768716591468291, 991.914182381304272 ], [ 136.675787745843792, 1013.126439614016022 ], [ 131.885923209801803, 1013.126439614016022 ], [ 116.700263460671394, 1003.948293865552046 ], [ 116.732200459392601, 1002.884745011524046 ] ] ] } },
{ "type": "Feature", "properties": { "feature_type": "building", "subtype": "no-damage", "uid": "4b708896-d743-47d8-9fbf-ee7382d26588" }, "geometry": { "type": "Polygon", "coordinates": [ [ [ 117.768064631972905, 968.389012060996151 ], [ 124.872192996366394, 971.044058334438319 ], [ 126.753925493142305, 974.294323555596065 ], [ 119.740195278304199, 987.295384437166604 ], [ 117.245280738243906, 985.798435719634199 ], [ 117.768064631972905, 968.389012060996151 ] ] ] } },
{ "type": "Feature", "properties": { "feature_type": "building", "subtype": "major-damage", "uid": "3b884c65-1710-43e5-885a-6245730586b1" }, "geometry": { "type": "Polygon", "coordinates": [ [ [ 186.682509509820591, 603.050761038987957 ], [ 237.213761035048094, 586.028296997212237 ], [ 241.904991282539214, 598.895671386770346 ], [ 190.83759915808659, 615.918135429566291 ], [ 186.682509509820591, 603.050761038987957 ] ] ] } },
{ "type": "Feature", "properties": { "feature_type": "building", "subtype": "no-damage", "uid": "81fe3ecb-9503-4fb2-8635-eb4f5df7f778" }, "geometry": { "type": "Polygon", "coordinates": [ [ [ 192.879863858928587, 616.972225237531347 ], [ 243.411115381605811, 600.351866641922697 ], [ 248.102345628841903, 613.889416784273635 ], [ 197.303023808847513, 630.911880826049355 ], [ 193.818109906743587, 622.735736680537684 ], [ 192.879863858928587, 616.972225237531347 ] ] ] } },
{ "type": "Feature", "properties": { "feature_type": "building", "subtype": "no-damage", "uid": "73452d8a-f568-4283-8909-973b2c8a5165" }, "geometry": { "type": "Polygon", "coordinates": [ [ [ 187.489094308693097, 638.980896116697636 ], [ 248.559867149476787, 619.137171605945809 ], [ 255.744663954687411, 637.270230203791584 ], [ 193.976635391393103, 657.988771710678179 ], [ 189.370826809804498, 649.587024729993004 ], [ 187.489094308693097, 638.980896116697636 ] ] ] } },
{ "type": "Feature", "properties": { "feature_type": "building", "subtype": "no-damage", "uid": "5dc91c57-5773-481b-afd6-1702f8f2ac96" }, "geometry": { "type": "Polygon", "coordinates": [ [ [ 227.699870282480106, 655.616906593139561 ], [ 256.115322066529416, 645.966375792299914 ], [ 262.414974113990979, 658.297609585948635 ], [ 233.463381727273799, 668.886386432945187 ], [ 227.699870282480106, 655.616906593139561 ] ] ] } },
{ "type": "Feature", "properties": { "feature_type": "building", "subtype": "no-damage", "uid": "9499bd52-8eb4-4f23-8d6c-535171a56727" }, "geometry": { "type": "Polygon", "coordinates": [ [ [ 256.997051453239919, 621.792521578245442 ], [ 244.338123749859591, 588.092403237120948 ], [ 257.510251225887828, 583.30253870159072 ], [ 269.313845975365211, 617.857989991517229 ], [ 256.997051453239919, 621.792521578245442 ] ] ] } },
{ "type": "Feature", "properties": { "feature_type": "building", "subtype": "no-damage", "uid": "fc98660a-5802-4707-9272-3443d47b5695" }, "geometry": { "type": "Polygon", "coordinates": [ [ [ 126.952389890360806, 662.543264653508118 ], [ 138.020800625381497, 656.492145938668841 ], [ 148.140482360895902, 671.072935476396538 ], [ 126.307568808381603, 685.482658418651113 ], [ 126.328312959026206, 683.325255269100694 ], [ 126.952389890360806, 662.543264653508118 ] ] ] } }
]
}
