{
"type": "FeatureCollection",
"name": "hurricane-matthew_00000124_post_disaster",
"features": [
{ "type": "Feature", "properties": { "feature_type": "building", "subtype": "un-classified", "uid": "803cc926-3c40-4931-9c1b-687798aabcce" }, "geometry": { "type": "Polygon", "coordinates": [ [ [ 949.813487270844917, 1022.977133307377017 ], [ 951.762703979576827, 1010.760906124956023 ], [ 964.759142092855541, 1012.356511249941036 ], [ 962.985862880536843, 1022.976983394706963 ], [ 949.813487270844917, 1022.977133307377017 ] ] ] } },
{ "type": "Feature", "properties": { "feature_type": "building", "subtype": "major-damage", "uid": "cfe95b3a-4aee-4759-89c5-9addfad0ef75" }, "geometry": { "type": "Polygon", "coordinates": [ [ [ 772.733924858049932, 832.080075339098926 ], [ 755.343555354567116, 827.585934906823354 ], [ 759.837695790202702, 809.804770586902009 ], [ 776.837270470045041, 814.68970583897908 ], [ 772.733924858049932, 832.080075339098926 ] ] ] } },
{ "type": "Feature", "properties": { "feature_type": "building", "subtype": "destroyed", "uid": "63c01e6b-7a48-4ccf-82af-e2c6f36d1a29" }, "geometry": { "type": "Polygon", "coordinates": [ [ [ 930.719026405799013, 796.750868498314389 ], [ 919.848998566012824, 789.861414233341748 ], [ 929.800432502442845, 777.154198586606299 ], [ 939.139470506980842, 785.268444723040034 ], [ 930.719026405799013, 796.750868498314389 ] ] ] } },
{ "type": "Feature", "properties": { "feature_type": "building", "subtype": "destroyed", "uid": "2481b3a9-1947-4147-9f1d-ccbe9dd55598" }, "geometry": { "type": "Polygon", "coordinates": [ [ [ 906.529386983783752, 789.861414234301378 ], [ 905.151496132228431, 790.780008135018193 ], [ 894.587666257668502, 779.144485376770945 ], [ 909.744465642291289, 765.977972777757714 ], [ 920.155196533638332, 777.154198587086057 ], [ 906.529386983783752, 789.861414234301378 ] ] ] } },
{ "type": "Feature", "properties": { "feature_type": "building", "subtype": "major-damage", "uid": "9b8e783e-b71c-42ba-91fa-92fceb29243e" }, "geometry": { "type": "Polygon", "coordinates": [ [ [ 939.101612737567621, 692.32101156811575 ], [ 935.584459355514696, 693.884190847801506 ], [ 918.975679496433486, 675.712231709038406 ], [ 936.366048997757048, 660.862028539787389 ], [ 953.170226270097942, 679.229385090610663 ], [ 939.101612737567621, 692.32101156811575 ] ] ] } },
{ "type": "Feature", "properties": { "feature_type": "building", "subtype": "major-damage", "uid": "26b2b40d-15a7-44f1-ba90-e23c26454278" }, "geometry": { "type": "Polygon", "coordinates": [ [ [ 947.321391473051563, 672.843122405799591 ], [ 940.346676637014752, 665.107938871939155 ], [ 950.011678261489124, 658.132052288964701 ], [ 956.594934559797593, 666.24629842539855 ], [ 947.321391473051563, 672.843122405799591 ] ] ] } },
{ "type": "Feature", "properties": { "feature_type": "building", "subtype": "destroyed", "uid": "cf55b636-6e66-4ab0-8216-428cbbb5215e" }, "geometry": { "type": "Polygon", "coordinates": [ [ [ 1002.329097290348955, 646.512566203182132 ], [ 990.083593890581028, 638.156810943300684 ], [ 995.70211897824629, 629.368861449413316 ], [ 1007.083233900645041, 638.300875692288059 ], [ 1002.329097290348955, 646.512566203182132 ] ] ] } },
{ "type": "Feature", "properties": { "feature_type": "building", "subtype": "destroyed", "uid": "a7e9fffa-816a-4de0-b497-0b731db07017" }, "geometry": { "type": "Polygon", "coordinates": [ [ [ 966.968379123707678, 636.055345075911646 ], [ 965.959925902149507, 619.199769814359229 ], [ 975.75632861807685, 618.911640322622588 ], [ 977.34104082238855, 636.487539315195932 ], [ 966.968379123227805, 636.919733552560956 ], [ 966.968379123707678, 636.055345075911646 ] ] ] } },
{ "type": "Feature", "properties": { "feature_type": "building", "subtype": "minor-damage", "uid": "6d6dee3a-3d82-4280-9972-179c86100ccf" }, "geometry": { "type": "Polygon", "coordinates": [ [ [ 960.919211108559125, 604.192109095187334 ], [ 945.658235257698493, 584.15058659216777 ], [ 959.080539318139586, 572.383087142315162 ], [ 973.422179274630139, 588.195664527394911 ], [ 960.919211108559125, 604.192109095187334 ] ] ] } },
{ "type": "Feature", "properties": { "feature_type": "building", "subtype": "minor-damage", "uid": "37373a3a-5dfc-46dc-baad-382ce3adc3ef" }, "geometry": { "type": "Polygon", "coordinates": [ [ [ 983.434781062169009, 578.080965289653136 ], [ 978.536579699526783, 571.021792741866648 ], [ 986.604205465993914, 565.979526639595178 ], [ 991.358342080368629, 573.614958167016084 ], [ 983.434781062169009, 578.080965289653136 ] ] ] } },
{ "type": "Feature", "properties": { "feature_type": "building", "subtype": "destroyed", "uid": "c586f0c9-923b-45f2-95dd-3dbd296c1894" }, "geometry": { "type": "Polygon", "coordinates": [ [ [ 1005.908881413070048, 565.115138162945868 ], [ 994.707303003476454, 566.156885490113382 ], [ 993.807442758450748, 555.318735445821062 ], [ 1006.052946155578979, 554.022152732766358 ], [ 1005.908881413070048, 565.115138162945868 ] ] ] } },
{ "type": "Feature", "properties": { "feature_type": "building", "subtype": "minor-damage", "uid": "d74f39dc-bd90-4057-88bc-28a89132e875" }, "geometry": { "type": "Polygon", "coordinates": [ [ [ 992.366795298807688, 544.946073745702847 ], [ 991.502406825757134, 545.378267983067758 ], [ 982.714457327788978, 523.62449136103362 ], [ 1012.968053955339997, 511.234923219718894 ], [ 1020.459420738333961, 533.709023571334569 ], [ 992.366795298807688, 544.946073745702847 ] ] ] } },
{ "type": "Feature", "properties": { "feature_type": "building", "subtype": "minor-damage", "uid": "d3aa91aa-1d8b-429e-a538-e87a70a0d5c0" }, "geometry": { "type": "Polygon", "coordinates": [ [ [ 825.708205453913934, 558.096727863205956 ], [ 849.174834491981301, 548.240743666116259 ], [ 851.052164816082382, 559.739391894694677 ], [ 867.009472563263785, 554.576733507136737 ], [ 863.020145628447835, 544.486083020314254 ], [ 880.620117406878308, 536.507429145405695 ], [ 892.118765636179205, 567.014046898005404 ], [ 838.380185135238094, 586.726015291705039 ], [ 825.708205453913934, 558.096727863205956 ] ] ] } },
{ "type": "Feature", "properties": { "feature_type": "building", "subtype": "minor-damage", "uid": "3e2eaf5a-267b-4732-b1ed-0b65a4f27cb0" }, "geometry": { "type": "Polygon", "coordinates": [ [ [ 889.6976971339177, 560.159737996467584 ], [ 880.620117406878308, 536.507429145405695 ], [ 939.871736807688535, 514.182963667522927 ], [ 947.381058100973746, 528.028274801107273 ], [ 937.525073907720639, 533.660265771009904 ], [ 940.106403097421321, 542.108252225863907 ], [ 889.6976971339177, 560.159737996467584 ] ] ] } },
{ "type": "Feature", "properties": { "feature_type": "building", "subtype": "destroyed", "uid": "53014332-72e3-4480-b00d-b1b59ee99f0a" }, "geometry": { "type": "Polygon", "coordinates": [ [ [ 966.369349748086961, 486.820099171874688 ], [ 972.351910143116243, 484.562529212428387 ], [ 976.97992856281337, 493.818566051340724 ], [ 970.884489669859704, 496.527650003444023 ], [ 966.369349748086961, 486.820099171874688 ] ] ] } },
{ "type": "Feature", "properties": { "feature_type": "building", "subtype": "minor-damage", "uid": "898f0345-dea7-43d7-8f19-ed54023b4f7d" }, "geometry": { "type": "Polygon", "coordinates": [ [ [ 996.353301375811839, 460.172149182872374 ], [ 986.792208074124005, 445.095040511848993 ], [ 1003.340254174222991, 435.717814386877876 ], [ 1012.16587876185497, 450.978790237255225 ], [ 996.353301375811839, 460.172149182872374 ] ] ] } },
{ "type": "Feature", "properties": { "feature_type": "building", "subtype": "minor-damage", "uid": "c0ea722c-7059-4ed3-b43d-8de56d64c965" }, "geometry": { "type": "Polygon", "coordinates": [ [ [ 941.856600048632913, 443.343884207696476 ], [ 939.509937145545905, 444.517215658280008 ], [ 921.909965363516449, 424.570580974367715 ], [ 954.293913439744301, 399.461287901457979 ], [ 971.659218929641611, 419.173256295157614 ], [ 941.856600048632913, 443.343884207696476 ] ] ] } },
{ "type": "Feature", "properties": { "feature_type": "building", "subtype": "destroyed", "uid": "214042f8-d2a9-4a75-bf41-47f70421185e" }, "geometry": { "type": "Polygon", "coordinates": [ [ [ 971.659218929641611, 419.173256295157614 ], [ 954.293913439744301, 399.461287901457979 ], [ 958.277522424269819, 396.34858599609538 ], [ 975.709356671698629, 412.339772783877606 ], [ 971.659218929641611, 419.173256295157614 ] ] ] } },
{ "type": "Feature", "properties": { "feature_type": "building", "subtype": "destroyed", "uid": "64e18ac2-0714-4cd2-884e-3fc25f422f7b" }, "geometry": { "type": "Polygon", "coordinates": [ [ [ 960.535092385396069, 397.138735482525419 ], [ 952.923393845196756, 384.554596592586279 ], [ 959.655797388504766, 379.874698969391773 ], [ 968.817981856282245, 392.641542113144112 ], [ 960.535092385396069, 397.138735482525419 ] ] ] } },
{ "type": "Feature", "properties": { "feature_type": "building", "subtype": "no-damage", "uid": "b720d7b8-6dae-4d7f-a1ab-233d3dc26f02" }, "geometry": { "type": "Polygon", "coordinates": [ [ [ 975.967420022927513, 390.922480724803904 ], [ 965.837655087487406, 378.517851620514023 ], [ 979.727636251016406, 366.042123509130874 ], [ 991.035841218403107, 377.279173683979025 ], [ 975.967420022927513, 390.922480724803904 ] ] ] } },
{ "type": "Feature", "properties": { "feature_type": "building", "subtype": "destroyed", "uid": "09a3bb6e-91c0-411c-84a5-c8688193ed57" }, "geometry": { "type": "Polygon", "coordinates": [ [ [ 1016.368316448171981, 386.822283601830122 ], [ 998.582709173190437, 374.377093969615885 ], [ 1001.673712369121972, 370.110773083986714 ], [ 1007.868496444340053, 373.568326983866086 ], [ 1014.063280512599022, 365.068506979795927 ], [ 1019.969935091040952, 370.687032067459825 ], [ 1018.241158139181948, 373.13613274602119 ], [ 1022.707165262540002, 377.0258808832657 ], [ 1016.368316448171981, 386.822283601830122 ] ] ] } },
{ "type": "Feature", "properties": { "feature_type": "building", "subtype": "destroyed", "uid": "3cdaf0e1-95ab-4412-a19f-67c4037666c4" }, "geometry": { "type": "Polygon", "coordinates": [ [ [ 941.753789555334492, 356.597599103503512 ], [ 940.466719301297076, 356.22986474527579 ], [ 933.663633681999386, 341.152756075211983 ], [ 957.934101298165729, 329.936858160541703 ], [ 965.472655635838464, 346.117169904808918 ], [ 941.753789555334492, 356.597599103503512 ] ] ] } },
{ "type": "Feature", "properties": { "feature_type": "building", "subtype": "destroyed", "uid": "3b504645-44b1-40c6-b1c9-f303b82e6ae6" }, "geometry": { "type": "Polygon", "coordinates": [ [ [ 941.753789555334492, 356.597599103503512 ], [ 965.472655635838464, 346.117169904808918 ], [ 965.288788457444298, 355.678263208653902 ], [ 942.856992631457615, 366.526426764136772 ], [ 941.753789555334492, 356.597599103503512 ] ] ] } },
{ "type": "Feature", "properties": { "feature_type": "building", "subtype": "destroyed", "uid": "6df7ce72-b26f-4e49-9776-024f72fbc6ac" }, "geometry": { "type": "Polygon", "coordinates": [ [ [ 933.663633681999386, 341.152756075211983 ], [ 940.466719301297076, 356.22986474527579 ], [ 941.753789555334492, 356.597599103503512 ], [ 942.856992631457615, 366.526426764136772 ], [ 939.274024153258438, 366.467974160222582 ], [ 929.76575092714836, 348.603945676872399 ], [ 933.663633681999386, 341.152756075211983 ] ] ] } },
{ "type": "Feature", "properties": { "feature_type": "building", "subtype": "destroyed", "uid": "d64613f7-aaea-47ca-b8fa-ada2b5be96ed" }, "geometry": { "type": "Polygon", "coordinates": [ [ [ 922.812981606080143, 373.224699842945313 ], [ 918.216302131591078, 363.112005002958199 ], [ 932.741809270074668, 358.699192707584018 ], [ 933.109543623743889, 367.708684475286987 ], [ 922.812981606080143, 373.224699842945313 ] ] ] } },
{ "type": "Feature", "properties": { "feature_type": "building", "subtype": "destroyed", "uid": "10ffef62-4f0a-4d81-b05b-847585cd3b88" }, "geometry": { "type": "Polygon", "coordinates": [ [ [ 918.216302131591078, 363.112005002958199 ], [ 913.619622659981019, 349.689700941800425 ], [ 927.041926720422111, 345.276888648345619 ], [ 929.76575092714836, 348.603945676872399 ], [ 932.741809270074668, 358.699192707584018 ], [ 918.216302131591078, 363.112005002958199 ] ] ] } },
{ "type": "Feature", "properties": { "feature_type": "building", "subtype": "destroyed", "uid": "c30571c1-6506-42aa-a6ee-dc926e2cd0b8" }, "geometry": { "type": "Polygon", "coordinates": [ [ [ 900.200461802487212, 384.659720851119687 ], [ 893.86161298116167, 375.007382880582895 ], [ 905.818986886793482, 368.092275079864294 ], [ 911.725641468594631, 377.888677796989214 ], [ 900.200461802487212, 384.659720851119687 ] ] ] } },
{ "type": "Feature", "properties": { "feature_type": "building", "subtype": "major-damage", "uid": "2e10233e-1611-492e-bc68-9be65dbae4b3" }, "geometry": { "type": "Polygon", "coordinates": [ [ [ 824.097210119076863, 431.152602908609595 ], [ 842.635847057878436, 423.408615325833125 ], [ 850.145168352603264, 445.936579203524389 ], [ 830.667866250791349, 454.149899368165677 ], [ 821.985213503563386, 432.325934360152814 ], [ 824.097210119076863, 431.152602908609595 ] ] ] } },
{ "type": "Feature", "properties": { "feature_type": "building", "subtype": "destroyed", "uid": "d53dab90-83e3-46bb-8b4b-570286d9cdd8" }, "geometry": { "type": "Polygon", "coordinates": [ [ [ 830.036567188804156, 423.564955291151023 ], [ 824.63924251415142, 410.892975608630024 ], [ 842.239214290422638, 403.852986897931203 ], [ 846.697873807583392, 416.524966579012528 ], [ 830.036567188804156, 423.564955291151023 ] ] ] } },
{ "type": "Feature", "properties": { "feature_type": "building", "subtype": "minor-damage", "uid": "d130e00f-c5c3-4463-b9da-7d50564e406f" }, "geometry": { "type": "Polygon", "coordinates": [ [ [ 762.24531965288827, 635.769629185702343 ], [ 805.510030005749854, 600.248906416346586 ], [ 818.112221629005944, 615.720556724875451 ], [ 774.592031500614894, 650.611557310673561 ], [ 762.24531965288827, 635.769629185702343 ] ] ] } },
{ "type": "Feature", "properties": { "feature_type": "building", "subtype": "major-damage", "uid": "242893c0-8924-4fcd-ab9c-2dadbc6e68cc" }, "geometry": { "type": "Polygon", "coordinates": [ [ [ 742.610899810342289, 625.979014809390947 ], [ 716.25487694948697, 595.130488049921951 ], [ 770.763924230453881, 540.022440249854981 ], [ 789.931940857642871, 557.393455318023712 ], [ 747.402903968039254, 597.526490128289993 ], [ 760.880415657423214, 611.303502080346107 ], [ 742.610899810342289, 625.979014809390947 ] ] ] } },
{ "type": "Feature", "properties": { "feature_type": "building", "subtype": "minor-damage", "uid": "93a92943-3f0e-4782-bfe3-8b449d93ee3c" }, "geometry": { "type": "Polygon", "coordinates": [ [ [ 866.913972329354806, 646.441040841849485 ], [ 886.625940722339124, 636.819722935932191 ], [ 894.604594596769516, 660.521018267085992 ], [ 875.127292493758091, 670.611668754868333 ], [ 866.913972329354806, 646.441040841849485 ] ] ] } },
{ "type": "Feature", "properties": { "feature_type": "building", "subtype": "major-damage", "uid": "664ac498-a263-4bfa-96b1-9b8e295c829f" }, "geometry": { "type": "Polygon", "coordinates": [ [ [ 843.916675869793494, 661.225017138683711 ], [ 860.577982489532474, 651.6036992313268 ], [ 868.556636362523363, 666.622341817893926 ], [ 851.660663453291477, 676.947658594449194 ], [ 843.916675869793494, 661.225017138683711 ] ] ] } },
{ "type": "Feature", "properties": { "feature_type": "building", "subtype": "major-damage", "uid": "b7fbaf9d-1cf6-4e8d-ab86-1bbe61fb488a" }, "geometry": { "type": "Polygon", "coordinates": [ [ [ 742.780779232014083, 821.654185845258894 ], [ 724.577928522048751, 819.080045341503364 ], [ 728.806873636390605, 801.796530523032743 ], [ 746.641989992206959, 806.944811531983419 ], [ 742.780779232014083, 821.654185845258894 ] ] ] } },
{ "type": "Feature", "properties": { "feature_type": "building", "subtype": "major-damage", "uid": "1bdb5f9b-3000-4dc1-b121-773f2fe16cd5" }, "geometry": { "type": "Polygon", "coordinates": [ [ [ 617.068353739360987, 701.806340548763387 ], [ 608.790813727017166, 686.148531475703635 ], [ 622.213117789137755, 677.941980148870016 ], [ 631.590343917709788, 695.158023241967044 ], [ 617.068353739360987, 701.806340548763387 ] ] ] } },
{ "type": "Feature", "properties": { "feature_type": "building", "subtype": "destroyed", "uid": "db57ca26-6037-4d6c-b0d7-591f2c491e96" }, "geometry": { "type": "Polygon", "coordinates": [ [ [ 595.871684379145222, 704.599956711652112 ], [ 595.606354609200366, 694.163652406046594 ], [ 604.450680292740344, 693.190776580036868 ], [ 605.069783091677436, 703.36175111713726 ], [ 595.871684379145222, 704.599956711652112 ] ] ] } },
{ "type": "Feature", "properties": { "feature_type": "building", "subtype": "no-damage", "uid": "10c0418c-fe67-4911-9805-b38c34d7d9b7" }, "geometry": { "type": "Polygon", "coordinates": [ [ [ 704.150753715150699, 638.113443047463875 ], [ 692.0155199075474, 624.691138987265845 ], [ 704.70235525105295, 614.210709788091322 ], [ 716.102120345079697, 627.265279492940749 ], [ 704.150753715150699, 638.113443047463875 ] ] ] } },
{ "type": "Feature", "properties": { "feature_type": "building", "subtype": "destroyed", "uid": "337343df-5b09-42e1-9dda-a9f56384dd9e" }, "geometry": { "type": "Polygon", "coordinates": [ [ [ 679.328684563322213, 652.455083002991501 ], [ 670.503059977370299, 640.871450732012818 ], [ 686.867238898835581, 625.794342060029635 ], [ 696.979933739064791, 638.113443047463875 ], [ 679.328684563322213, 652.455083002991501 ] ] ] } },
{ "type": "Feature", "properties": { "feature_type": "building", "subtype": "major-damage", "uid": "0c2046e6-e6f9-4f4f-adef-951de294d427" }, "geometry": { "type": "Polygon", "coordinates": [ [ [ 669.632472866865669, 595.043615891380341 ], [ 667.403102514424745, 597.368695917985178 ], [ 652.574455738502138, 583.882231297264752 ], [ 670.438484222576221, 564.28942586397477 ], [ 685.997476774916322, 576.678994005769255 ], [ 669.632472866865669, 595.043615891380341 ] ] ] } },
{ "type": "Feature", "properties": { "feature_type": "building", "subtype": "destroyed", "uid": "63de1158-5806-4e05-8f87-0bd014850566" }, "geometry": { "type": "Polygon", "coordinates": [ [ [ 620.476752609903883, 589.753632079631529 ], [ 610.824414638405187, 580.245358853283619 ], [ 624.798694988113084, 566.991402236759086 ], [ 634.018838722006763, 577.940322919870596 ], [ 620.476752609903883, 589.753632079631529 ] ] ] } },
{ "type": "Feature", "properties": { "feature_type": "building", "subtype": "destroyed", "uid": "9061c365-9d98-4f7b-9776-f96e7c954a72" }, "geometry": { "type": "Polygon", "coordinates": [ [ [ 642.950852962004433, 569.728632408016892 ], [ 635.459486177810959, 562.525395116521395 ], [ 643.094917706673186, 553.881510364903306 ], [ 651.306608220208318, 561.372877148135444 ], [ 642.950852962004433, 569.728632408016892 ] ] ] } },
{ "type": "Feature", "properties": { "feature_type": "building", "subtype": "major-damage", "uid": "04a5870f-719d-4543-a787-213ce459e13f" }, "geometry": { "type": "Polygon", "coordinates": [ [ [ 541.446154303979029, 656.02902579724514 ], [ 537.251394117339714, 651.671964503482627 ], [ 531.447676547178617, 642.537071642801607 ], [ 527.683112124188824, 631.287467082083367 ], [ 535.192433416754284, 622.370148045844303 ], [ 575.08570278770685, 601.250181910388847 ], [ 572.504373593927426, 593.271528036919904 ], [ 588.311911124036669, 588.401315715531155 ], [ 593.624339731786904, 610.636833526573355 ], [ 593.624339730107408, 624.482144660637459 ], [ 541.446154303979029, 656.02902579724514 ] ] ] } },
{ "type": "Feature", "properties": { "feature_type": "building", "subtype": "major-damage", "uid": "c9f095d3-ffa4-45ff-86f3-e56b5a9c5854" }, "geometry": { "type": "Polygon", "coordinates": [ [ [ 588.577240896620651, 587.870656173722296 ], [ 600.075889121602813, 577.555980946250202 ], [ 619.124743494727454, 602.209808034686603 ], [ 606.88121154640919, 612.687503178063594 ], [ 588.577240896620651, 587.870656173722296 ] ] ] } },
{ "type": "Feature", "properties": { "feature_type": "building", "subtype": "destroyed", "uid": "97f8bbfb-70bb-4380-bd3a-890c4203b420" }, "geometry": { "type": "Polygon", "coordinates": [ [ [ 508.545771387439402, 634.635991128229762 ], [ 489.766661690401691, 633.060791383895662 ], [ 492.494379405281791, 602.682904429249334 ], [ 511.855380606931419, 605.584976857987044 ], [ 508.545771387439402, 634.635991128229762 ] ] ] } },
{ "type": "Feature", "properties": { "feature_type": "building", "subtype": "destroyed", "uid": "93659b0d-469a-40c0-b827-725a85da7b7f" }, "geometry": { "type": "Polygon", "coordinates": [ [ [ 482.801155985826085, 628.463215635691654 ], [ 475.496906689056573, 626.60224043349524 ], [ 477.758889881394282, 615.785518003600146 ], [ 485.180430911138387, 617.627173450024543 ], [ 482.801155985826085, 628.463215635691654 ] ] ] } },
{ "type": "Feature", "properties": { "feature_type": "building", "subtype": "destroyed", "uid": "d2a16e85-f857-43c0-92db-471227d09f1f" }, "geometry": { "type": "Polygon", "coordinates": [ [ [ 473.299104345474177, 622.731862580663346 ], [ 459.443347406102589, 619.274258149744014 ], [ 464.053419272689609, 599.393323225197264 ], [ 478.603958604191291, 602.562747634779726 ], [ 473.299104345474177, 622.731862580663346 ] ] ] } },
{ "type": "Feature", "properties": { "feature_type": "building", "subtype": "destroyed", "uid": "9069f519-b928-457d-a2dc-4dcf310c2fed" }, "geometry": { "type": "Polygon", "coordinates": [ [ [ 466.547005901228715, 691.588613938289086 ], [ 457.47092691080411, 684.529441390982356 ], [ 468.131718102901175, 670.267031553619745 ], [ 472.453660479910923, 673.724585454458861 ], [ 470.86894827679879, 676.749945116493564 ], [ 474.902761157033297, 678.910916304278089 ], [ 466.547005901228715, 691.588613938289086 ] ] ] } },
{ "type": "Feature", "properties": { "feature_type": "building", "subtype": "destroyed", "uid": "c5ca8fb9-79e0-4027-a461-023d9a7ad28e" }, "geometry": { "type": "Polygon", "coordinates": [ [ [ 524.054372812904035, 776.20736020940285 ], [ 523.189984334335008, 763.529662576831356 ], [ 536.155811459845609, 762.233079863296894 ], [ 536.732070443798762, 775.631101226889314 ], [ 524.054372812904035, 776.20736020940285 ] ] ] } },
{ "type": "Feature", "properties": { "feature_type": "building", "subtype": "minor-damage", "uid": "6db0a456-25e0-4f54-864b-8da1fcc9cbb7" }, "geometry": { "type": "Polygon", "coordinates": [ [ [ 370.807874053892476, 949.714472519284413 ], [ 365.291858685273326, 930.960020268862422 ], [ 380.185100180545078, 925.62787208055795 ], [ 386.620451440655188, 944.566191509853979 ], [ 370.807874053892476, 949.714472519284413 ] ] ] } },
{ "type": "Feature", "properties": { "feature_type": "building", "subtype": "destroyed", "uid": "7cc93d9c-335b-4c7d-84e9-e746fccc143b" }, "geometry": { "type": "Polygon", "coordinates": [ [ [ 354.811429486096415, 954.127284812739276 ], [ 351.317953087970295, 945.66939458261777 ], [ 362.166116644895226, 939.785644857211651 ], [ 366.762796117704795, 947.691933550711155 ], [ 354.811429486096415, 954.127284812739276 ] ] ] } },
{ "type": "Feature", "properties": { "feature_type": "building", "subtype": "major-damage", "uid": "b76e4170-f4a5-46de-88ea-042884c4c5a5" }, "geometry": { "type": "Polygon", "coordinates": [ [ [ 134.033056475811804, 982.859509528074682 ], [ 132.304279527791095, 983.867962748912873 ], [ 121.931617825271303, 973.639365794902915 ], [ 138.354998848742696, 957.36004951490429 ], [ 148.583595805874012, 968.020840706759145 ], [ 134.033056475811804, 982.859509528074682 ] ] ] } },
{ "type": "Feature", "properties": { "feature_type": "building", "subtype": "major-damage", "uid": "7e2519ed-2ba1-487a-ae95-32d54a22b277" }, "geometry": { "type": "Polygon", "coordinates": [ [ [ 20.132247084128441, 949.902723184891329 ], [ 18.845176832250381, 934.641747333554349 ], [ 40.173769585712932, 933.354677080477018 ], [ 41.093105480802713, 949.534988825703863 ], [ 20.68384861979073, 951.373660614923324 ], [ 20.132247084128441, 949.902723184891329 ] ] ] } },
{ "type": "Feature", "properties": { "feature_type": "building", "subtype": "destroyed", "uid": "ce5de592-14f0-4152-9455-298b97603e14" }, "geometry": { "type": "Polygon", "coordinates": [ [ [ 19.14900704097353, 912.393880537725408 ], [ 20.157460261332059, 895.970499512578272 ], [ 36.436776541574282, 898.131470700842669 ], [ 34.275805352829543, 914.842981215807072 ], [ 19.14900704097353, 912.393880537725408 ] ] ] } },
{ "type": "Feature", "properties": { "feature_type": "building", "subtype": "minor-damage", "uid": "b79d80ad-be7a-4b8f-b8b9-00904591ae23" }, "geometry": { "type": "Polygon", "coordinates": [ [ [ 217.286399187814197, 920.629320317293605 ], [ 230.892570430008391, 911.068227013448563 ], [ 237.6956560476265, 925.777601326724152 ], [ 224.273351985745904, 934.419358736199342 ], [ 217.286399187814197, 920.629320317293605 ] ] ] } },
{ "type": "Feature", "properties": { "feature_type": "building", "subtype": "destroyed", "uid": "a6142c00-69e7-47ff-ac73-586a85eb7289" }, "geometry": { "type": "Polygon", "coordinates": [ [ [ 244.322278594912405, 912.211776107821152 ], [ 240.14440096329119, 906.016992034764598 ], [ 247.203573507480513, 901.118790678121627 ], [ 251.38145113742209, 907.457639494407317 ], [ 244.322278594912405, 912.211776107821152 ] ] ] } },
{ "type": "Feature", "properties": { "feature_type": "building", "subtype": "no-damage", "uid": "69104c0d-f27e-4b22-954d-578d5f5d2f80" }, "geometry": { "type": "Polygon", "coordinates": [ [ [ 316.265702831270517, 918.569414798549133 ], [ 313.672537408279709, 919.721932766935083 ], [ 304.596458418814791, 905.891717165977752 ], [ 321.74016317594652, 895.807184955676689 ], [ 330.528112670315693, 909.205206319269109 ], [ 316.265702831270517, 918.569414798549133 ] ] ] } },
{ "type": "Feature", "properties": { "feature_type": "building", "subtype": "major-damage", "uid": "cd36dd5a-970a-449c-b8fe-74e9bb6fcd67" }, "geometry": { "type": "Polygon", "coordinates": [ [ [ 340.865666004475088, 899.772633990438294 ], [ 333.518363966149991, 892.425331953314412 ], [ 342.738507703882476, 883.34925296673066 ], [ 335.967464644232223, 875.425691944694108 ], [ 344.035090413578416, 867.069936685292532 ], [ 358.729694487829477, 880.756087539661735 ], [ 340.865666004475088, 899.772633990438294 ] ] ] } },
{ "type": "Feature", "properties": { "feature_type": "building", "subtype": "minor-damage", "uid": "692ba9b7-e1c3-4238-b98f-b25cf699d997" }, "geometry": { "type": "Polygon", "coordinates": [ [ [ 378.532528186341494, 878.579817285759191 ], [ 370.753031911850883, 866.910572872586499 ], [ 382.854470563111192, 857.690429139414618 ], [ 390.77803158251038, 869.215608806479167 ], [ 378.532528186341494, 878.579817285759191 ] ] ] } },
{ "type": "Feature", "properties": { "feature_type": "building", "subtype": "destroyed", "uid": "11018276-9ef1-4e96-8954-7f36ea104cd3" }, "geometry": { "type": "Polygon", "coordinates": [ [ [ 323.335116900140008, 873.143374147313011 ], [ 315.267491130793701, 868.101108043602153 ], [ 322.47072842229079, 858.160640579889218 ], [ 330.250224699900514, 863.491036176296461 ], [ 323.335116900140008, 873.143374147313011 ] ] ] } },
{ "type": "Feature", "properties": { "feature_type": "building", "subtype": "major-damage", "uid": "8c93dba0-289b-4b5e-bf63-d0071f21c5a7" }, "geometry": { "type": "Polygon", "coordinates": [ [ [ 388.091914382465518, 825.209938512682584 ], [ 375.956680570783419, 813.810173419618195 ], [ 389.195117452830289, 797.445994496956928 ], [ 402.249687155523418, 807.558689338383488 ], [ 388.091914382465518, 825.209938512682584 ] ] ] } },
{ "type": "Feature", "properties": { "feature_type": "building", "subtype": "major-damage", "uid": "ffde61df-d8c0-47e1-8272-21b6320d7d4f" }, "geometry": { "type": "Polygon", "coordinates": [ [ [ 356.650626783975099, 833.851695923117518 ], [ 345.43472886882239, 827.967946198671029 ], [ 353.341017562563593, 812.890837526208088 ], [ 364.373048298362619, 819.877790324857983 ], [ 356.650626783975099, 833.851695923117518 ] ] ] } },
{ "type": "Feature", "properties": { "feature_type": "building", "subtype": "major-damage", "uid": "4a186641-4ae1-4f69-842c-45ac42304eaa" }, "geometry": { "type": "Polygon", "coordinates": [ [ [ 443.879913391532625, 794.505983239685747 ], [ 431.911932579646987, 789.812657431113621 ], [ 440.125252744050272, 772.916684521885486 ], [ 452.562566134441909, 778.079342909443426 ], [ 443.879913391532625, 794.505983239685747 ] ] ] } },
{ "type": "Feature", "properties": { "feature_type": "building", "subtype": "major-damage", "uid": "9ee5e06d-41da-42c9-99c9-d80f926ee9fe" }, "geometry": { "type": "Polygon", "coordinates": [ [ [ 416.428997167575517, 758.870940152281946 ], [ 403.374427464402572, 755.009729395448971 ], [ 410.545247442407913, 738.829417650222126 ], [ 420.106340747694617, 741.771292510765875 ], [ 418.08380177840121, 748.206643775193129 ], [ 421.209543819978876, 748.574378131981348 ], [ 416.428997167575517, 758.870940152281946 ] ] ] } },
{ "type": "Feature", "properties": { "feature_type": "building", "subtype": "major-damage", "uid": "e9f2ad13-b804-4331-a00b-d00c894ca8a3" }, "geometry": { "type": "Polygon", "coordinates": [ [ [ 379.655561384858174, 785.899415452511789 ], [ 367.704194757568473, 776.338322150586237 ], [ 377.816889593958877, 758.135471435826389 ], [ 389.952123404201416, 767.696564740151302 ], [ 379.655561384858174, 785.899415452511789 ] ] ] } },
{ "type": "Feature", "properties": { "feature_type": "building", "subtype": "major-damage", "uid": "d7776049-1e5d-4fb1-8ed4-abbd467d6040" }, "geometry": { "type": "Polygon", "coordinates": [ [ [ 315.754583771178375, 842.108958609404226 ], [ 303.067748425273578, 836.409076061912288 ], [ 310.422435581193326, 822.802904822360347 ], [ 320.902864781089875, 828.502787369372413 ], [ 315.754583771178375, 842.108958609404226 ] ] ] } },
{ "type": "Feature", "properties": { "feature_type": "building", "subtype": "major-damage", "uid": "71dea7fb-b89d-4eef-8b63-0eecf5faa7b4" }, "geometry": { "type": "Polygon", "coordinates": [ [ [ 229.071004283113894, 876.860191985313804 ], [ 217.689889359035902, 869.801019438486946 ], [ 226.04564461867929, 849.487890276575285 ], [ 238.867406996882011, 857.98771028256499 ], [ 229.071004283113894, 876.860191985313804 ] ] ] } },
{ "type": "Feature", "properties": { "feature_type": "building", "subtype": "destroyed", "uid": "e9b05350-f463-4852-97e7-7df618c88085" }, "geometry": { "type": "Polygon", "coordinates": [ [ [ 221.416252997040203, 886.423384445629381 ], [ 213.401879636733412, 880.102188555148928 ], [ 218.932926038865588, 874.909777646790985 ], [ 226.270028411146512, 881.682487527529133 ], [ 221.416252997040203, 886.423384445629381 ] ] ] } },
{ "type": "Feature", "properties": { "feature_type": "building", "subtype": "destroyed", "uid": "bd160758-2b40-46a1-a6cc-675fe6177c2b" }, "geometry": { "type": "Polygon", "coordinates": [ [ [ 648.132753790037327, 538.157303874468084 ], [ 655.768185316500194, 512.513779113749933 ], [ 673.871988221566767, 516.610479905758211 ], [ 670.963382795891221, 529.359332330865641 ], [ 668.188939706241513, 528.723269636899886 ], [ 664.556134813028734, 543.919893707280607 ], [ 648.132753788597711, 539.165757093866659 ], [ 648.132753790037327, 538.157303874468084 ] ] ] } },
{ "type": "Feature", "properties": { "feature_type": "building", "subtype": "destroyed", "uid": "a4e23c78-b224-4feb-8df6-e3052bc71e47" }, "geometry": { "type": "Polygon", "coordinates": [ [ [ 696.96569844718681, 519.747681127319765 ], [ 680.770241716521809, 509.05309477696261 ], [ 693.824811418974946, 487.908369201659127 ], [ 709.428864180252276, 498.100668908137322 ], [ 696.96569844718681, 519.747681127319765 ] ] ] } },
{ "type": "Feature", "properties": { "feature_type": "building", "subtype": "destroyed", "uid": "030c7781-4314-4fd4-bf86-624d43862c80" }, "geometry": { "type": "Polygon", "coordinates": [ [ [ 673.718829037533396, 508.40674338937481 ], [ 663.422267019389892, 503.993931093040828 ], [ 666.220077135265569, 496.032694979901407 ], [ 676.596244023499253, 500.013313036950876 ], [ 673.718829037533396, 508.40674338937481 ] ] ] } },
{ "type": "Feature", "properties": { "feature_type": "building", "subtype": "major-damage", "uid": "84eb9348-e9b1-45b9-99d0-0de509577ce1" }, "geometry": { "type": "Polygon", "coordinates": [ [ [ 715.592479628009414, 477.242795949027482 ], [ 709.045526745757684, 465.277675159451576 ], [ 722.929582000050345, 456.473152312716479 ], [ 730.379562871215398, 468.099637608519515 ], [ 715.592479628009414, 477.242795949027482 ] ] ] } },
{ "type": "Feature", "properties": { "feature_type": "building", "subtype": "major-damage", "uid": "76f5bac4-3836-482a-99d4-785ceff82e20" }, "geometry": { "type": "Polygon", "coordinates": [ [ [ 753.036447319339231, 446.510907673343979 ], [ 751.739864608683547, 446.94310191070889 ], [ 751.307670370118899, 434.553533769874207 ], [ 769.459828344729999, 432.968821564603104 ], [ 769.60389309275763, 446.366842929635027 ], [ 753.036447319339231, 446.510907673343979 ] ] ] } },
{ "type": "Feature", "properties": { "feature_type": "building", "subtype": "major-damage", "uid": "9c0a12e4-f6e5-4fa5-bf15-0a4415db358c" }, "geometry": { "type": "Polygon", "coordinates": [ [ [ 741.450563015157968, 433.400362517509677 ], [ 740.009915554075405, 422.883636072243007 ], [ 763.492469126534502, 418.417628949606012 ], [ 766.373764043421261, 428.502161157987587 ], [ 741.450563015157968, 433.400362517509677 ] ] ] } },
{ "type": "Feature", "properties": { "feature_type": "building", "subtype": "major-damage", "uid": "bf5f56ab-27a2-4929-a405-96a146836646" }, "geometry": { "type": "Polygon", "coordinates": [ [ [ 740.690742733910724, 377.115448502936488 ], [ 739.03593812764359, 377.299315682290285 ], [ 734.623125828669458, 362.773808548368606 ], [ 752.458242183765947, 355.970722927153076 ], [ 757.606523193437624, 372.151034671900106 ], [ 740.690742733910724, 377.115448502936488 ] ] ] } },
{ "type": "Feature", "properties": { "feature_type": "building", "subtype": "minor-damage", "uid": "0d17aca2-d337-4918-9c39-e1d162501af6" }, "geometry": { "type": "Polygon", "coordinates": [ [ [ 750.987304753493731, 345.858028087166076 ], [ 743.63261759637453, 331.700255310512375 ], [ 762.019335489532637, 322.506896364415297 ], [ 767.719218037025826, 339.422676824178325 ], [ 750.987304753493731, 345.858028087166076 ] ] ] } },
{ "type": "Feature", "properties": { "feature_type": "building", "subtype": "major-damage", "uid": "abed42c3-a515-45ec-8518-097de105c01d" }, "geometry": { "type": "Polygon", "coordinates": [ [ [ 724.878165350506947, 374.541307998701086 ], [ 711.455861284547495, 377.299315683249972 ], [ 709.065587962784434, 359.280332148323907 ], [ 721.936290484924029, 356.706191643608577 ], [ 724.878165350506947, 374.541307998701086 ] ] ] } },
{ "type": "Feature", "properties": { "feature_type": "building", "subtype": "minor-damage", "uid": "150d9be6-84ad-4c87-bc81-28cd6c72aea8" }, "geometry": { "type": "Polygon", "coordinates": [ [ [ 722.564744683676508, 281.213858673143704 ], [ 721.391413232612877, 266.429882378228911 ], [ 743.919377113668133, 267.837880119024987 ], [ 743.684710822975489, 282.152523834474323 ], [ 722.564744683676508, 281.213858673143704 ] ] ] } },
{ "type": "Feature", "properties": { "feature_type": "building", "subtype": "minor-damage", "uid": "8e52dd91-037f-434c-8fa4-68fd073483b4" }, "geometry": { "type": "Polygon", "coordinates": [ [ [ 658.643279819273062, 270.506732387723787 ], [ 660.989942723079821, 256.426754966326087 ], [ 676.008585309650243, 257.834752706642519 ], [ 674.365921277921302, 273.088061582462387 ], [ 658.643279819273062, 270.506732387723787 ] ] ] } },
{ "type": "Feature", "properties": { "feature_type": "building", "subtype": "major-damage", "uid": "9cb35bd7-4fbb-434b-a451-2ac3d679ca3f" }, "geometry": { "type": "Polygon", "coordinates": [ [ [ 677.354603871800464, 211.689897901832808 ], [ 680.170599356992398, 199.01791821979171 ], [ 694.719909361697887, 203.476577738630994 ], [ 690.026583552164993, 216.852556290830194 ], [ 677.354603871800464, 211.689897901832808 ] ] ] } },
{ "type": "Feature", "properties": { "feature_type": "building", "subtype": "destroyed", "uid": "462aa66f-ae0c-4bd7-ac1f-7c21c73de62a" }, "geometry": { "type": "Polygon", "coordinates": [ [ [ 675.878714554614362, 183.614448812585209 ], [ 678.820589414918913, 169.456676034491892 ], [ 698.494377560194948, 177.179097550557088 ], [ 695.184768338543563, 190.233667253487198 ], [ 675.878714554614362, 183.614448812585209 ] ] ] } },
{ "type": "Feature", "properties": { "feature_type": "building", "subtype": "destroyed", "uid": "8bb05741-c06a-4c69-b26b-8294e81952c7" }, "geometry": { "type": "Polygon", "coordinates": [ [ [ 660.67443871361138, 208.9919994355499 ], [ 660.386309223314356, 198.619337735911614 ], [ 667.589546515291318, 196.602431293755387 ], [ 675.945301773495089, 199.771855701898204 ], [ 674.216524823794884, 211.297035369922497 ], [ 660.67443871361138, 208.9919994355499 ] ] ] } },
{ "type": "Feature", "properties": { "feature_type": "building", "subtype": "destroyed", "uid": "044cac06-6ed0-410d-9ac4-2695338956f3" }, "geometry": { "type": "Polygon", "coordinates": [ [ [ 663.362536085015336, 186.262622668428691 ], [ 659.298910158298895, 178.699763301260589 ], [ 666.184498539362266, 174.071744881564513 ], [ 669.006460990110327, 182.989146226223909 ], [ 663.362536085015336, 186.262622668428691 ] ] ] } },
{ "type": "Feature", "properties": { "feature_type": "building", "subtype": "destroyed", "uid": "c39dec75-cfaf-4d87-9510-df737b6c5540" }, "geometry": { "type": "Polygon", "coordinates": [ [ [ 684.483020573069666, 141.040808076931313 ], [ 676.630716362956036, 131.20903657436611 ], [ 681.182323107194065, 127.702312604121502 ], [ 687.874870635304092, 138.023743006034607 ], [ 684.483020573069666, 141.040808076931313 ] ] ] } },
{ "type": "Feature", "properties": { "feature_type": "building", "subtype": "major-damage", "uid": "16926b26-e61e-4221-9436-0c00face2e9a" }, "geometry": { "type": "Polygon", "coordinates": [ [ [ 682.891802173833639, 125.253906964046294 ], [ 682.171478443052479, 115.025310009076605 ], [ 704.357449303176395, 113.296533060096607 ], [ 705.654032016711199, 123.525130014106495 ], [ 682.891802173833639, 125.253906964046294 ] ] ] } },
{ "type": "Feature", "properties": { "feature_type": "building", "subtype": "destroyed", "uid": "f8f0686d-23d5-419b-8c77-86521a9b85eb" }, "geometry": { "type": "Polygon", "coordinates": [ [ [ 883.495291594948981, 41.956553613922992 ], [ 882.479385113869739, 41.053525629568647 ], [ 889.252094994849358, 27.733862861541709 ], [ 902.458879263995186, 34.393694245795103 ], [ 894.78314139986071, 47.600478514458153 ], [ 883.495291594948981, 41.956553613922992 ] ] ] } },
{ "type": "Feature", "properties": { "feature_type": "building", "subtype": "minor-damage", "uid": "ff8e0d59-6061-481d-9f08-af96e98d0f24" }, "geometry": { "type": "Polygon", "coordinates": [ [ [ 974.830176521896647, 48.146475710335253 ], [ 973.024120555106947, 48.485111205067938 ], [ 971.556700079211282, 40.019223852585711 ], [ 982.393035891465843, 37.87453238866447 ], [ 985.214998341734031, 46.566176738914777 ], [ 974.830176521896647, 48.146475710335253 ] ] ] } },
{ "type": "Feature", "properties": { "feature_type": "building", "subtype": "destroyed", "uid": "0d4d6358-3070-493a-9cd5-fdf07acb34c4" }, "geometry": { "type": "Polygon", "coordinates": [ [ [ 974.919037373286869, 25.738235107212571 ], [ 973.67737389060062, 25.625356609288239 ], [ 973.677373894919356, 16.820833763033018 ], [ 982.707653734625978, 17.159469256806009 ], [ 982.820532231830612, 25.96399210306123 ], [ 974.919037373286869, 25.738235107212571 ] ] ] } },
{ "type": "Feature", "properties": { "feature_type": "building", "subtype": "destroyed", "uid": "488256dd-56a6-4f24-b0ac-b6bc7a93b6ff" }, "geometry": { "type": "Polygon", "coordinates": [ [ [ 982.820532231830612, 25.96399210306123 ], [ 982.707653734625978, 17.159469256806009 ], [ 989.141728122072436, 18.514011232377811 ], [ 989.141728121112806, 26.076870600985561 ], [ 982.820532231830612, 25.96399210306123 ] ] ] } },
{ "type": "Feature", "properties": { "feature_type": "building", "subtype": "destroyed", "uid": "b514846b-ceea-49ca-b7bd-59a0f47a6514" }, "geometry": { "type": "Polygon", "coordinates": [ [ [ 519.131825218089148, 531.13395295191026 ], [ 518.947958039455102, 512.747235060195862 ], [ 532.737996456204542, 514.034305312793435 ], [ 532.921863636038324, 531.133952952390132 ], [ 519.131825218089148, 531.13395295191026 ] ] ] } },
{ "type": "Feature", "properties": { "feature_type": "building", "subtype": "destroyed", "uid": "c2d7cec8-71b7-4aaa-b177-e5efc4c6750a" }, "geometry": { "type": "Polygon", "coordinates": [ [ [ 456.805761062967292, 514.669025725658003 ], [ 455.221048861774705, 515.82154369020509 ], [ 446.000905126681403, 511.643666061703982 ], [ 450.899106485244886, 504.152299277991972 ], [ 459.398926489557027, 509.050500637034304 ], [ 456.805761062967292, 514.669025725658003 ] ] ] } },
{ "type": "Feature", "properties": { "feature_type": "building", "subtype": "destroyed", "uid": "367c513c-04f4-434e-9fa0-a513dfae257b" }, "geometry": { "type": "Polygon", "coordinates": [ [ [ 462.723253407647803, 504.424798031310502 ], [ 454.511562893872679, 503.416344810952182 ], [ 457.680987302496078, 496.069042772388684 ], [ 452.062462215310688, 490.738647175501683 ], [ 456.240339844532627, 484.39979835873612 ], [ 462.579188660819682, 485.840445818858711 ], [ 468.918037480465784, 480.942244458856692 ], [ 476.121274771003186, 490.882711922569626 ], [ 462.723253407647803, 504.424798031310502 ] ] ] } },
{ "type": "Feature", "properties": { "feature_type": "building", "subtype": "destroyed", "uid": "11e9cb9d-8335-4a70-b9db-42310785e5ef" }, "geometry": { "type": "Polygon", "coordinates": [ [ [ 403.000290002153292, 602.777713635293026 ], [ 370.381675639791581, 580.953748626800234 ], [ 394.951507750383087, 546.2546074933108 ], [ 422.008259526179017, 563.588443138106413 ], [ 417.157508746901726, 570.245249883212182 ], [ 422.694439808568973, 573.85433718292154 ], [ 403.000290002153292, 602.777713635293026 ] ] ] } },
{ "type": "Feature", "properties": { "feature_type": "building", "subtype": "major-damage", "uid": "412dd483-aeb1-4063-bb47-fb799021cfc4" }, "geometry": { "type": "Polygon", "coordinates": [ [ [ 349.05099649133939, 695.638458115421258 ], [ 297.659078891085983, 652.694526970033507 ], [ 319.483043900303528, 625.473237284729862 ], [ 371.344294079542692, 667.478503266387861 ], [ 349.05099649133939, 695.638458115421258 ] ] ] } },
{ "type": "Feature", "properties": { "feature_type": "building", "subtype": "major-damage", "uid": "bc849780-d70e-41bf-a021-a95656fcb4bd" }, "geometry": { "type": "Polygon", "coordinates": [ [ [ 319.483043900303528, 625.473237284729862 ], [ 334.609542736392427, 607.479159374335381 ], [ 355.02550999881521, 626.7217951876097 ], [ 341.036907282417815, 642.878720775066085 ], [ 319.483043900303528, 625.473237284729862 ] ] ] } },
{ "type": "Feature", "properties": { "feature_type": "building", "subtype": "major-damage", "uid": "f32085e8-66dc-485e-bf27-a5702d3d350f" }, "geometry": { "type": "Polygon", "coordinates": [ [ [ 295.047738976112612, 725.74095208947972 ], [ 271.696607254076412, 708.825171629716692 ], [ 289.899457968360423, 682.164430684835452 ], [ 299.828285629475772, 688.415914769429037 ], [ 296.150942050556182, 695.219000389684879 ], [ 309.389378932363172, 703.493023439972603 ], [ 295.047738976112612, 725.74095208947972 ] ] ] } },
{ "type": "Feature", "properties": { "feature_type": "building", "subtype": "major-damage", "uid": "cc43b7e9-dacf-4332-9f09-9a60c81572ce" }, "geometry": { "type": "Polygon", "coordinates": [ [ [ 276.293286729525221, 701.838218830107053 ], [ 267.46766213853482, 694.483531673709194 ], [ 281.073833380729013, 672.235603024202192 ], [ 289.899457968360423, 682.164430684835452 ], [ 276.293286729525221, 701.838218830107053 ] ] ] } },
{ "type": "Feature", "properties": { "feature_type": "building", "subtype": "major-damage", "uid": "d9c51c16-6e84-4a9d-a7ba-e6194532a9ca" }, "geometry": { "type": "Polygon", "coordinates": [ [ [ 279.26347443425442, 751.646309102977739 ], [ 254.265596389800294, 791.321237038093386 ], [ 260.020838621215717, 794.824906536658773 ], [ 246.410193775681591, 814.536874931318152 ], [ 229.716521209636596, 804.716514376438795 ], [ 270.839999991818104, 746.140000001664475 ], [ 279.26347443425442, 751.646309102977739 ] ] ] } },
{ "type": "Feature", "properties": { "feature_type": "building", "subtype": "major-damage", "uid": "f7dbe2b5-4071-40f6-a1e7-dabef92c89f1" }, "geometry": { "type": "Polygon", "coordinates": [ [ [ 270.839999991818104, 746.140000001664475 ], [ 222.679999991867589, 814.740000000769442 ], [ 209.09825360162759, 803.272892991992649 ], [ 254.858180234616299, 735.689001354120364 ], [ 270.839999991818104, 746.140000001664475 ] ] ] } },
{ "type": "Feature", "properties": { "feature_type": "building", "subtype": "major-damage", "uid": "a60472c2-5f1e-466b-95a8-0492ae744f25" }, "geometry": { "type": "Polygon", "coordinates": [ [ [ 391.173266268786904, 207.891076195855504 ], [ 389.886196014269672, 207.339474659233588 ], [ 390.253930373217315, 191.894631629022712 ], [ 405.514906222158402, 192.630100345478212 ], [ 404.043968793085924, 208.442677731037804 ], [ 391.173266268786904, 207.891076195855504 ] ] ] } },
{ "type": "Feature", "properties": { "feature_type": "building", "subtype": "destroyed", "uid": "28d8f26a-ceff-44ff-9f82-1ea8e726916d" }, "geometry": { "type": "Polygon", "coordinates": [ [ [ 377.750962204507005, 206.604005942778088 ], [ 373.154282732657123, 198.697717250238213 ], [ 381.428305783426481, 194.101037776469894 ], [ 385.841118080001422, 202.375060828197206 ], [ 377.750962204507005, 206.604005942778088 ] ] ] } },
{ "type": "Feature", "properties": { "feature_type": "building", "subtype": "destroyed", "uid": "6114e5c0-34eb-466e-885e-eecb5bef28c1" }, "geometry": { "type": "Polygon", "coordinates": [ [ [ 396.095828192046326, 140.40878278258009 ], [ 396.095828192766078, 125.331674110117106 ], [ 410.253600972302081, 125.515541289470903 ], [ 408.598796360996516, 141.879720214051588 ], [ 396.095828192046326, 140.40878278258009 ] ] ] } },
{ "type": "Feature", "properties": { "feature_type": "building", "subtype": "destroyed", "uid": "f4ebf721-3e1c-4a46-9a20-a535542bd239" }, "geometry": { "type": "Polygon", "coordinates": [ [ [ 20.294409898010301, 385.582577871477781 ], [ 13.09117260339414, 382.26908871866641 ], [ 16.54872650303443, 373.76926871459608 ], [ 23.751963797170738, 377.51495210717178 ], [ 20.294409898010301, 385.582577871477781 ] ] ] } },
{ "type": "Feature", "properties": { "feature_type": "building", "subtype": "major-damage", "uid": "e66cb0b5-fa7a-400b-b2c5-6c79f46d50c2" }, "geometry": { "type": "Polygon", "coordinates": [ [ [ 222.679999991867589, 814.740000000769442 ], [ 229.716521209636596, 804.716514376438795 ], [ 238.85836789573591, 809.927951978292072 ], [ 230.646677384599997, 820.588743170146813 ], [ 222.679999991867589, 814.740000000769442 ] ] ] } },
{ "type": "Feature", "properties": { "feature_type": "building", "subtype": "major-damage", "uid": "df305cba-6a6c-4aff-893a-e4eb3095dc61" }, "geometry": { "type": "Polygon", "coordinates": [ [ [ 240.897692965287291, 852.583107410937828 ], [ 209.088671013127708, 833.277053622934318 ], [ 218.123744688511806, 813.858121340365415 ], [ 236.852615030299205, 825.00303057264648 ], [ 241.449294506227886, 819.303148026594158 ], [ 249.907184734191901, 824.635296214418759 ], [ 243.145983105480099, 834.019503005447177 ], [ 251.208216316745109, 838.576603878250694 ], [ 240.897692965287291, 852.583107410937828 ] ] ] } },
{ "type": "Feature", "properties": { "feature_type": "building", "subtype": "destroyed", "uid": "0d031ead-0663-4a71-b61a-72a0ab49806d" }, "geometry": { "type": "Polygon", "coordinates": [ [ [ 435.288949970951307, 538.703430076730569 ], [ 430.871443696824713, 536.447682192540356 ], [ 433.221181076469918, 532.68810238491676 ], [ 437.450708362086687, 535.037839764321575 ], [ 435.288949970951307, 538.703430076730569 ] ] ] } },
{ "type": "Feature", "properties": { "feature_type": "building", "subtype": "destroyed", "uid": "152579ce-9780-4ffc-9fad-aed2a1a0413e" }, "geometry": { "type": "Polygon", "coordinates": [ [ [ 721.537198622649612, 813.578298874706775 ], [ 710.068353801240619, 809.852535871325927 ], [ 712.65745756799015, 799.186994410950433 ], [ 724.599178293865521, 802.708271033723577 ], [ 721.537198622649612, 813.578298874706775 ] ] ] } },
{ "type": "Feature", "properties": { "feature_type": "building", "subtype": "destroyed", "uid": "107c19cd-ec4d-429e-ad7a-b0c166c3a45c" }, "geometry": { "type": "Polygon", "coordinates": [ [ [ 708.760258021061532, 894.371691386184125 ], [ 708.478289540456217, 894.18371239623491 ], [ 708.948237015329596, 885.630668334587085 ], [ 715.62149116980811, 886.194605305394703 ], [ 714.963564704265536, 894.747649366562655 ], [ 708.760258021061532, 894.371691386184125 ] ] ] } },
{ "type": "Feature", "properties": { "feature_type": "building", "subtype": "destroyed", "uid": "4c3a63d1-6c30-4912-8375-23f0330c36a2" }, "geometry": { "type": "Polygon", "coordinates": [ [ [ 224.634855948573403, 506.570865687624689 ], [ 229.944160698455903, 500.152799239938304 ], [ 236.400518448654111, 504.221189055354273 ], [ 230.89128290218369, 511.16902144560072 ], [ 224.634855948573403, 506.570865687624689 ] ] ] } },
{ "type": "Feature", "properties": { "feature_type": "building", "subtype": "destroyed", "uid": "af82c854-27bb-4cdb-9419-d9f62d798440" }, "geometry": { "type": "Polygon", "coordinates": [ [ [ 622.240325385049459, 557.392597157922296 ], [ 625.626680324699464, 549.716859292829781 ], [ 631.157726729710816, 552.08730774972048 ], [ 627.884250287745203, 559.763045616732484 ], [ 622.240325385049459, 557.392597157922296 ] ] ] } },
{ "type": "Feature", "properties": { "feature_type": "building", "subtype": "major-damage", "uid": "24786f43-8ea0-4bd3-a8d2-015e04ef819a" }, "geometry": { "type": "Polygon", "coordinates": [ [ [ 622.365376970508805, 596.328732858846251 ], [ 637.990907567717272, 581.126840436308839 ], [ 649.494310160374084, 593.600409512143301 ], [ 633.469015480668872, 607.729228313899398 ], [ 622.365376970508805, 596.328732858846251 ] ] ] } },
{ "type": "Feature", "properties": { "feature_type": "building", "subtype": "destroyed", "uid": "6d88b117-6b6b-47fc-80ba-22e228218316" }, "geometry": { "type": "Polygon", "coordinates": [ [ [ 649.494310160374084, 593.600409512143301 ], [ 650.004211236701849, 598.953067317412433 ], [ 634.882262977354799, 612.271589294130536 ], [ 633.469015480668872, 607.729228313899398 ], [ 649.494310160374084, 593.600409512143301 ] ] ] } },
{ "type": "Feature", "properties": { "feature_type": "building", "subtype": "destroyed", "uid": "541ffe8b-bfea-4fd1-be64-567bc2b1ee9e" }, "geometry": { "type": "Polygon", "coordinates": [ [ [ 622.365376970508805, 596.328732858846251 ], [ 633.469015480668872, 607.729228313899398 ], [ 634.882262977354799, 612.271589294130536 ], [ 632.05456097976105, 612.891714926152645 ], [ 621.244134446073303, 603.536538117957207 ], [ 622.365376970508805, 596.328732858846251 ] ] ] } },
{ "type": "Feature", "properties": { "feature_type": "building", "subtype": "minor-damage", "uid": "5c6b77a1-80bb-475c-b294-19501299032d" }, "geometry": { "type": "Polygon", "coordinates": [ [ [ 838.967107192371714, 589.931124183724023 ], [ 851.045106481794164, 584.738713273446592 ], [ 857.140545375227589, 599.187161021676502 ], [ 844.949667588840498, 603.928057940736494 ], [ 838.967107192371714, 589.931124183724023 ] ] ] } },
{ "type": "Feature", "properties": { "feature_type": "building", "subtype": "destroyed", "uid": "1ee877d9-d275-4999-b94e-8bf1d0d0eaf8" }, "geometry": { "type": "Polygon", "coordinates": [ [ [ 906.101923362033403, 594.161632441389656 ], [ 913.269059715525714, 589.65502397347575 ], [ 916.255366536218844, 593.672964052631983 ], [ 918.264336573398054, 592.587034301223298 ], [ 920.219010125550199, 595.573341117837003 ], [ 913.649135129670412, 600.894396897627871 ], [ 906.210516332567636, 596.767863844098542 ], [ 906.101923362033403, 594.161632441389656 ] ] ] } },
{ "type": "Feature", "properties": { "feature_type": "building", "subtype": "minor-damage", "uid": "9a3bd8b2-8d29-4947-a7b1-f50698969ca4" }, "geometry": { "type": "Polygon", "coordinates": [ [ [ 947.092699555183572, 582.895094465913303 ], [ 940.827640331561042, 575.577438825528475 ], [ 953.044350026993243, 565.478292138771849 ], [ 959.080539318139586, 572.383087142315162 ], [ 947.092699555183572, 582.895094465913303 ] ] ] } },
{ "type": "Feature", "properties": { "feature_type": "building", "subtype": "destroyed", "uid": "54e8d97a-2ae8-4b51-b420-8c3f7857f419" }, "geometry": { "type": "Polygon", "coordinates": [ [ [ 983.949507773628056, 405.52090474235132 ], [ 995.330622692427596, 403.792127791931705 ], [ 996.915334897459047, 414.308854238158119 ], [ 985.246090483563876, 415.605436951692582 ], [ 983.949507773628056, 405.52090474235132 ] ] ] } },
{ "type": "Feature", "properties": { "feature_type": "building", "subtype": "destroyed", "uid": "8b3e9e30-34b6-44c5-9971-45bf88fd72f0" }, "geometry": { "type": "Polygon", "coordinates": [ [ [ 935.47276842484041, 327.550271656241591 ], [ 944.847753650909226, 324.189427897850408 ], [ 948.208597409781078, 332.060877755378726 ], [ 939.010498698928245, 336.04082431318659 ], [ 935.47276842484041, 327.550271656241591 ] ] ] } },
{ "type": "Feature", "properties": { "feature_type": "building", "subtype": "un-classified", "uid": "b9f4604a-218c-4d92-a3d7-3f5463c50482" }, "geometry": { "type": "Polygon", "coordinates": [ [ [ 90.051167162079921, 1022.977315195607957 ], [ 90.185803647496556, 1015.04656408093399 ], [ 101.913543649679795, 1015.04656408093399 ], [ 100.8351348623315, 1022.977430057332981 ], [ 90.051167162079921, 1022.977315195607957 ] ] ] } },
{ "type": "Feature", "properties": { "feature_type": "building", "subtype": "destroyed", "uid": "be7d1099-0847-4ec1-b300-ac6cf5e8cc2c" }, "geometry": { "type": "Polygon", "coordinates": [ [ [ 51.368670971829623, 904.691894801069793 ], [ 61.442178534781704, 901.229126575810938 ], [ 64.904946761960744, 911.932228362494811 ], [ 64.275352535107501, 924.209315703235347 ], [ 52.627859420017771, 923.264924370033555 ], [ 51.998265193164528, 916.024590809088409 ], [ 51.368670971829623, 904.691894801069793 ] ] ] } },
{ "type": "Feature", "properties": { "feature_type": "building", "subtype": "major-damage", "uid": "44c9ebb5-0c16-4c72-a665-62a7fe69c61d" }, "geometry": { "type": "Polygon", "coordinates": [ [ [ 267.993477581145214, 715.676010739581784 ], [ 283.218379616556376, 724.742525433304081 ], [ 274.322931236119302, 736.032902220635719 ], [ 262.17722287347101, 727.308520156847067 ], [ 267.993477581145214, 715.676010739581784 ] ] ] } },
{ "type": "Feature", "properties": { "feature_type": "building", "subtype": "destroyed", "uid": "896073bb-ee5e-4935-8d5b-c037a71475c2" }, "geometry": { "type": "Polygon", "coordinates": [ [ [ 619.429957585506145, 726.011504303935794 ], [ 613.628493233304766, 719.745922802513746 ], [ 628.944359125006827, 710.927696988647654 ], [ 632.425237733496488, 717.425337061441724 ], [ 619.429957585506145, 726.011504303935794 ] ] ] } },
{ "type": "Feature", "properties": { "feature_type": "building", "subtype": "destroyed", "uid": "989418b3-074e-4867-9058-c5d0d57c3451" }, "geometry": { "type": "Polygon", "coordinates": [ [ [ 644.492283585441783, 695.611831098148627 ], [ 653.310509401709169, 690.274483893731144 ], [ 659.111973753910434, 696.772123968444703 ], [ 648.669337919804093, 704.197998339682954 ], [ 644.492283585441783, 695.611831098148627 ] ] ] } },
{ "type": "Feature", "properties": { "feature_type": "building", "subtype": "destroyed", "uid": "33ef0ebc-3266-418e-b9b7-f1945b514938" }, "geometry": { "type": "Polygon", "coordinates": [ [ [ 728.514393008247339, 383.003947341854484 ], [ 725.729690119152338, 378.130717284499781 ], [ 731.531154475192466, 375.578072968216986 ], [ 733.851740215305199, 379.291010155755487 ], [ 728.514393008247339, 383.003947341854484 ] ] ] } },
{ "type": "Feature", "properties": { "feature_type": "building", "subtype": "destroyed", "uid": "9386dd94-659f-4ea6-998c-1116705cd4ec" }, "geometry": { "type": "Polygon", "coordinates": [ [ [ 724.757430660502564, 331.476185844578083 ], [ 732.183305028863401, 327.763248660398574 ], [ 738.2168279555558, 335.189123028757706 ], [ 737.288593663589495, 341.454704530179811 ], [ 729.398602140248272, 341.22264595448911 ], [ 728.470367844682983, 335.189123029237578 ], [ 724.757430660502564, 331.476185844578083 ] ] ] } },
{ "type": "Feature", "properties": { "feature_type": "building", "subtype": "destroyed", "uid": "d28d9f7d-c065-4197-b1ef-d2ccec81b595" }, "geometry": { "type": "Polygon", "coordinates": [ [ [ 758.656744721866403, 703.762069448436591 ], [ 765.38644337107246, 698.656780817790377 ], [ 774.204669186620094, 707.475006632136342 ], [ 770.027614852737543, 711.65206096625775 ], [ 773.508493467465314, 714.668822429123452 ], [ 763.994091927724639, 723.254989670657778 ], [ 760.281154740425222, 713.972646706370028 ], [ 758.656744721866403, 703.762069448436591 ] ] ] } }
]
}
