{
"type": "FeatureCollection",
"name": "hurricane-michael_00000457_post_disaster",
"features": [
{ "type": "Feature", "properties": { "feature_type": "building", "subtype": "minor-damage", "uid": "bf54a4af-851a-484c-86d8-991cbd327426" }, "geometry": { "type": "Polygon", "coordinates": [ [ [ 599.000000094263441, 77.000000037458477 ], [ 598.000000094751044, 82.000000032024616 ], [ 598.00000009675, 91.000000033638017 ], [ 571.000000092922392, 90.000000036124092 ], [ 571.000000097919951, 80.000000033998262 ], [ 576.000000095981932, 80.000000033998262 ], [ 576.000000093982976, 76.000000033947529 ], [ 599.000000094263441, 77.000000037458477 ] ] ] } },
{ "type": "Feature", "properties": { "feature_type": "building", "subtype": "minor-damage", "uid": "eb954dc9-6f00-441a-8789-af0c57c4facb" }, "geometry": { "type": "Polygon", "coordinates": [ [ [ 839.000000095192036, 82.000000032024616 ], [ 838.00000009443022, 108.000000034353405 ], [ 821.000000094722623, 108.000000035352897 ], [ 811.000000094350753, 107.000000033840905 ], [ 812.000000096112103, 80.000000036996767 ], [ 822.000000093485369, 80.000000035997274 ], [ 822.000000095484438, 82.000000034023628 ], [ 839.000000095192036, 82.000000032024616 ] ] ] } },
{ "type": "Feature", "properties": { "feature_type": "building", "subtype": "minor-damage", "uid": "b0f42a83-e84e-4718-8df4-a8d588f113b2" }, "geometry": { "type": "Polygon", "coordinates": [ [ [ 635.000000095202381, 85.000000034561424 ], [ 635.000000092703658, 102.000000034277306 ], [ 618.000000093495714, 101.000000033764806 ], [ 618.000000093495714, 84.000000036048007 ], [ 635.000000095202381, 85.000000034561424 ] ] ] } },
{ "type": "Feature", "properties": { "feature_type": "building", "subtype": "no-damage", "uid": "8a0d3aa2-e218-4e5c-b94e-594195c51dd5" }, "geometry": { "type": "Polygon", "coordinates": [ [ [ 745.000000095044925, 82.000000034023628 ], [ 745.000000095044925, 84.000000035048501 ], [ 747.000000094319716, 84.000000036048007 ], [ 754.000000094654979, 85.000000034561424 ], [ 753.000000093143512, 101.000000031765893 ], [ 746.000000095306973, 101.000000031765893 ], [ 746.000000095057089, 107.000000036839495 ], [ 733.000000097647103, 107.000000033840905 ], [ 733.000000093149424, 84.000000036048007 ], [ 739.000000094721827, 84.000000035048501 ], [ 739.000000096221129, 82.000000035023135 ], [ 745.000000095044925, 82.000000034023628 ] ] ] } },
{ "type": "Feature", "properties": { "feature_type": "building", "subtype": "no-damage", "uid": "fc5acc33-12de-477d-9568-937dfada6e67" }, "geometry": { "type": "Polygon", "coordinates": [ [ [ 853.000000095612677, 82.000000034023628 ], [ 853.000000093863491, 87.000000031588286 ], [ 863.000000094235361, 87.000000032587792 ], [ 863.000000095234896, 102.000000035276798 ], [ 844.000000094753204, 103.000000034789693 ], [ 844.000000093753783, 87.000000032587792 ], [ 845.000000097763973, 87.000000032587792 ], [ 845.000000095764904, 82.000000034023628 ], [ 853.000000095612677, 82.000000034023628 ] ] ] } },
{ "type": "Feature", "properties": { "feature_type": "building", "subtype": "minor-damage", "uid": "36d8e59e-9f88-459a-bf82-0e080989547c" }, "geometry": { "type": "Polygon", "coordinates": [ [ [ 721.000000097250904, 90.000000036124092 ], [ 720.00000009523967, 107.000000033840905 ], [ 711.000000095129963, 107.000000034840497 ], [ 712.00000009464236, 89.00000003361265 ], [ 721.000000097250904, 90.000000036124092 ] ] ] } },
{ "type": "Feature", "properties": { "feature_type": "building", "subtype": "no-damage", "uid": "92bdab24-22e9-4e84-a567-f1489565f7d4" }, "geometry": { "type": "Polygon", "coordinates": [ [ [ 807.000000094551751, 89.000000035611663 ], [ 807.000000095551286, 131.000000036144314 ], [ 781.0000000952341, 131.000000036144314 ], [ 781.00000009498433, 89.000000035611663 ], [ 807.000000094551751, 89.000000035611663 ] ] ] } },
{ "type": "Feature", "properties": { "feature_type": "building", "subtype": "no-damage", "uid": "030974ef-ec20-4c87-bafb-d1ed15ef0e2b" }, "geometry": { "type": "Polygon", "coordinates": [ [ [ 598.000000097749535, 110.000000036377799 ], [ 599.000000095762744, 123.000000034043893 ], [ 584.000000094330403, 123.000000032044895 ], [ 584.000000093830636, 118.000000034480195 ], [ 577.000000095994096, 118.000000032481196 ], [ 577.000000094245024, 111.000000035890693 ], [ 577.000000094245024, 95.000000032689258 ], [ 596.000000093227413, 95.00000003368875 ], [ 596.00000009297753, 110.000000035378207 ], [ 598.000000097749535, 110.000000036377799 ] ] ] } },
{ "type": "Feature", "properties": { "feature_type": "building", "subtype": "minor-damage", "uid": "b3ae9f62-e7bf-4e9d-bb60-7a4ca689dd15" }, "geometry": { "type": "Polygon", "coordinates": [ [ [ 616.000000095220457, 137.000000036220513 ], [ 615.000000097956899, 157.000000036474091 ], [ 577.00000009324549, 156.000000035961705 ], [ 577.000000092745722, 136.000000035708013 ], [ 578.000000096256144, 132.000000033658296 ], [ 595.000000095214205, 133.000000034170711 ], [ 595.000000094464554, 137.000000034221387 ], [ 616.000000095220457, 137.000000036220513 ] ] ] } },
{ "type": "Feature", "properties": { "feature_type": "building", "subtype": "no-damage", "uid": "17c3483f-b303-4aa5-9b2a-fcd9137d9f04" }, "geometry": { "type": "Polygon", "coordinates": [ [ [ 938.000000094150778, 134.000000032684113 ], [ 938.000000094650545, 146.000000035834887 ], [ 931.00000009506482, 146.000000035834887 ], [ 907.000000095771611, 146.000000033835789 ], [ 907.000000097770567, 126.000000033582197 ], [ 930.000000093553354, 126.000000031583198 ], [ 930.000000093553354, 134.000000034683211 ], [ 938.000000094150778, 134.000000032684113 ] ] ] } },
{ "type": "Feature", "properties": { "feature_type": "building", "subtype": "no-damage", "uid": "7d5efc98-75bc-4ef9-8baf-0d9d2f6c4b7f" }, "geometry": { "type": "Polygon", "coordinates": [ [ [ 933.750490551362077, 160.195397444438214 ], [ 934.141285370462356, 177.000000032729787 ], [ 916.888568248480851, 175.413807805940309 ], [ 916.888568248230968, 159.413807802738887 ], [ 933.750490551362077, 160.195397444438214 ] ] ] } },
{ "type": "Feature", "properties": { "feature_type": "building", "subtype": "no-damage", "uid": "89c0c29e-050c-4a35-8df1-7c3166f0f5a9" }, "geometry": { "type": "Polygon", "coordinates": [ [ [ 1023.039480381940962, 188.000000159306495 ], [ 1017.000000096864028, 188.000000034368497 ], [ 1017.000000098112992, 170.000000033140708 ], [ 1023.039466247711971, 170.33926718496329 ], [ 1023.039480381940962, 188.000000159306495 ] ] ] } },
{ "type": "Feature", "properties": { "feature_type": "building", "subtype": "minor-damage", "uid": "22b9f1d3-87d7-4124-9866-d28c86190d78" }, "geometry": { "type": "Polygon", "coordinates": [ [ [ 590.34530898802177, 171.000000033653208 ], [ 591.345308988533702, 186.000000035342708 ], [ 594.345308989070077, 186.000000033343696 ], [ 594.345308987820658, 188.000000034368497 ], [ 599.345308989880664, 188.000000034368497 ], [ 599.345308988631245, 196.000000033470513 ], [ 595.345308988582474, 196.000000033470513 ], [ 591.345308987284284, 196.000000033470513 ], [ 573.345308989313594, 197.000000035981913 ], [ 572.345308988551778, 171.000000033653208 ], [ 590.34530898802177, 171.000000033653208 ] ] ] } },
{ "type": "Feature", "properties": { "feature_type": "building", "subtype": "minor-damage", "uid": "378b182f-9261-43a0-85e7-25ebbcef2394" }, "geometry": { "type": "Polygon", "coordinates": [ [ [ 738.275386602520712, 212.781379403815407 ], [ 738.275386599022454, 226.781379402993394 ], [ 733.275386601960008, 226.781379401993888 ], [ 733.275386598461751, 235.781379402607797 ], [ 715.275386599241642, 235.78137940460681 ], [ 715.275386600990828, 203.781379402201992 ], [ 734.275386597724264, 203.781379402201992 ], [ 734.275386598973682, 212.781379402815787 ], [ 738.275386602520712, 212.781379403815407 ] ] ] } },
{ "type": "Feature", "properties": { "feature_type": "building", "subtype": "no-damage", "uid": "e6b4c270-5b30-42f0-a8e7-d9352b92eb20" }, "geometry": { "type": "Polygon", "coordinates": [ [ [ 931.000000094315283, 217.000000033237086 ], [ 931.000000094065399, 229.00000003438879 ], [ 924.000000097228394, 229.00000003438879 ], [ 924.000000093230369, 233.000000036438507 ], [ 908.000000094534471, 233.000000036438507 ], [ 907.000000095771611, 203.000000036057997 ], [ 924.00000009398002, 202.000000035545611 ], [ 924.000000095229325, 218.000000035748513 ], [ 931.000000094315283, 217.000000033237086 ] ] ] } },
{ "type": "Feature", "properties": { "feature_type": "building", "subtype": "minor-damage", "uid": "27689b6f-0e06-4eb4-b88c-6eb9370eb4e2" }, "geometry": { "type": "Polygon", "coordinates": [ [ [ 607.000000095110636, 210.000000032648586 ], [ 607.000000094361098, 222.000000035799189 ], [ 596.000000094726602, 222.000000035799189 ], [ 596.000000093727181, 227.000000035362888 ], [ 577.000000092995606, 227.000000033363904 ], [ 577.000000093995141, 222.000000034799712 ], [ 577.000000094994675, 210.000000032648586 ], [ 607.000000095110636, 210.000000032648586 ] ] ] } },
{ "type": "Feature", "properties": { "feature_type": "building", "subtype": "no-damage", "uid": "1af28a9f-6f12-4e41-824a-38102d16c592" }, "geometry": { "type": "Polygon", "coordinates": [ [ [ 1023.039516514244042, 238.251975958682692 ], [ 1018.000000094877009, 238.000000034003193 ], [ 1018.000000093377025, 223.000000035312212 ], [ 1023.039506415510004, 223.330276798692012 ], [ 1023.039516514244042, 238.251975958682692 ] ] ] } },
{ "type": "Feature", "properties": { "feature_type": "building", "subtype": "no-damage", "uid": "462a2e9f-15b5-4602-aec4-cfb9b5106b9b" }, "geometry": { "type": "Polygon", "coordinates": [ [ [ 605.011195130723081, 244.490670837180289 ], [ 604.011195133959291, 273.490670836048821 ], [ 589.011195130277997, 273.490670838047777 ], [ 581.01119513292906, 273.490670838047777 ], [ 582.01119513194169, 251.490670837768789 ], [ 590.011195129790394, 251.490670838768295 ], [ 590.011195134288187, 244.490670837180289 ], [ 605.011195130723081, 244.490670837180289 ] ] ] } },
{ "type": "Feature", "properties": { "feature_type": "building", "subtype": "no-damage", "uid": "9a010089-a4b5-4e4e-ae7a-c0aea0bb4d28" }, "geometry": { "type": "Polygon", "coordinates": [ [ [ 727.000000093326094, 251.000000031669288 ], [ 727.000000096824351, 269.000000035895596 ], [ 686.000000096324243, 269.000000035895596 ], [ 686.00000009407529, 251.000000032668794 ], [ 727.000000093326094, 251.000000031669288 ] ] ] } },
{ "type": "Feature", "properties": { "feature_type": "building", "subtype": "no-damage", "uid": "2c8eea0e-2240-40e2-8e9e-16fb3a3d9d1c" }, "geometry": { "type": "Polygon", "coordinates": [ [ [ 1023.039544588050035, 284.790141519555618 ], [ 1004.000000096204985, 284.000000033587128 ], [ 1005.195397508641008, 252.781589676879605 ], [ 1023.039526537015945, 253.908992192118603 ], [ 1023.039544588050035, 284.790141519555618 ] ] ] } },
{ "type": "Feature", "properties": { "feature_type": "building", "subtype": "no-damage", "uid": "2f8ea76d-9377-4210-9922-b4c3e402a6e6" }, "geometry": { "type": "Polygon", "coordinates": [ [ [ 921.000000093443646, 298.000000032765172 ], [ 921.000000096192252, 336.000000036245581 ], [ 909.000000096045937, 336.000000036245581 ], [ 909.000000093297217, 298.000000032765172 ], [ 921.000000093443646, 298.000000032765172 ] ] ] } },
{ "type": "Feature", "properties": { "feature_type": "building", "subtype": "no-damage", "uid": "10293507-bc59-497f-8958-29cd43da21ee" }, "geometry": { "type": "Polygon", "coordinates": [ [ [ 735.5914090515314, 310.227972573161594 ], [ 735.591409052780818, 327.227972575875981 ], [ 721.591409054609016, 327.227972573877025 ], [ 721.591409051610526, 310.227972573161594 ], [ 735.5914090515314, 310.227972573161594 ] ] ] } },
{ "type": "Feature", "properties": { "feature_type": "building", "subtype": "no-damage", "uid": "fd8378c5-219f-45cc-a75e-3a03855b0684" }, "geometry": { "type": "Polygon", "coordinates": [ [ [ 634.000000093940798, 343.00000003383559 ], [ 634.000000093191147, 359.000000035038113 ], [ 557.000000095250357, 358.000000034525613 ], [ 557.000000093501285, 342.000000034322682 ], [ 634.000000093940798, 343.00000003383559 ] ] ] } },
{ "type": "Feature", "properties": { "feature_type": "building", "subtype": "no-damage", "uid": "988507cf-81ee-4027-9320-8b1656060a55" }, "geometry": { "type": "Polygon", "coordinates": [ [ [ 729.000000094849725, 364.000000032602713 ], [ 704.0000000947947, 364.000000034601726 ], [ 703.000000093283234, 347.000000033886408 ], [ 728.00000009483756, 346.000000035372921 ], [ 729.000000094849725, 364.000000032602713 ] ] ] } },
{ "type": "Feature", "properties": { "feature_type": "building", "subtype": "major-damage", "uid": "6c8b80d4-78b6-4cb7-bc71-d5a85dd2d1e7" }, "geometry": { "type": "Polygon", "coordinates": [ [ [ 1023.039582252592027, 369.081946480079921 ], [ 986.000000093486847, 368.000000033653009 ], [ 987.000000095498081, 344.000000035347625 ], [ 1023.039573248814008, 345.061707116737807 ], [ 1023.039582252592027, 369.081946480079921 ] ] ] } },
{ "type": "Feature", "properties": { "feature_type": "building", "subtype": "no-damage", "uid": "f5cfdc06-f2a0-4ed7-8781-4610402bf823" }, "geometry": { "type": "Polygon", "coordinates": [ [ [ 653.853939808588052, 371.000000035190283 ], [ 641.853939809940925, 372.000000035702726 ], [ 640.85393980917911, 361.000000035063522 ], [ 652.853939808575888, 360.000000035550499 ], [ 653.853939808588052, 371.000000035190283 ] ] ] } },
{ "type": "Feature", "properties": { "feature_type": "building", "subtype": "no-damage", "uid": "b050cfd9-8b61-45c7-be48-38cef4e71dee" }, "geometry": { "type": "Polygon", "coordinates": [ [ [ 697.863586751204934, 404.00000003510911 ], [ 700.031318066250151, 411.069013285575693 ], [ 698.998474492255696, 420.243408206624508 ], [ 687.161255140393564, 421.189147990375773 ], [ 688.161255142904565, 447.189147991705113 ], [ 698.161255142027017, 447.189147988706509 ], [ 698.161255139778177, 451.189147989756691 ], [ 715.161255142234381, 451.189147989756691 ], [ 716.161255139997706, 467.189147990959214 ], [ 698.161255141777133, 467.189147990959214 ], [ 688.161255143654216, 468.189147991471714 ], [ 688.1612551439041, 470.189147990497474 ], [ 640.161255141319543, 471.189147991009918 ], [ 640.48529083890844, 426.4325561642504 ], [ 631.161255141709489, 427.189147989452408 ], [ 632.296142881510946, 416.16278068554459 ], [ 640.485290837908906, 416.162780684545112 ], [ 638.161255142544519, 375.189147990791923 ], [ 687.161255141892866, 374.189147990279423 ], [ 687.161255143641938, 404.189147992658889 ], [ 697.863586751204934, 404.00000003510911 ] ] ] } },
{ "type": "Feature", "properties": { "feature_type": "building", "subtype": "no-damage", "uid": "b1a15959-b8b8-4044-b563-238ce23f9fa9" }, "geometry": { "type": "Polygon", "coordinates": [ [ [ 943.000000095211249, 386.000000032881815 ], [ 943.00000009396183, 406.000000033135393 ], [ 786.000000097793873, 406.000000033135393 ], [ 786.00000009829364, 385.000000034368327 ], [ 943.000000095211249, 386.000000032881815 ] ] ] } },
{ "type": "Feature", "properties": { "feature_type": "building", "subtype": "no-damage", "uid": "4b2091fb-ab93-4618-a6c5-8c1cdeaa97c4" }, "geometry": { "type": "Polygon", "coordinates": [ [ [ 919.000000095168389, 423.000000033850824 ], [ 920.000000094430902, 481.000000034586378 ], [ 901.000000094948746, 481.000000034586378 ], [ 901.000000098197233, 477.000000035535209 ], [ 872.000000096594022, 477.000000035535209 ], [ 872.000000095344717, 452.000000032719413 ], [ 900.000000093937047, 452.000000032719413 ], [ 900.000000094436814, 423.00000003584978 ], [ 919.000000095168389, 423.000000033850824 ] ] ] } },
{ "type": "Feature", "properties": { "feature_type": "building", "subtype": "no-damage", "uid": "8ba42e5c-a91b-4cb9-b43e-087e91f5fee3" }, "geometry": { "type": "Polygon", "coordinates": [ [ [ 1020.000000094900997, 422.000000033338324 ], [ 1020.000000096649956, 471.000000036458573 ], [ 988.000000093761173, 471.000000036458573 ], [ 989.000000097771363, 422.000000033338324 ], [ 1020.000000094900997, 422.000000033338324 ] ] ] } },
{ "type": "Feature", "properties": { "feature_type": "building", "subtype": "no-damage", "uid": "a90225ac-2308-494e-9ae9-1afeff05791c" }, "geometry": { "type": "Polygon", "coordinates": [ [ [ 836.313429357497625, 437.616204214263121 ], [ 837.313429357759674, 447.616204215389473 ], [ 816.313429360502028, 447.616204215389473 ], [ 815.313429361489398, 437.616204215262712 ], [ 836.313429357497625, 437.616204214263121 ] ] ] } },
{ "type": "Feature", "properties": { "feature_type": "building", "subtype": "no-damage", "uid": "2be24b7c-6774-4f5c-ba13-20b881988723" }, "geometry": { "type": "Polygon", "coordinates": [ [ [ 828.000000095557539, 456.000000031770583 ], [ 828.000000093308699, 486.000000036149117 ], [ 813.000000093875315, 486.000000034149991 ], [ 813.000000096124268, 456.000000033769595 ], [ 828.000000095557539, 456.000000031770583 ] ] ] } },
{ "type": "Feature", "properties": { "feature_type": "building", "subtype": "no-damage", "uid": "8bfac08e-3f85-4f92-a937-3acece72b8d2" }, "geometry": { "type": "Polygon", "coordinates": [ [ [ 604.000000091575885, 0.006373534243315 ], [ 604.00000009582368, 7.00000003357215 ], [ 592.000000096177132, 7.00000003357215 ], [ 580.000000095031169, 7.000000035571158 ], [ 580.000000098529426, 0.006455214672361 ], [ 604.000000091575885, 0.006373534243315 ] ] ] } },
{ "type": "Feature", "properties": { "feature_type": "building", "subtype": "no-damage", "uid": "664c8684-38a5-45a6-a2b0-9176be6d237f" }, "geometry": { "type": "Polygon", "coordinates": [ [ [ 639.699379420600962, 0.006206788066722 ], [ 639.000000093002313, 7.000000032572647 ], [ 628.000000095117002, 7.00000003357215 ], [ 616.000000096219992, 7.00000003357215 ], [ 616.000000094970574, 0.006323522084529 ], [ 639.699379420600962, 0.006206788066722 ] ] ] } },
{ "type": "Feature", "properties": { "feature_type": "building", "subtype": "no-damage", "uid": "b5ca39e3-61d9-450d-8c68-1a407973e7cd" }, "geometry": { "type": "Polygon", "coordinates": [ [ [ 769.000000093588483, 868.000000034997015 ], [ 798.000000093192625, 868.000000034997015 ], [ 798.000000092942742, 888.000000033251581 ], [ 770.000000094100415, 888.000000033251581 ], [ 769.000000093588483, 868.000000034997015 ] ] ] } },
{ "type": "Feature", "properties": { "feature_type": "building", "subtype": "no-damage", "uid": "6e2e6970-4e19-4713-b7e6-332cd62b1821" }, "geometry": { "type": "Polygon", "coordinates": [ [ [ 993.501099800600059, 978.546254365961659 ], [ 1020.501099801928945, 977.546254363450203 ], [ 1020.501099801928945, 994.54625436416552 ], [ 994.501099802861177, 995.54625436467802 ], [ 993.501099800600059, 978.546254365961659 ] ] ] } },
{ "type": "Feature", "properties": { "feature_type": "building", "subtype": "minor-damage", "uid": "c6ea93ab-4b6e-4a5e-9af0-b821cf120457" }, "geometry": { "type": "Polygon", "coordinates": [ [ [ 1005.000000095717951, 851.000000035281118 ], [ 1006.00000009498001, 875.000000034586037 ], [ 985.000000094724101, 875.000000036584993 ], [ 980.000000095912469, 875.000000034586037 ], [ 980.000000098411192, 858.000000034870141 ], [ 985.000000093474682, 858.000000034870141 ], [ 985.00000009697294, 851.000000032282628 ], [ 1005.000000095717951, 851.000000035281118 ] ] ] } },
{ "type": "Feature", "properties": { "feature_type": "building", "subtype": "no-damage", "uid": "bc5dd85b-0cd5-4c2e-a97b-03e61fe1fb0f" }, "geometry": { "type": "Polygon", "coordinates": [ [ [ 1021.757938964782966, 744.881116480812125 ], [ 1022.398067784566024, 788.801502941693002 ], [ 998.639055409379012, 789.761159418974103 ], [ 998.639055409628895, 780.761159419359728 ], [ 985.35879776966749, 780.761159419359728 ], [ 985.478754827328544, 771.76115942174431 ], [ 998.039270111078622, 771.641202359835233 ], [ 997.559441872688126, 744.761159421901652 ], [ 1021.757938964782966, 744.881116480812125 ] ] ] } },
{ "type": "Feature", "properties": { "feature_type": "building", "subtype": "no-damage", "uid": "4243bf09-336f-4e4c-a04a-041d3981f91a" }, "geometry": { "type": "Polygon", "coordinates": [ [ [ 984.000000097710426, 652.000000035255994 ], [ 1016.000000093603035, 651.000000034743493 ], [ 1016.000000095851988, 695.000000036301117 ], [ 984.000000097210659, 695.000000036301117 ], [ 984.000000097710426, 652.000000035255994 ] ] ] } },
{ "type": "Feature", "properties": { "feature_type": "building", "subtype": "no-damage", "uid": "fb0e711c-9782-4f5c-8928-ab97eb34431f" }, "geometry": { "type": "Polygon", "coordinates": [ [ [ 582.687735632415524, 1020.20708122297799 ], [ 584.697225180948067, 995.918979129987292 ], [ 601.237735627969073, 999.227081223141226 ], [ 597.207735628774572, 1020.207081221978001 ], [ 582.687735632415524, 1020.20708122297799 ] ] ] } },
{ "type": "Feature", "properties": { "feature_type": "building", "subtype": "no-damage", "uid": "8baa7262-fe99-46d9-88e0-9fbe7f14ee8f" }, "geometry": { "type": "Polygon", "coordinates": [ [ [ 818.000000095685436, 1004.00000003472303 ], [ 834.000000095380869, 1004.00000003372304 ], [ 835.000000094643497, 1016.000000034875029 ], [ 818.000000093436597, 1017.000000033388005 ], [ 818.000000095685436, 1004.00000003472303 ] ] ] } },
{ "type": "Feature", "properties": { "feature_type": "building", "subtype": "no-damage", "uid": "eda141e4-c511-43bb-bba0-25f519ff5687" }, "geometry": { "type": "Polygon", "coordinates": [ [ [ 837.000000094417942, 974.000000034342406 ], [ 855.000000095387236, 974.000000035341827 ], [ 856.000000097398356, 993.000000036082611 ], [ 837.000000094417942, 993.000000034083541 ], [ 837.000000094417942, 974.000000034342406 ] ] ] } },
{ "type": "Feature", "properties": { "feature_type": "building", "subtype": "no-damage", "uid": "df9a9526-b36d-4359-9d36-7c21db356b65" }, "geometry": { "type": "Polygon", "coordinates": [ [ [ 834.531670664504873, 934.755561026055375 ], [ 835.529199110896343, 952.743203264427052 ], [ 828.776109673473343, 953.740731714567119 ], [ 830.524256008591465, 986.000000035494054 ], [ 784.534142214517146, 983.007414691070721 ], [ 783.509329294168992, 951.501865873038241 ], [ 818.022971531443204, 949.501235810966932 ], [ 817.269252025800483, 935.004313076044582 ], [ 834.531670664504873, 934.755561026055375 ] ] ] } },
{ "type": "Feature", "properties": { "feature_type": "building", "subtype": "minor-damage", "uid": "e719ee2d-f6a7-4067-8fc7-a42f5bb7db87" }, "geometry": { "type": "Polygon", "coordinates": [ [ [ 902.000000095210908, 802.00000003515936 ], [ 920.000000094181019, 802.000000033160404 ], [ 920.000000094680786, 823.000000035925495 ], [ 902.000000093961489, 823.000000035925495 ], [ 902.000000095210908, 802.00000003515936 ] ] ] } },
{ "type": "Feature", "properties": { "feature_type": "building", "subtype": "no-damage", "uid": "f1171646-81e1-4dbb-b433-fa734c1956ca" }, "geometry": { "type": "Polygon", "coordinates": [ [ [ 901.00000009594828, 829.000000036001552 ], [ 919.000000094418738, 829.000000036001552 ], [ 920.00000009493067, 883.000000034687446 ], [ 901.000000094199208, 883.000000034687446 ], [ 901.00000009594828, 829.000000036001552 ] ] ] } },
{ "type": "Feature", "properties": { "feature_type": "building", "subtype": "no-damage", "uid": "715e8e32-27dc-4467-b00d-f75b94117bb4" }, "geometry": { "type": "Polygon", "coordinates": [ [ [ 884.000000094741381, 844.000000035692096 ], [ 884.000000094991265, 891.000000033789433 ], [ 870.000000093321319, 891.000000033789433 ], [ 857.000000093912377, 891.000000033789433 ], [ 857.00000009441203, 887.00000003473815 ], [ 845.000000097763973, 887.00000003473815 ], [ 845.000000095764904, 873.000000034560685 ], [ 857.0000000964111, 873.000000032561616 ], [ 857.000000095161681, 856.000000033845254 ], [ 870.000000094570623, 856.000000033845254 ], [ 870.000000096319809, 844.000000033693027 ], [ 884.000000094741381, 844.000000035692096 ] ] ] } },
{ "type": "Feature", "properties": { "feature_type": "building", "subtype": "minor-damage", "uid": "f9d72b1d-33b9-40e3-869a-fc60c3f47951" }, "geometry": { "type": "Polygon", "coordinates": [ [ [ 738.00000009520943, 844.000000032693606 ], [ 738.000000095459313, 851.000000034281584 ], [ 757.000000094191819, 851.000000034281584 ], [ 757.000000094191819, 875.000000033586502 ], [ 757.0000000929424, 886.000000033226229 ], [ 743.000000094770598, 886.000000033226229 ], [ 743.000000095020482, 875.000000036584993 ], [ 723.000000093777089, 875.000000034586037 ], [ 723.000000095276278, 851.000000034281584 ], [ 730.000000094861889, 851.000000034281584 ], [ 730.000000096111307, 844.000000033693027 ], [ 738.00000009520943, 844.000000032693606 ] ] ] } },
{ "type": "Feature", "properties": { "feature_type": "building", "subtype": "no-damage", "uid": "68bed646-fc0e-48b9-8baa-4f6fc8a3a2fb" }, "geometry": { "type": "Polygon", "coordinates": [ [ [ 709.000000094605753, 826.000000034464279 ], [ 709.000000093356334, 855.000000033332867 ], [ 694.000000092923528, 855.000000036331357 ], [ 694.000000095922019, 860.000000033895958 ], [ 679.000000096988401, 861.000000032409389 ], [ 679.000000093240374, 856.000000033845254 ], [ 679.000000095489213, 826.000000032465323 ], [ 678.00000009422763, 816.000000034337404 ], [ 692.000000093148969, 816.000000034337404 ], [ 692.000000095647806, 826.000000034464279 ], [ 709.000000094605753, 826.000000034464279 ] ] ] } },
{ "type": "Feature", "properties": { "feature_type": "building", "subtype": "no-damage", "uid": "675eb6b3-51f6-444a-a50b-2e768bea7028" }, "geometry": { "type": "Polygon", "coordinates": [ [ [ 642.00000009528776, 828.000000033490096 ], [ 672.000000094154416, 828.000000035489165 ], [ 672.000000094404299, 869.000000035509402 ], [ 642.00000009528776, 869.000000035509402 ], [ 642.00000009528776, 828.000000033490096 ] ] ] } },
{ "type": "Feature", "properties": { "feature_type": "building", "subtype": "no-damage", "uid": "4118670b-e000-4bc2-8035-246e17e0fa89" }, "geometry": { "type": "Polygon", "coordinates": [ [ [ 883.000000093230028, 748.000000036473466 ], [ 915.000000095869154, 748.000000036473466 ], [ 914.000000095107339, 768.000000031729655 ], [ 883.000000096978169, 767.000000036214715 ], [ 883.000000093230028, 748.000000036473466 ] ] ] } },
{ "type": "Feature", "properties": { "feature_type": "building", "subtype": "no-damage", "uid": "c3f1d40c-40fb-4a19-88cf-d9e3c04bd3a7" }, "geometry": { "type": "Polygon", "coordinates": [ [ [ 919.000000095168389, 720.000000038117378 ], [ 919.000000097667112, 730.000000035245762 ], [ 913.00000009709413, 730.000000036245183 ], [ 884.000000097240218, 730.000000036245183 ], [ 883.000000094729216, 708.00000003196817 ], [ 912.000000094583243, 707.00000003645323 ], [ 913.000000094595407, 720.000000038117378 ], [ 919.000000095168389, 720.000000038117378 ] ] ] } },
{ "type": "Feature", "properties": { "feature_type": "building", "subtype": "no-damage", "uid": "b9f3c016-319e-47f4-b995-0e5af98b010c" }, "geometry": { "type": "Polygon", "coordinates": [ [ [ 605.486939219474834, 737.475744124086532 ], [ 604.98507338073739, 751.000000036011784 ], [ 593.516792649275658, 751.000000037011318 ], [ 593.516792647026818, 744.000000034423806 ], [ 577.516792649330455, 744.000000034423806 ], [ 577.516792647831153, 693.00000003527623 ], [ 613.51679264951963, 694.000000035788617 ], [ 617.776248247817875, 735.963577018761157 ], [ 605.486939219474834, 737.475744124086532 ] ] ] } },
{ "type": "Feature", "properties": { "feature_type": "building", "subtype": "major-damage", "uid": "a80d5d91-dd72-412f-8d71-963a6e4e0ab9" }, "geometry": { "type": "Polygon", "coordinates": [ [ [ 563.000000093574499, 661.000000033870833 ], [ 592.000000094178063, 661.000000034870368 ], [ 593.000000094440111, 685.000000034175287 ], [ 563.000000093074732, 685.000000034175287 ], [ 563.000000093574499, 661.000000033870833 ] ] ] } },
{ "type": "Feature", "properties": { "feature_type": "building", "subtype": "no-damage", "uid": "b0602819-9332-42c8-a971-a0e734c912b4" }, "geometry": { "type": "Polygon", "coordinates": [ [ [ 940.00000009442499, 568.000000034190521 ], [ 940.000000093925223, 585.000000032906883 ], [ 938.000000093401127, 702.00000003389107 ], [ 917.000000095643713, 702.00000003389107 ], [ 809.000000093576659, 701.000000034378104 ], [ 809.000000095325845, 680.000000036610572 ], [ 917.00000009839232, 681.000000034124469 ], [ 918.000000093906806, 585.000000032906883 ], [ 911.000000095320615, 585.000000034905952 ], [ 911.000000095070732, 592.000000035494509 ], [ 899.000000095424184, 591.000000035981543 ], [ 899.000000093175231, 584.000000035392986 ], [ 885.000000097252382, 584.000000034393452 ], [ 885.000000095003543, 567.000000033678134 ], [ 940.00000009442499, 568.000000034190521 ] ] ] } },
{ "type": "Feature", "properties": { "feature_type": "building", "subtype": "major-damage", "uid": "01b27ef6-1bf2-4f8e-9e28-0313df271ea4" }, "geometry": { "type": "Polygon", "coordinates": [ [ [ 651.243120849470984, 579.490548060914534 ], [ 651.243120853469009, 594.490548060605079 ], [ 645.243120850397304, 594.490548060605079 ], [ 645.243120850647188, 612.490548059833827 ], [ 607.243120850683454, 613.490548059346793 ], [ 606.243120851170943, 565.490548060737069 ], [ 645.243120850897071, 565.490548060737069 ], [ 645.243120851896606, 579.490548060914534 ], [ 651.243120849470984, 579.490548060914534 ] ] ] } },
{ "type": "Feature", "properties": { "feature_type": "building", "subtype": "no-damage", "uid": "881f5e28-3b26-48e7-bf8b-92ffa6b6c921" }, "geometry": { "type": "Polygon", "coordinates": [ [ [ 371.055785917717913, 360.973632728796417 ], [ 395.728699013479115, 353.975158330435875 ], [ 404.051209104439693, 375.596862417614318 ], [ 378.810852138527878, 383.919372512826783 ], [ 371.055785917717913, 360.973632728796417 ] ] ] } },
{ "type": "Feature", "properties": { "feature_type": "building", "subtype": "no-damage", "uid": "295fbe67-724d-44ed-b894-648efe9f13de" }, "geometry": { "type": "Polygon", "coordinates": [ [ [ 427.000000092665175, 316.000000035991889 ], [ 433.000000093487984, 316.000000033992876 ], [ 433.000000094237578, 321.000000036555207 ], [ 427.000000094914014, 322.000000034068989 ], [ 427.000000092665175, 316.000000035991889 ] ] ] } },
{ "type": "Feature", "properties": { "feature_type": "building", "subtype": "no-damage", "uid": "5eb8506f-3d23-4611-b835-1504304a9f27" }, "geometry": { "type": "Polygon", "coordinates": [ [ [ 402.702331707797214, 297.243408206563686 ], [ 413.782959228710581, 298.189147990315007 ], [ 413.404663315110326, 311.243408207740686 ], [ 402.702331703049595, 310.243408207228413 ], [ 402.702331707797214, 297.243408206563686 ] ] ] } },
{ "type": "Feature", "properties": { "feature_type": "building", "subtype": "no-damage", "uid": "2a9f1d5d-6f54-4379-97d6-e737f5fb4031" }, "geometry": { "type": "Polygon", "coordinates": [ [ [ 182.174373054766704, 0.004246478759192 ], [ 182.633201941608291, 4.166904490008522 ], [ 177.758196164480808, 17.404466956567891 ], [ 154.377890946378386, 16.377890889480401 ], [ 153.612396026874791, 7.77520816399038 ], [ 153.612396028623891, 0.003829351947534 ], [ 182.174373054766704, 0.004246478759192 ] ] ] } },
{ "type": "Feature", "properties": { "feature_type": "building", "subtype": "major-damage", "uid": "677254d7-89fa-46ed-8a65-982c36c90153" }, "geometry": { "type": "Polygon", "coordinates": [ [ [ 425.0000000931405, 295.000000036225288 ], [ 455.000000094006225, 295.000000034226275 ], [ 455.000000095005703, 309.000000035403389 ], [ 426.000000093152721, 310.000000035915775 ], [ 425.0000000931405, 295.000000036225288 ] ] ] } },
{ "type": "Feature", "properties": { "feature_type": "building", "subtype": "no-damage", "uid": "76cbf78b-a446-4522-ab31-a69aa1e0b6af" }, "geometry": { "type": "Polygon", "coordinates": [ [ [ 163.000000092193488, 806.000000033211109 ], [ 193.000000092809302, 805.000000034697678 ], [ 193.000000094058692, 840.000000034641857 ], [ 164.000000092455593, 841.000000035154244 ], [ 163.000000092193488, 806.000000033211109 ] ] ] } },
{ "type": "Feature", "properties": { "feature_type": "building", "subtype": "no-damage", "uid": "defabca2-23b8-424a-bc15-908d5e54919d" }, "geometry": { "type": "Polygon", "coordinates": [ [ [ 415.045743391412714, 77.000000034459958 ], [ 414.0457433869027, 97.000000033714116 ], [ 361.5620885640555, 95.359477916770615 ], [ 360.28104432944491, 76.000000033947529 ], [ 415.045743391412714, 77.000000034459958 ] ] ] } },
{ "type": "Feature", "properties": { "feature_type": "building", "subtype": "no-damage", "uid": "bba08b7d-4bf6-4e7d-abc1-28e0dec79075" }, "geometry": { "type": "Polygon", "coordinates": [ [ [ 291.656537792939787, 82.436529163482717 ], [ 291.656537792689903, 94.436529164634408 ], [ 292.022173620848775, 119.301065286832198 ], [ 267.338256000573324, 118.301065286319698 ], [ 267.701692418187122, 103.346219910170205 ], [ 263.656537794847111, 101.436529163223895 ], [ 263.656537793597693, 90.436529162584677 ], [ 268.656537793408916, 90.436529162584677 ], [ 268.656537793658686, 82.436529161483705 ], [ 287.656537792641075, 82.436529163482717 ], [ 291.656537792939787, 82.436529163482717 ] ] ] } },
{ "type": "Feature", "properties": { "feature_type": "building", "subtype": "no-damage", "uid": "48316d7a-5e7d-4c63-a63c-8be094582fff" }, "geometry": { "type": "Polygon", "coordinates": [ [ [ 507.000000094140773, 91.000000033638017 ], [ 507.000000094390714, 97.000000031715118 ], [ 503.000000093092524, 97.000000033714116 ], [ 503.000000094841596, 99.00000003273999 ], [ 483.000000092848495, 99.00000003273999 ], [ 484.000000095609323, 83.000000032537059 ], [ 504.000000095603411, 83.000000032537059 ], [ 504.000000093854283, 85.000000033561918 ], [ 508.000000095152473, 85.000000034561424 ], [ 507.000000094140773, 91.000000033638017 ] ] ] } },
{ "type": "Feature", "properties": { "feature_type": "building", "subtype": "no-damage", "uid": "2f1282e4-bd71-4b03-857b-55a89d0b1f72" }, "geometry": { "type": "Polygon", "coordinates": [ [ [ 427.487292959848389, 113.865112291641694 ], [ 427.245886911324703, 153.037766741569186 ], [ 406.2458869105688, 153.037766741569186 ], [ 402.337572814311784, 145.358966144604096 ], [ 401.959276899462225, 125.876726607922606 ], [ 406.87712377376721, 124.552690909071501 ], [ 406.97010506088759, 113.140894143321603 ], [ 427.487292959848389, 113.865112291641694 ] ] ] } },
{ "type": "Feature", "properties": { "feature_type": "building", "subtype": "no-damage", "uid": "30d29f3a-069d-413c-b7f4-1d25448a798c" }, "geometry": { "type": "Polygon", "coordinates": [ [ [ 509.782959227882714, 129.621704121531707 ], [ 509.782959227133006, 142.621704119197801 ], [ 507.782959227358504, 142.621704119197801 ], [ 490.7829592284005, 142.621704119197801 ], [ 490.7829592284005, 113.6217041183302 ], [ 507.782959225859202, 113.621704121328804 ], [ 507.782959226608909, 129.6217041205322 ], [ 509.782959227882714, 129.621704121531707 ] ] ] } },
{ "type": "Feature", "properties": { "feature_type": "building", "subtype": "no-damage", "uid": "136dedec-bf15-486d-ae29-74ff3fe74154" }, "geometry": { "type": "Polygon", "coordinates": [ [ [ 258.000000093352298, 120.000000035505096 ], [ 258.000000094601717, 133.000000034170711 ], [ 246.000000097204008, 133.000000035170189 ], [ 246.000000094205404, 120.000000032506605 ], [ 258.000000093352298, 120.000000035505096 ] ] ] } },
{ "type": "Feature", "properties": { "feature_type": "building", "subtype": "no-damage", "uid": "ba8a6241-f3d8-4de0-8471-f3013dd41886" }, "geometry": { "type": "Polygon", "coordinates": [ [ [ 476.404663317877805, 126.297668425653796 ], [ 476.674438794707612, 141.2976684233453 ], [ 466.4046633130082, 141.675964337445492 ], [ 466.702331705079587, 126.108520467104398 ], [ 476.404663317877805, 126.297668425653796 ] ] ] } },
{ "type": "Feature", "properties": { "feature_type": "building", "subtype": "no-damage", "uid": "ab31f395-5457-4a2a-b900-f35f337839d4" }, "geometry": { "type": "Polygon", "coordinates": [ [ [ 70.687649391003404, 174.225007028432287 ], [ 44.687649390686254, 175.22500702694569 ], [ 43.687649393672558, 135.225007027437897 ], [ 69.687649394989222, 134.225007028924409 ], [ 70.687649391003404, 174.225007028432287 ] ] ] } },
{ "type": "Feature", "properties": { "feature_type": "building", "subtype": "no-damage", "uid": "d3c70777-05b0-4c8d-b03f-bf8664ad0a4d" }, "geometry": { "type": "Polygon", "coordinates": [ [ [ 489.296142882265315, 130.000000035631899 ], [ 488.161255143713277, 140.134887773548996 ], [ 478.972107186803385, 140.134887775548009 ], [ 478.593811272703419, 129.432556164981293 ], [ 489.296142882265315, 130.000000035631899 ] ] ] } },
{ "type": "Feature", "properties": { "feature_type": "building", "subtype": "no-damage", "uid": "121531cb-9c6b-4afe-9780-29c27d10ffe3" }, "geometry": { "type": "Polygon", "coordinates": [ [ [ 168.721956765606791, 153.314797146600995 ], [ 168.721956766106501, 187.314797145033197 ], [ 141.796420313973101, 195.499522040634787 ], [ 139.278043423558103, 192.591884488346892 ], [ 120.371361856735007, 192.277087378169313 ], [ 120.371361857984397, 170.629594256494414 ], [ 148.72195676361369, 170.314797147316312 ], [ 149.721956766124691, 153.314797145601489 ], [ 168.721956765606791, 153.314797146600995 ] ] ] } },
{ "type": "Feature", "properties": { "feature_type": "building", "subtype": "no-damage", "uid": "ccf8e7cf-f730-4b86-96db-4f38d2eb9e9b" }, "geometry": { "type": "Polygon", "coordinates": [ [ [ 245.325475283031693, 157.786450069000409 ], [ 245.325475285030791, 168.786450068640107 ], [ 223.325475281763886, 169.78645006715351 ], [ 223.325475283013304, 157.786450069000409 ], [ 245.325475283031693, 157.786450069000409 ] ] ] } },
{ "type": "Feature", "properties": { "feature_type": "building", "subtype": "no-damage", "uid": "33fd1fc4-94eb-4378-9a78-56ef81ae90b0" }, "geometry": { "type": "Polygon", "coordinates": [ [ [ 457.626858620464191, 156.383795849242802 ], [ 457.626858620714017, 189.383795853159597 ], [ 438.162041899068981, 189.07569376554099 ], [ 436.621531447733219, 157.308102123093192 ], [ 457.626858620464191, 156.383795849242802 ] ] ] } },
{ "type": "Feature", "properties": { "feature_type": "building", "subtype": "no-damage", "uid": "3cd832c0-210f-4568-9c6e-49ab979d9315" }, "geometry": { "type": "Polygon", "coordinates": [ [ [ 285.718700300782075, 166.000000035088988 ], [ 284.718700302518982, 189.000000031882507 ], [ 262.718700300751379, 188.000000033368991 ], [ 263.718700299764123, 165.000000032577589 ], [ 285.718700300782075, 166.000000035088988 ] ] ] } },
{ "type": "Feature", "properties": { "feature_type": "building", "subtype": "no-damage", "uid": "f89bb933-8ee9-4d33-a93e-d2370131a46f" }, "geometry": { "type": "Polygon", "coordinates": [ [ [ 412.702552351574809, 166.691897943984799 ], [ 412.702552351574809, 180.605549869552107 ], [ 401.890748174169005, 179.537553486080213 ], [ 400.658339812950373, 186.007697383043194 ], [ 358.464816815485676, 185.459489581769901 ], [ 358.156714725618315, 165.151387489899605 ], [ 412.702552351574809, 166.691897943984799 ] ] ] } },
{ "type": "Feature", "properties": { "feature_type": "building", "subtype": "no-damage", "uid": "abef3495-50cf-4b41-9135-0c860b8c2564" }, "geometry": { "type": "Polygon", "coordinates": [ [ [ 476.539551053419075, 171.458923469782007 ], [ 476.539551056667506, 190.458923471522297 ], [ 461.080627617357379, 189.513183688770511 ], [ 461.269775572908088, 169.945739816379586 ], [ 476.539551053419075, 171.458923469782007 ] ] ] } },
{ "type": "Feature", "properties": { "feature_type": "building", "subtype": "minor-damage", "uid": "04ce6dbf-6c2d-4908-bf7a-e66d17969aca" }, "geometry": { "type": "Polygon", "coordinates": [ [ [ 493.161255140276126, 171.054260250414302 ], [ 493.161255140526009, 173.054260250439711 ], [ 507.161255139447292, 173.05426025243861 ], [ 508.161255142957828, 189.054260252641598 ], [ 498.161255141336483, 189.054260250642614 ], [ 498.161255141836307, 193.054260249693812 ], [ 489.161255141976426, 193.054260252692302 ], [ 489.161255141476715, 189.054260249643107 ], [ 489.161255141476715, 181.054260250541091 ], [ 479.161255139855427, 182.054260251053506 ], [ 479.161255140605022, 174.054260250952098 ], [ 479.16125514435322, 171.054260248415289 ], [ 493.161255140276126, 171.054260250414302 ] ] ] } },
{ "type": "Feature", "properties": { "feature_type": "building", "subtype": "no-damage", "uid": "58cb3add-2c53-4847-a96d-73c1faa48928" }, "geometry": { "type": "Polygon", "coordinates": [ [ [ 74.000000095355745, 198.000000036494413 ], [ 74.000000093856485, 214.000000034698303 ], [ 68.000000093283546, 214.000000033698797 ], [ 68.000000094283052, 232.000000034926586 ], [ 39.000000096677937, 232.000000034926586 ], [ 39.000000096677937, 196.000000033470513 ], [ 68.000000093033677, 196.000000033470513 ], [ 68.000000094782806, 198.000000036494413 ], [ 74.000000095355745, 198.000000036494413 ] ] ] } },
{ "type": "Feature", "properties": { "feature_type": "building", "subtype": "minor-damage", "uid": "48583613-5164-41f0-be32-258fb37e4c7c" }, "geometry": { "type": "Polygon", "coordinates": [ [ [ 280.393225111133006, 197.000000035981913 ], [ 279.393225111120785, 220.00000003377491 ], [ 259.393225110876813, 219.000000036261014 ], [ 260.393225111388688, 197.000000035981913 ], [ 280.393225111133006, 197.000000035981913 ] ] ] } },
{ "type": "Feature", "properties": { "feature_type": "building", "subtype": "minor-damage", "uid": "5d336ecc-a3e5-4142-a965-307e9b6967b6" }, "geometry": { "type": "Polygon", "coordinates": [ [ [ 503.011195128979125, 209.985073317799902 ], [ 503.011195130478427, 231.985073319078396 ], [ 481.011195130459782, 231.985073319078396 ], [ 475.011195130886392, 232.985073320590288 ], [ 475.01119512888738, 215.985073318875493 ], [ 481.011195133458386, 215.985073319874999 ], [ 481.011195130959607, 210.985073321310807 ], [ 503.011195128979125, 209.985073317799902 ] ] ] } },
{ "type": "Feature", "properties": { "feature_type": "building", "subtype": "minor-damage", "uid": "c58aec20-5d49-4907-a514-6a55d36f87ba" }, "geometry": { "type": "Polygon", "coordinates": [ [ [ 397.000000093548579, 217.000000033237086 ], [ 397.000000093548579, 260.000000034282209 ], [ 376.000000097540294, 260.000000034282209 ], [ 376.000000092542791, 217.000000033237086 ], [ 397.000000093548579, 217.000000033237086 ] ] ] } },
{ "type": "Feature", "properties": { "feature_type": "building", "subtype": "minor-damage", "uid": "44e7c644-77d4-4982-8b1d-6ba182556f19" }, "geometry": { "type": "Polygon", "coordinates": [ [ [ 454.000000092994526, 220.000000031775897 ], [ 454.000000097492318, 233.000000035439001 ], [ 430.000000093201493, 233.000000036438507 ], [ 430.000000093201493, 220.00000003377491 ], [ 454.000000092994526, 220.000000031775897 ] ] ] } },
{ "type": "Feature", "properties": { "feature_type": "building", "subtype": "minor-damage", "uid": "9676fb5f-2013-40b3-928a-204a08e5c0ed" }, "geometry": { "type": "Polygon", "coordinates": [ [ [ 452.000000093220024, 275.000000033972697 ], [ 451.000000092707978, 281.00000003404881 ], [ 446.000000093146809, 281.00000003404881 ], [ 434.000000093749975, 280.000000033536423 ], [ 435.000000095261498, 259.000000033769822 ], [ 447.000000093908625, 260.000000033282674 ], [ 446.000000093396693, 275.000000033972697 ], [ 452.000000093220024, 275.000000033972697 ] ] ] } },
{ "type": "Feature", "properties": { "feature_type": "building", "subtype": "no-damage", "uid": "b984d00d-e80f-4ecc-a838-95fbf4858437" }, "geometry": { "type": "Polygon", "coordinates": [ [ [ 500.000000095054872, 262.000000032308492 ], [ 499.000000095042708, 280.000000034535788 ], [ 489.000000094421011, 279.000000034023515 ], [ 489.000000092921709, 281.00000003404881 ], [ 467.000000094152597, 280.000000033536423 ], [ 468.000000094164818, 261.000000031796105 ], [ 489.000000092671826, 261.000000033795118 ], [ 500.000000095054872, 262.000000032308492 ] ] ] } },
{ "type": "Feature", "properties": { "feature_type": "building", "subtype": "minor-damage", "uid": "39a3cb38-6c54-4691-9a84-6ad2536dd794" }, "geometry": { "type": "Polygon", "coordinates": [ [ [ 505.648071489044185, 302.189147988366813 ], [ 504.648071488032372, 317.189147990056313 ], [ 501.648071487246227, 317.189147991055677 ], [ 487.648071487825121, 316.189147989543812 ], [ 487.64807148757518, 308.189147990441825 ], [ 461.648071487757818, 307.189147992927872 ], [ 462.648071488269693, 286.189147992161793 ], [ 502.648071487758216, 287.189147990675281 ], [ 502.648071486758681, 302.189147988366813 ], [ 505.648071489044185, 302.189147988366813 ] ] ] } },
{ "type": "Feature", "properties": { "feature_type": "building", "subtype": "no-damage", "uid": "d7fc7aa7-9389-498c-bccf-119609cc5616" }, "geometry": { "type": "Polygon", "coordinates": [ [ [ 401.106994924641583, 289.37829594725099 ], [ 401.106994922892511, 315.378295947580682 ], [ 358.134887836110408, 314.243408209278073 ], [ 357.945739879060397, 286.675964337785274 ], [ 401.106994924641583, 289.37829594725099 ] ] ] } },
{ "type": "Feature", "properties": { "feature_type": "building", "subtype": "no-damage", "uid": "640e6332-487c-4d50-9211-2d1cdf269def" }, "geometry": { "type": "Polygon", "coordinates": [ [ [ 488.864500437573099, 334.572900101759785 ], [ 488.864500441071414, 347.572900102424512 ], [ 457.5390252496058, 347.966125119187325 ], [ 457.752575214593378, 334.179675082998017 ], [ 488.864500437573099, 334.572900101759785 ] ] ] } },
{ "type": "Feature", "properties": { "feature_type": "building", "subtype": "no-damage", "uid": "2f8c9d63-995a-471f-9bbe-ae08731c3e86" }, "geometry": { "type": "Polygon", "coordinates": [ [ [ 504.000000092854805, 350.000000033424726 ], [ 504.000000093354515, 369.000000034165396 ], [ 487.000000093147207, 368.000000034652487 ], [ 487.000000092897324, 362.000000034576374 ], [ 484.000000093860194, 362.000000033576896 ], [ 484.000000095359383, 352.000000036448625 ], [ 487.000000094146685, 352.000000034449613 ], [ 487.000000093396977, 350.000000035423682 ], [ 504.000000092854805, 350.000000033424726 ] ] ] } },
{ "type": "Feature", "properties": { "feature_type": "building", "subtype": "no-damage", "uid": "a984bb01-8f01-4323-8447-0921bacad007" }, "geometry": { "type": "Polygon", "coordinates": [ [ [ 471.000000093451774, 367.000000036139113 ], [ 471.00000009794951, 381.000000033318088 ], [ 460.00000009556652, 381.000000033318088 ], [ 461.000000093579615, 367.000000034139987 ], [ 471.000000093451774, 367.000000036139113 ] ] ] } },
{ "type": "Feature", "properties": { "feature_type": "building", "subtype": "no-damage", "uid": "f9dda691-e1eb-4c3e-a127-3ac79d267645" }, "geometry": { "type": "Polygon", "coordinates": [ [ [ 167.727461595076591, 372.164784397735389 ], [ 167.727461596825691, 379.119629771784389 ], [ 170.727461594613402, 379.119629771784389 ], [ 170.727461596112704, 395.119629774985924 ], [ 183.774815631356887, 394.164784397015012 ], [ 184.411379216503889, 396.756193355148412 ], [ 200.226361890200508, 397.119629772012672 ], [ 198.9080800993639, 416.029320520673878 ], [ 183.456533841032211, 416.347602311998173 ], [ 183.729661006316604, 421.846502607045295 ], [ 169.727461595600687, 422.119629772829626 ], [ 169.727461595350889, 439.119629772545409 ], [ 166.727461595564108, 439.119629772545409 ], [ 165.727461598550491, 445.11962977062251 ], [ 160.684506381495595, 446.347602311379205 ], [ 157.183406676929906, 449.984165895565127 ], [ 121.179007852152196, 452.530420225160015 ], [ 121.860726062089597, 381.93901126916262 ], [ 136.409179803624198, 374.300248275380397 ], [ 143.093097422680586, 369.891657232925297 ], [ 167.727461595076591, 372.164784397735389 ] ] ] } },
{ "type": "Feature", "properties": { "feature_type": "building", "subtype": "no-damage", "uid": "003c9f47-0210-41ec-a027-c104a786706f" }, "geometry": { "type": "Polygon", "coordinates": [ [ [ 510.000000095176915, 372.000000035702726 ], [ 510.000000095676626, 404.000000034109576 ], [ 488.000000094908501, 404.00000003510911 ], [ 488.000000094908501, 386.000000032881815 ], [ 484.000000094110078, 386.000000034880827 ], [ 485.000000093622475, 371.000000035190283 ], [ 489.000000093171479, 371.000000036189817 ], [ 510.000000095176915, 372.000000035702726 ] ] ] } },
{ "type": "Feature", "properties": { "feature_type": "building", "subtype": "major-damage", "uid": "e5e2f4d1-d946-41b2-b376-9503f02c1403" }, "geometry": { "type": "Polygon", "coordinates": [ [ [ 271.40126273795579, 398.809265048278689 ], [ 269.764699154795608, 440.718955800729873 ], [ 242.717345114383107, 441.946928340486977 ], [ 213.900163029483195, 439.992082965002226 ], [ 214.58188124017019, 381.127546841373714 ], [ 250.719544530273197, 379.89957430161661 ], [ 251.674389902996296, 399.400674005387316 ], [ 271.40126273795579, 398.809265048278689 ] ] ] } },
{ "type": "Feature", "properties": { "feature_type": "building", "subtype": "no-damage", "uid": "6977677e-fea7-46f0-be58-1053475d00e6" }, "geometry": { "type": "Polygon", "coordinates": [ [ [ 423.000000093615881, 412.00000003621011 ], [ 423.00000009261629, 430.00000003343979 ], [ 352.000000096498013, 429.000000033926881 ], [ 353.00000009326169, 411.00000003269912 ], [ 423.000000093615881, 412.00000003621011 ] ] ] } },
{ "type": "Feature", "properties": { "feature_type": "building", "subtype": "no-damage", "uid": "6d8fb172-03be-494f-9073-12cf72137c54" }, "geometry": { "type": "Polygon", "coordinates": [ [ [ 0.062869167665146, 425.146612846780727 ], [ 53.702922593293081, 426.407762536331916 ], [ 52.147580092837778, 459.963105033695513 ], [ 0.062875130203532, 460.395154589174581 ], [ 0.062869167665146, 425.146612846780727 ] ] ] } },
{ "type": "Feature", "properties": { "feature_type": "building", "subtype": "no-damage", "uid": "98263aa5-87b5-48f3-b74a-91544b5b5e19" }, "geometry": { "type": "Polygon", "coordinates": [ [ [ 388.000000093688698, 458.000000034794425 ], [ 385.000000093152323, 476.000000034023174 ], [ 351.000000093487188, 472.000000033972526 ], [ 348.000000096948895, 488.000000033175922 ], [ 335.00000009454152, 486.000000036149117 ], [ 337.000000092317009, 470.000000033947117 ], [ 340.000000092603386, 452.000000032719413 ], [ 388.000000093688698, 458.000000034794425 ] ] ] } },
{ "type": "Feature", "properties": { "feature_type": "building", "subtype": "no-damage", "uid": "fe8b7c69-8934-4d66-aeb4-26e2d5988a56" }, "geometry": { "type": "Polygon", "coordinates": [ [ [ 419.00000009406682, 474.000000033997878 ], [ 396.000000093286474, 475.000000034510322 ], [ 395.000000095273322, 457.000000034281982 ], [ 418.000000093055121, 456.000000033769595 ], [ 419.00000009406682, 474.000000033997878 ] ] ] } },
{ "type": "Feature", "properties": { "feature_type": "building", "subtype": "minor-damage", "uid": "5692e687-d6c5-4d38-82c9-6ce9793a7cc1" }, "geometry": { "type": "Polygon", "coordinates": [ [ [ 484.684825386998625, 464.674524847043983 ], [ 484.684825388247873, 482.674524845273424 ], [ 451.684825387345711, 483.674524845785811 ], [ 451.684825385346585, 464.674524847043983 ], [ 484.684825386998625, 464.674524847043983 ] ] ] } },
{ "type": "Feature", "properties": { "feature_type": "building", "subtype": "no-damage", "uid": "47b2612a-c127-4a32-9b44-b4d1080600ac" }, "geometry": { "type": "Polygon", "coordinates": [ [ [ 324.018658487718199, 911.996268356093196 ], [ 337.018658486877314, 915.99626835514448 ], [ 338.018658491137387, 911.996268354094241 ], [ 345.018658486724973, 913.996268355119128 ], [ 350.018658487535617, 898.996268355428583 ], [ 368.018658487755204, 905.996268354018071 ], [ 363.018658487444327, 920.996268355707571 ], [ 366.018658488730296, 921.996268356220071 ], [ 365.018658487468713, 925.996268355271241 ], [ 358.018658486883623, 945.99626835352592 ], [ 316.018658490119378, 931.996268356346945 ], [ 317.018658489881716, 927.996268356296127 ], [ 309.018658486285915, 928.996268356808628 ], [ 309.018658490033999, 884.996268353252049 ], [ 324.01865848646878, 884.996268353252049 ], [ 324.018658487718199, 911.996268356093196 ] ] ] } },
{ "type": "Feature", "properties": { "feature_type": "building", "subtype": "no-damage", "uid": "581140ed-a912-4f7a-94ad-8262856f3cf1" }, "geometry": { "type": "Polygon", "coordinates": [ [ [ 265.545837718235703, 930.151387491106334 ], [ 276.545837717370375, 933.151387492643607 ], [ 277.545837719131725, 930.151387491106334 ], [ 289.545837720527516, 933.151387491644186 ], [ 288.54583771726692, 936.15138749318146 ], [ 295.54583771785201, 938.151387492207277 ], [ 293.545837717077973, 945.151387492795834 ], [ 298.545837717638676, 947.151387493820721 ], [ 296.545837719113592, 957.151387490948991 ], [ 292.545837721063776, 971.151387494125061 ], [ 283.545837719704707, 969.151387492100753 ], [ 283.54583772195349, 970.151387493612674 ], [ 257.545837722386011, 963.151387491025162 ], [ 261.545837722184899, 948.151387492334152 ], [ 265.545837718235703, 930.151387491106334 ] ] ] } },
{ "type": "Feature", "properties": { "feature_type": "building", "subtype": "no-damage", "uid": "f2a3400f-da0e-43ea-a759-2b0970d45216" }, "geometry": { "type": "Polygon", "coordinates": [ [ [ 217.000000092602306, 878.000000032125286 ], [ 216.000000094089387, 896.000000034352638 ], [ 228.000000093486108, 896.000000034352638 ], [ 228.00000009498541, 921.000000034169943 ], [ 184.000000092199798, 919.000000033145056 ], [ 185.00000009521051, 895.000000033840138 ], [ 200.000000094394011, 895.000000033840138 ], [ 200.000000093894187, 878.000000035123776 ], [ 217.000000092602306, 878.000000032125286 ] ] ] } },
{ "type": "Feature", "properties": { "feature_type": "building", "subtype": "no-damage", "uid": "8aa7092d-82c8-469f-9803-f4a3acf064e7" }, "geometry": { "type": "Polygon", "coordinates": [ [ [ 168.524256004514399, 866.996268354023186 ], [ 178.524256003886705, 866.996268354023186 ], [ 179.524256007397213, 875.996268353637674 ], [ 168.524256005014109, 875.996268354637095 ], [ 168.524256004514399, 866.996268354023186 ] ] ] } },
{ "type": "Feature", "properties": { "feature_type": "building", "subtype": "minor-damage", "uid": "55a07587-1700-44b6-9e77-7404358bea89" }, "geometry": { "type": "Polygon", "coordinates": [ [ [ 161.63650812066129, 869.687282150086389 ], [ 161.6365081176628, 879.687282151212685 ], [ 170.636508116773086, 879.68728215321164 ], [ 172.64397147472161, 910.687282150106626 ], [ 161.636508117412887, 910.687282151106047 ], [ 141.636508116669205, 910.687282150106626 ], [ 140.879916291217796, 901.633021932731594 ], [ 131.123324463907409, 902.011317847831265 ], [ 122.312472424096001, 901.254726021629835 ], [ 121.745028551196796, 888.443873978515057 ], [ 132.636508120807292, 887.687282151314093 ], [ 132.636508116309614, 879.30898623811197 ], [ 141.01480403375561, 878.741542368460841 ], [ 140.636508117156808, 869.68728215308488 ], [ 161.63650812066129, 869.687282150086389 ] ] ] } },
{ "type": "Feature", "properties": { "feature_type": "building", "subtype": "no-damage", "uid": "e3a66ec3-0dc3-4a3d-bf9e-f205622c4ff7" }, "geometry": { "type": "Polygon", "coordinates": [ [ [ 145.000000092973409, 807.000000033723609 ], [ 145.000000092973409, 827.000000034976665 ], [ 138.000000092138407, 827.000000034976665 ], [ 137.000000097123689, 841.000000032155754 ], [ 116.000000093619207, 840.000000036640813 ], [ 116.000000093619207, 827.000000034976665 ], [ 117.000000094380994, 807.000000033723609 ], [ 145.000000092973409, 807.000000033723609 ] ] ] } },
{ "type": "Feature", "properties": { "feature_type": "building", "subtype": "no-damage", "uid": "34776b45-88c4-43c6-9452-85bfc66cd19f" }, "geometry": { "type": "Polygon", "coordinates": [ [ [ 194.000000094070913, 767.000000036214715 ], [ 194.00000009332129, 785.000000032444973 ], [ 180.00000009240091, 785.000000034444042 ], [ 180.000000093150504, 798.000000034109121 ], [ 163.000000095192007, 798.0000000331097 ], [ 163.000000094692211, 767.000000033216224 ], [ 180.000000092900592, 767.000000036214715 ], [ 194.000000094070913, 767.000000036214715 ] ] ] } },
{ "type": "Feature", "properties": { "feature_type": "building", "subtype": "no-damage", "uid": "c9a12497-dfc6-46d4-99d4-3fdb566ddb7b" }, "geometry": { "type": "Polygon", "coordinates": [ [ [ 125.000000092479596, 748.00000003447451 ], [ 149.00000009277241, 748.000000036473466 ], [ 149.000000095770787, 770.000000032754542 ], [ 125.000000094478594, 771.000000033266929 ], [ 125.000000092479596, 748.00000003447451 ] ] ] } },
{ "type": "Feature", "properties": { "feature_type": "building", "subtype": "no-damage", "uid": "bbfc958c-e9df-41de-b6e4-5830e990a260" }, "geometry": { "type": "Polygon", "coordinates": [ [ [ 283.573283600489901, 760.224553315229173 ], [ 283.573283600240018, 765.224553317791333 ], [ 279.573283600191189, 766.224553316304764 ], [ 279.573283599691479, 777.22455331794356 ], [ 287.573283601288324, 777.22455332094205 ], [ 287.57328360303751, 767.224553316817151 ], [ 300.573283601446917, 767.22455331581773 ], [ 300.573283600697323, 777.22455331794356 ], [ 301.573283600459604, 791.224553315122535 ], [ 279.573283601190781, 791.224553315122535 ], [ 259.573283599947274, 791.224553315122535 ], [ 259.57328359919768, 786.224553318557469 ], [ 253.573283599624204, 787.224553316071365 ], [ 253.573283600124, 771.224553315868434 ], [ 252.573283602860414, 761.22455331874005 ], [ 259.573283598947796, 761.224553317740629 ], [ 259.573283601196692, 752.224553316127185 ], [ 279.573283599941419, 752.22455331712672 ], [ 279.573283599191825, 760.224553317228128 ], [ 283.573283600489901, 760.224553315229173 ] ] ] } },
{ "type": "Feature", "properties": { "feature_type": "building", "subtype": "no-damage", "uid": "408010c6-6ced-4924-914e-370d16feb775" }, "geometry": { "type": "Polygon", "coordinates": [ [ [ 336.689537936702493, 748.367781904936919 ], [ 342.689537935776173, 748.367781904936919 ], [ 342.689537936026113, 755.367781903526406 ], [ 336.689537937702028, 755.367781902526872 ], [ 336.689537936702493, 748.367781904936919 ] ] ] } },
{ "type": "Feature", "properties": { "feature_type": "building", "subtype": "no-damage", "uid": "c18d1529-45f0-4d08-a3fc-4bafee474b7b" }, "geometry": { "type": "Polygon", "coordinates": [ [ [ 347.057319806287126, 742.609205213061728 ], [ 354.057319806622388, 742.609205213061728 ], [ 354.057319807871806, 750.609205214162671 ], [ 347.057319806037185, 750.609205214162671 ], [ 347.057319806287126, 742.609205213061728 ] ] ] } },
{ "type": "Feature", "properties": { "feature_type": "building", "subtype": "no-damage", "uid": "7caeda7a-7460-4bc5-828d-8b7a34529426" }, "geometry": { "type": "Polygon", "coordinates": [ [ [ 348.774226965762807, 723.636563617305796 ], [ 359.77422696514742, 724.636563614819693 ], [ 360.092508756721372, 736.909690782755206 ], [ 347.77422696350169, 736.546254367889901 ], [ 348.774226965762807, 723.636563617305796 ] ] ] } },
{ "type": "Feature", "properties": { "feature_type": "building", "subtype": "no-damage", "uid": "f8f986bc-ed57-4782-b83b-973e514c01b8" }, "geometry": { "type": "Polygon", "coordinates": [ [ [ 331.275730169152894, 716.976987086192821 ], [ 331.27573016590452, 721.976987084756956 ], [ 341.275730166276276, 721.976987085756491 ], [ 341.275730165776622, 739.97698708498524 ], [ 333.275730167428208, 739.97698708498524 ], [ 333.275730168427572, 743.976987083036988 ], [ 319.275730166007975, 743.976987084036523 ], [ 319.275730166757626, 739.97698708498524 ], [ 313.275730165934817, 739.976987083985705 ], [ 312.27573016617248, 721.976987084756956 ], [ 320.27573016627008, 721.976987084756956 ], [ 320.275730165270488, 716.976987085193286 ], [ 331.275730169152894, 716.976987086192821 ] ] ] } },
{ "type": "Feature", "properties": { "feature_type": "building", "subtype": "no-damage", "uid": "c4ced686-1a49-4cbf-93aa-d7cd2eba8b4f" }, "geometry": { "type": "Polygon", "coordinates": [ [ [ 374.000000092768289, 680.000000036610572 ], [ 485.000000094122299, 679.000000035098651 ], [ 486.000000097382781, 694.000000033789661 ], [ 374.000000093517883, 694.000000033789661 ], [ 374.000000092768289, 680.000000036610572 ] ] ] } },
{ "type": "Feature", "properties": { "feature_type": "building", "subtype": "no-damage", "uid": "fc4887ae-20dc-4965-8104-b9e420321f5a" }, "geometry": { "type": "Polygon", "coordinates": [ [ [ 390.78496058734811, 649.222142069994561 ], [ 489.746398044705813, 649.329481413168423 ], [ 490.114179913168925, 672.28345551418488 ], [ 391.175755407198096, 671.86964774494686 ], [ 390.78496058734811, 649.222142069994561 ] ] ] } },
{ "type": "Feature", "properties": { "feature_type": "building", "subtype": "no-damage", "uid": "b2af5270-e019-4467-aad7-eb11b5a47b82" }, "geometry": { "type": "Polygon", "coordinates": [ [ [ 377.52052432760189, 625.50186587290159 ], [ 491.52052432749332, 626.50186587341409 ], [ 491.520524330741694, 641.501865874104055 ], [ 377.520524327352121, 640.501865873591555 ], [ 377.52052432760189, 625.50186587290159 ] ] ] } },
{ "type": "Feature", "properties": { "feature_type": "building", "subtype": "no-damage", "uid": "a633c504-5fcb-40d1-b2ba-8edef7874f3e" }, "geometry": { "type": "Polygon", "coordinates": [ [ [ 459.269775576881727, 555.486816383147357 ], [ 459.26977557388318, 587.486816381554263 ], [ 454.269775573572417, 587.486816381554263 ], [ 454.269775573322477, 598.486816380194455 ], [ 421.269775572920025, 598.486816382193524 ], [ 420.269775576905772, 587.486816381554263 ], [ 416.269775575607582, 587.486816381554263 ], [ 416.269775573608626, 555.486816381148401 ], [ 459.269775576881727, 555.486816383147357 ] ] ] } },
{ "type": "Feature", "properties": { "feature_type": "building", "subtype": "no-damage", "uid": "3612cdb5-4bb2-4dc2-aba2-52f5dc66cbec" }, "geometry": { "type": "Polygon", "coordinates": [ [ [ 366.760967476517123, 603.767983394121643 ], [ 365.760967473256528, 651.767983393730901 ], [ 333.760967475864618, 650.767983394217936 ], [ 334.760967473627886, 602.767983393609143 ], [ 328.760967472805078, 602.767983393609143 ], [ 328.760967472805078, 576.767983395278407 ], [ 366.760967473518519, 577.767983393791837 ], [ 366.760967476517123, 603.767983394121643 ] ] ] } },
{ "type": "Feature", "properties": { "feature_type": "building", "subtype": "minor-damage", "uid": "26248b1c-4e47-45d5-843d-85bca8c6759b" }, "geometry": { "type": "Polygon", "coordinates": [ [ [ 173.000000093065097, 640.000000034104232 ], [ 201.000000093156814, 639.000000034591267 ], [ 201.000000093406612, 651.000000033743959 ], [ 173.000000093065097, 652.000000035255994 ], [ 173.000000093065097, 640.000000034104232 ] ] ] } },
{ "type": "Feature", "properties": { "feature_type": "building", "subtype": "major-damage", "uid": "d4ec8045-1eda-46ad-94ff-fa3ffdf5d230" }, "geometry": { "type": "Polygon", "coordinates": [ [ [ 253.124177035421098, 578.00000003331786 ], [ 253.124177036170693, 602.000000033622314 ], [ 249.124177034872503, 602.000000033622314 ], [ 249.124177033872996, 616.000000032800358 ], [ 225.124177033830108, 616.000000034799314 ], [ 225.124177035579294, 565.000000035651738 ], [ 249.124177034122908, 565.000000035651738 ], [ 249.124177033872996, 578.000000034317395 ], [ 253.124177035421098, 578.00000003331786 ] ] ] } },
{ "type": "Feature", "properties": { "feature_type": "building", "subtype": "major-damage", "uid": "aca592df-d474-4ae2-a1ea-92dbb6ccab30" }, "geometry": { "type": "Polygon", "coordinates": [ [ [ 177.007463452037513, 571.498134194753902 ], [ 207.531719362914203, 571.996268355778966 ], [ 206.531719362652098, 611.996268355286816 ], [ 178.014926810973293, 610.490670838823689 ], [ 177.007463452037513, 571.498134194753902 ] ] ] } },
{ "type": "Feature", "properties": { "feature_type": "building", "subtype": "minor-damage", "uid": "430de299-e7c0-4ee9-944f-10a9508c1270" }, "geometry": { "type": "Polygon", "coordinates": [ [ [ 75.513060969742185, 868.520524265796325 ], [ 68.513060969157053, 888.520524266049961 ], [ 65.513060970369835, 887.52052426753653 ], [ 59.513060968047768, 903.52052426474097 ], [ 32.513060970716928, 894.520524268125087 ], [ 38.513060967791603, 877.520524267409655 ], [ 45.513060967627112, 857.52052426715602 ], [ 75.513060969742185, 868.520524265796325 ] ] ] } },
{ "type": "Feature", "properties": { "feature_type": "building", "subtype": "no-damage", "uid": "204bf61e-f118-41a2-8cc6-2f889fe16e8a" }, "geometry": { "type": "Polygon", "coordinates": [ [ [ 491.000000094695224, 0.006544603272731 ], [ 491.000000093945573, 8.000000034084584 ], [ 500.000000094555105, 8.000000034084584 ], [ 506.000000095128087, 8.000000034084584 ], [ 506.000000097376926, 18.000000034211411 ], [ 501.00000009481721, 18.000000034211411 ], [ 501.000000093817675, 24.000000036286519 ], [ 492.000000093208087, 24.000000033288011 ], [ 480.000000095560608, 24.000000033288011 ], [ 479.000272215635277, 0.006530926066248 ], [ 491.000000094695224, 0.006544603272731 ] ] ] } },
{ "type": "Feature", "properties": { "feature_type": "building", "subtype": "no-damage", "uid": "0772ebb6-df6a-460f-996f-5d77e849e722" }, "geometry": { "type": "Polygon", "coordinates": [ [ [ 366.562599680743119, 10.572900102648029 ], [ 367.742274731530927, 18.57290010274949 ], [ 342.325475283965091, 18.57290010274949 ], [ 343.505150335502492, 9.393225050360392 ], [ 366.562599680743119, 10.572900102648029 ] ] ] } },
{ "type": "Feature", "properties": { "feature_type": "building", "subtype": "no-damage", "uid": "0fafb194-6867-4742-adc5-4018b5a2a59f" }, "geometry": { "type": "Polygon", "coordinates": [ [ [ 191.000000095283696, 706.000000035940843 ], [ 191.000000092535004, 719.000000034606501 ], [ 183.000000093187111, 719.000000034606501 ], [ 183.000000094186589, 716.000000034068648 ], [ 167.000000093991389, 717.000000034581035 ], [ 167.000000092492087, 720.000000033119932 ], [ 160.000000095904994, 720.000000035118887 ], [ 159.000000093893789, 706.000000033941774 ], [ 191.000000095283696, 706.000000035940843 ] ] ] } },
{ "type": "Feature", "properties": { "feature_type": "building", "subtype": "no-damage", "uid": "d2c0aa3c-a931-4372-8b52-4ba83817cc81" }, "geometry": { "type": "Polygon", "coordinates": [ [ [ 146.026016874214406, 198.748923492601989 ], [ 168.34547576188919, 199.127219408701194 ], [ 164.940812542235108, 204.23421423756011 ], [ 182.72072046670641, 206.125693804063189 ], [ 182.909868426505, 225.986229253845408 ], [ 143.377945482010801, 222.770713989490702 ], [ 145.080277095211187, 198.370627579501189 ], [ 146.026016874214406, 198.748923492601989 ] ] ] } },
{ "type": "Feature", "properties": { "feature_type": "building", "subtype": "no-damage", "uid": "90fefd70-fd12-4e98-ad37-60f756fa78f7" }, "geometry": { "type": "Polygon", "coordinates": [ [ [ 354.869043172545389, 0.006030686536966 ], [ 355.414397794752517, 6.03194456210074 ], [ 337.217717550046416, 5.940961162872424 ], [ 337.399684352250972, 0.845890694142336 ], [ 337.490032248885711, 0.00590844025712 ], [ 354.869043172545389, 0.006030686536966 ] ] ] } },
{ "type": "Feature", "properties": { "feature_type": "building", "subtype": "no-damage", "uid": "6ceddd8b-fafc-460e-b5a9-82c9612417aa" }, "geometry": { "type": "Polygon", "coordinates": [ [ [ 596.416160194303643, 834.199886778123187 ], [ 597.419891871778646, 833.69802093863575 ], [ 633.052366466618651, 836.709215975560028 ], [ 630.543037272431434, 870.334227214216867 ], [ 594.408696836605031, 868.828629696754319 ], [ 596.416160194303643, 834.199886778123187 ] ] ] } },
{ "type": "Feature", "properties": { "feature_type": "building", "subtype": "major-damage", "uid": "a8b7c9eb-41a6-45c9-bdea-c8a01d2f2109" }, "geometry": { "type": "Polygon", "coordinates": [ [ [ 567.019583062444326, 483.979574037788325 ], [ 561.473745434336934, 483.671471945172186 ], [ 562.398051704188902, 460.563815173873991 ], [ 560.549439163985198, 449.472139925650026 ], [ 571.641114411704166, 451.012650376736588 ], [ 570.716808141102661, 440.537179309746875 ], [ 576.262645767710751, 440.229077218130215 ], [ 574.722135315625223, 436.223750044105373 ], [ 592.283954461553435, 435.299443773253415 ], [ 594.440669094373106, 441.769587669216889 ], [ 596.597383725193822, 450.088344105884687 ], [ 599.678404627615578, 455.326079640379078 ], [ 598.445996267896248, 483.363369857553607 ], [ 567.019583062444326, 483.979574037788325 ] ] ] } },
{ "type": "Feature", "properties": { "feature_type": "building", "subtype": "no-damage", "uid": "c1aa9451-0507-490b-b5a8-f01c619dd887" }, "geometry": { "type": "Polygon", "coordinates": [ [ [ 0.062826229742562, 304.228266286197197 ], [ 6.110702382313822, 304.184578891878289 ], [ 7.383829544861777, 345.561211774032472 ], [ 20.115101200326428, 345.561211774032472 ], [ 22.343073742094219, 342.696675652113811 ], [ 39.848572268170713, 343.651521028085824 ], [ 42.39482660276191, 385.982999286211907 ], [ 38.893726897946422, 391.712071527050909 ], [ 0.062860082927567, 389.341723270296086 ], [ 0.062826229742562, 304.228266286197197 ] ] ] } },
{ "type": "Feature", "properties": { "feature_type": "building", "subtype": "no-damage", "uid": "fac89786-b6a7-4c28-81a9-959989d7c65f" }, "geometry": { "type": "Polygon", "coordinates": [ [ [ 0.062852973708741, 660.16909987387794 ], [ 66.843674255860023, 659.212591564890658 ], [ 67.093056366895681, 650.733599762687618 ], [ 79.063397736837118, 651.232363985758752 ], [ 78.065869289695996, 679.661924738789935 ], [ 0.06284545419371, 680.329530420719607 ], [ 0.062852973708741, 660.16909987387794 ] ] ] } },
{ "type": "Feature", "properties": { "feature_type": "building", "subtype": "no-damage", "uid": "75cf6f57-38f6-4b9e-bb96-177d941235b9" }, "geometry": { "type": "Polygon", "coordinates": [ [ [ 492.984672581698817, 721.801982403192596 ], [ 468.046461393925085, 721.801982401193641 ], [ 467.547697173852782, 706.83905568907187 ], [ 483.508152330109908, 705.342763017859738 ], [ 484.006916555179714, 710.579787368601501 ], [ 492.735290471162898, 711.577315815743191 ], [ 492.984672581698817, 721.801982403192596 ] ] ] } },
{ "type": "Feature", "properties": { "feature_type": "building", "subtype": "no-damage", "uid": "3f75bfce-dde4-475b-a73e-513c84e57a0c" }, "geometry": { "type": "Polygon", "coordinates": [ [ [ 473.668435325115183, 797.027984843444074 ], [ 473.917817440398778, 820.220521248731984 ], [ 456.959833834001984, 819.472374909627661 ], [ 455.962305386111325, 824.210635035299447 ], [ 439.253703886002597, 825.208163483440558 ], [ 437.757411214791091, 821.467431805909882 ], [ 426.285834068919996, 821.966196028980903 ], [ 427.782126741380921, 797.526749065515673 ], [ 473.668435325115183, 797.027984843444074 ] ] ] } },
{ "type": "Feature", "properties": { "feature_type": "building", "subtype": "no-damage", "uid": "b89b1f0d-ced0-495a-8a23-955a434e714a" }, "geometry": { "type": "Polygon", "coordinates": [ [ [ 605.584304909596995, 748.430074534970345 ], [ 605.704261972255608, 738.473638574433153 ], [ 629.455759804941749, 738.353681514523032 ], [ 628.65002246948643, 776.837935901162723 ], [ 605.006935848573335, 775.274756616764535 ], [ 605.584304909596995, 748.430074534970345 ] ] ] } },
{ "type": "Feature", "properties": { "feature_type": "building", "subtype": "no-damage", "uid": "737aa5f4-e3a1-4524-9cd1-546675323140" }, "geometry": { "type": "Polygon", "coordinates": [ [ [ 633.311379426478084, 726.7785097437079 ], [ 619.096599050968848, 724.534070738388891 ], [ 621.091655946000742, 711.566200919550852 ], [ 634.558289986154136, 715.556314709116805 ], [ 633.311379426478084, 726.7785097437079 ] ] ] } },
{ "type": "Feature", "properties": { "feature_type": "building", "subtype": "no-damage", "uid": "498cfe81-3382-4f4c-b722-eab8ed0fff19" }, "geometry": { "type": "Polygon", "coordinates": [ [ [ 465.243712510321018, 1022.982506690468995 ], [ 465.243712485583274, 1005.92498351871302 ], [ 469.737852923353273, 1004.752599058163014 ], [ 469.933250332278703, 1001.23544567351496 ], [ 492.208555081967916, 1001.040048265089013 ], [ 491.461601163084595, 1022.982543967953006 ], [ 465.243712510321018, 1022.982506690468995 ] ] ] } },
{ "type": "Feature", "properties": { "feature_type": "building", "subtype": "no-damage", "uid": "2bb96214-51e5-4051-8c61-783cb67add86" }, "geometry": { "type": "Polygon", "coordinates": [ [ [ 402.65559605830731, 999.167217524649004 ], [ 404.023377926532817, 979.627476511151599 ], [ 410.080697640204392, 980.409066152850869 ], [ 410.862287279154714, 972.397772336427352 ], [ 427.471067138770422, 972.788567158276578 ], [ 427.861861957620818, 983.14462989480046 ], [ 435.286963545015112, 983.926219535500309 ], [ 434.89616872341611, 1003.46596054500003 ], [ 402.65559605830731, 999.167217524649004 ] ] ] } },
{ "type": "Feature", "properties": { "feature_type": "building", "subtype": "no-damage", "uid": "95301957-a454-4d41-a47a-54eba7e4543d" }, "geometry": { "type": "Polygon", "coordinates": [ [ [ 394.644883654847774, 951.364611780624614 ], [ 392.300114736747616, 973.835313945496978 ], [ 378.036103794732412, 970.904352793122598 ], [ 381.553257176880379, 948.238253218824866 ], [ 394.644883654847774, 951.364611780624614 ] ] ] } },
{ "type": "Feature", "properties": { "feature_type": "building", "subtype": "no-damage", "uid": "1b09787a-e802-4911-9dee-5a75f779e638" }, "geometry": { "type": "Polygon", "coordinates": [ [ [ 765.686378175902291, 327.564021113395484 ], [ 740.223834864223363, 326.609175739422597 ], [ 738.314144113779662, 288.097078979187017 ], [ 743.406652775215889, 288.733642559836596 ], [ 744.361498150437797, 281.731443148703022 ], [ 757.092769806901856, 282.686288525674399 ], [ 765.686378177651363, 283.004570314000205 ], [ 767.27778713477187, 322.78979423953291 ], [ 765.686378175902291, 327.564021113395484 ] ] ] } },
{ "type": "Feature", "properties": { "feature_type": "building", "subtype": "destroyed", "uid": "db48839b-ce3b-4a53-a96b-73ada40e65d8" }, "geometry": { "type": "Polygon", "coordinates": [ [ [ 814.615759200691514, 303.319137940416908 ], [ 815.363905536797006, 295.338910361285002 ], [ 830.326832248411733, 297.583349368603024 ], [ 828.581157466914306, 324.267235339386275 ], [ 794.415808137587874, 317.284536207396116 ], [ 796.909629260188353, 301.822845270204311 ], [ 814.615759200691514, 303.319137940416908 ] ] ] } },
{ "type": "Feature", "properties": { "feature_type": "building", "subtype": "minor-damage", "uid": "b8f40cac-6a7a-4c50-81c9-82db2adab973" }, "geometry": { "type": "Polygon", "coordinates": [ [ [ 1018.720036256903995, 324.738175162933715 ], [ 999.623128770708263, 323.146766210310204 ], [ 999.941410561782504, 316.462848589501277 ], [ 996.122029063893706, 316.144566796178026 ], [ 996.758592646292072, 294.501404980128484 ], [ 1023.039550596815957, 296.036706219648693 ], [ 1023.039555782239972, 306.232360555584592 ], [ 1020.311445211524983, 305.959549469802425 ], [ 1018.720036256903995, 324.738175162933715 ] ] ] } },
{ "type": "Feature", "properties": { "feature_type": "building", "subtype": "no-damage", "uid": "e8992dc7-9331-41d3-a3d9-cdff784728e7" }, "geometry": { "type": "Polygon", "coordinates": [ [ [ 1023.03944764845005, 148.394877282954496 ], [ 1016.423459970604995, 147.70937720923169 ], [ 1016.729657941255027, 118.620570314058199 ], [ 1023.039419654605013, 117.649672755261506 ], [ 1023.03944764845005, 148.394877282954496 ] ] ] } },
{ "type": "Feature", "properties": { "feature_type": "building", "subtype": "no-damage", "uid": "7b100a80-d5c1-45a6-a1eb-85bca8bbfb94" }, "geometry": { "type": "Polygon", "coordinates": [ [ [ 867.072497062037428, 0.003874883331936 ], [ 868.318959328882102, 10.777765487297041 ], [ 865.076991875673457, 26.738220648559381 ], [ 840.886927021256611, 24.244399530205591 ], [ 840.138912321766838, 0.004265722200907 ], [ 867.072497062037428, 0.003874883331936 ] ] ] } },
{ "type": "Feature", "properties": { "feature_type": "building", "subtype": "no-damage", "uid": "2669a833-db6e-4940-97be-4a06a1387ca3" }, "geometry": { "type": "Polygon", "coordinates": [ [ [ 217.588969969460294, 17.624827114908779 ], [ 209.015426880965094, 17.012431181104709 ], [ 209.168525866165197, 9.663679963461895 ], [ 218.66066285461639, 10.27607590026447 ], [ 217.588969969460294, 17.624827114908779 ] ] ] } },
{ "type": "Feature", "properties": { "feature_type": "building", "subtype": "no-damage", "uid": "b30c9e53-500a-4578-a143-6d2f95bef907" }, "geometry": { "type": "Polygon", "coordinates": [ [ [ 179.722883763797796, 104.813419309112206 ], [ 179.972265874833511, 69.899923646162208 ], [ 206.406769733068899, 71.396216317374382 ], [ 206.905533957888792, 74.887565883869271 ], [ 219.624021667683905, 75.136947997903562 ], [ 219.624021663186113, 103.815890862970093 ], [ 199.922834825402191, 102.568980302793705 ], [ 199.922834824402713, 105.810947757253302 ], [ 179.722883763797796, 104.813419309112206 ] ] ] } },
{ "type": "Feature", "properties": { "feature_type": "building", "subtype": "major-damage", "uid": "684d07d0-44a5-431f-bdb5-834330aff6e1" }, "geometry": { "type": "Polygon", "coordinates": [ [ [ 769.944448754894438, 623.112382525613043 ], [ 754.981522040031336, 622.114854078471467 ], [ 754.482757816710659, 599.171699786218369 ], [ 774.682708880064183, 598.922317673183557 ], [ 773.934562543458924, 582.463098290849189 ], [ 802.114741187189907, 581.964334065779099 ], [ 802.613505413009307, 595.181585993653925 ], [ 808.099911872535358, 594.682821770582791 ], [ 811.341879325744117, 655.532057071208783 ], [ 804.608562304043176, 655.532057070209248 ], [ 803.61103386164973, 662.514756203199113 ], [ 778.922204781913251, 660.519699307916426 ], [ 778.174058447306948, 655.532057070209248 ], [ 769.695066640610321, 655.033292847138227 ], [ 769.944448754894438, 623.112382525613043 ] ] ] } },
{ "type": "Feature", "properties": { "feature_type": "building", "subtype": "minor-damage", "uid": "d09ce76a-fd0b-4cde-8128-72143dd562a9" }, "geometry": { "type": "Polygon", "coordinates": [ [ [ 873.509443732175669, 638.717395170412829 ], [ 843.027447755892013, 640.085177041387738 ], [ 842.832050346966525, 636.37262625231142 ], [ 845.958408908764795, 635.786434022036474 ], [ 846.153806319439468, 629.729114304863742 ], [ 873.118648911326204, 629.33831948601312 ], [ 873.900238552025598, 633.832459918787663 ], [ 873.509443732175669, 638.717395170412829 ] ] ] } },
{ "type": "Feature", "properties": { "feature_type": "building", "subtype": "minor-damage", "uid": "3061162f-fc7d-47d8-9517-8d911acf3fac" }, "geometry": { "type": "Polygon", "coordinates": [ [ [ 484.15660066556012, 424.123559864764616 ], [ 485.194017278110323, 446.502118246775183 ], [ 470.818387060028897, 462.952581690215027 ], [ 460.592423297895607, 463.397188811307501 ], [ 443.697352734620893, 448.280546725148099 ], [ 442.215328997979896, 426.198393091865114 ], [ 484.15660066556012, 424.123559864764616 ] ] ] } }
]
}
