{
"type": "FeatureCollection",
"name": "hurricane-michael_00000173_post_disaster",
"features": [
{ "type": "Feature", "properties": { "feature_type": "building", "subtype": "no-damage", "uid": "2a5b8d5e-ea29-436c-bd4b-35df93c3a51a" }, "geometry": { "type": "Polygon", "coordinates": [ [ [ 115.566774408007305, 4.399774698415487 ], [ 94.160222074624613, 36.78404617534872 ], [ 84.005831865885014, 28.550756816315101 ], [ 79.889187186618983, 34.03961638933734 ], [ 72.204783783040256, 29.922971713818441 ], [ 71.930340805438661, 25.257441074100932 ], [ 57.384862937832473, 16.475265757865031 ], [ 70.830412286658742, 0.002642184174059 ], [ 109.259364877842998, 0.003331133862858 ], [ 115.566774408007305, 4.399774698415487 ] ] ] } },
{ "type": "Feature", "properties": { "feature_type": "building", "subtype": "no-damage", "uid": "1acafbcf-426a-484a-9673-ab9bf7061d80" }, "geometry": { "type": "Polygon", "coordinates": [ [ [ 140.815528440555795, 61.209471274348168 ], [ 101.2957395222505, 43.919563618978309 ], [ 117.487875257215407, 7.693090440629665 ], [ 132.033353128819499, 12.63306405545015 ], [ 134.228896954879502, 8.516419377932294 ], [ 139.762780763095492, 11.45338900325889 ], [ 149.872146738139406, 15.651936821561881 ], [ 149.048817801586495, 19.49413852497625 ], [ 155.63544928801241, 20.317467457281492 ], [ 140.815528441305389, 61.483914255447999 ], [ 140.815528440555795, 61.209471274348168 ] ] ] } },
{ "type": "Feature", "properties": { "feature_type": "building", "subtype": "no-damage", "uid": "e29d1382-0280-4488-a1e6-0a976864d4f1" }, "geometry": { "type": "Polygon", "coordinates": [ [ [ 184.997036236576605, 79.573778921316389 ], [ 145.066285121841389, 70.644117281396973 ], [ 161.072282403904097, 16.72917906370234 ], [ 183.817646964926297, 23.3000621593212 ], [ 182.97522605421301, 30.881850347496322 ], [ 186.681878055254487, 32.903660527611457 ], [ 186.344909690819293, 36.778796712745383 ], [ 193.926697877993206, 38.969091076952189 ], [ 184.997036237076287, 80.079231466595047 ], [ 184.997036236576605, 79.573778921316389 ] ] ] } },
{ "type": "Feature", "properties": { "feature_type": "building", "subtype": "no-damage", "uid": "dedda0d2-b51e-41dd-9483-ad0be1c16859" }, "geometry": { "type": "Polygon", "coordinates": [ [ [ 230.318423842152299, 77.608225393746594 ], [ 211.617536979983214, 75.36167437399601 ], [ 211.617536980233098, 78.562873828760132 ], [ 197.80183406162709, 78.39438964666742 ], [ 201.845454431601411, 28.860040163383271 ], [ 220.378714444304592, 29.702461069848919 ], [ 220.715682803742396, 37.452733440116752 ], [ 231.835638811864101, 37.452733440116752 ], [ 233.126969835269591, 77.551968738202817 ], [ 230.318423842152299, 77.608225393746594 ] ] ] } },
{ "type": "Feature", "properties": { "feature_type": "building", "subtype": "no-damage", "uid": "69ce5afa-4c7f-44b3-be4f-cb2e3e6450e2" }, "geometry": { "type": "Polygon", "coordinates": [ [ [ 274.920000130635572, 35.440000048965963 ], [ 273.450000127396379, 79.800000046782728 ], [ 238.94062898783281, 81.975990879539538 ], [ 238.238895058515396, 77.945193755933062 ], [ 236.778222518641286, 74.350483503897465 ], [ 235.205322450219398, 40.485448715786582 ], [ 235.372870266018793, 34.771798555146418 ], [ 274.920000130635572, 35.440000048965963 ] ] ] } },
{ "type": "Feature", "properties": { "feature_type": "building", "subtype": "no-damage", "uid": "c8ddeda7-0935-4c04-9cb1-56f7c24ac210" }, "geometry": { "type": "Polygon", "coordinates": [ [ [ 306.453601730694118, 28.459610046820501 ], [ 307.551373645348292, 34.497355576045543 ], [ 312.491347260417626, 38.339557277460948 ], [ 321.822408534353372, 38.06511429935955 ], [ 321.547965557751297, 76.761574286617645 ], [ 273.960000131916388, 79.770000048368814 ], [ 275.420000127521917, 35.450000049103579 ], [ 284.22372046375699, 35.595127492449038 ], [ 285.321492377411687, 28.1851670687191 ], [ 306.453601730694118, 28.459610046820501 ] ] ] } },
{ "type": "Feature", "properties": { "feature_type": "building", "subtype": "minor-damage", "uid": "15368da1-3dcf-48dd-8a27-040a54219b2e" }, "geometry": { "type": "Polygon", "coordinates": [ [ [ 391.729322859230308, 28.09079735577955 ], [ 391.084223095774007, 24.865298529252271 ], [ 440.326838480963488, 27.0156310799373 ], [ 440.541871739530109, 64.646450696435949 ], [ 391.084223095524123, 63.356251168023903 ], [ 391.729322859230308, 28.09079735577955 ] ] ] } },
{ "type": "Feature", "properties": { "feature_type": "building", "subtype": "no-damage", "uid": "483b964c-b26a-44d2-ae1b-7fae319931fe" }, "geometry": { "type": "Polygon", "coordinates": [ [ [ 489.139387359514274, 70.237315327217544 ], [ 447.422935895473927, 71.527514855629605 ], [ 445.272603346788287, 67.871949520964279 ], [ 444.412470324015828, 26.800597825368531 ], [ 466.775928840890515, 26.370531312233091 ], [ 466.990962096458702, 38.197360339501508 ], [ 488.709320847128481, 36.047027788816493 ], [ 489.139387359514274, 70.237315327217544 ] ] ] } },
{ "type": "Feature", "properties": { "feature_type": "building", "subtype": "minor-damage", "uid": "dda9537e-7bb8-4183-8e48-a08fca667557" }, "geometry": { "type": "Polygon", "coordinates": [ [ [ 602.693090269446543, 58.558029077108259 ], [ 600.184866729821238, 21.990770126026302 ], [ 616.026278550314146, 20.80266423804607 ], [ 615.762255021234523, 17.63438187609567 ], [ 623.418937401026938, 17.50237010943189 ], [ 623.418937400277287, 20.93467600470985 ], [ 647.049043366726778, 19.482546588399462 ], [ 649.557266905352435, 57.105899661797352 ], [ 602.693090269446543, 58.558029077108259 ] ] ] } },
{ "type": "Feature", "properties": { "feature_type": "building", "subtype": "minor-damage", "uid": "d2e23f34-aa9a-4f3c-9a85-3d28c458b960" }, "geometry": { "type": "Polygon", "coordinates": [ [ [ 700.680493706915968, 62.665006138656153 ], [ 680.630876058127228, 64.181363780488979 ], [ 655.189764589119363, 62.159553598374877 ], [ 654.515827861748221, 34.865116123343178 ], [ 659.907321680967812, 34.022695212879633 ], [ 660.075805866558653, 28.968169759093609 ], [ 678.103613329485711, 27.95726466553786 ], [ 677.598160787705297, 17.848213750969471 ], [ 677.935129148642318, 17.005792841505389 ], [ 696.299904981251871, 15.65791938476371 ], [ 700.680493706915968, 62.665006138656153 ] ] ] } },
{ "type": "Feature", "properties": { "feature_type": "building", "subtype": "minor-damage", "uid": "0d38e891-f330-4f1a-b62b-f815dcf8528f" }, "geometry": { "type": "Polygon", "coordinates": [ [ [ 749.203938102630445, 71.257699419387535 ], [ 713.148323170279809, 62.833490323747277 ], [ 703.544724801991606, 40.25660994431307 ], [ 712.979838988686879, 35.539052853712981 ], [ 712.305902263314579, 26.103938660519091 ], [ 732.187035727012244, 25.598486117239389 ], [ 734.545814275560019, 13.130656655372 ], [ 751.225748285243867, 14.983982659391289 ], [ 749.203938102630445, 71.257699419387535 ] ] ] } },
{ "type": "Feature", "properties": { "feature_type": "building", "subtype": "no-damage", "uid": "1577c67a-8c85-4668-b039-b2c1ebb2d8a8" }, "geometry": { "type": "Polygon", "coordinates": [ [ [ 966.767796708280116, 60.22811716903248 ], [ 918.170281090794674, 61.948383209580513 ], [ 917.525181322091157, 10.9855017828326 ], [ 937.738307290280204, 10.7704685252654 ], [ 937.523274036710973, 22.597297547536439 ], [ 954.51090117762385, 23.027364060671879 ], [ 966.337730200392002, 27.973128924748739 ], [ 966.767796708280116, 60.22811716903248 ] ] ] } },
{ "type": "Feature", "properties": { "feature_type": "building", "subtype": "no-damage", "uid": "eb97d508-a36a-4f6f-a781-55da92c94a93" }, "geometry": { "type": "Polygon", "coordinates": [ [ [ 1021.386243469930946, 47.756188379057242 ], [ 985.260656638420301, 47.541155123489013 ], [ 984.830590126534275, 10.340402015128401 ], [ 1020.526110448907957, 10.340402018126831 ], [ 1021.386243469930946, 47.756188379057242 ] ] ] } },
{ "type": "Feature", "properties": { "feature_type": "building", "subtype": "no-damage", "uid": "f2c24a36-fced-4a66-92f3-2a0ee48db260" }, "geometry": { "type": "Polygon", "coordinates": [ [ [ 767.346396458469144, 54.431508434584117 ], [ 756.05795626500651, 52.241214066379399 ], [ 758.753703176490376, 31.686143872057709 ], [ 763.808228634772945, 30.00130205612799 ], [ 765.661554637792278, 24.77829241325291 ], [ 786.048140648517574, 25.452229142623231 ], [ 786.048140648767458, 33.707954054171807 ], [ 803.738979749757959, 32.69704896461397 ], [ 805.76078993486999, 50.556372250449677 ], [ 801.885653748737468, 50.556372250449677 ], [ 802.054137930580282, 54.094540069399223 ], [ 784.363298832338387, 54.936960977863812 ], [ 785.542688102989132, 59.991486436647229 ], [ 769.031238274648445, 61.676328255575378 ], [ 767.346396458469144, 54.431508434584117 ] ] ] } },
{ "type": "Feature", "properties": { "feature_type": "building", "subtype": "no-damage", "uid": "373f3911-f393-4c3f-8647-07163201cc0b" }, "geometry": { "type": "Polygon", "coordinates": [ [ [ 858.854871567244231, 11.03519093309121 ], [ 857.666765682762502, 63.443861710916323 ], [ 811.726671402008719, 59.747532281311337 ], [ 813.046789053404154, 38.361626324653137 ], [ 817.931224364491641, 37.569555735664757 ], [ 819.51536554571635, 9.979096813773706 ], [ 858.854871567244231, 11.03519093309121 ] ] ] } },
{ "type": "Feature", "properties": { "feature_type": "building", "subtype": "minor-damage", "uid": "152c9c6a-1766-4a6e-ba38-e504de208836" }, "geometry": { "type": "Polygon", "coordinates": [ [ [ 911.529499872932774, 10.73701893094265 ], [ 913.641688113066493, 75.818819161566765 ], [ 866.77751147641095, 76.214854459559135 ], [ 866.909523243324543, 61.561548522795157 ], [ 862.157099698400998, 57.073148508199708 ], [ 861.629052636243728, 32.386948420928377 ], [ 863.477217349796433, 20.90192484911325 ], [ 866.909523241825354, 17.865654252827142 ], [ 867.833605601725026, 12.717195407911261 ], [ 890.143593913780592, 12.58518364624487 ], [ 889.74755861828703, 6.248618917346672 ], [ 902.684711604410722, 5.720571852690536 ], [ 911.529499872932774, 10.73701893094265 ] ] ] } },
{ "type": "Feature", "properties": { "feature_type": "building", "subtype": "minor-damage", "uid": "e31c4d98-5678-4bf0-9dce-0340e8f70fb3" }, "geometry": { "type": "Polygon", "coordinates": [ [ [ 106.107718757368104, 201.241914050954591 ], [ 81.163861180421577, 200.166747775112412 ], [ 81.378894436739387, 193.070650362349511 ], [ 77.078229337119367, 192.210517342075491 ], [ 76.003063060277881, 173.932690670747803 ], [ 78.368428867530099, 173.932690671747309 ], [ 76.433129570914531, 164.04116094259399 ], [ 117.504481269249794, 162.535928159613206 ], [ 117.504481270249201, 182.964087378627511 ], [ 110.623417113305905, 183.17912063619471 ], [ 110.838450364376499, 190.920317810665011 ], [ 106.537785267005304, 191.99548408650719 ], [ 106.107718757368104, 201.241914050954591 ] ] ] } },
{ "type": "Feature", "properties": { "feature_type": "building", "subtype": "no-damage", "uid": "25ad0287-a242-4ca0-8bd4-8ab48b868402" }, "geometry": { "type": "Polygon", "coordinates": [ [ [ 223.515875966275104, 190.490251303526406 ], [ 191.045854466930109, 193.07065036434841 ], [ 188.4654554083574, 169.847058825945396 ], [ 222.870776204317991, 167.696726275260403 ], [ 226.311308282914609, 189.415085030682604 ], [ 223.515875966275104, 190.490251303526406 ] ] ] } },
{ "type": "Feature", "properties": { "feature_type": "building", "subtype": "no-damage", "uid": "4f6969ed-ec3e-4b7f-923d-c661fe92c872" }, "geometry": { "type": "Polygon", "coordinates": [ [ [ 325.274292744191712, 212.1488922035646 ], [ 274.227898716145603, 214.344436030374794 ], [ 273.404569778593327, 188.272353060768012 ], [ 325.274292741942816, 187.449024124464813 ], [ 325.274292744191712, 212.1488922035646 ] ] ] } },
{ "type": "Feature", "properties": { "feature_type": "building", "subtype": "no-damage", "uid": "a0883acd-ddf9-4fd4-b410-4af1aa614250" }, "geometry": { "type": "Polygon", "coordinates": [ [ [ 325.274292741942816, 187.449024124464813 ], [ 298.927766792741181, 186.900138167262497 ], [ 294.811122113475221, 182.50905050864489 ], [ 283.010074031379986, 171.805774340701788 ], [ 286.303389776841811, 166.042471792576606 ], [ 315.119902531703985, 167.689129661185007 ], [ 314.571016573752274, 161.92582711206029 ], [ 326.646507636947092, 161.651384131959901 ], [ 327.469836570001917, 167.689129661185007 ], [ 342.564200395060027, 167.14024370598159 ], [ 344.759744224618316, 186.351252210060295 ], [ 325.274292741942816, 187.449024124464813 ] ] ] } },
{ "type": "Feature", "properties": { "feature_type": "building", "subtype": "no-damage", "uid": "78e2f549-8d69-4c7c-a451-5781118ca3bd" }, "geometry": { "type": "Polygon", "coordinates": [ [ [ 189.818128959965293, 270.156365453789476 ], [ 189.094086254580589, 224.231370956546698 ], [ 215.056189000824105, 222.990154885460896 ], [ 215.469927687937712, 237.884747698511006 ], [ 220.53822663187691, 237.160704991876798 ], [ 222.296616059917795, 259.192290190182291 ], [ 210.505063420087112, 259.502594208453502 ], [ 210.298194075905712, 263.019373064536126 ], [ 213.090930224853707, 263.433111752899094 ], [ 213.090930225103591, 268.501410695340212 ], [ 213.090930226852691, 270.25980012588019 ], [ 189.818128959965293, 270.156365453789476 ] ] ] } },
{ "type": "Feature", "properties": { "feature_type": "building", "subtype": "no-damage", "uid": "edc0e5f8-2ab2-436d-9cfe-4fab828548e2" }, "geometry": { "type": "Polygon", "coordinates": [ [ [ 221.798713636029703, 276.687177912799484 ], [ 221.006643047541189, 294.640777976178697 ], [ 227.871254834597494, 294.112730914521023 ], [ 229.455396020069998, 309.294083908944685 ], [ 222.986819523510007, 310.218166263597425 ], [ 223.38285482000299, 326.323601618670807 ], [ 202.260972390680195, 328.699813389633789 ], [ 196.452454723441008, 326.587625148999791 ], [ 197.11251354926361, 312.330354510228176 ], [ 185.891513509279292, 311.274260386912772 ], [ 185.231454684456111, 305.993789780330587 ], [ 186.947607631095195, 296.092907393488474 ], [ 195.264348837459892, 296.752966218811594 ], [ 195.13233707354479, 277.21522497345768 ], [ 221.798713636029703, 276.687177912799484 ] ] ] } },
{ "type": "Feature", "properties": { "feature_type": "building", "subtype": "no-damage", "uid": "d29c5bfc-fc95-4f15-9a6a-63c5e527ace2" }, "geometry": { "type": "Polygon", "coordinates": [ [ [ 327.978915256608389, 216.748113896948013 ], [ 330.88317409022801, 262.688208174213798 ], [ 315.701821095307878, 263.87631406319349 ], [ 312.797562263437328, 258.991878749606201 ], [ 311.213421083461981, 258.331819924283081 ], [ 309.101232838330816, 264.668384652181885 ], [ 301.180526927709593, 259.915961106257782 ], [ 300.916503395881307, 252.787325786372293 ], [ 296.032068089291386, 251.07117283973281 ], [ 296.296091615122918, 242.490408102537401 ], [ 298.672303387584577, 242.094372810541898 ], [ 298.408279859504376, 234.96573748765789 ], [ 296.032068086293009, 228.893196291087804 ], [ 296.032068087792197, 217.012137427277111 ], [ 327.978915256608389, 216.748113896948013 ] ] ] } },
{ "type": "Feature", "properties": { "feature_type": "building", "subtype": "no-damage", "uid": "d69921cd-69c1-4c77-8d4d-a06d0761038d" }, "geometry": { "type": "Polygon", "coordinates": [ [ [ 294.778391542363181, 288.733936151118883 ], [ 268.904085570615621, 288.733936151118883 ], [ 268.376038505959627, 277.512936111631802 ], [ 295.174426839855812, 276.984889050973493 ], [ 294.778391542363181, 288.733936151118883 ] ] ] } },
{ "type": "Feature", "properties": { "feature_type": "building", "subtype": "no-damage", "uid": "b36b02fb-181b-4e84-a206-a7f658820cce" }, "geometry": { "type": "Polygon", "coordinates": [ [ [ 289.101885639289094, 269.064183140100681 ], [ 266.263850265326084, 269.460218434095225 ], [ 266.791897325484513, 258.503241924937186 ], [ 287.253720926985693, 257.711171334949313 ], [ 289.101885639289094, 269.064183140100681 ] ] ] } },
{ "type": "Feature", "properties": { "feature_type": "building", "subtype": "no-damage", "uid": "688e74e7-f477-4e94-8639-6ababc616155" }, "geometry": { "type": "Polygon", "coordinates": [ [ [ 298.353156176681523, 298.754493884402621 ], [ 297.732548144886778, 289.238504035063215 ], [ 310.144708819510583, 288.82476534670019 ], [ 310.661882183962121, 298.961363228583991 ], [ 298.353156176681523, 298.754493884402621 ] ] ] } },
{ "type": "Feature", "properties": { "feature_type": "building", "subtype": "no-damage", "uid": "f2801d71-b6bd-4d8f-a48a-d2dc1502c99f" }, "geometry": { "type": "Polygon", "coordinates": [ [ [ 288.325019937354284, 324.157617172711412 ], [ 271.427513997044286, 323.893593642382314 ], [ 272.087572822617119, 315.444840669851715 ], [ 271.823549291538484, 305.67597004667499 ], [ 288.060996407275127, 306.468040637662398 ], [ 287.796972880694113, 312.804605369559113 ], [ 289.381114060169807, 313.06862889688972 ], [ 289.909161120078181, 317.557028914483624 ], [ 288.193008173189185, 318.217087738807209 ], [ 288.325019937354284, 324.157617172711412 ] ] ] } },
{ "type": "Feature", "properties": { "feature_type": "building", "subtype": "no-damage", "uid": "34ec03cf-b0ea-410b-842a-1511cd45db00" }, "geometry": { "type": "Polygon", "coordinates": [ [ [ 286.137666530567685, 369.763004161280378 ], [ 265.245627972564989, 367.741193976167892 ], [ 266.425017246214225, 341.626145779783087 ], [ 288.159476712681396, 342.468566692245588 ], [ 286.137666530567685, 369.763004161280378 ] ] ] } },
{ "type": "Feature", "properties": { "feature_type": "building", "subtype": "no-damage", "uid": "bb49a63e-8fce-462f-80fc-e5189cada00a" }, "geometry": { "type": "Polygon", "coordinates": [ [ [ 312.252714726946692, 383.073254533611419 ], [ 302.31214799397361, 382.904770354517098 ], [ 301.132758725071824, 367.741193978166791 ], [ 303.4915372716207, 367.909678160259489 ], [ 302.817600542250489, 355.104880333207177 ], [ 312.252714727446516, 355.273364517298887 ], [ 312.589683092631276, 352.914585969000427 ], [ 333.313237469290982, 352.072165061535316 ], [ 334.155658379254589, 373.638140346414275 ], [ 337.356857834767709, 373.132687800136182 ], [ 337.019889470082489, 379.029634169383087 ], [ 334.998079288718486, 380.377507623126405 ], [ 334.998079288718486, 384.589612173445175 ], [ 341.737446568927282, 385.263548900816602 ], [ 340.221088928843926, 394.867147267107896 ], [ 342.916835841327213, 405.481650729953401 ], [ 330.954458922242395, 402.785903819468388 ], [ 331.628395653111795, 405.818619096137809 ], [ 311.915746364010772, 405.987103276231494 ], [ 312.252714726946692, 383.073254533611419 ] ] ] } },
{ "type": "Feature", "properties": { "feature_type": "building", "subtype": "no-damage", "uid": "a327b786-f897-43ea-abe6-af647cbfa7f4" }, "geometry": { "type": "Polygon", "coordinates": [ [ [ 327.710236403449073, 419.891381854990016 ], [ 325.559903850515695, 419.461315342853993 ], [ 344.482830287794286, 417.956082556874776 ], [ 344.912896799680311, 468.05883096434809 ], [ 316.958573652025279, 467.198697944074127 ], [ 317.818706675297619, 449.565971037452186 ], [ 310.722609257038982, 448.490804761609979 ], [ 310.292542749900576, 446.340472211924407 ], [ 308.142210198716327, 443.975106408669603 ], [ 307.927176944147618, 432.363310639967779 ], [ 308.572276711601774, 424.837146716068389 ], [ 317.603673418729898, 424.407080205931379 ], [ 316.743540397706511, 417.956082558873675 ], [ 327.710236403449073, 419.891381854990016 ] ] ] } },
{ "type": "Feature", "properties": { "feature_type": "building", "subtype": "no-damage", "uid": "92f95525-0374-444a-955b-89398f5f3d86" }, "geometry": { "type": "Polygon", "coordinates": [ [ [ 369.663288150799076, 467.744124960254908 ], [ 349.950638866195675, 467.407156596069512 ], [ 351.155286138009728, 446.864715404953017 ], [ 370.168740694578389, 445.841181311190496 ], [ 369.663288150799076, 467.744124960254908 ] ] ] } },
{ "type": "Feature", "properties": { "feature_type": "building", "subtype": "minor-damage", "uid": "f31f44a7-7eb1-4f79-b47d-fb7e48682e0e" }, "geometry": { "type": "Polygon", "coordinates": [ [ [ 251.249451354718701, 498.785417086896189 ], [ 230.525896978058995, 501.144195632196215 ], [ 232.210738795987311, 512.76960418759802 ], [ 200.704196775891006, 515.633835280175617 ], [ 199.524807502491598, 501.81813236056712 ], [ 195.986639683792703, 494.067859993297702 ], [ 200.030260049019489, 485.138198351379287 ], [ 198.345418229592013, 465.931001614798788 ], [ 226.65076079267601, 464.246159791872685 ], [ 228.167118429261308, 479.24125198613018 ], [ 249.564609534041807, 476.040052529367188 ], [ 249.901577898976711, 486.65455599021368 ], [ 251.249451354718701, 498.785417086896189 ] ] ] } },
{ "type": "Feature", "properties": { "feature_type": "building", "subtype": "minor-damage", "uid": "b30d1ba3-0b69-4ee5-bc0e-859e687e912d" }, "geometry": { "type": "Polygon", "coordinates": [ [ [ 58.656438447599562, 642.309531223459999 ], [ 66.575194996959922, 612.150862656850222 ], [ 125.544658672675297, 628.999280849130173 ], [ 125.376174489583207, 640.456205223438701 ], [ 114.593186847146001, 660.674307055573877 ], [ 108.864724658493799, 658.652496871460812 ], [ 106.168977749258801, 671.288810516420426 ], [ 104.652620111674096, 674.153041606999068 ], [ 91.00540137641012, 670.446389605956824 ], [ 74.493951548069361, 664.04399069043177 ], [ 75.504856637626972, 655.78826577788368 ], [ 77.695151003832251, 648.880414319078909 ], [ 58.656438447599562, 642.309531223459999 ] ] ] } },
{ "type": "Feature", "properties": { "feature_type": "building", "subtype": "no-damage", "uid": "220b7de3-1afe-49f4-bf61-e84b6e3afc22" }, "geometry": { "type": "Polygon", "coordinates": [ [ [ 225.086765731058193, 629.875938850066746 ], [ 198.297780806558308, 631.729264850088157 ], [ 198.466264988900889, 612.016615563231653 ], [ 194.928097166453909, 608.141479380096712 ], [ 192.569318620154888, 583.374304636455577 ], [ 233.342490645853189, 584.722178092197851 ], [ 232.500069736639205, 593.651839734116265 ], [ 235.364300828466611, 594.831229009764684 ], [ 235.195816647623303, 611.679647198046723 ], [ 224.412829007684792, 612.016615565230609 ], [ 225.086765731058193, 629.875938850066746 ] ] ] } },
{ "type": "Feature", "properties": { "feature_type": "building", "subtype": "no-damage", "uid": "abd5975a-70e9-41fd-a20b-d599eca3009f" }, "geometry": { "type": "Polygon", "coordinates": [ [ [ 201.667464444663807, 673.007889419824778 ], [ 201.498980261571603, 668.795784873503862 ], [ 192.063866078624386, 669.301237419782069 ], [ 191.221445164912808, 651.273429953852542 ], [ 197.960812442372998, 651.44191413594524 ], [ 197.455359897344294, 645.544967767697813 ], [ 240.924278831777798, 640.995894854193011 ], [ 244.63093083631739, 669.63820578296793 ], [ 201.667464444663807, 673.007889419824778 ] ] ] } },
{ "type": "Feature", "properties": { "feature_type": "building", "subtype": "no-damage", "uid": "30941a8e-7bf8-4ad3-99bf-e28d925c1a03" }, "geometry": { "type": "Polygon", "coordinates": [ [ [ 293.154375231782126, 586.575504093218683 ], [ 294.502248683526091, 609.994805381117544 ], [ 278.664735587304108, 609.152384472652898 ], [ 278.664735583056313, 586.575504095217639 ], [ 280.012609039298013, 586.575504095217639 ], [ 293.154375231782126, 586.575504093218683 ] ] ] } },
{ "type": "Feature", "properties": { "feature_type": "building", "subtype": "no-damage", "uid": "e74458e9-ed8e-49f3-a603-a49100a5f79f" }, "geometry": { "type": "Polygon", "coordinates": [ [ [ 306.296141419268793, 614.543878293622811 ], [ 297.871932322131272, 613.532973202066046 ], [ 298.208900688065683, 598.706365191900204 ], [ 307.644014875010782, 597.021523372971956 ], [ 308.991888330502775, 580.173105179692584 ], [ 338.645104351577572, 580.341589361785282 ], [ 341.172367078220191, 630.381391396344952 ], [ 305.959173056332872, 630.044423030160601 ], [ 306.296141419268793, 614.543878293622811 ] ] ] } },
{ "type": "Feature", "properties": { "feature_type": "building", "subtype": "no-damage", "uid": "693e66a0-c727-4c55-96bf-2d304bd7612b" }, "geometry": { "type": "Polygon", "coordinates": [ [ [ 201.909794614321697, 715.833449553561991 ], [ 201.264694848866498, 700.566088453193402 ], [ 210.081058301425912, 700.781121706762633 ], [ 209.650991794787188, 697.985689393370762 ], [ 206.425492969509889, 698.630789159076016 ], [ 206.855559479896698, 685.728793858963854 ], [ 237.820348194512206, 686.158860369100807 ], [ 239.755647487629602, 713.89815026044414 ], [ 201.909794614321697, 715.833449553561991 ] ] ] } },
{ "type": "Feature", "properties": { "feature_type": "building", "subtype": "no-damage", "uid": "4c0684a4-2338-4f0d-a0eb-206e72c081c3" }, "geometry": { "type": "Polygon", "coordinates": [ [ [ 230.068464430482805, 723.072855243069512 ], [ 232.201084870357391, 753.114126293963523 ], [ 204.999745545531113, 752.619798600540548 ], [ 202.576705814446996, 722.509728771460118 ], [ 230.068464430482805, 723.072855243069512 ] ] ] } },
{ "type": "Feature", "properties": { "feature_type": "building", "subtype": "no-damage", "uid": "9be44469-1cb0-4d71-89e9-2d9ad56bc75f" }, "geometry": { "type": "Polygon", "coordinates": [ [ [ 333.101207302398791, 700.645977887119443 ], [ 297.888013278762401, 700.982946250305417 ], [ 297.382560735732682, 686.493306603325436 ], [ 309.850390195598322, 686.156338241138997 ], [ 310.692811105062219, 666.275204774188637 ], [ 334.617564939983481, 666.275204774188637 ], [ 333.101207302398791, 700.645977887119443 ] ] ] } },
{ "type": "Feature", "properties": { "feature_type": "building", "subtype": "minor-damage", "uid": "23aaee08-8ef3-45a8-906c-235f4b18b4c9" }, "geometry": { "type": "Polygon", "coordinates": [ [ [ 112.219948228015994, 777.608710506698799 ], [ 86.20092437822592, 777.393677252130033 ], [ 86.200924377726182, 759.545917088940428 ], [ 77.599594180235243, 759.330883834371662 ], [ 78.244693945940355, 745.353722261415555 ], [ 88.781323441046339, 744.708622497709257 ], [ 88.351256931908907, 718.90463190148273 ], [ 114.5853140367675, 720.409864687462004 ], [ 116.520613327386201, 740.407957400337182 ], [ 114.155247525631097, 742.558289949023219 ], [ 112.219948228015994, 777.608710506698799 ] ] ] } },
{ "type": "Feature", "properties": { "feature_type": "building", "subtype": "no-damage", "uid": "eb6a7d72-e262-4313-a745-e78f8ca5ae9d" }, "geometry": { "type": "Polygon", "coordinates": [ [ [ 0.074879585257949, 797.04137638002544 ], [ 21.324666585501351, 797.255654532502149 ], [ 21.53969983882072, 824.134811402572041 ], [ 7.777571521186077, 823.059645128728789 ], [ 6.702405246093671, 830.80084230619741 ], [ 0.074853980149068, 830.800842319190679 ], [ 0.074879585257949, 797.04137638002544 ] ] ] } },
{ "type": "Feature", "properties": { "feature_type": "building", "subtype": "no-damage", "uid": "a0d38b46-293e-469c-be55-42a28c8a5db2" }, "geometry": { "type": "Polygon", "coordinates": [ [ [ 0.074828259600561, 861.425002445124619 ], [ 33.822901844802587, 860.864315094888411 ], [ 35.113101372464762, 878.927108512646782 ], [ 44.144498080592363, 877.851942236804575 ], [ 45.219664355185017, 893.764403105876795 ], [ 38.338600195743027, 896.774868674836966 ], [ 34.898068117646183, 899.570300989228258 ], [ 34.898068117646183, 906.666398402990694 ], [ 0.074786133881732, 906.451826013395817 ], [ 0.074804462546093, 887.528438721383736 ], [ 5.868578700895609, 887.528438711388958 ], [ 5.868578697897176, 880.00227478848899 ], [ 0.074812161769505, 879.287288906260414 ], [ 0.074828259600561, 861.425002445124619 ] ] ] } },
{ "type": "Feature", "properties": { "feature_type": "building", "subtype": "no-damage", "uid": "efeb445d-1a8d-4fe7-a192-23ce426d1677" }, "geometry": { "type": "Polygon", "coordinates": [ [ [ 113.1701729240839, 898.925201223523004 ], [ 89.086448368660555, 898.28010145781775 ], [ 85.860949544382819, 855.488483723672971 ], [ 111.0198403738991, 855.488483723672971 ], [ 112.095006648491804, 869.250612039061821 ], [ 117.685871277523006, 870.540811569472794 ], [ 117.900904532841395, 882.367640591743907 ], [ 113.170172926582595, 883.012740356449626 ], [ 113.1701729240839, 898.925201223523004 ] ] ] } },
{ "type": "Feature", "properties": { "feature_type": "building", "subtype": "no-damage", "uid": "35191e11-379f-4125-a0c3-176dee387f8e" }, "geometry": { "type": "Polygon", "coordinates": [ [ [ 122.832718238930696, 965.587368406991686 ], [ 77.824069745355558, 965.587368406991686 ], [ 77.824069743106733, 936.496412672272641 ], [ 88.527345908298884, 936.496412671273106 ], [ 88.252902929697797, 925.244250546127773 ], [ 94.290648459171365, 925.244250546127773 ], [ 93.741762503718306, 919.480947996003579 ], [ 119.813845472569696, 921.12760586661102 ], [ 119.539402496967099, 933.751982886261203 ], [ 124.753819087139206, 934.300868844463025 ], [ 125.577148025441204, 954.06076330374492 ], [ 118.990516537765998, 955.707421176351204 ], [ 122.832718238930696, 965.587368406991686 ] ] ] } },
{ "type": "Feature", "properties": { "feature_type": "building", "subtype": "minor-damage", "uid": "f4ae477f-63a1-46fe-b5e8-971a6cb56698" }, "geometry": { "type": "Polygon", "coordinates": [ [ [ 235.354339477616008, 976.016201596833298 ], [ 210.105585444067998, 974.369543723227594 ], [ 207.361155656557997, 924.969807570025296 ], [ 234.80545351991401, 924.69536458992502 ], [ 235.354339477616008, 976.016201596833298 ] ] ] } },
{ "type": "Feature", "properties": { "feature_type": "building", "subtype": "minor-damage", "uid": "54183f0e-5ba4-4744-be3f-400b9b6d68f8" }, "geometry": { "type": "Polygon", "coordinates": [ [ [ 244.664207343662298, 848.900801402817592 ], [ 245.524340363936091, 871.909359684652827 ], [ 233.482478083600796, 871.909359684652827 ], [ 234.342611104374413, 893.627718435077554 ], [ 232.837378319894697, 893.62771843707651 ], [ 202.517689369485112, 892.9826186693723 ], [ 202.732722625553009, 865.243328779028502 ], [ 207.463454236559301, 865.243328779028502 ], [ 207.678487492377286, 845.460269322721047 ], [ 239.718442482584891, 846.535435598563254 ], [ 244.664207343662298, 848.900801402817592 ] ] ] } },
{ "type": "Feature", "properties": { "feature_type": "building", "subtype": "minor-damage", "uid": "50ce0a89-781a-4823-ac2b-a13dcc920a7f" }, "geometry": { "type": "Polygon", "coordinates": [ [ [ 238.427668359178512, 839.805616652205913 ], [ 214.343943800007111, 841.095816180617931 ], [ 214.558977054575791, 832.709519237443942 ], [ 207.677912894883889, 830.989253196895902 ], [ 208.538045916656898, 815.936925353095035 ], [ 215.419110075099496, 815.936925353095035 ], [ 214.989043567711093, 790.778034519575272 ], [ 238.212635100861689, 791.208101029712225 ], [ 239.072768119886206, 839.805616652205913 ], [ 238.427668359178512, 839.805616652205913 ] ] ] } },
{ "type": "Feature", "properties": { "feature_type": "building", "subtype": "no-damage", "uid": "564e93af-8fd7-4ffa-ae3d-0bb4b0f84216" }, "geometry": { "type": "Polygon", "coordinates": [ [ [ 405.246301202675909, 224.696995577281513 ], [ 405.79518716062762, 162.672882406427902 ], [ 428.573954386016226, 162.947325382530408 ], [ 427.476182472861296, 180.511676015002195 ], [ 459.037125017982021, 177.218360272788004 ], [ 461.781554804992311, 218.384807066956597 ], [ 442.570546296919986, 218.110364089854698 ], [ 439.551673531308722, 226.8925394050911 ], [ 405.246301202675909, 224.696995577281513 ] ] ] } },
{ "type": "Feature", "properties": { "feature_type": "building", "subtype": "no-damage", "uid": "8b7050de-b715-47cb-b463-7ca266e853a1" }, "geometry": { "type": "Polygon", "coordinates": [ [ [ 548.344680626600621, 200.385717387020492 ], [ 533.507386032374257, 200.170684130452798 ], [ 534.367519052648163, 206.836715037076601 ], [ 518.670091443645106, 207.266781544215206 ], [ 518.240024929010588, 201.675916918431 ], [ 510.498827750544081, 200.815783897157502 ], [ 509.208628222632115, 161.894764746249905 ], [ 522.970756538767546, 161.249664985542012 ], [ 526.626321875181134, 164.045097297934404 ], [ 527.486454893455971, 173.506560517950106 ], [ 548.344680625101319, 173.506560517950106 ], [ 548.344680626600621, 200.385717387020492 ] ] ] } },
{ "type": "Feature", "properties": { "feature_type": "building", "subtype": "no-damage", "uid": "92f3dab1-b298-4be4-b6c4-b3905303eb31" }, "geometry": { "type": "Polygon", "coordinates": [ [ [ 661.23713948081911, 193.719686484394487 ], [ 632.207650062069547, 195.439952524942612 ], [ 630.057317510635471, 180.602657931712514 ], [ 614.789956407521572, 178.882391890164996 ], [ 615.435056172976829, 145.767270626606688 ], [ 634.142949354687289, 143.831971333488895 ], [ 651.990709520621522, 143.831971333488895 ], [ 660.161973207475739, 146.842436902449009 ], [ 661.23713948081911, 193.719686484394487 ] ] ] } },
{ "type": "Feature", "properties": { "feature_type": "building", "subtype": "no-damage", "uid": "3451c299-84b1-43cb-b3f4-5c177511870e" }, "geometry": { "type": "Polygon", "coordinates": [ [ [ 619.655036148055956, 213.10296119661831 ], [ 662.87672039282802, 209.23236260838371 ], [ 664.381953178057302, 240.41218457882411 ], [ 647.394326037144424, 240.842251085962687 ], [ 647.609359290213888, 252.023980345527008 ], [ 630.621732147801822, 252.239013600095689 ], [ 630.621732148551359, 239.337018299983498 ], [ 616.859603830167089, 240.842251086962193 ], [ 614.924304538049228, 226.004956495731108 ], [ 619.655036148055956, 213.10296119661831 ] ] ] } },
{ "type": "Feature", "properties": { "feature_type": "building", "subtype": "no-damage", "uid": "1f487ec5-0897-4318-86c3-20227672a245" }, "geometry": { "type": "Polygon", "coordinates": [ [ [ 657.517597920089884, 321.817801328179996 ], [ 602.423270429507625, 322.828706417737806 ], [ 601.580849522042627, 298.061531674096784 ], [ 633.087391541139482, 298.061531674096784 ], [ 632.581938995111273, 274.810714570289576 ], [ 657.349113739996142, 275.147682934475085 ], [ 657.517597920089884, 321.817801328179996 ] ] ] } },
{ "type": "Feature", "properties": { "feature_type": "building", "subtype": "minor-damage", "uid": "84f57db8-0d08-45cb-8cd4-d78ce2dab170" }, "geometry": { "type": "Polygon", "coordinates": [ [ [ 497.059004982045224, 396.752452305532472 ], [ 498.134171255638421, 365.142563824955118 ], [ 528.668893460366803, 365.142563824955118 ], [ 527.378693931955013, 399.332851364355577 ], [ 497.059004982045224, 396.752452305532472 ] ] ] } },
{ "type": "Feature", "properties": { "feature_type": "building", "subtype": "minor-damage", "uid": "a10f3fe1-eef8-478a-9dbc-fbf69e56ea29" }, "geometry": { "type": "Polygon", "coordinates": [ [ [ 659.311476739167915, 388.945382549515386 ], [ 629.489776537000012, 389.450835094794115 ], [ 627.804934717572451, 346.655852887222522 ], [ 650.213330914659196, 345.307979430480827 ], [ 650.381815095752359, 366.705470534266624 ], [ 658.469055827205352, 365.357597081522783 ], [ 659.311476739167915, 388.945382549515386 ] ] ] } },
{ "type": "Feature", "properties": { "feature_type": "building", "subtype": "minor-damage", "uid": "ef0c1235-5500-4f5f-958f-43d96ae559a6" }, "geometry": { "type": "Polygon", "coordinates": [ [ [ 660.027518393991841, 463.315553766010225 ], [ 634.754891107326557, 463.147069581918572 ], [ 634.080954378705997, 458.092544127133124 ], [ 615.71617854884505, 456.913154852484126 ], [ 615.042241821973676, 446.130167209544879 ], [ 615.716178547595746, 427.933875561522711 ], [ 634.586406924234439, 428.270843925708107 ], [ 634.923375290168906, 410.580004822964611 ], [ 660.869939304705099, 411.422425733428213 ], [ 660.027518393991841, 463.315553766010225 ] ] ] } },
{ "type": "Feature", "properties": { "feature_type": "building", "subtype": "minor-damage", "uid": "c86587f2-cddf-4b73-b6dc-554e6aed2158" }, "geometry": { "type": "Polygon", "coordinates": [ [ [ 564.406317988417754, 611.291215513469183 ], [ 563.908038855793166, 616.489118212930066 ], [ 507.290180316471321, 615.166351700602149 ], [ 504.594433407985889, 602.530038055642535 ], [ 506.279275222915828, 590.23069277186994 ], [ 521.442851597763479, 590.399176956961128 ], [ 521.105883233828081, 586.01858822754798 ], [ 544.356700337879943, 587.02949332010428 ], [ 544.693668705563368, 590.230692774868317 ], [ 563.732381263795105, 589.051303502218389 ], [ 564.406317988417754, 611.291215513469183 ] ] ] } },
{ "type": "Feature", "properties": { "feature_type": "building", "subtype": "no-damage", "uid": "f5fe9462-c405-4c67-8558-f52af6d25499" }, "geometry": { "type": "Polygon", "coordinates": [ [ [ 627.196722501686736, 626.601980847021537 ], [ 626.551622735481942, 598.862690956677739 ], [ 669.34324047411485, 598.647657701109438 ], [ 689.986432950691778, 599.937857234518901 ], [ 692.996898518901617, 628.537280143137878 ], [ 672.783772554210714, 630.042512927118196 ], [ 672.78377255396083, 626.171914336884583 ], [ 669.128207219046431, 625.956881082315817 ], [ 669.128207220295735, 635.418344301332013 ], [ 626.121556225844756, 634.558211281057993 ], [ 627.196722501686736, 626.601980847021537 ] ] ] } },
{ "type": "Feature", "properties": { "feature_type": "building", "subtype": "no-damage", "uid": "8e8c0f6a-64d0-4119-a057-73c3c714af1d" }, "geometry": { "type": "Polygon", "coordinates": [ [ [ 664.14351541097642, 678.850064483710298 ], [ 641.229666670859956, 678.007643574246231 ], [ 640.724214123582442, 642.28899700757222 ], [ 647.969033947820435, 641.446576100107109 ], [ 663.469578683605164, 642.457481191663874 ], [ 664.14351541097642, 678.850064483710298 ] ] ] } },
{ "type": "Feature", "properties": { "feature_type": "building", "subtype": "minor-damage", "uid": "aedeac05-8c00-424b-879d-c443eca87f4f" }, "geometry": { "type": "Polygon", "coordinates": [ [ [ 561.305836444823626, 701.518741817601381 ], [ 539.372444439834908, 702.378874837875401 ], [ 537.437145144218789, 700.228542289189249 ], [ 536.361978870125881, 695.282777425112386 ], [ 535.501845851101393, 664.317988709240694 ], [ 560.445703426548675, 664.317988709240694 ], [ 561.305836444823626, 701.518741817601381 ] ] ] } },
{ "type": "Feature", "properties": { "feature_type": "building", "subtype": "no-damage", "uid": "b3161db0-d852-4205-80fd-556521b5f112" }, "geometry": { "type": "Polygon", "coordinates": [ [ [ 506.042289921465283, 703.023974604580076 ], [ 491.635061837126216, 703.239007858149307 ], [ 489.699762542759402, 700.013509033621062 ], [ 491.420028584056581, 681.305615851156858 ], [ 502.171691329983275, 680.875549341019905 ], [ 506.902422940739712, 688.186680013348905 ], [ 506.042289921465283, 703.023974604580076 ] ] ] } },
{ "type": "Feature", "properties": { "feature_type": "building", "subtype": "no-damage", "uid": "4e96ad3d-220f-460d-b4b3-dd08dbe739aa" }, "geometry": { "type": "Polygon", "coordinates": [ [ [ 446.263045040170425, 700.658608796327826 ], [ 417.878655389124901, 699.153376014346463 ], [ 419.383888169606678, 683.670981657410152 ], [ 415.513289579623915, 677.865083774058689 ], [ 396.160296637455588, 679.585349813607309 ], [ 396.375329893023775, 643.889829490226475 ], [ 446.693111549058017, 643.244729724521221 ], [ 446.263045040170425, 700.658608796327826 ] ] ] } },
{ "type": "Feature", "properties": { "feature_type": "building", "subtype": "minor-damage", "uid": "93abb9ef-f6ae-44b9-88e0-86695d07b6af" }, "geometry": { "type": "Polygon", "coordinates": [ [ [ 439.158678371366079, 711.677761080411642 ], [ 439.803778136071685, 732.75102006613065 ], [ 444.319476492759122, 731.89088704885512 ], [ 444.9645762537167, 755.329511838828353 ], [ 431.523244000407487, 760.952161342559066 ], [ 419.160585658245509, 754.899445328691399 ], [ 420.235751937335692, 720.924191044859072 ], [ 424.536417032458075, 720.924191045858606 ], [ 424.536417033957321, 711.892794337978785 ], [ 439.158678371366079, 711.677761080411642 ] ] ] } },
{ "type": "Feature", "properties": { "feature_type": "building", "subtype": "no-damage", "uid": "5460c5e5-b756-4430-a7fd-e5ec37cc5ef6" }, "geometry": { "type": "Polygon", "coordinates": [ [ [ 296.657637533835612, 725.287580224399903 ], [ 316.966417953563621, 724.189808310994863 ], [ 317.789746888867114, 715.407632994758956 ], [ 333.432996671627222, 715.407632996757911 ], [ 367.738368999760326, 713.486532144051239 ], [ 367.738369001759224, 731.325325758622398 ], [ 354.077974970493585, 733.426924838241689 ], [ 355.829307538675096, 762.849311977899674 ], [ 336.214382775992306, 766.702243627699772 ], [ 334.813316724495621, 761.448245925153174 ], [ 329.20905250451591, 762.499045464463165 ], [ 329.209052508014111, 765.65144408739036 ], [ 328.15825296295742, 768.453576195881624 ], [ 295.933733717064115, 771.255708306371844 ], [ 296.657637533835612, 725.287580224399903 ] ] ] } },
{ "type": "Feature", "properties": { "feature_type": "building", "subtype": "no-damage", "uid": "d208ea93-6709-432d-ba14-df6fcc63d962" }, "geometry": { "type": "Polygon", "coordinates": [ [ [ 494.694664321405412, 738.853732336644498 ], [ 493.994131296031924, 711.182677765168478 ], [ 528.670516140477503, 712.5837438189144 ], [ 529.020782654163781, 741.655864446135297 ], [ 494.694664321405412, 738.853732336644498 ] ] ] } },
{ "type": "Feature", "properties": { "feature_type": "building", "subtype": "no-damage", "uid": "7d9de6f9-ed91-4ccd-8524-be5b891f2a33" }, "geometry": { "type": "Polygon", "coordinates": [ [ [ 242.792288280307389, 906.856301690186342 ], [ 242.266007963916394, 888.171573501749208 ], [ 267.390151300643026, 887.311440481475302 ], [ 267.990039790472792, 906.0413799490359 ], [ 242.792288280307389, 906.856301690186342 ] ] ] } },
{ "type": "Feature", "properties": { "feature_type": "building", "subtype": "no-damage", "uid": "257e2184-ce19-463e-b839-655461a02b5c" }, "geometry": { "type": "Polygon", "coordinates": [ [ [ 331.077491014152372, 789.641251088656645 ], [ 332.449705909156819, 825.044395334700084 ], [ 313.23869740633171, 825.318838311801983 ], [ 308.024280811162214, 822.299965546689691 ], [ 306.652065919905908, 787.994593216050362 ], [ 331.077491014152372, 789.641251088656645 ] ] ] } },
{ "type": "Feature", "properties": { "feature_type": "building", "subtype": "no-damage", "uid": "6c8c4151-d431-45b1-80d9-da7a7addd428" }, "geometry": { "type": "Polygon", "coordinates": [ [ [ 362.089547601321385, 826.965496183408845 ], [ 333.821920801912313, 827.514382140611133 ], [ 332.449705909156819, 825.044395334700084 ], [ 332.998591864859691, 803.088957041611707 ], [ 357.424016965103078, 802.814514062510739 ], [ 360.717332707066589, 807.754487679330168 ], [ 362.089547601321385, 826.965496183408845 ] ] ] } },
{ "type": "Feature", "properties": { "feature_type": "building", "subtype": "no-damage", "uid": "16b40443-e4db-4401-890b-ddcf52a88d9e" }, "geometry": { "type": "Polygon", "coordinates": [ [ [ 310.768710598921984, 832.728798734532461 ], [ 291.008816133397715, 834.101013627038469 ], [ 289.087715283190221, 816.81110597466693 ], [ 306.652065916157824, 817.359991930869796 ], [ 310.768710598921984, 832.728798734532461 ] ] ] } },
{ "type": "Feature", "properties": { "feature_type": "building", "subtype": "no-damage", "uid": "d029c507-6c45-4d35-908a-f397e6e44032" }, "geometry": { "type": "Polygon", "coordinates": [ [ [ 309.192718017091977, 957.747260745344192 ], [ 308.762651506455427, 924.417106226217697 ], [ 296.29072271998109, 923.556973205943677 ], [ 296.505755973800092, 912.160210694809166 ], [ 335.211741870380308, 912.80531045751593 ], [ 335.641808379267786, 958.177327253482304 ], [ 309.192718017091977, 957.747260745344192 ] ] ] } },
{ "type": "Feature", "properties": { "feature_type": "building", "subtype": "minor-damage", "uid": "ddd53092-e8a1-461e-bb2a-5d7f22a3c2b1" }, "geometry": { "type": "Polygon", "coordinates": [ [ [ 684.194642601545524, 771.911725100621425 ], [ 660.726786192061923, 772.612258128493863 ], [ 648.117191702854598, 770.160392532439687 ], [ 646.716125649109017, 746.34226960976423 ], [ 650.569057296159713, 737.235340254419043 ], [ 655.122521973331573, 737.235340254419043 ], [ 656.173321513140991, 730.930543011563145 ], [ 683.143843061486223, 731.631076038436049 ], [ 684.194642601545524, 771.911725100621425 ] ] ] } },
{ "type": "Feature", "properties": { "feature_type": "building", "subtype": "no-damage", "uid": "f27be1e0-978b-4f86-af5a-51b8a3f10ddf" }, "geometry": { "type": "Polygon", "coordinates": [ [ [ 669.609525202618443, 884.071798518613491 ], [ 645.458543086723125, 884.071798518613491 ], [ 644.188175454752582, 857.764922205692301 ], [ 632.904914520108832, 854.055666584307687 ], [ 631.736394151422019, 831.65318960129855 ], [ 667.413981376558354, 830.280974707793121 ], [ 667.139538399456455, 847.296439380064157 ], [ 669.609525202618443, 884.071798518613491 ] ] ] } },
{ "type": "Feature", "properties": { "feature_type": "building", "subtype": "no-damage", "uid": "0d5fd0fb-6b35-4ce6-af47-80a5d9e52782" }, "geometry": { "type": "Polygon", "coordinates": [ [ [ 631.847496331011826, 791.385461957389225 ], [ 617.225234992103879, 790.525328939114161 ], [ 608.838938051430546, 793.320761254504987 ], [ 608.408871540793825, 770.742269482806705 ], [ 620.020667310742397, 766.65663763800444 ], [ 632.492596095467661, 769.882136460533843 ], [ 631.847496331011826, 791.385461957389225 ] ] ] } },
{ "type": "Feature", "properties": { "feature_type": "building", "subtype": "no-damage", "uid": "563669d4-003a-4a1b-8f0f-0b552cacbaa2" }, "geometry": { "type": "Polygon", "coordinates": [ [ [ 670.952811590083911, 946.378533929926903 ], [ 648.375931210654699, 945.367628838370024 ], [ 648.375931213153308, 926.497400463975964 ], [ 670.447359042806397, 926.665884645069241 ], [ 670.952811590083911, 946.378533929926903 ] ] ] } },
{ "type": "Feature", "properties": { "feature_type": "building", "subtype": "no-damage", "uid": "b511b268-10ec-4238-b1d6-8c58c453f31f" }, "geometry": { "type": "Polygon", "coordinates": [ [ [ 732.618022175534065, 934.921609559616286 ], [ 731.607117081728575, 899.202962992942275 ], [ 754.352481641251529, 898.865994628756766 ], [ 754.352481641751297, 897.518121173014606 ], [ 763.450627465760363, 897.012668628735469 ], [ 764.124564196879646, 899.539931357127671 ], [ 788.723254755174253, 899.202962992942275 ], [ 788.386286390988857, 914.366539365294557 ], [ 790.745064936538256, 926.665884645069241 ], [ 755.700355097243346, 927.171337192346869 ], [ 751.656734732766154, 925.149527007234383 ], [ 751.99370309470271, 934.753125378523009 ], [ 732.618022175534065, 934.921609559616286 ] ] ] } },
{ "type": "Feature", "properties": { "feature_type": "building", "subtype": "no-damage", "uid": "0617a265-7276-4b50-b31c-cb977b73c16a" }, "geometry": { "type": "Polygon", "coordinates": [ [ [ 530.794159176410744, 1022.982767378636026 ], [ 530.794159163167706, 1010.939437681236996 ], [ 564.550645536347474, 1009.841665766832989 ], [ 566.471746386305085, 1018.349398105966998 ], [ 566.921815271475339, 1022.982710650304057 ], [ 530.794159176410744, 1022.982767378636026 ] ] ] } },
{ "type": "Feature", "properties": { "feature_type": "building", "subtype": "no-damage", "uid": "f4e96d8c-fe1e-464a-99f3-adc0ed03b9af" }, "geometry": { "type": "Polygon", "coordinates": [ [ [ 628.525276553460913, 1022.982486011787046 ], [ 628.770302534246753, 1014.507196405550985 ], [ 654.842385506096662, 1015.056082363752012 ], [ 654.112736433265013, 1022.982345308373056 ], [ 628.525276553460913, 1022.982486011787046 ] ] ] } },
{ "type": "Feature", "properties": { "feature_type": "building", "subtype": "no-damage", "uid": "f49b4e41-e7dc-4b99-a205-1b6cfa3c77b2" }, "geometry": { "type": "Polygon", "coordinates": [ [ [ 704.836073828231861, 1022.981984152252949 ], [ 705.065450596840265, 1017.800512145765992 ], [ 726.197559951871767, 1016.977183213460989 ], [ 726.432212820402583, 1022.98179720202495 ], [ 704.836073828231861, 1022.981984152252949 ] ] ] } },
{ "type": "Feature", "properties": { "feature_type": "building", "subtype": "no-damage", "uid": "11dc15b2-1ed2-4f0d-bb0e-9d402ed9694d" }, "geometry": { "type": "Polygon", "coordinates": [ [ [ 755.647721219286836, 201.445997619058687 ], [ 756.507854239810513, 222.304223348209888 ], [ 767.259516986236918, 223.164356371482398 ], [ 767.689583497873059, 242.73238257222161 ], [ 757.152954003266814, 243.377482335927908 ], [ 756.077787732422166, 259.720009713138325 ], [ 726.403198543969552, 259.28994320200178 ], [ 726.833265056105461, 234.561118880618011 ], [ 733.499295960229119, 234.34608562504971 ], [ 732.424129681888417, 200.370831343216395 ], [ 755.647721219286836, 201.445997619058687 ] ] ] } },
{ "type": "Feature", "properties": { "feature_type": "building", "subtype": "no-damage", "uid": "ea75d199-b8a0-4afa-bd8c-7a037fda5830" }, "geometry": { "type": "Polygon", "coordinates": [ [ [ 881.759574490496902, 315.853168066245928 ], [ 855.09545087675076, 316.928334342088078 ], [ 856.385650406411969, 284.888379351373715 ], [ 865.417047114539514, 276.287049153631017 ], [ 881.544541238676743, 279.08248146602341 ], [ 881.759574490496902, 315.853168066245928 ] ] ] } },
{ "type": "Feature", "properties": { "feature_type": "building", "subtype": "no-damage", "uid": "51afa1ab-c6ce-48de-8c07-ca4552fed762" }, "geometry": { "type": "Polygon", "coordinates": [ [ [ 723.273478328048441, 296.952491333923774 ], [ 723.441962509141717, 278.250747141622412 ], [ 760.845450894735563, 278.419231321716211 ], [ 761.350903441013656, 316.833624802872976 ], [ 740.795833246946358, 317.844529893430376 ], [ 740.795833246446591, 297.120975519014905 ], [ 723.273478328048441, 296.952491333923774 ] ] ] } },
{ "type": "Feature", "properties": { "feature_type": "building", "subtype": "no-damage", "uid": "ae1b30c0-282e-4cbb-b8af-bf289e2566d4" }, "geometry": { "type": "Polygon", "coordinates": [ [ [ 744.022714749852184, 360.958355950059172 ], [ 727.174296558325523, 360.958355950059172 ], [ 728.522170014817107, 341.582675028387484 ], [ 766.768079313123167, 340.234801574644223 ], [ 766.768079310874327, 380.671005233917299 ], [ 741.832420388144556, 379.154647598081283 ], [ 744.022714749852184, 360.958355950059172 ] ] ] } },
{ "type": "Feature", "properties": { "feature_type": "building", "subtype": "no-damage", "uid": "c8c529a9-b401-40ab-9642-0b84d930c075" }, "geometry": { "type": "Polygon", "coordinates": [ [ [ 876.139309948715209, 447.571314638283525 ], [ 855.75272393848968, 447.739798823374713 ], [ 855.247271392461585, 442.011336636220392 ], [ 837.387948109128502, 441.674368272034997 ], [ 837.219463925536616, 426.342307715591005 ], [ 853.393945391441093, 425.331402622035284 ], [ 852.720008662820533, 404.776332430711989 ], [ 877.655667585300421, 404.944816612804686 ], [ 877.150215039772092, 431.228348993281202 ], [ 885.405939954816972, 431.396833172375523 ], [ 884.732003227195946, 444.370115181520475 ], [ 874.791436495971766, 443.527694272056408 ], [ 876.139309948715209, 447.571314638283525 ] ] ] } },
{ "type": "Feature", "properties": { "feature_type": "building", "subtype": "no-damage", "uid": "777a8546-df48-4ba4-9d35-b521cdae26d2" }, "geometry": { "type": "Polygon", "coordinates": [ [ [ 877.578752683734933, 708.725007236014335 ], [ 845.735242300952564, 707.37713377927264 ], [ 846.914631573602264, 700.46928232146729 ], [ 842.197074479005323, 700.80625068665222 ], [ 842.702527022534809, 675.196655033547017 ], [ 854.327935574935509, 676.039075942011664 ], [ 854.15945139734049, 669.63667703048452 ], [ 876.904815953365301, 669.805161209578728 ], [ 877.915721043922304, 686.485095219765981 ], [ 886.508414323152579, 685.47419012920875 ], [ 887.51931941470923, 701.985639960301683 ], [ 877.241784317800466, 700.806250685652685 ], [ 877.578752683734933, 708.725007236014335 ] ] ] } },
{ "type": "Feature", "properties": { "feature_type": "building", "subtype": "no-damage", "uid": "0688e219-7b51-42bd-98bd-2f712a5fdf7a" }, "geometry": { "type": "Polygon", "coordinates": [ [ [ 846.363263954275226, 741.452978997431273 ], [ 817.383984666568495, 740.610558086967785 ], [ 818.057921394689401, 731.68089644504937 ], [ 824.291836122373411, 730.838475537584259 ], [ 823.954867757938132, 724.773044984245644 ], [ 824.965772850494204, 716.348835891603812 ], [ 834.06391867675211, 716.011867526418882 ], [ 833.558466130973784, 707.924626791965693 ], [ 848.722042502823001, 708.598563520336484 ], [ 846.363263954275226, 741.452978997431273 ] ] ] } },
{ "type": "Feature", "properties": { "feature_type": "building", "subtype": "minor-damage", "uid": "7b94a2ef-d948-42b4-b4d2-744c84c698e2" }, "geometry": { "type": "Polygon", "coordinates": [ [ [ 879.681787381795175, 855.710766969596079 ], [ 847.57195888222077, 855.161881012393792 ], [ 847.846401860322089, 802.468829113978927 ], [ 881.328445253401583, 801.64550017867532 ], [ 881.877331212352829, 824.149824425967495 ], [ 889.561734613932572, 823.600938467765786 ], [ 889.28729163633102, 839.518631230629694 ], [ 880.230673338747465, 840.341960165933415 ], [ 879.681787381795175, 855.710766969596079 ] ] ] } },
{ "type": "Feature", "properties": { "feature_type": "building", "subtype": "minor-damage", "uid": "9bbf1d70-1306-486e-a45a-9677db1e50ef" }, "geometry": { "type": "Polygon", "coordinates": [ [ [ 888.691673381227133, 859.69944020541584 ], [ 891.892872838739208, 860.710345297972026 ], [ 890.376515202403766, 883.624194039592794 ], [ 891.050451928525717, 894.57566586562416 ], [ 854.320900268803712, 893.564760771069018 ], [ 854.8263528193296, 860.204892753692889 ], [ 888.691673381227133, 859.69944020541584 ] ] ] } },
{ "type": "Feature", "properties": { "feature_type": "building", "subtype": "no-damage", "uid": "a4e99d37-4333-4d33-b430-ab1ca45432ac" }, "geometry": { "type": "Polygon", "coordinates": [ [ [ 837.324496826775544, 898.69876439486643 ], [ 875.233437760146671, 898.69876439486643 ], [ 875.907374486018625, 905.943584220855087 ], [ 888.880656495160792, 906.112068399949408 ], [ 888.206719767789536, 928.18349623410495 ], [ 835.471170823756097, 927.50955950573416 ], [ 837.324496826775544, 898.69876439486643 ] ] ] } },
{ "type": "Feature", "properties": { "feature_type": "building", "subtype": "minor-damage", "uid": "e1167ddd-95d5-4e1c-a0f1-3be5c7974434" }, "geometry": { "type": "Polygon", "coordinates": [ [ [ 976.910171968172563, 848.235680926668238 ], [ 949.465874106565593, 849.059009862971379 ], [ 950.838088999570914, 827.103571573880799 ], [ 951.935860913225724, 818.321396256645471 ], [ 950.838089000570449, 804.324804346488236 ], [ 964.560237931873644, 802.952589453982227 ], [ 987.064562180660118, 804.324804345488701 ], [ 986.515676224207596, 821.614711998859661 ], [ 976.910171970421402, 821.065826042656909 ], [ 976.910171968172563, 848.235680926668238 ] ] ] } },
{ "type": "Feature", "properties": { "feature_type": "building", "subtype": "no-damage", "uid": "3c8bb29e-e971-408c-b4fd-cc94369020a2" }, "geometry": { "type": "Polygon", "coordinates": [ [ [ 848.644904328526081, 1022.980365870591982 ], [ 849.407794586925434, 1010.109971156808001 ], [ 889.202026487579815, 1012.305514984617957 ], [ 890.705023298193055, 1022.979726482982983 ], [ 848.644904328526081, 1022.980365870591982 ] ] ] } },
{ "type": "Feature", "properties": { "feature_type": "building", "subtype": "no-damage", "uid": "0d8a84c3-b2b2-4471-b1c7-2785c3c6f283" }, "geometry": { "type": "Polygon", "coordinates": [ [ [ 982.977822521480448, 335.166164771899389 ], [ 989.350858381727676, 380.280908646061278 ], [ 983.801151455784407, 383.742571988798488 ], [ 982.428936562029435, 390.878089432428112 ], [ 956.631296573778059, 389.231431558822294 ], [ 956.356853593677783, 372.215966885551722 ], [ 953.886866786268001, 361.512690718608098 ], [ 955.259081679273436, 353.553844336676377 ], [ 958.277954446633885, 351.632743487967673 ], [ 957.180182528981277, 335.166164773898288 ], [ 982.977822521480448, 335.166164771899389 ] ] ] } },
{ "type": "Feature", "properties": { "feature_type": "building", "subtype": "no-damage", "uid": "28ca813f-6d14-4524-8b5b-5e034f0fe62f" }, "geometry": { "type": "Polygon", "coordinates": [ [ [ 951.783679507255556, 272.243291135393918 ], [ 965.430898244518517, 272.917227860766275 ], [ 978.909632797190056, 271.400870224930372 ], [ 979.415085341968961, 292.629877149621791 ], [ 987.502326077419866, 292.124424603343698 ], [ 990.535041351589825, 313.521915706130017 ], [ 990.535041348341451, 316.217662615615495 ], [ 969.979971153524616, 319.081893710192105 ], [ 950.435806050014435, 317.902504436542586 ], [ 951.783679507255556, 272.243291135393918 ] ] ] } },
{ "type": "Feature", "properties": { "feature_type": "building", "subtype": "no-damage", "uid": "147e1248-ddfe-4be1-a5ef-aa10732a656d" }, "geometry": { "type": "Polygon", "coordinates": [ [ [ 983.955837125059247, 446.944971934892976 ], [ 959.357146562766843, 447.618908663263824 ], [ 958.683209835395587, 397.916074995887982 ], [ 983.787352941467361, 397.916074997886881 ], [ 983.955837125059247, 446.944971934892976 ] ] ] } },
{ "type": "Feature", "properties": { "feature_type": "building", "subtype": "minor-damage", "uid": "42e83b0b-7c60-4157-87c2-2b3454761af2" }, "geometry": { "type": "Polygon", "coordinates": [ [ [ 983.301492054771188, 513.490264180344866 ], [ 947.390938472831635, 515.21053021889395 ], [ 947.175905218262869, 467.473147617673874 ], [ 967.232160370978477, 466.598473986938927 ], [ 968.493278682216442, 491.260467426953426 ], [ 983.44969442647141, 491.609162443261312 ], [ 983.301492054771188, 513.490264180344866 ] ] ] } },
{ "type": "Feature", "properties": { "feature_type": "building", "subtype": "no-damage", "uid": "8da28f0a-4986-49df-b5ee-2e6fd6bc26b6" }, "geometry": { "type": "Polygon", "coordinates": [ [ [ 807.844246169946814, 613.7637580857496 ], [ 808.274312678084812, 568.821807797921338 ], [ 839.88420115815552, 566.456441992667578 ], [ 839.669167903586754, 576.563004975390072 ], [ 881.600652622195867, 575.272805447977476 ], [ 883.966018426949404, 612.258525303768351 ], [ 807.844246169946814, 613.7637580857496 ] ] ] } },
{ "type": "Feature", "properties": { "feature_type": "building", "subtype": "minor-damage", "uid": "51f4b5ae-0e01-42e6-ab4c-df038755ba08" }, "geometry": { "type": "Polygon", "coordinates": [ [ [ 947.493535090463297, 610.15111736910012 ], [ 947.361523327047848, 580.580481968241543 ], [ 967.559323397470394, 580.580481969240964 ], [ 967.559323399469349, 584.936870220171159 ], [ 996.469899970500933, 584.276811395847517 ], [ 997.658005856481964, 609.227035012448482 ], [ 947.493535090463297, 610.15111736910012 ] ] ] } },
{ "type": "Feature", "properties": { "feature_type": "building", "subtype": "no-damage", "uid": "299dba46-eb7e-44f6-9f1e-30ea515ed117" }, "geometry": { "type": "Polygon", "coordinates": [ [ [ 518.47269824656928, 25.7020355293227 ], [ 518.955510345989296, 31.97859282228362 ], [ 542.130491115399991, 32.46140492220345 ], [ 542.371897167858492, 52.73951309284989 ], [ 528.611752333139634, 54.187949392609383 ], [ 528.128940234719039, 59.981694585650473 ], [ 500.367244520568704, 61.430130881412047 ], [ 501.815680819578176, 26.6676597271634 ], [ 518.47269824656928, 25.7020355293227 ] ] ] } },
{ "type": "Feature", "properties": { "feature_type": "building", "subtype": "no-damage", "uid": "5363adaa-163b-4b5e-9f42-e56715deb1d2" }, "geometry": { "type": "Polygon", "coordinates": [ [ [ 555.855913020732828, 23.10154970859951 ], [ 567.467956772240427, 22.985429271988931 ], [ 568.861402018813237, 38.197206581914621 ], [ 571.996653832784659, 39.358410956016193 ], [ 572.112774271394187, 43.306505830760038 ], [ 576.409230454469593, 42.377542329879617 ], [ 577.686555267680092, 55.150790454991608 ], [ 579.196120957110224, 55.26691089160218 ], [ 580.705686641792795, 63.627582387532193 ], [ 574.667423896316109, 64.20818457558245 ], [ 575.596387391699182, 70.943169950968596 ], [ 553.417383834920201, 72.568856077509324 ], [ 551.327215962687205, 55.615272202433381 ], [ 549.933770712866135, 55.84751307665401 ], [ 547.959723273495683, 20.779140962395331 ], [ 555.623672145762612, 20.546900085176279 ], [ 555.855913020732828, 23.10154970859951 ] ] ] } },
{ "type": "Feature", "properties": { "feature_type": "building", "subtype": "minor-damage", "uid": "1015e27c-4fa3-4e50-900c-ee0dc26ec39a" }, "geometry": { "type": "Polygon", "coordinates": [ [ [ 852.257792418551958, 123.323159394736507 ], [ 858.644416476858737, 123.323159394736507 ], [ 857.599332544365325, 113.917403958317095 ], [ 870.140339787507969, 114.381885706758297 ], [ 870.604821538447823, 121.349111955365601 ], [ 877.339806912333302, 121.116871081145007 ], [ 877.223686473973657, 137.722093639392909 ], [ 852.490033294271711, 137.838214078002409 ], [ 852.257792418551958, 123.323159394736507 ] ] ] } },
{ "type": "Feature", "properties": { "feature_type": "building", "subtype": "minor-damage", "uid": "ae07110f-a187-4bfa-bdd3-068971b9738d" }, "geometry": { "type": "Polygon", "coordinates": [ [ [ 845.755047921635651, 141.554068077526097 ], [ 854.580201167754012, 141.437947638916597 ], [ 854.696321602615512, 155.836881888570389 ], [ 847.03237273034847, 155.836881888570389 ], [ 846.916252292988361, 175.112874509850514 ], [ 832.517318048335142, 174.880633631632008 ], [ 832.401197609475844, 176.622440194783309 ], [ 823.692164801217245, 176.970801508612908 ], [ 824.156646548159188, 130.987108267005112 ], [ 846.219529669826898, 129.361422142463397 ], [ 845.755047921635651, 141.554068077526097 ] ] ] } },
{ "type": "Feature", "properties": { "feature_type": "building", "subtype": "no-damage", "uid": "2a05d767-9429-4036-bd6f-ea1cb659e152" }, "geometry": { "type": "Polygon", "coordinates": [ [ [ 880.490361012419839, 188.794077202225907 ], [ 879.638068058149429, 233.594441207730199 ], [ 842.995160547980277, 233.254789217044504 ], [ 843.143362919930382, 224.510849190278691 ], [ 848.478648362856916, 224.066242066682292 ], [ 847.737636496109985, 214.729492545119598 ], [ 846.107410391165786, 214.136683051322194 ], [ 845.366398524918623, 189.090481948624898 ], [ 880.490361012419839, 188.794077202225907 ] ] ] } },
{ "type": "Feature", "properties": { "feature_type": "building", "subtype": "no-damage", "uid": "7a58fe83-4f4a-491a-96a5-6311d08da330" }, "geometry": { "type": "Polygon", "coordinates": [ [ [ 933.530054883094522, 177.995923718812406 ], [ 939.080042357814591, 177.54100671114341 ], [ 939.080042355066098, 175.539371885595614 ], [ 950.271000705690312, 175.084454878926095 ], [ 950.543950911241041, 177.086089706472791 ], [ 956.73082219299954, 176.722156099737987 ], [ 957.822623008456389, 185.547546019331406 ], [ 954.456237161901413, 186.639346832539587 ], [ 955.002137569754723, 190.824583291500289 ], [ 939.625942762669524, 191.643433903905191 ], [ 939.080042356565286, 188.368031460282509 ], [ 933.803005085646873, 188.640981660086396 ], [ 933.530054883094522, 177.995923718812406 ] ] ] } },
{ "type": "Feature", "properties": { "feature_type": "building", "subtype": "minor-damage", "uid": "db3b794a-9a19-4572-a369-8088342e343f" }, "geometry": { "type": "Polygon", "coordinates": [ [ [ 979.843399929837005, 209.452774294107002 ], [ 981.585206489489792, 250.55940915909099 ], [ 954.761385432557518, 251.952854408412691 ], [ 954.413024122476031, 249.978806971040797 ], [ 953.135699310764721, 241.037533286061006 ], [ 953.251819749124365, 210.033376481157802 ], [ 979.843399929837005, 209.452774294107002 ] ] ] } },
{ "type": "Feature", "properties": { "feature_type": "building", "subtype": "minor-damage", "uid": "4d58557c-980a-41bc-9ea9-5cd962f7ff14" }, "geometry": { "type": "Polygon", "coordinates": [ [ [ 939.300600506689648, 111.004737796613597 ], [ 946.488289203720569, 111.095721193549807 ], [ 946.852222809455839, 114.280140240236307 ], [ 972.236591753273046, 114.371123640170893 ], [ 971.781674748352657, 132.840754090763113 ], [ 952.038276679440173, 131.839936673491593 ], [ 951.310409469218826, 126.835849608122899 ], [ 951.583359672270944, 125.107164984378002 ], [ 939.937484315227266, 125.107164984378002 ], [ 939.300600506689648, 111.004737796613597 ] ] ] } },
{ "type": "Feature", "properties": { "feature_type": "building", "subtype": "no-damage", "uid": "21fd3d4c-8595-44b4-983a-467288a61780" }, "geometry": { "type": "Polygon", "coordinates": [ [ [ 1023.051661507729023, 183.347452938718305 ], [ 1021.940328889386024, 183.200177731623711 ], [ 1021.667378686334018, 191.843600845351006 ], [ 1009.657569724804034, 191.206717037812808 ], [ 1009.202652720883975, 174.192821010162106 ], [ 1011.932154755902957, 173.828887403427188 ], [ 1011.659204550601999, 171.190368769341802 ], [ 1017.20919202831999, 171.463318971144588 ], [ 1017.573125630806999, 173.73790400249311 ], [ 1023.051652112392958, 172.341861696396393 ], [ 1023.051661507729023, 183.347452938718305 ] ] ] } },
{ "type": "Feature", "properties": { "feature_type": "building", "subtype": "no-damage", "uid": "f555d9c1-4858-4938-b41c-47847846561e" }, "geometry": { "type": "Polygon", "coordinates": [ [ [ 878.08869814428067, 471.258664827297991 ], [ 890.53769750802735, 471.999676694294919 ], [ 889.796685643029491, 488.598342511628005 ], [ 877.34768627828339, 488.153735391030125 ], [ 878.08869814428067, 471.258664827297991 ] ] ] } },
{ "type": "Feature", "properties": { "feature_type": "building", "subtype": "no-damage", "uid": "8e7090b1-b412-4e81-afd0-99dd19e87783" }, "geometry": { "type": "Polygon", "coordinates": [ [ [ 68.073394303601688, 797.32404490427939 ], [ 87.177337922636724, 796.567453079385928 ], [ 87.555633838581556, 784.272835895882054 ], [ 100.417694889503395, 784.651131810327684 ], [ 100.417694890003105, 780.489876762419271 ], [ 111.5774243341654, 780.86817267786455 ], [ 110.253388640102401, 832.316416889559036 ], [ 87.933929753776766, 833.451304628898242 ], [ 87.933929750778347, 819.454355837385037 ], [ 66.938506561014464, 819.643503792608954 ], [ 68.073394303601688, 797.32404490427939 ] ] ] } },
{ "type": "Feature", "properties": { "feature_type": "building", "subtype": "no-damage", "uid": "28339245-3bb9-41c4-af9a-70c78468ee98" }, "geometry": { "type": "Polygon", "coordinates": [ [ [ 72.802093215931379, 795.054269424601557 ], [ 69.964873865585105, 795.243417381824429 ], [ 50.104338416159642, 793.919381685262465 ], [ 49.72604250471246, 801.296151996963999 ], [ 41.214384453423783, 800.728708124295963 ], [ 40.836088540727253, 795.810861251494089 ], [ 33.459318229527099, 795.810861251494089 ], [ 33.270170274553116, 774.626290103503152 ], [ 50.104338417658852, 774.437142148279349 ], [ 50.293486373132573, 769.708443232700233 ], [ 75.639312570275564, 768.384407536138269 ], [ 74.504424825439514, 781.246468591310759 ], [ 84.718414487735544, 781.057320633088352 ], [ 85.285858356155657, 795.621713295270638 ], [ 72.802093215931379, 795.054269424601557 ] ] ] } },
{ "type": "Feature", "properties": { "feature_type": "building", "subtype": "minor-damage", "uid": "f66ff109-5597-49b1-8d39-b4097fca8da0" }, "geometry": { "type": "Polygon", "coordinates": [ [ [ 718.889521200762033, 796.597151515512792 ], [ 718.58141911041298, 794.748538976416285 ], [ 718.889521203760523, 783.964965816694189 ], [ 719.813827472808839, 778.419128191408731 ], [ 720.430031653257174, 770.716575936177833 ], [ 760.791405479743503, 770.408473844329478 ], [ 763.872426381235414, 786.429782539487519 ], [ 760.175201298545517, 787.970292989734162 ], [ 761.40760966194091, 799.370070330154476 ], [ 728.132583908986135, 800.602478691551141 ], [ 728.440685999585071, 807.380724677233729 ], [ 701.019599964512508, 807.996928857932062 ], [ 699.479089513766439, 796.597151515512792 ], [ 718.889521200762033, 796.597151515512792 ] ] ] } },
{ "type": "Feature", "properties": { "feature_type": "building", "subtype": "no-damage", "uid": "c769d851-c509-46e3-864a-64250a90dcbf" }, "geometry": { "type": "Polygon", "coordinates": [ [ [ 622.858606075844705, 489.211778800895388 ], [ 625.69582542419198, 489.400926757118782 ], [ 626.07412133863761, 481.456712574748224 ], [ 641.016809915512113, 482.024156448415681 ], [ 641.01680991301339, 490.157518586010212 ], [ 644.232325179554437, 489.968370625788907 ], [ 644.043177220582493, 482.024156449415216 ], [ 657.661830102394561, 481.835008493191822 ], [ 658.040126013591816, 488.076891059557283 ], [ 666.362636108657171, 488.076891060556818 ], [ 667.119227934799824, 511.152941773779787 ], [ 623.426049945764021, 511.909533598673193 ], [ 623.993493814184149, 504.343615334746289 ], [ 620.210534680472392, 504.343615334746289 ], [ 621.156274463837804, 496.021105239928886 ], [ 623.426049943765065, 496.021105239928886 ], [ 622.858606075844705, 489.211778800895388 ] ] ] } },
{ "type": "Feature", "properties": { "feature_type": "building", "subtype": "no-damage", "uid": "e711270f-d9a6-4686-919f-c717ab56b50f" }, "geometry": { "type": "Polygon", "coordinates": [ [ [ 872.881384861176684, 493.450656602172728 ], [ 872.692236903204275, 505.366977872230279 ], [ 845.454931142078863, 505.556125830452686 ], [ 845.644079099551618, 473.590121153742189 ], [ 867.017798202511699, 474.157565024411326 ], [ 867.017798202511699, 493.639804559395486 ], [ 872.881384861176684, 493.450656602172728 ] ] ] } },
{ "type": "Feature", "properties": { "feature_type": "building", "subtype": "no-damage", "uid": "4535a21f-8533-402f-bc6c-ed7f4849880c" }, "geometry": { "type": "Polygon", "coordinates": [ [ [ 461.740398799766297, 857.788102113919422 ], [ 462.496990627658079, 875.568010040894364 ], [ 459.092327407392474, 875.568010040894364 ], [ 458.903179449919776, 880.48585691469566 ], [ 454.741924402761924, 880.675004871918532 ], [ 454.552776445788993, 898.45491279789394 ], [ 419.938700377211489, 899.211504626785313 ], [ 419.371256505543101, 890.699846573745731 ], [ 419.749552420238615, 883.89052013771061 ], [ 419.938700375712301, 865.354020379845451 ], [ 417.858072855756518, 865.164872424621535 ], [ 417.858072852258317, 855.707474593463417 ], [ 418.992960592846487, 854.950882764572043 ], [ 418.803812635124018, 848.141556324539124 ], [ 448.878337747845023, 848.141556324539124 ], [ 449.067485704568128, 840.008194188943548 ], [ 475.926495548749074, 840.764786016835501 ], [ 476.115643505971889, 857.03151028902596 ], [ 461.740398799766297, 857.788102113919422 ] ] ] } },
{ "type": "Feature", "properties": { "feature_type": "building", "subtype": "no-damage", "uid": "1881f275-7ae4-46e0-9837-153b51e88197" }, "geometry": { "type": "Polygon", "coordinates": [ [ [ 492.090257703205907, 855.926557149303335 ], [ 500.102567889052523, 855.694316274083235 ], [ 500.334808765022217, 874.970308897362315 ], [ 492.206378138567118, 874.97030889536336 ], [ 492.090257703205907, 855.926557149303335 ] ] ] } },
{ "type": "Feature", "properties": { "feature_type": "building", "subtype": "no-damage", "uid": "ed8bb4e8-8f5e-497e-8e79-a7c827195760" }, "geometry": { "type": "Polygon", "coordinates": [ [ [ 730.383379504631421, 906.615665862410765 ], [ 731.216656048472601, 906.701473131390685 ], [ 732.08104452470161, 921.828271442162759 ], [ 731.504785544213746, 921.828271442162759 ], [ 730.064138081999772, 922.260465681526739 ], [ 730.352267573992776, 924.133307377108054 ], [ 731.360720794843928, 924.277372123229497 ], [ 730.928526559228203, 933.785645349256583 ], [ 722.860900792918414, 934.650033822987098 ], [ 721.852447570817958, 920.819818220311959 ], [ 719.979605874987101, 918.946976527729021 ], [ 720.058036216998175, 909.803355738498567 ], [ 721.721178760848034, 909.456867707967604 ], [ 721.651881152792953, 906.684963469716422 ], [ 730.383379504631421, 906.615665862410765 ] ] ] } },
{ "type": "Feature", "properties": { "feature_type": "building", "subtype": "no-damage", "uid": "ccf2d054-dd1a-4b4e-b18f-f0ab853a8997" }, "geometry": { "type": "Polygon", "coordinates": [ [ [ 237.404852606733499, 411.383425048249478 ], [ 243.138552500138303, 428.966771387228277 ], [ 212.176573079300795, 436.993951238696411 ], [ 206.825119843907203, 420.93959153476078 ], [ 237.404852606733499, 411.383425048249478 ] ] ] } },
{ "type": "Feature", "properties": { "feature_type": "building", "subtype": "no-damage", "uid": "098108d7-adc7-4012-a1ea-e565847de53c" }, "geometry": { "type": "Polygon", "coordinates": [ [ [ 246.96101909524171, 415.205891644853011 ], [ 252.312472331384896, 414.059151664072886 ], [ 251.547979011364788, 410.236685072466685 ], [ 270.660311988381125, 407.943205112905503 ], [ 274.100531922225116, 423.997564813842587 ], [ 249.636745710564696, 428.202278069706722 ], [ 246.96101909524171, 415.205891644853011 ] ] ] } },
{ "type": "Feature", "properties": { "feature_type": "building", "subtype": "minor-damage", "uid": "3a7b6df0-5f0b-403d-8bec-a0ace113cce9" }, "geometry": { "type": "Polygon", "coordinates": [ [ [ 234.078310068676814, 366.75761783594578 ], [ 239.944967325960988, 397.733568168445686 ], [ 226.099656191294287, 400.314897362820716 ], [ 222.110329255851298, 374.032272840546909 ], [ 220.936997803544898, 374.266939127310195 ], [ 219.998332644498305, 369.104280740559091 ], [ 234.078310068676814, 366.75761783594578 ] ] ] } },
{ "type": "Feature", "properties": { "feature_type": "building", "subtype": "no-damage", "uid": "e9603b6d-1d14-48ad-a031-62a8af4406a4" }, "geometry": { "type": "Polygon", "coordinates": [ [ [ 851.854014502592236, 365.479168899136198 ], [ 853.351515801032633, 348.407654089315315 ], [ 862.336523596422921, 347.209653048363805 ], [ 862.037023334685841, 340.920147595112383 ], [ 871.022031131325434, 340.321147075136423 ], [ 871.321531388814606, 344.514150709970977 ], [ 882.702541260360249, 344.214650453481227 ], [ 883.601042039324625, 366.677169935090319 ], [ 873.41803320823044, 366.976670194578617 ], [ 874.915534505421533, 378.657180325614888 ], [ 847.361510605771628, 379.256180848589395 ], [ 847.0620103462835, 365.778669157625018 ], [ 851.854014502592236, 365.479168899136198 ] ] ] } },
{ "type": "Feature", "properties": { "feature_type": "building", "subtype": "no-damage", "uid": "f7260323-df64-4f39-a742-f8b3a65b402b" }, "geometry": { "type": "Polygon", "coordinates": [ [ [ 834.080041994229077, 396.839065979773522 ], [ 836.476044072883155, 415.108581828547017 ], [ 816.110026407196642, 416.007082606012318 ], [ 815.211525627482729, 396.539565719285804 ], [ 834.080041994229077, 396.839065979773522 ] ] ] } },
{ "type": "Feature", "properties": { "feature_type": "building", "subtype": "un-classified", "uid": "7b19d634-5bd1-4dc9-a840-073348c56018" }, "geometry": { "type": "Polygon", "coordinates": [ [ [ 752.915471593220104, 439.068602611595281 ], [ 755.311473670374994, 456.439617675907073 ], [ 739.437959903757815, 456.439617676906607 ], [ 741.23496146218622, 439.068602610595804 ], [ 752.915471593220104, 439.068602611595281 ] ] ] } },
{ "type": "Feature", "properties": { "feature_type": "building", "subtype": "un-classified", "uid": "fb71b954-ac70-43f4-8ca4-d4006b6d47fe" }, "geometry": { "type": "Polygon", "coordinates": [ [ [ 757.70747574952884, 418.403084683917314 ], [ 781.966996795558202, 415.707582346524021 ], [ 781.367996273833228, 423.195088841726374 ], [ 789.454503285761461, 425.291590660143072 ], [ 790.35300406722456, 436.672600530691795 ], [ 787.957001987321064, 437.27160105166729 ], [ 788.855502766285326, 451.647613520097025 ], [ 786.459500691379276, 452.246614040072984 ], [ 787.35800146884435, 455.84061715892949 ], [ 792.749006143629799, 456.14011741741831 ], [ 792.749006143379916, 477.105135602585619 ], [ 772.083488221703419, 479.201637420002783 ], [ 770.585986921513836, 463.627623909622173 ], [ 764.296481465015631, 461.830622353692092 ], [ 763.397980685051834, 453.14511481853782 ], [ 760.702478348408704, 423.494589103213627 ], [ 757.70747574952884, 418.403084683917314 ] ] ] } },
{ "type": "Feature", "properties": { "feature_type": "building", "subtype": "no-damage", "uid": "8e69c911-d424-41b0-992e-1f53f48647fe" }, "geometry": { "type": "Polygon", "coordinates": [ [ [ 48.422292565478962, 260.658006334820925 ], [ 63.217756798408217, 262.54678900349279 ], [ 61.958568353626703, 280.805021460324781 ], [ 48.107495452284631, 278.601441682206598 ], [ 48.422292565478962, 260.658006334820925 ] ] ] } },
{ "type": "Feature", "properties": { "feature_type": "building", "subtype": "no-damage", "uid": "2e423c8a-6e08-4fa6-9929-5719d5ec945b" }, "geometry": { "type": "Polygon", "coordinates": [ [ [ 44.015133006494843, 215.012425191241505 ], [ 43.070741675157542, 202.105743622982999 ], [ 59.125394350119727, 202.735337848872092 ], [ 59.754988572010753, 214.697628078796697 ], [ 44.015133006494843, 215.012425191241505 ] ] ] } },
{ "type": "Feature", "properties": { "feature_type": "building", "subtype": "minor-damage", "uid": "68604972-e1d0-41ae-9214-8610c71a51f6" }, "geometry": { "type": "Polygon", "coordinates": [ [ [ 948.112436793394522, 671.783033754472171 ], [ 972.351814369931049, 673.671816423144037 ], [ 970.463031698760915, 716.484223566713922 ], [ 942.131291677184095, 718.058209120942138 ], [ 941.816494567737891, 705.781121779572118 ], [ 956.926755913361717, 703.892339111899673 ], [ 955.982364578776128, 699.170382443218386 ], [ 952.204799241932847, 699.485179552664704 ], [ 946.853248352360993, 694.763222881984461 ], [ 945.594059903831521, 685.634106654068205 ], [ 950.001219462065933, 684.060121097841034 ], [ 948.112436793394522, 671.783033754472171 ] ] ] } },
{ "type": "Feature", "properties": { "feature_type": "building", "subtype": "no-damage", "uid": "6cb9a771-c38c-4744-9855-e15b255080ec" }, "geometry": { "type": "Polygon", "coordinates": [ [ [ 465.907573311375813, 737.173943561044325 ], [ 480.277143773632872, 737.17394355904537 ], [ 480.961409030075572, 754.109508744647769 ], [ 466.933971201662018, 753.767376112303509 ], [ 465.907573311375813, 737.173943561044325 ] ] ] } },
{ "type": "Feature", "properties": { "feature_type": "building", "subtype": "no-damage", "uid": "1f435809-e2da-4a49-a0db-d91507950c70" }, "geometry": { "type": "Polygon", "coordinates": [ [ [ 111.647169678060905, 687.902585130061084 ], [ 127.659211292520993, 690.455229443233975 ], [ 123.714215531983996, 710.644325387049321 ], [ 108.1662910666454, 706.467271053949617 ], [ 111.647169678060905, 687.902585130061084 ] ] ] } },
{ "type": "Feature", "properties": { "feature_type": "building", "subtype": "no-damage", "uid": "005851f0-8c9d-4d36-b166-57dd7bb82e03" }, "geometry": { "type": "Polygon", "coordinates": [ [ [ 68.716333474518123, 709.948149663366848 ], [ 68.252216325146676, 721.55107837141918 ], [ 58.737814787144472, 720.854902649735664 ], [ 59.666049085637489, 709.716091091804401 ], [ 68.716333474518123, 709.948149663366848 ] ] ] } }
]
}
