{
"type": "FeatureCollection",
"name": "hurricane-harvey_00000013_post_disaster",
"features": [
{ "type": "Feature", "properties": { "feature_type": "building", "subtype": "no-damage", "uid": "4ffb28cd-4035-4601-b9e1-a0768970030d" }, "geometry": { "type": "Polygon", "coordinates": [ [ [ 962.232841818884367, 64.071330933182495 ], [ 963.033125576094335, 158.898538711655192 ], [ 963.280228719464162, 211.678964256907591 ], [ 941.709445628941126, 214.340847682437413 ], [ 937.241056627407033, 226.227414506856206 ], [ 860.299974091468016, 224.837934385900411 ], [ 856.195294856196483, 219.365028738622811 ], [ 780.942842173095187, 216.62857591149421 ], [ 778.20638934939393, 179.002349574869612 ], [ 783.679294999102353, 62.703104523606619 ], [ 882.19159669111184, 62.018991315328783 ], [ 881.507483487819513, 43.547934751653962 ], [ 923.238389062772171, 44.232047956940463 ], [ 922.554275855553669, 64.071330935176732 ], [ 962.232841818884367, 64.071330933182495 ] ] ] } },
{ "type": "Feature", "properties": { "feature_type": "building", "subtype": "no-damage", "uid": "df3267bd-ca9b-42cb-abe2-8f57d32c77b7" }, "geometry": { "type": "Polygon", "coordinates": [ [ [ 713.89974796757906, 163.951859038624406 ], [ 715.952087584373544, 173.529443924600713 ], [ 727.582012091195793, 175.581783545445688 ], [ 726.213785676758903, 183.791142018854913 ], [ 732.370804532750981, 183.79114201686059 ], [ 732.370804534745162, 207.73510423578989 ], [ 726.213785677818237, 209.103330645365787 ], [ 726.897898884351207, 217.996802326055587 ], [ 660.538917881940392, 216.628575914485509 ], [ 659.854804677837933, 204.998651409658407 ], [ 653.013672617681095, 204.998651409658407 ], [ 652.329559407720581, 184.475255223144188 ], [ 659.170691473984789, 184.475255223144188 ], [ 658.486578265021308, 176.950009956018789 ], [ 669.43238956344112, 175.581783544448712 ], [ 669.432389562568574, 165.320085452188692 ], [ 713.89974796757906, 163.951859038624406 ] ] ] } },
{ "type": "Feature", "properties": { "feature_type": "building", "subtype": "no-damage", "uid": "812b26f8-f3b5-4ad9-82c2-d4d0e8de12b1" }, "geometry": { "type": "Polygon", "coordinates": [ [ [ 550.977876692906307, 0.012426418521562 ], [ 550.294053682747403, 29.290546731356461 ], [ 531.138883909920878, 28.606433527067079 ], [ 531.138883907926584, 0.012451755165867 ], [ 550.977876692906307, 0.012426418521562 ] ] ] } },
{ "type": "Feature", "properties": { "feature_type": "building", "subtype": "no-damage", "uid": "8f134734-941d-48c1-b5b9-04ceab552119" }, "geometry": { "type": "Polygon", "coordinates": [ [ [ 599.549587010366849, 0.012295009980978 ], [ 598.181978116247137, 27.238207109514288 ], [ 562.608091392799679, 25.869980701932629 ], [ 563.291876670577949, 0.012402424988626 ], [ 599.549587010366849, 0.012295009980978 ] ] ] } },
{ "type": "Feature", "properties": { "feature_type": "building", "subtype": "no-damage", "uid": "1b2e385a-1dfe-4d62-9f2b-c1684812bf88" }, "geometry": { "type": "Polygon", "coordinates": [ [ [ 645.384734761731693, 0.012080661571318 ], [ 642.649336519388044, 31.342886349210179 ], [ 610.49601582729656, 29.9746599396343 ], [ 611.179849511862926, 0.01224892740116 ], [ 645.384734761731693, 0.012080661571318 ] ] ] } },
{ "type": "Feature", "properties": { "feature_type": "building", "subtype": "no-damage", "uid": "798cba85-5f98-459d-ac0b-172b217a6264" }, "geometry": { "type": "Polygon", "coordinates": [ [ [ 676.854996828086996, 0.011882690744605 ], [ 676.85499682958266, 27.92232031380367 ], [ 656.331600641696014, 28.60643352407574 ], [ 656.331600643627894, 0.012016490362443 ], [ 676.854996828086996, 0.011882690744605 ] ] ] } },
{ "type": "Feature", "properties": { "feature_type": "building", "subtype": "no-damage", "uid": "4f666709-f04d-4ca7-9f4d-773006cedded" }, "geometry": { "type": "Polygon", "coordinates": [ [ [ 468.011936185716422, 0.012423020360059 ], [ 466.292344647861228, 15.08983511121215 ], [ 433.994808628546707, 17.660622228523529 ], [ 434.678443861179289, 0.012340712660699 ], [ 468.011936185716422, 0.012423020360059 ] ] ] } },
{ "type": "Feature", "properties": { "feature_type": "building", "subtype": "no-damage", "uid": "37a6aefa-b82c-432d-81e7-496e1ba3aa80" }, "geometry": { "type": "Polygon", "coordinates": [ [ [ 432.884047714581811, 0.012334965300692 ], [ 432.251359360387028, 16.78889759855679 ], [ 378.591602530388911, 17.105474334558821 ], [ 378.275025790959319, 11.248804706555941 ], [ 350.257984611714789, 13.148265126556559 ], [ 350.257984610281426, 0.011924702111566 ], [ 432.884047714581811, 0.012334965300692 ] ] ] } },
{ "type": "Feature", "properties": { "feature_type": "building", "subtype": "no-damage", "uid": "9ac76edc-5b5f-432f-956d-6fc6bedfa687" }, "geometry": { "type": "Polygon", "coordinates": [ [ [ 677.981526307502122, 37.340752548088709 ], [ 677.445505711833448, 102.199244885171098 ], [ 619.555281137819975, 103.807306680465402 ], [ 620.091301739284404, 107.023430267065606 ], [ 656.00468179840118, 107.559450865164607 ], [ 657.076722990424059, 117.743842226055605 ], [ 561.521911894520599, 117.436239864076498 ], [ 561.89347480179606, 105.266134369487403 ], [ 585.862122884074438, 105.189994957447496 ], [ 585.709844060181354, 103.198191391125405 ], [ 535.400047270286677, 101.663224289066207 ], [ 534.864026676362982, 38.412793743289733 ], [ 677.981526307502122, 37.340752548088709 ] ] ] } },
{ "type": "Feature", "properties": { "feature_type": "building", "subtype": "no-damage", "uid": "467c3f33-6639-4dd2-9f2d-e79f46fbcbf6" }, "geometry": { "type": "Polygon", "coordinates": [ [ [ 19.925282684036841, 0.007436300117783 ], [ 20.253909851384009, 5.522834459325586 ], [ 6.762033733014704, 5.851904610876625 ], [ 7.749244182059133, 15.394938937055951 ], [ -0.000003295645811, 15.724009086612771 ], [ -0.000003292966069, 0.007019849841766 ], [ 19.925282684036841, 0.007436300117783 ] ] ] } },
{ "type": "Feature", "properties": { "feature_type": "building", "subtype": "no-damage", "uid": "08f6cbfc-8bbe-4b5e-984a-560fd6ba1b3c" }, "geometry": { "type": "Polygon", "coordinates": [ [ [ 76.243808777689594, 0.008523738720775 ], [ 74.780185514947405, 7.29851714671299 ], [ 71.030081934144974, 10.927649644910771 ], [ 72.346362529879542, 15.534631733720589 ], [ 41.184067457306362, 14.21835113948179 ], [ 41.373340061907619, 0.007866050885669 ], [ 76.243808777689594, 0.008523738720775 ] ] ] } },
{ "type": "Feature", "properties": { "feature_type": "building", "subtype": "no-damage", "uid": "897b59b5-d0f4-4034-8dd2-96a3cbd2dc09" }, "geometry": { "type": "Polygon", "coordinates": [ [ [ 278.244906831296476, 13.749588187277659 ], [ 240.589996712261609, 13.680001658061579 ], [ 240.381977405197603, 0.010937515255589 ], [ 277.916107839298093, 0.011331434763613 ], [ 278.244906831296476, 13.749588187277659 ] ] ] } },
{ "type": "Feature", "properties": { "feature_type": "building", "subtype": "no-damage", "uid": "6fe3e025-be87-4ab8-917f-35c79c7ea55f" }, "geometry": { "type": "Polygon", "coordinates": [ [ [ 233.689996711676713, 13.67000165448359 ], [ 94.952833720082268, 13.420518039715081 ], [ 93.966273311389259, 0.008838538300075 ], [ 234.610276896352701, 0.010871722740786 ], [ 233.689996711676713, 13.67000165448359 ] ] ] } },
{ "type": "Feature", "properties": { "feature_type": "building", "subtype": "no-damage", "uid": "d4565da5-a832-4088-8c26-ae35c5de71c1" }, "geometry": { "type": "Polygon", "coordinates": [ [ [ 279.018279161764383, 1.3883612423791 ], [ 310.432275531318794, 0.562707919866501 ], [ 310.55629860592029, 2.050984859206724 ], [ 311.176413997872999, 13.585131146073239 ], [ 279.137593600253012, 15.16917934950723 ], [ 279.018279161764383, 1.3883612423791 ] ] ] } },
{ "type": "Feature", "properties": { "feature_type": "building", "subtype": "no-damage", "uid": "f0ea18da-0e12-46df-b4b6-edaab7584a68" }, "geometry": { "type": "Polygon", "coordinates": [ [ [ 345.214381366325711, 0.011890426348167 ], [ 344.865875058820905, 14.943174107188311 ], [ 312.744611435222623, 17.771461473179691 ], [ 312.698537792529521, 0.011643958930779 ], [ 345.214381366325711, 0.011890426348167 ] ] ] } },
{ "type": "Feature", "properties": { "feature_type": "building", "subtype": "no-damage", "uid": "79004b04-caac-481c-8396-108e1ab85c0a" }, "geometry": { "type": "Polygon", "coordinates": [ [ [ 1022.514009463659022, 761.974583506108843 ], [ 955.764087988198526, 759.412260618810251 ], [ 957.510330132745139, 703.532512028222527 ], [ 1022.513954849094034, 706.093334586335914 ], [ 1022.514009463659022, 761.974583506108843 ] ] ] } },
{ "type": "Feature", "properties": { "feature_type": "building", "subtype": "no-damage", "uid": "a487038b-8a90-4313-af54-3a5c0cdab3a1" }, "geometry": { "type": "Polygon", "coordinates": [ [ [ 1022.514217634205011, 906.950952554480068 ], [ 954.890966914772321, 906.096600662247852 ], [ 954.017845844025828, 851.089973148576178 ], [ 1022.514127354461039, 851.944558132950419 ], [ 1022.514217634205011, 906.950952554480068 ] ] ] } },
{ "type": "Feature", "properties": { "feature_type": "building", "subtype": "no-damage", "uid": "b1cd79fe-9fdd-44c0-8b9d-8b9741355761" }, "geometry": { "type": "Polygon", "coordinates": [ [ [ 786.695124568935171, 797.223115193160766 ], [ 800.974654151944947, 809.402713952459067 ], [ 786.69512456700329, 821.162326547987391 ], [ 774.515525805959214, 808.982727791680418 ], [ 786.695124568935171, 797.223115193160766 ] ] ] } },
{ "type": "Feature", "properties": { "feature_type": "building", "subtype": "no-damage", "uid": "b85905a4-f660-401f-b2ae-73f386a2ac56" }, "geometry": { "type": "Polygon", "coordinates": [ [ [ 783.335235255036537, 778.74372396734293 ], [ 781.235304433943384, 795.123184371319894 ], [ 771.575622656391374, 794.28321204278302 ], [ 771.155636492933013, 778.743723969337111 ], [ 783.335235255036537, 778.74372396734293 ] ] ] } },
{ "type": "Feature", "properties": { "feature_type": "building", "subtype": "no-damage", "uid": "f4320c2f-2af8-4f53-aeb2-9ad6c483d56f" }, "geometry": { "type": "Polygon", "coordinates": [ [ [ 19.139996706699709, 53.770001660746821 ], [ 18.179789231907652, 195.387778312082588 ], [ 40.065327497665422, 197.071281254063507 ], [ 42.376641468187771, 86.788586110835141 ], [ 31.558349982594098, 76.308366239824494 ], [ 20.027441004561911, 79.481014660514674 ], [ 20.354172827637839, 53.820001663680081 ], [ 72.069503691298394, 54.074286549610683 ], [ 70.389559035720112, 227.528572360077305 ], [ -0.000003296580604, 228.788530852384099 ], [ -0.000003292592152, 53.654300386837903 ], [ 19.139996706699709, 53.770001660746821 ] ] ] } },
{ "type": "Feature", "properties": { "feature_type": "building", "subtype": "no-damage", "uid": "e51d95a9-dc12-47f5-849e-82bbe98df58e" }, "geometry": { "type": "Polygon", "coordinates": [ [ [ 158.166667353625286, 227.528572358083096 ], [ 74.589420679215152, 228.368544688614207 ], [ 77.109337662582575, 54.494272714377693 ], [ 103.989996706913203, 54.070001659401207 ], [ 106.372061635661296, 141.846719061844396 ], [ 104.718971599234195, 197.721162300704805 ], [ 128.261009779375087, 196.712217806338202 ], [ 128.59162299881001, 85.626176381334645 ], [ 105.550217331995498, 87.601307694849382 ], [ 104.659807207105302, 54.005014833933487 ], [ 157.746681193781512, 53.234314217085313 ], [ 158.166667353625286, 227.528572358083096 ] ] ] } },
{ "type": "Feature", "properties": { "feature_type": "building", "subtype": "no-damage", "uid": "82149011-4677-4596-ae51-09620f17b148" }, "geometry": { "type": "Polygon", "coordinates": [ [ [ 281.222613469896714, 227.528572357086006 ], [ 198.905325282994795, 227.948558520855897 ], [ 198.485339118040713, 56.594203532230082 ], [ 221.9545492771162, 56.594203532230082 ], [ 223.044549277246006, 102.954115288305701 ], [ 227.823852289736806, 102.954115288305701 ], [ 226.455736370950802, 196.670055481436805 ], [ 249.531837567028191, 197.369331270386908 ], [ 250.906261841665213, 87.415388966405317 ], [ 223.668515405700305, 86.194927790841163 ], [ 223.178515407428591, 55.522162337029073 ], [ 280.802627303447025, 56.594203530235859 ], [ 281.222613469896714, 227.528572357086006 ] ] ] } },
{ "type": "Feature", "properties": { "feature_type": "building", "subtype": "no-damage", "uid": "4084bd74-3d60-4157-837f-1a38937c4b51" }, "geometry": { "type": "Polygon", "coordinates": [ [ [ 406.37849040264939, 228.788530844407205 ], [ 319.021368246644613, 229.208517013162691 ], [ 319.861340576988823, 57.434175857775656 ], [ 350.489996716592998, 57.28000165627045 ], [ 349.466986550363515, 198.55578810970519 ], [ 371.94200641709898, 198.55578810970519 ], [ 373.557321696495308, 88.714349014801442 ], [ 350.80873460684478, 89.018951510118029 ], [ 352.470148911757121, 57.669987820274621 ], [ 402.598614922924412, 57.014189691014423 ], [ 406.37849040264939, 228.788530844407205 ] ] ] } },
{ "type": "Feature", "properties": { "feature_type": "building", "subtype": "no-damage", "uid": "5a7d3b9c-8a5f-408a-b734-362f36e83c59" }, "geometry": { "type": "Polygon", "coordinates": [ [ [ 70.968864225238335, 231.556603011920004 ], [ 67.57992677538617, 395.88119007602171 ], [ 67.043906179405937, 396.953231266237083 ], [ -0.00000329421246, 395.345169476925378 ], [ -0.000003295645811, 371.977005368603614 ], [ 39.78086949119546, 371.977005368603614 ], [ 41.046509006882118, 262.710127153389124 ], [ 18.706546869635929, 261.850897840466075 ], [ 17.44660466660514, 370.205340901499426 ], [ -0.000003295521171, 371.059752618524385 ], [ -0.000003295458852, 230.606872804911006 ], [ 64.953906232287636, 230.448584434915801 ], [ 70.968864225238335, 231.556603011920004 ] ] ] } },
{ "type": "Feature", "properties": { "feature_type": "building", "subtype": "no-damage", "uid": "d4b140ea-2b78-40f9-8c6e-8d51a8d61dac" }, "geometry": { "type": "Polygon", "coordinates": [ [ [ 157.105440127438499, 380.298921404723728 ], [ 166.387502736987898, 380.041086333435885 ], [ 166.129667662459497, 397.0582011182006 ], [ 101.731692377508196, 397.478187279976282 ], [ 104.043627528376206, 371.129511557572414 ], [ 124.622863144277204, 370.709528010227302 ], [ 123.779143714938201, 263.135300504999293 ], [ 102.699598530644806, 261.84471610607801 ], [ 103.541509042984799, 370.872127426703287 ], [ 100.203817525424896, 397.05820111919769 ], [ 70.98852590437302, 397.05820111919769 ], [ 74.856051992822614, 231.528084570684996 ], [ 157.621110270886589, 231.528084569687906 ], [ 157.105440127438499, 380.298921404723728 ] ] ] } },
{ "type": "Feature", "properties": { "feature_type": "building", "subtype": "no-damage", "uid": "65651481-cc2f-4206-9136-fbd77650ee9d" }, "geometry": { "type": "Polygon", "coordinates": [ [ [ 280.859784817097989, 233.285880412803209 ], [ 280.859784818718424, 380.380237102169076 ], [ 289.415608701026486, 381.038377404274115 ], [ 288.757468397799812, 398.808165457408279 ], [ 232.17773259344159, 399.224114865559272 ], [ 230.74405576760509, 374.233836834241686 ], [ 246.729304002258687, 376.278130620717604 ], [ 249.477727459526392, 263.826196233246094 ], [ 225.015684345105797, 265.224027266297412 ], [ 227.073621229834714, 355.087271110494498 ], [ 229.069996713790289, 398.430001656810987 ], [ 185.100371397950909, 398.150025163280304 ], [ 184.113160950090503, 379.063956510921628 ], [ 195.630616171741991, 377.747675914688614 ], [ 196.617826620848689, 232.627740118675092 ], [ 280.859784817097989, 233.285880412803209 ] ] ] } },
{ "type": "Feature", "properties": { "feature_type": "building", "subtype": "no-damage", "uid": "9488ab4e-9452-477b-a9b6-400a5e8b1ee4" }, "geometry": { "type": "Polygon", "coordinates": [ [ [ 404.261090772533805, 233.944020708925393 ], [ 403.602950475351975, 382.025587846961798 ], [ 413.475054949343985, 380.380237099177691 ], [ 414.133195248395282, 402.757007248101672 ], [ 353.877091067286699, 402.784114861024818 ], [ 350.731389891635672, 375.852063244524174 ], [ 371.241935529650789, 375.852063244524174 ], [ 369.180798000247592, 264.550636693404215 ], [ 349.53343571594138, 262.445562164834826 ], [ 348.161368816260392, 365.350579684022819 ], [ 351.649996717775707, 402.000001656851623 ], [ 304.88190571062961, 401.440726652865692 ], [ 304.552835560761082, 381.038377403276911 ], [ 316.070290783409689, 382.354657999509982 ], [ 319.360992276423019, 233.285880413800299 ], [ 404.261090772533805, 233.944020708925393 ] ] ] } },
{ "type": "Feature", "properties": { "feature_type": "building", "subtype": "no-damage", "uid": "a8ac4cbd-aff9-4502-b8b6-36dc266633c5" }, "geometry": { "type": "Polygon", "coordinates": [ [ [ 69.079056404073569, 511.134942662107619 ], [ 67.104635509349961, 659.216509803135182 ], [ -0.000003291657358, 658.229299355461876 ], [ -0.00000329421246, 500.933768039805898 ], [ 15.849996704576141, 500.850001659677901 ], [ 17.0529401484483, 624.8486662804562 ], [ 33.275070575028607, 626.259286319251601 ], [ 37.399106838971377, 519.034343349059441 ], [ 16.018354111780368, 517.248368327461662 ], [ 17.420135062243311, 500.400015497139407 ], [ 62.826723569785038, 500.604697889252009 ], [ 69.079056404073569, 511.134942662107619 ] ] ] } },
{ "type": "Feature", "properties": { "feature_type": "building", "subtype": "no-damage", "uid": "ac5b4580-ec29-4846-b421-1835998ada2e" }, "geometry": { "type": "Polygon", "coordinates": [ [ [ 158.257066840372488, 659.545579948703562 ], [ 71.382547449725038, 660.861860545933723 ], [ 69.408126557057983, 503.237259083712274 ], [ 103.919996708851599, 503.110001660642126 ], [ 101.163099628017605, 626.579117152856384 ], [ 123.083181130711395, 624.430089553028211 ], [ 127.038477724692797, 526.766077840083767 ], [ 105.619183352857902, 524.246160854473032 ], [ 106.290646994369695, 502.200029331987082 ], [ 161.54776833351039, 502.908188932161181 ], [ 158.257066840372488, 659.545579948703562 ] ] ] } },
{ "type": "Feature", "properties": { "feature_type": "building", "subtype": "no-damage", "uid": "14051915-0a08-4b3d-b798-3dee4a76d3ee" }, "geometry": { "type": "Polygon", "coordinates": [ [ [ 224.179996714273102, 504.14000165625481 ], [ 223.804520456466207, 629.498093824436978 ], [ 244.040950738980001, 629.067531481256992 ], [ 244.889173109904704, 521.426556885951868 ], [ 224.761800780004592, 521.840806003853118 ], [ 225.79017657843491, 504.230001656549121 ], [ 281.00023249906269, 504.882609825513725 ], [ 278.200637400599476, 660.768172800550815 ], [ 190.829279945718014, 661.840213998743138 ], [ 191.901321142975604, 503.714137630313417 ], [ 224.179996714273102, 504.14000165625481 ] ] ] } },
{ "type": "Feature", "properties": { "feature_type": "building", "subtype": "no-damage", "uid": "46a2ea7b-09d4-4a1e-9d23-434c595d93c8" }, "geometry": { "type": "Polygon", "coordinates": [ [ [ 343.210079732921713, 505.259973984266992 ], [ 346.020683234964224, 528.036775190805656 ], [ 342.231909614315498, 629.912688064127337 ], [ 365.001621322974415, 629.912688062133157 ], [ 364.579781713439388, 521.499909092623511 ], [ 346.541392118793681, 520.662038310602611 ], [ 346.980287268426878, 504.89998781903148 ], [ 404.325663909604202, 505.626151148068686 ], [ 399.501478529204974, 664.824268712696608 ], [ 312.130121074448084, 662.14416572718676 ], [ 314.274203461173386, 505.09013055196391 ], [ 343.210079732921713, 505.259973984266992 ] ] ] } },
{ "type": "Feature", "properties": { "feature_type": "building", "subtype": "no-damage", "uid": "e3d5bd49-b1d4-40b8-92a9-2f979e13b2ee" }, "geometry": { "type": "Polygon", "coordinates": [ [ [ 396.661189532017602, 702.041758833239669 ], [ 396.661189531581385, 882.647645262199603 ], [ 343.22363762094119, 882.807856020417262 ], [ 341.9879393081888, 845.425449217442065 ], [ 362.394055016971379, 844.450403611617844 ], [ 363.851406537046216, 733.222960303168065 ], [ 343.357228381659013, 732.723102299636594 ], [ 341.401004200685691, 837.381096024951148 ], [ 342.629996719952487, 882.210001653989707 ], [ 311.831151965494428, 881.963532060901571 ], [ 311.831151962253728, 699.989419217380146 ], [ 396.661189532017602, 702.041758833239669 ] ] ] } },
{ "type": "Feature", "properties": { "feature_type": "building", "subtype": "no-damage", "uid": "7b6e25f3-22e4-4c8b-a21c-3bb27d0cc0f6" }, "geometry": { "type": "Polygon", "coordinates": [ [ [ 276.706885822097377, 663.603750093445797 ], [ 275.185511025847291, 841.496704371247688 ], [ 226.632181254709991, 841.467856024169691 ], [ 222.91906845854021, 804.970763699273562 ], [ 244.33386983648839, 805.942118943584319 ], [ 242.86353983786401, 696.157479284615533 ], [ 222.369318818204306, 694.657902136106031 ], [ 220.412827189369608, 805.19967910097921 ], [ 226.239996714223395, 840.880001657331604 ], [ 189.958235961305689, 840.424663175049545 ], [ 192.18089718235521, 663.287173361432224 ], [ 276.706885822097377, 663.603750093445797 ] ] ] } },
{ "type": "Feature", "properties": { "feature_type": "building", "subtype": "no-damage", "uid": "4501ce11-861e-4c48-a3bc-57c5df634aed" }, "geometry": { "type": "Polygon", "coordinates": [ [ [ 153.82224520764791, 700.054320200382449 ], [ 149.717565972999608, 881.344319837620219 ], [ 100.220688499261996, 879.426695997102456 ], [ 99.569244139663567, 841.326907427349397 ], [ 119.308752978035798, 844.272698011187458 ], [ 119.729608862816093, 729.379041502116024 ], [ 97.807454966451857, 728.519349190685375 ], [ 98.649441841515809, 839.661616764428459 ], [ 100.2099967100702, 879.400001657652865 ], [ 79.938018939731364, 878.607867013482974 ], [ 80.622132148071572, 873.134961362216927 ], [ 69.676320845601069, 873.819074568500582 ], [ 69.676320845102524, 697.317867376245204 ], [ 153.82224520764791, 700.054320200382449 ] ] ] } },
{ "type": "Feature", "properties": { "feature_type": "building", "subtype": "no-damage", "uid": "04a6a2bf-16db-4f8b-ae26-ea7832be4d90" }, "geometry": { "type": "Polygon", "coordinates": [ [ [ 65.11490854077644, 873.29537392416421 ], [ 55.900944360414073, 874.282584369843335 ], [ 56.888154807713548, 878.231426161533705 ], [ -0.000003293090708, 878.893111147922809 ], [ -0.00000329570813, 737.410209197799986 ], [ 14.653709531694201, 737.442815065948366 ], [ 15.493472958489599, 814.684547438722689 ], [ 34.050153519419247, 816.410750283188122 ], [ 34.472842373187333, 733.563734528602595 ], [ -0.000003292093595, 733.890015497510035 ], [ -0.000003295147254, 696.584703804598462 ], [ 66.102118987390412, 696.584703802604281 ], [ 65.11490854077644, 873.29537392416421 ] ] ] } },
{ "type": "Feature", "properties": { "feature_type": "building", "subtype": "no-damage", "uid": "cfa8d4b6-5b22-4655-95e3-132167612866" }, "geometry": { "type": "Polygon", "coordinates": [ [ [ 54.073385315405098, 902.601369149405173 ], [ 65.329817874302279, 902.065348549311921 ], [ 62.817486151650783, 1022.984276600185012 ], [ 31.92715578547671, 1022.983679331421968 ], [ 30.48069834684642, 936.337032942859992 ], [ 11.70318756665805, 936.337032944854286 ], [ 13.20926517975496, 1022.983298037359987 ], [ -0.00000358106944, 1022.983020149910999 ], [ -0.000003293838543, 899.385245563802187 ], [ 54.073385316526853, 897.777183766513645 ], [ 54.073385315405098, 902.601369149405173 ] ] ] } },
{ "type": "Feature", "properties": { "feature_type": "building", "subtype": "no-damage", "uid": "d31ffcc7-9fc8-4e52-bf55-0e0fce34d4a1" }, "geometry": { "type": "Polygon", "coordinates": [ [ [ 144.991589854290709, 905.534880900425492 ], [ 151.625625253787092, 908.584773958494793 ], [ 149.289311285412708, 1022.985736681896014 ], [ 120.292302844474605, 1022.985281854731056 ], [ 121.530416892590594, 937.659708388461922 ], [ 98.730120072954023, 938.063920392229193 ], [ 97.806980897059574, 1022.984905000814024 ], [ 67.372478343687746, 1022.984361298961971 ], [ 67.836998701662864, 905.534880901422639 ], [ 81.355124177561692, 905.130839847713673 ], [ 80.74906260185918, 899.676285650562249 ], [ 144.587548798899093, 899.68934242604837 ], [ 144.991589854290709, 905.534880900425492 ] ] ] } },
{ "type": "Feature", "properties": { "feature_type": "building", "subtype": "no-damage", "uid": "c752183e-e793-4eaa-83ae-cc7dff6f91f3" }, "geometry": { "type": "Polygon", "coordinates": [ [ [ 271.063869775637215, 903.43560162619724 ], [ 272.215610166882584, 1022.987274953229985 ], [ 242.134459423056086, 1022.986956827281006 ], [ 243.465467450573897, 937.944997586432009 ], [ 221.511026630452903, 936.31874271248796 ], [ 218.981250459561011, 1022.986686237702997 ], [ 186.990610015917497, 1022.986275541766986 ], [ 189.586553917833214, 905.68627542476645 ], [ 201.740011860475789, 905.26628926199362 ], [ 201.12310302445789, 901.040286797293106 ], [ 271.063869775637215, 903.43560162619724 ] ] ] } },
{ "type": "Feature", "properties": { "feature_type": "building", "subtype": "no-damage", "uid": "847fa994-3595-458d-b4a4-78a316a8526d" }, "geometry": { "type": "Polygon", "coordinates": [ [ [ 393.343255036240009, 903.166358438158568 ], [ 394.517935176380092, 1022.988179314884974 ], [ 362.785768707120781, 1022.988004667530959 ], [ 362.924828250020312, 939.882688020322689 ], [ 341.490969384345078, 940.997592566784647 ], [ 342.188920348295596, 1022.987868806879987 ], [ 309.721071281389925, 1022.987618678062972 ], [ 311.917403569362818, 902.631496407726786 ], [ 393.343255036240009, 903.166358438158568 ] ] ] } },
{ "type": "Feature", "properties": { "feature_type": "building", "subtype": "no-damage", "uid": "12b2df48-3bd4-4ede-9bda-06f8deb3eb79" }, "geometry": { "type": "Polygon", "coordinates": [ [ [ 443.205430324706924, 21.137959473586839 ], [ 461.430130656212782, 22.210000665796521 ], [ 462.502171851787807, 202.312921549308186 ], [ 461.966151255807574, 205.529045135908405 ], [ 444.277471521279097, 205.529045136905609 ], [ 441.061347936236587, 205.529045135908405 ], [ 443.205430324706924, 21.137959473586839 ] ] ] } },
{ "type": "Feature", "properties": { "feature_type": "building", "subtype": "no-damage", "uid": "afeb3b96-f725-43cd-a75a-b70dbca62c41" }, "geometry": { "type": "Polygon", "coordinates": [ [ [ 439.989306739602227, 219.465580679504399 ], [ 460.358089460326084, 218.929560080408208 ], [ 461.430130654405502, 404.928707541015513 ], [ 427.660832988183586, 407.072789932414594 ], [ 424.98072999924608, 381.343801236621914 ], [ 442.133389129755074, 381.87982183073251 ], [ 439.989306739602227, 219.465580679504399 ] ] ] } },
{ "type": "Feature", "properties": { "feature_type": "building", "subtype": "no-damage", "uid": "7a5ed59d-1392-4edc-b200-ad24e840602a" }, "geometry": { "type": "Polygon", "coordinates": [ [ [ 430.133869734705115, 492.118146529099192 ], [ 459.21956680542138, 494.156790332638423 ], [ 458.200244902841575, 675.094474477193671 ], [ 436.13553489947418, 675.595348880004053 ], [ 437.102137508684791, 511.608192128770327 ], [ 428.508234844882395, 511.072171531668289 ], [ 430.133869734705115, 492.118146529099192 ] ] ] } },
{ "type": "Feature", "properties": { "feature_type": "building", "subtype": "no-damage", "uid": "2ca52d44-99d5-4473-ab93-f1fc1a05d9de" }, "geometry": { "type": "Polygon", "coordinates": [ [ [ 453.610950229759908, 690.371459389597362 ], [ 456.66569572204952, 879.050709836711462 ], [ 435.241612727806398, 876.66501164731676 ], [ 435.649996723775075, 866.920001651410757 ], [ 436.671555498570399, 687.387802034195147 ], [ 453.610950229759908, 690.371459389597362 ] ] ] } },
{ "type": "Feature", "properties": { "feature_type": "building", "subtype": "no-damage", "uid": "e5cae0f3-5236-4c23-b86d-b552e43af494" }, "geometry": { "type": "Polygon", "coordinates": [ [ [ 435.43863924801451, 910.891791745628893 ], [ 454.521163214096191, 912.551321236532317 ], [ 453.542913371497605, 1022.988392346107958 ], [ 432.49998436977512, 1022.988333084683973 ], [ 435.43863924801451, 910.891791745628893 ] ] ] } },
{ "type": "Feature", "properties": { "feature_type": "building", "subtype": "no-damage", "uid": "d47f035b-61ed-484e-99ef-1991dff86645" }, "geometry": { "type": "Polygon", "coordinates": [ [ [ 963.033125576094335, 158.898538711655192 ], [ 1022.514174727180944, 158.139195921160592 ], [ 1022.514093295818952, 211.332196360595702 ], [ 963.280228719464162, 211.678964256907591 ], [ 963.033125576094335, 158.898538711655192 ] ] ] } },
{ "type": "Feature", "properties": { "feature_type": "building", "subtype": "no-damage", "uid": "bcf96102-31b4-4665-b75d-f9610a441d1d" }, "geometry": { "type": "Polygon", "coordinates": [ [ [ 789.250229963927268, 869.474988125395157 ], [ 793.397809961146777, 875.6963581208812 ], [ 787.176439965161762, 881.399280619900992 ], [ 781.991964966409455, 875.177910622420654 ], [ 789.250229963927268, 869.474988125395157 ] ] ] } }
]
}
