{
"type": "FeatureCollection",
"name": "hurricane-harvey_00000279_post_disaster",
"features": [
{ "type": "Feature", "properties": { "feature_type": "building", "subtype": "minor-damage", "uid": "8dd0f4a9-2343-403a-a628-6170c1ec3747" }, "geometry": { "type": "Polygon", "coordinates": [ [ [ 432.26367142184688, 460.470003018326906 ], [ 437.895361613198816, 449.9476345058996 ], [ 446.935706387487528, 453.800896214928287 ], [ 442.341432814715574, 464.175062351556392 ], [ 432.26367142184688, 460.470003018326906 ] ] ] } },
{ "type": "Feature", "properties": { "feature_type": "building", "subtype": "minor-damage", "uid": "dbcc958c-ad4d-4556-b6b3-37bebdea5ec7" }, "geometry": { "type": "Polygon", "coordinates": [ [ [ 822.359783707653492, 811.475964150062509 ], [ 887.677426847599236, 640.171201955350966 ], [ 982.572870654943927, 678.375861147956243 ], [ 915.406614975184311, 851.529235883602951 ], [ 821.743579524686197, 814.865087143934829 ], [ 822.359783707653492, 811.475964150062509 ] ] ] } },
{ "type": "Feature", "properties": { "feature_type": "building", "subtype": "minor-damage", "uid": "82c660af-24d4-43c7-a3d2-9451ea201f42" }, "geometry": { "type": "Polygon", "coordinates": [ [ [ 1004.238774196374038, 863.281673232537742 ], [ 1012.650743517079945, 864.707430746373007 ], [ 1010.013092119947032, 878.965005861818668 ], [ 1004.238774195751034, 878.679854360246736 ], [ 1003.882334816732964, 874.117430322148834 ], [ 1002.813016682290026, 872.335233433091616 ], [ 1004.238774196374038, 863.281673232537742 ] ] ] } },
{ "type": "Feature", "properties": { "feature_type": "building", "subtype": "destroyed", "uid": "aced0961-5c76-4b5e-aadd-1a99e166fc59" }, "geometry": { "type": "Polygon", "coordinates": [ [ [ 981.640517638421898, 837.546750152678896 ], [ 992.191123223779982, 837.546750152678896 ], [ 993.403017110190945, 843.67750745091621 ], [ 985.418775041406434, 845.459704340969438 ], [ 983.779153903633869, 843.534931700628249 ], [ 981.925669139993602, 842.180462068410748 ], [ 981.640517638421898, 837.546750152678896 ] ] ] } },
{ "type": "Feature", "properties": { "feature_type": "building", "subtype": "minor-damage", "uid": "0c41e155-1d1d-4b0e-9b47-458335aa7d6d" }, "geometry": { "type": "Polygon", "coordinates": [ [ [ 991.642440225010205, 812.893241494436666 ], [ 997.463128253082346, 813.418416355855584 ], [ 1000.089002551895987, 815.256528360363859 ], [ 1001.358175129632968, 816.306878084197479 ], [ 1000.614177409206945, 818.23251923410146 ], [ 998.819829975031553, 820.114395812303655 ], [ 996.587836822156873, 820.28945410010715 ], [ 991.511146512954724, 819.370398096359054 ], [ 991.642440225010205, 812.893241494436666 ] ] ] } },
{ "type": "Feature", "properties": { "feature_type": "building", "subtype": "minor-damage", "uid": "19b01073-8a44-4579-885d-34d01950ce68" }, "geometry": { "type": "Polygon", "coordinates": [ [ [ 936.196457618034515, 1022.985249299301017 ], [ 953.068455788018809, 981.714867854822273 ], [ 965.078264746803939, 987.992722540207183 ], [ 950.223926815191476, 1022.984997608956974 ], [ 936.196457618034515, 1022.985249299301017 ] ] ] } },
{ "type": "Feature", "properties": { "feature_type": "building", "subtype": "major-damage", "uid": "4eb46b77-7811-447e-b24c-dc7c49e1816c" }, "geometry": { "type": "Polygon", "coordinates": [ [ [ 898.566797088868498, 995.587627127252063 ], [ 903.309273038497736, 985.213460991619854 ], [ 892.194095034892257, 980.026377925297766 ], [ 896.936570981969339, 967.132771439922294 ], [ 887.748023830263037, 962.834902611463804 ], [ 894.569813420846685, 948.465993012786612 ], [ 925.836033792638318, 961.204676503567953 ], [ 922.427379207833951, 970.689628400340553 ], [ 927.466259898354792, 973.209068747096012 ], [ 915.16546291145039, 1002.849543424884018 ], [ 898.566797088868498, 995.587627127252063 ] ] ] } },
{ "type": "Feature", "properties": { "feature_type": "building", "subtype": "minor-damage", "uid": "e68dd2de-11dc-40ca-8705-dec82cf88567" }, "geometry": { "type": "Polygon", "coordinates": [ [ [ 889.7097015068357, 955.360346369756712 ], [ 874.522279504727862, 947.796852368473196 ], [ 883.256686020892744, 929.054271715259006 ], [ 899.724681646085401, 934.604259191061828 ], [ 889.7097015068357, 955.360346369756712 ] ] ] } },
{ "type": "Feature", "properties": { "feature_type": "building", "subtype": "major-damage", "uid": "0d70c017-e38e-4c3a-9e90-d0412b716c1b" }, "geometry": { "type": "Polygon", "coordinates": [ [ [ 875.148172809238986, 953.443345931643421 ], [ 885.413626895826496, 956.865163958474 ], [ 879.069005967491307, 973.97425409661048 ], [ 868.946127636482743, 967.914784675010992 ], [ 875.148172809238986, 953.443345931643421 ] ] ] } },
{ "type": "Feature", "properties": { "feature_type": "building", "subtype": "minor-damage", "uid": "a0c1ac75-178f-41cc-a06b-eb8d248751a3" }, "geometry": { "type": "Polygon", "coordinates": [ [ [ 706.361322179082094, 896.181808503456296 ], [ 721.689219926278156, 862.623002069708605 ], [ 748.164679671225713, 875.280129755228245 ], [ 764.769902231388301, 878.183140690711525 ], [ 777.427029918707717, 888.633980061837747 ], [ 822.830120973896669, 907.097129620315854 ], [ 815.282292536763066, 927.069844870105499 ], [ 783.116931355043789, 914.412717183589962 ], [ 776.730307293385295, 928.811651431793848 ], [ 769.763081044456158, 926.837603993752964 ], [ 763.72481829626804, 921.844425182052532 ], [ 739.804008174203773, 912.78703106107389 ], [ 709.148212680371898, 899.200939876119946 ], [ 706.361322179082094, 896.181808503456296 ] ] ] } },
{ "type": "Feature", "properties": { "feature_type": "building", "subtype": "un-classified", "uid": "91fbf990-8fab-4200-bb61-eee8b383dce1" }, "geometry": { "type": "Polygon", "coordinates": [ [ [ 29.654705792610692, 657.888379370442067 ], [ 42.844717024163387, 611.352834129422718 ], [ 54.700906897738463, 614.909691090836986 ], [ 50.551240442217498, 628.396107066461582 ], [ 56.775740122262079, 631.211952160831515 ], [ 53.218883164335232, 640.548701684792718 ], [ 47.290788225120053, 639.214880322519548 ], [ 42.54831227885218, 660.556022090008696 ], [ 29.654705792610692, 657.888379370442067 ] ] ] } }
]
}
