{
"type": "FeatureCollection",
"name": "hurricane-harvey_00000383_post_disaster",
"features": [
{ "type": "Feature", "properties": { "feature_type": "building", "subtype": "major-damage", "uid": "0d5a72dd-df33-4bfc-bb4b-27cd5e08d02e" }, "geometry": { "type": "Polygon", "coordinates": [ [ [ 127.142868970864996, 285.187404185792673 ], [ 126.913031808394805, 285.830999436143884 ], [ 128.23146905034659, 78.417263164778944 ], [ 205.648612320640609, 79.078948147234868 ], [ 203.99203652761031, 183.003346229272012 ], [ 211.592503650757408, 183.847842576357891 ], [ 216.659481730030393, 197.359784119762509 ], [ 214.125992688835993, 206.649243936710889 ], [ 201.458547488721592, 208.33823663088279 ], [ 203.147540181023288, 283.4984114916208 ], [ 127.142868970864996, 285.187404185792673 ] ] ] } },
{ "type": "Feature", "properties": { "feature_type": "building", "subtype": "major-damage", "uid": "23045998-eac8-43f6-9c20-857703500335" }, "geometry": { "type": "Polygon", "coordinates": [ [ [ 141.226221226292694, 411.358526976233009 ], [ 227.88874160569361, 264.169801888581503 ], [ 406.71616461630822, 379.71982905244289 ], [ 318.678048673798287, 517.279385207113819 ], [ 139.850625663806909, 415.485313658520113 ], [ 141.226221226292694, 411.358526976233009 ] ] ] } },
{ "type": "Feature", "properties": { "feature_type": "building", "subtype": "major-damage", "uid": "98218fe0-7c7d-4f25-ae95-0d1938a7ee73" }, "geometry": { "type": "Polygon", "coordinates": [ [ [ 89.322925527934075, 823.568355870491928 ], [ 88.824161302056723, 823.970770084423293 ], [ 87.633932833326696, 806.678428938743536 ], [ 89.322925523571925, 715.472823489354823 ], [ 328.315391663292701, 720.539801561899935 ], [ 328.315391665099924, 721.384297910979967 ], [ 325.781902624777899, 827.790837596948109 ], [ 205.018925036844109, 826.101844907761574 ], [ 89.322925527934075, 823.568355870491928 ] ] ] } },
{ "type": "Feature", "properties": { "feature_type": "building", "subtype": "minor-damage", "uid": "5ecc3a90-da4c-4a04-8bc5-82149d9a43c2" }, "geometry": { "type": "Polygon", "coordinates": [ [ [ -0.000004487276627, 837.814070158859181 ], [ 86.01057892046488, 839.887860155521707 ], [ 86.529026420876619, 830.555805161566695 ], [ 111.932953913694504, 830.037357657415782 ], [ 112.969848913957094, 854.404390152100632 ], [ 107.785373916569995, 863.736445150043778 ], [ 107.093420307809794, 962.134074074171622 ], [ 98.115664283333217, 961.884691966155856 ], [ 97.271167933194135, 973.650958729520426 ], [ -0.00000448808674, 970.686395401533332 ], [ -0.000004487276627, 837.814070158859181 ] ] ] } },
{ "type": "Feature", "properties": { "feature_type": "building", "subtype": "major-damage", "uid": "8c187d0e-f767-4cfd-abf8-6bd8bc8c6712" }, "geometry": { "type": "Polygon", "coordinates": [ [ [ 732.666629511354813, 1022.987974706166028 ], [ 732.666629656925807, 962.025633066563387 ], [ 721.88847848968237, 960.947817949065779 ], [ 718.655033135508575, 944.780591199564356 ], [ 632.429823776061426, 899.512356285605506 ], [ 618.418227253834061, 885.500759765116868 ], [ 615.703201076973642, 864.550659345370264 ], [ 640.185545530716126, 816.909340411125754 ], [ 650.110820308804023, 824.187875246058638 ], [ 664.667889980906693, 801.028900764383479 ], [ 738.114923336650349, 846.023479752851358 ], [ 743.40840322159579, 838.744944917918474 ], [ 763.258952772910789, 849.331904680086836 ], [ 757.965472891891295, 857.933809487907979 ], [ 784.432872302348073, 871.16750919086769 ], [ 785.094557286236977, 879.769413997691913 ], [ 777.154337466670654, 893.003113696663377 ], [ 785.756242271309929, 898.296593580240142 ], [ 793.034777108981416, 887.047948829633469 ], [ 830.089136279981744, 885.062893875286363 ], [ 830.089136280729576, 863.888974352943706 ], [ 858.541590641731432, 864.550659337393768 ], [ 859.58182987937198, 1022.986458898039018 ], [ 732.666629511354813, 1022.987974706166028 ] ] ] } },
{ "type": "Feature", "properties": { "feature_type": "building", "subtype": "major-damage", "uid": "6d9c5e18-f8f5-43ca-a5c6-3efffde8be29" }, "geometry": { "type": "Polygon", "coordinates": [ [ [ 861.712556572412836, 817.589793916385702 ], [ 860.157214073670275, 842.993721409401815 ], [ 834.234839079692961, 841.438378909910739 ], [ 834.489995548666798, 829.620002290958723 ], [ 834.524839084170139, 827.982946881915154 ], [ 834.7532865801046, 817.071346418217217 ], [ 861.712556572412836, 817.589793916385702 ] ] ] } },
{ "type": "Feature", "properties": { "feature_type": "building", "subtype": "major-damage", "uid": "351688b1-686c-4bf3-9c23-2f60346b56b1" }, "geometry": { "type": "Polygon", "coordinates": [ [ [ 1015.398326079040999, 990.283976135494072 ], [ 962.418924412687602, 988.811558271768945 ], [ 962.937371912476237, 970.665895775048284 ], [ 980.56458690964962, 972.22123827753046 ], [ 980.046139407430701, 962.370735779424535 ], [ 973.824769409344754, 961.852288277267803 ], [ 974.861664410791377, 945.780415783191984 ], [ 1014.782121901240998, 946.298863282357615 ], [ 1015.819016899446979, 963.926078277918577 ], [ 1007.005409402294049, 964.962973277246874 ], [ 1007.005409400049984, 972.221238273542212 ], [ 1015.819016897328993, 973.776580771039107 ], [ 1015.398326079040999, 990.283976135494072 ] ] ] } },
{ "type": "Feature", "properties": { "feature_type": "building", "subtype": "major-damage", "uid": "757ff64d-7099-440d-8771-1df6df6ac2b0" }, "geometry": { "type": "Polygon", "coordinates": [ [ [ 1022.433347476247036, 763.197249934458 ], [ 1008.444186584560953, 777.650499481617771 ], [ 994.446104087403, 765.726206983858219 ], [ 999.630579085600289, 753.28346698992425 ], [ 987.706286585727185, 745.506754492469099 ], [ 983.558706586234621, 750.172781987950998 ], [ 968.523729091493806, 740.322279494830354 ], [ 979.929574088337858, 719.584379502281536 ], [ 1022.433323020066041, 741.287664708435841 ], [ 1022.433347476247036, 763.197249934458 ] ] ] } },
{ "type": "Feature", "properties": { "feature_type": "building", "subtype": "major-damage", "uid": "c322c79d-594c-4cab-8b31-e61152dc98c1" }, "geometry": { "type": "Polygon", "coordinates": [ [ [ 805.884996998801626, 20.453969314308551 ], [ 829.215134494521635, 10.60346681520562 ], [ 844.768559490484336, 40.154974308526171 ], [ 822.475316993593651, 52.597714302460197 ], [ 805.884996998801626, 20.453969314308551 ] ] ] } },
{ "type": "Feature", "properties": { "feature_type": "building", "subtype": "major-damage", "uid": "276f5b91-4d21-41a9-ba4d-fbbf6d6cf9f9" }, "geometry": { "type": "Polygon", "coordinates": [ [ [ 829.13992238907656, 62.993625164855587 ], [ 828.915799633802294, 60.763381511107433 ], [ 848.065893100644303, 49.634895518547161 ], [ 867.726351841083215, 96.208354775013945 ], [ 847.506899345527813, 105.021962271797406 ], [ 840.248634347490793, 89.468537281872486 ], [ 837.65639684811174, 81.173377281263512 ], [ 831.771163918816001, 71.603177958139682 ], [ 806.031099359575933, 82.210272282585962 ], [ 798.772834360043362, 65.101504788184741 ], [ 815.881601855807958, 59.398582288389242 ], [ 818.473839353005928, 68.212189785172654 ], [ 829.13992238907656, 62.993625164855587 ] ] ] } },
{ "type": "Feature", "properties": { "feature_type": "building", "subtype": "destroyed", "uid": "d39fbe47-1bdf-48f4-813c-e50243d0f572" }, "geometry": { "type": "Polygon", "coordinates": [ [ [ 827.76340805476957, 128.623074937453197 ], [ 838.903270754644041, 116.528366862422402 ], [ 843.995779416382788, 120.984311942224593 ], [ 851.316260617959188, 114.936957903712099 ], [ 856.408769280383353, 114.618676112368902 ], [ 862.137841527051478, 104.115377000036503 ], [ 873.914267808054319, 98.068022960526946 ], [ 901.604783663751732, 128.941356724808202 ], [ 883.1444397609921, 143.582319131582011 ], [ 859.27330540720709, 124.485411649991306 ], [ 841.449525084267066, 139.762937638454389 ], [ 827.76340805476957, 128.623074937453197 ] ] ] } },
{ "type": "Feature", "properties": { "feature_type": "building", "subtype": "destroyed", "uid": "87b85e93-cdf4-4533-830d-99e08eeadc24" }, "geometry": { "type": "Polygon", "coordinates": [ [ [ 893.92914350857825, 177.786818637119495 ], [ 886.067308896646296, 188.546291599160497 ], [ 867.249016361580289, 175.520164620587508 ], [ 869.995080493890441, 172.367320770806998 ], [ 876.80999555119854, 164.820002290459314 ], [ 893.92914350857825, 177.786818637119495 ] ] ] } },
{ "type": "Feature", "properties": { "feature_type": "building", "subtype": "major-damage", "uid": "72d96a6c-82f7-4d3c-b43c-ea1e1e002e50" }, "geometry": { "type": "Polygon", "coordinates": [ [ [ 943.369643624129594, 162.705966228289213 ], [ 928.33466612814243, 182.406971225498012 ], [ 904.759995551256907, 167.450002289503686 ], [ 904.910723524065929, 167.240318787282206 ], [ 886.589995551055154, 153.980002286281291 ], [ 899.301606136243777, 139.894276239077811 ], [ 908.633661136613227, 137.302038739261292 ], [ 943.369643624129594, 162.705966228289213 ] ] ] } },
{ "type": "Feature", "properties": { "feature_type": "building", "subtype": "major-damage", "uid": "6f1c43a5-272a-43a1-b67e-f1f0b29c9f7f" }, "geometry": { "type": "Polygon", "coordinates": [ [ [ 927.206219524448898, 192.117108456297188 ], [ 934.208418932002701, 197.242550053062189 ], [ 940.255772970200837, 188.934290541867909 ], [ 940.892336552450843, 182.568654713009209 ], [ 952.35048104597422, 163.790029021764695 ], [ 979.404433315869596, 180.977245757290092 ], [ 981.950687646053439, 183.841781878382108 ], [ 970.492543154088025, 206.121507278390396 ], [ 963.808625536444083, 208.031198026449687 ], [ 946.12308464154728, 196.651278841131813 ], [ 932.764354992939161, 216.324735787570205 ], [ 930.601777152809746, 218.92189865103299 ], [ 915.748075029803772, 208.986043402473513 ], [ 927.206219524448898, 192.117108456297188 ] ] ] } },
{ "type": "Feature", "properties": { "feature_type": "building", "subtype": "major-damage", "uid": "6d5f4efe-1f0a-429b-b8f8-7d6a3768a28d" }, "geometry": { "type": "Polygon", "coordinates": [ [ [ 956.571189215289337, 231.895988538591496 ], [ 963.849724050219038, 216.015548895837497 ], [ 974.624500318564742, 222.820880978701013 ], [ 977.083423755167018, 218.000603850184689 ], [ 989.655438474232028, 196.164999341397902 ], [ 1001.882429842317947, 201.632505533927798 ], [ 1022.433429875927004, 216.281354524049988 ], [ 1022.433423545145047, 220.61983228950001 ], [ 1011.854557588300963, 242.376386013826192 ], [ 997.62206664884161, 237.607961355376204 ], [ 980.414700927799231, 228.380823214217912 ], [ 972.933237570236315, 241.099310918447486 ], [ 956.571189215289337, 231.895988538591496 ] ] ] } },
{ "type": "Feature", "properties": { "feature_type": "building", "subtype": "destroyed", "uid": "42a54e4d-47d6-4217-9cce-91cd6de77422" }, "geometry": { "type": "Polygon", "coordinates": [ [ [ 1022.433369874680011, 260.260752854082114 ], [ 1019.152402674076029, 267.892594532457679 ], [ 1003.471821155992984, 257.961025200903919 ], [ 1010.429330622452994, 243.926049206435493 ], [ 1011.570753766482994, 243.369827793678411 ], [ 1022.433382494926946, 250.4146389853031 ], [ 1022.433369874680011, 260.260752854082114 ] ] ] } },
{ "type": "Feature", "properties": { "feature_type": "building", "subtype": "major-damage", "uid": "8de48f00-1e9a-4f27-bb2d-e8871fee36ae" }, "geometry": { "type": "Polygon", "coordinates": [ [ [ 938.781611969069559, 0.009171224691228 ], [ 941.308399032736361, 6.526780120304808 ], [ 939.716990073029706, 7.799907286674778 ], [ 942.263244405145315, 15.756952067264271 ], [ 928.895409169234313, 20.212897151054751 ], [ 924.914835589757217, 13.01724491975062 ], [ 915.881995552802664, 15.619927637978011 ], [ 906.859545696136138, 0.009721757348946 ], [ 938.781611969069559, 0.009171224691228 ] ] ] } },
{ "type": "Feature", "properties": { "feature_type": "building", "subtype": "major-damage", "uid": "3384a4c8-b460-4f54-82b3-3f6707b4a3a6" }, "geometry": { "type": "Polygon", "coordinates": [ [ [ 920.606243830453991, 33.313670865200812 ], [ 927.036401145817308, 23.209137942015509 ], [ 940.662210692980011, 21.065752165324589 ], [ 955.677504912314134, 39.421430221740117 ], [ 966.40093572792216, 25.456031957490371 ], [ 981.114480326432727, 34.184405871649403 ], [ 970.391049517741749, 48.149804135899153 ], [ 960.415765039703274, 42.164633451790444 ], [ 947.671940862313477, 52.561557013902252 ], [ 939.717049751353557, 59.371999172092707 ], [ 920.606243830453991, 33.313670865200812 ] ] ] } },
{ "type": "Feature", "properties": { "feature_type": "building", "subtype": "major-damage", "uid": "cdf48a44-1865-4b2f-9504-f5fc0836f3ff" }, "geometry": { "type": "Polygon", "coordinates": [ [ [ 958.952702880658421, 67.369921373674003 ], [ 972.63881991009373, 54.956931506302837 ], [ 989.18947306473251, 70.234457491774805 ], [ 1000.011053972952027, 56.866622256356322 ], [ 1016.561707126532042, 68.961330326401892 ], [ 1007.013253383996016, 79.146347649385149 ], [ 998.119574409719576, 72.222373545863604 ], [ 980.595864696973649, 89.649646768696954 ], [ 958.952702880658421, 67.369921373674003 ] ] ] } },
{ "type": "Feature", "properties": { "feature_type": "building", "subtype": "major-damage", "uid": "d934960c-b598-45b1-a88f-36863f344bb8" }, "geometry": { "type": "Polygon", "coordinates": [ [ [ 1022.433802261247024, 23.826338608491671 ], [ 1018.175231662434953, 38.97289500391804 ], [ 1011.269539565851005, 50.34697610225686 ], [ 987.873495694322969, 35.738579909432673 ], [ 996.719774017149916, 20.10196073606097 ], [ 1004.432855903372001, 10.409981514164359 ], [ 1009.469375194719987, 0.007800408294276 ], [ 1022.433860778804046, 0.007526308029191 ], [ 1022.433802261247024, 23.826338608491671 ] ] ] } },
{ "type": "Feature", "properties": { "feature_type": "building", "subtype": "destroyed", "uid": "070a1c3c-75ac-4132-b400-6fc35d8ed370" }, "geometry": { "type": "Polygon", "coordinates": [ [ [ 949.367759946012598, 906.616780830067114 ], [ 957.961368312462923, 905.343653664694102 ], [ 959.552777269926082, 926.668533690672689 ], [ 950.959168902852639, 927.623379064702362 ], [ 949.367759946012598, 906.616780830067114 ] ] ] } },
{ "type": "Feature", "properties": { "feature_type": "building", "subtype": "major-damage", "uid": "e8c2f3f7-b5b6-45f4-86f3-5d5332a0a60f" }, "geometry": { "type": "Polygon", "coordinates": [ [ [ 989.85732108595505, 847.973668121121932 ], [ 988.902475711365014, 847.655386333766955 ], [ 993.040138999136616, 837.470369006795408 ], [ 1006.726256030753007, 843.836004834657047 ], [ 1001.633747367332035, 854.657585742320862 ], [ 989.85732108595505, 847.973668121121932 ] ] ] } },
{ "type": "Feature", "properties": { "feature_type": "building", "subtype": "major-damage", "uid": "7dbfcbb9-2b0d-47eb-8fe8-63bb90513105" }, "geometry": { "type": "Polygon", "coordinates": [ [ [ 820.858656532508689, 0.010992792786347 ], [ 821.864933922996897, 3.15708155386281 ], [ 808.971327441483027, 9.381581236087719 ], [ 804.166873204571061, 0.011203629480275 ], [ 820.858656532508689, 0.010992792786347 ] ] ] } }
]
}
