{
"type": "FeatureCollection",
"name": "hurricane-florence_00000241_post_disaster",
"features": [
{ "type": "Feature", "properties": { "feature_type": "building", "subtype": "no-damage", "uid": "90cdb526-99a8-4068-97fc-9ee967e78d91" }, "geometry": { "type": "Polygon", "coordinates": [ [ [ 764.046532044320315, 676.435069531776549 ], [ 785.187341408137286, 675.766707837464082 ], [ 785.52597690237485, 693.366679619697607 ], [ 794.424095667882057, 693.476877061721666 ], [ 794.594753940905093, 702.162210859146398 ], [ 798.489020970559295, 702.281317598390842 ], [ 798.72368725901174, 715.538189413562463 ], [ 796.43835131734113, 715.538189411523945 ], [ 796.409020796731738, 720.773731505086175 ], [ 794.734360321684562, 720.700847804363093 ], [ 794.703696846626599, 725.863506192105888 ], [ 763.289077406215142, 725.863506192105888 ], [ 764.046532044320315, 676.435069531776549 ] ] ] } },
{ "type": "Feature", "properties": { "feature_type": "building", "subtype": "no-damage", "uid": "02adecdd-bba9-428f-a317-f57534ac8bca" }, "geometry": { "type": "Polygon", "coordinates": [ [ [ 728.708489595781202, 595.302863885852048 ], [ 739.19099868925548, 595.901864404882076 ], [ 739.190998689510366, 597.399365701947431 ], [ 748.775007002400912, 597.099865442942132 ], [ 749.074507263827172, 599.495867521100763 ], [ 752.968010641090245, 599.495867521100763 ], [ 753.38038939775015, 590.172224233768247 ], [ 760.715882161658328, 590.176751437988059 ], [ 761.054517658571513, 592.60736154563017 ], [ 763.151019472628718, 592.906861806674101 ], [ 762.851519216044039, 599.196367263114666 ], [ 773.933028827911471, 601.292869078190847 ], [ 774.23252908615234, 602.790370378314037 ], [ 773.951137646956909, 607.278347069367555 ], [ 816.761565980353794, 606.683873753538137 ], [ 816.761565979207035, 609.978376612790044 ], [ 814.365563900665961, 610.277876867718419 ], [ 813.766563381635819, 613.606987756453691 ], [ 814.964564419823432, 616.267882065153458 ], [ 817.360566501549783, 616.866882583164283 ], [ 817.660066761447069, 623.156388038585533 ], [ 811.969561821997331, 629.445893491968263 ], [ 812.269062084060579, 633.938397392337947 ], [ 773.633528567504527, 635.735398952485866 ], [ 773.334028311047291, 644.420906485046544 ], [ 765.611855521468101, 644.226404580012854 ], [ 765.167192528639703, 647.246076764335726 ], [ 757.824848767069284, 647.480743053297829 ], [ 757.655016446111972, 644.44557607727711 ], [ 748.500176329510509, 644.720406747109678 ], [ 748.775007003802443, 650.410911687577936 ], [ 729.007989854531843, 650.111411426534119 ], [ 728.708489595781202, 595.302863885852048 ] ] ] } },
{ "type": "Feature", "properties": { "feature_type": "building", "subtype": "no-damage", "uid": "75783e43-b81d-4c9d-b9a8-c2a1e535c7d0" }, "geometry": { "type": "Polygon", "coordinates": [ [ [ 766.152047902029267, 327.28415565697992 ], [ 785.3927049010357, 322.091701558893476 ], [ 794.396256863016106, 358.091033138574801 ], [ 774.669247590475493, 363.405231841610373 ], [ 771.481921759900956, 351.110384848368085 ], [ 766.4291172309903, 352.68177452697438 ], [ 764.510182765002696, 344.44164417347838 ], [ 769.297107102135328, 342.869182776216007 ], [ 766.152047902029267, 327.28415565697992 ] ] ] } },
{ "type": "Feature", "properties": { "feature_type": "building", "subtype": "no-damage", "uid": "67ceb7bd-bd62-4aac-a2cd-97ad7109364c" }, "geometry": { "type": "Polygon", "coordinates": [ [ [ 527.460623796215827, 440.091775315288317 ], [ 548.345923640101432, 434.459784340447982 ], [ 545.295261864101121, 423.899801271923309 ], [ 564.303231389282701, 419.441141758201411 ], [ 570.404554942047753, 443.142437085045287 ], [ 571.577886395521887, 451.590423537622712 ], [ 570.873887521755705, 460.97707515318308 ], [ 576.036545909499068, 467.078398706966823 ], [ 575.567213329918673, 473.883721129675109 ], [ 578.61787510426268, 479.046379516398588 ], [ 557.732575258465999, 485.617035651164088 ], [ 555.620578644174657, 477.87304806751132 ], [ 553.977914610355697, 473.883721132732774 ], [ 534.031279923847251, 479.281045808418412 ], [ 527.460623796215827, 440.091775315288317 ] ] ] } },
{ "type": "Feature", "properties": { "feature_type": "building", "subtype": "no-damage", "uid": "9a50b807-edbf-484b-b424-5e96c5df2d76" }, "geometry": { "type": "Polygon", "coordinates": [ [ [ 683.406325115690265, 418.323368585201308 ], [ 684.867857920616302, 417.827418784974782 ], [ 686.690430960413551, 417.79215747317869 ], [ 688.78895879491381, 418.269072096769321 ], [ 690.221365954839143, 419.239127459744907 ], [ 691.453959039727806, 420.428032072354483 ], [ 691.604126587331734, 422.267182975930211 ], [ 691.450570344194375, 424.052082839937611 ], [ 690.438861669354196, 425.863791517822676 ], [ 688.904201117882508, 426.976115076484518 ], [ 686.959447755853489, 427.489570441721128 ], [ 685.162847896032076, 427.45245990749811 ], [ 683.642546244780078, 427.126680977925275 ], [ 682.41742882142853, 426.454159973623575 ], [ 681.33253763665914, 425.443489862014417 ], [ 681.015351685974565, 423.873707496384327 ], [ 681.090611327461943, 422.374368999079593 ], [ 681.470686742154271, 420.682584908612512 ], [ 682.018123973538763, 419.355001846043479 ], [ 683.406325115690265, 418.323368585201308 ] ] ] } },
{ "type": "Feature", "properties": { "feature_type": "building", "subtype": "no-damage", "uid": "97edeb9b-1ed4-40a7-9962-088dc20213ba" }, "geometry": { "type": "Polygon", "coordinates": [ [ [ 761.488560750531974, 437.747615277975626 ], [ 763.540136140919003, 437.80975614854151 ], [ 765.55695056331308, 438.278274817737213 ], [ 766.45368846551969, 438.583904024694618 ], [ 767.971220885351386, 439.263455979416108 ], [ 769.488753301233373, 440.923728138488173 ], [ 769.979113405574708, 443.231097200396789 ], [ 769.625340376603731, 445.156699136484576 ], [ 769.000084911205931, 446.795129862067483 ], [ 768.346835346155331, 448.740881512616511 ], [ 766.883599418195672, 450.129671235644082 ], [ 764.711125717088407, 450.286408031718622 ], [ 762.815209601210199, 450.218114490912001 ], [ 760.51568492181741, 449.864341464743973 ], [ 758.304603499985774, 448.449249355995107 ], [ 757.651353932896654, 446.769904993580099 ], [ 757.142535827898314, 444.960740420567276 ], [ 757.184526980180635, 442.791650153184321 ], [ 757.89822570326703, 440.656706653656499 ], [ 759.271326661772264, 439.120716234696886 ], [ 761.488560750531974, 437.747615277975626 ] ] ] } },
{ "type": "Feature", "properties": { "feature_type": "building", "subtype": "no-damage", "uid": "7266d4e1-82d9-4b65-adf1-2946db838604" }, "geometry": { "type": "Polygon", "coordinates": [ [ [ 612.251834799798416, 439.921168384243288 ], [ 616.939327410666806, 440.274941413469094 ], [ 620.211727916608424, 442.751352602760392 ], [ 621.449933514566851, 446.023753106790423 ], [ 621.449933511381573, 450.092142922501409 ], [ 619.857954886618131, 453.541429938086424 ], [ 615.701121817295075, 455.487181587616192 ], [ 611.367402229409549, 456.017841129416297 ], [ 608.183444984341918, 454.514305763360881 ], [ 606.414579847131449, 452.656997372156923 ], [ 605.618590536214924, 449.561483382739823 ], [ 605.530147279927746, 447.173515444639293 ], [ 605.972363562128066, 444.785547511635116 ], [ 606.945239389950871, 443.105125633005514 ], [ 609.244764067050369, 441.070930724130676 ], [ 612.251834799798416, 439.921168384243288 ] ] ] } },
{ "type": "Feature", "properties": { "feature_type": "building", "subtype": "no-damage", "uid": "b63f2e25-3282-4f4f-a9cc-0fff3008d9ee" }, "geometry": { "type": "Polygon", "coordinates": [ [ [ 696.579552030472769, 372.016760150962227 ], [ 679.305890845298109, 377.479653127608685 ], [ 673.209991012027103, 343.940006903065409 ], [ 690.759991014926982, 341.040006902394907 ], [ 696.579552030472769, 372.016760150962227 ] ] ] } },
{ "type": "Feature", "properties": { "feature_type": "building", "subtype": "no-damage", "uid": "8c1da5e4-b468-4df5-9c28-f78d1a12d4bb" }, "geometry": { "type": "Polygon", "coordinates": [ [ [ 690.66999101669785, 340.550006903726228 ], [ 673.119991013415756, 343.450006906435192 ], [ 673.209991012027103, 343.940006903065409 ], [ 655.41780395580372, 346.096280672437672 ], [ 650.492134286183386, 315.361705329578115 ], [ 684.666929562569521, 308.636108033499283 ], [ 690.66999101669785, 340.550006903726228 ] ] ] } },
{ "type": "Feature", "properties": { "feature_type": "building", "subtype": "un-classified", "uid": "4e9e7a24-0f69-43fc-85af-bed17a65bc55" }, "geometry": { "type": "Polygon", "coordinates": [ [ [ 1022.387030290596044, 938.677040627157567 ], [ 1017.154548694105983, 938.677040421266838 ], [ 1016.567662653773027, 928.538222802987093 ], [ 1014.201038224447984, 928.591775504813882 ], [ 1013.372574349544038, 910.522342535278085 ], [ 1015.707730625004046, 910.456297597131424 ], [ 1015.665635416076043, 888.436875806415401 ], [ 1022.38691403326402, 888.348663176355672 ], [ 1022.387030290596044, 938.677040627157567 ] ] ] } },
{ "type": "Feature", "properties": { "feature_type": "building", "subtype": "no-damage", "uid": "8eb41075-01b7-47d4-bc77-eef9317919c2" }, "geometry": { "type": "Polygon", "coordinates": [ [ [ 672.677448728243917, 440.123143105800921 ], [ 683.173901747133414, 440.406831022234485 ], [ 684.308653426500655, 439.130235385542392 ], [ 686.293843321481859, 437.34875646025472 ], [ 688.333393751328799, 436.583925049731079 ], [ 690.563696259626681, 436.517179950384218 ], [ 694.488424917720181, 437.279102326835982 ], [ 696.098240571540146, 438.040213951211911 ], [ 699.506172055522825, 438.695985729312099 ], [ 700.565555767835008, 437.038704611022411 ], [ 701.478119471449986, 436.043180572244125 ], [ 703.303246875749664, 435.255057371310613 ], [ 704.755052770476254, 434.923216029128184 ], [ 706.165378491059755, 434.757295349882895 ], [ 709.110470443826443, 434.840255691544087 ], [ 711.35039952993111, 434.840255691544087 ], [ 712.858465704824312, 435.237813038907575 ], [ 714.119815180406135, 434.078666384220412 ], [ 715.01987526280675, 433.247841692734482 ], [ 717.039968252730318, 432.21419026689648 ], [ 719.598682698124094, 431.988256887901002 ], [ 721.509518423523787, 432.196268391722128 ], [ 722.80341336686206, 432.616155776908215 ], [ 725.733780844635248, 432.678518097291601 ], [ 727.240182266843249, 431.077966583918396 ], [ 729.405634311155723, 429.383264985240487 ], [ 731.331050867556542, 428.397912261490887 ], [ 733.612374116543378, 428.378449702454873 ], [ 735.962840331736743, 429.039964831745408 ], [ 737.723524641764243, 429.451612255389989 ], [ 739.418226241334082, 430.110662876984918 ], [ 740.171426956770006, 428.698411546452121 ], [ 741.489528199704978, 427.192010120422026 ], [ 743.37252997931239, 426.062209053957304 ], [ 745.537982019675269, 425.873908878251711 ], [ 748.08003441896642, 426.156359144358191 ], [ 750.716236908276301, 426.627109589228212 ], [ 752.222638331121402, 426.815409764933804 ], [ 753.446589485948721, 425.309008345019322 ], [ 754.705235719892926, 423.66526648602229 ], [ 757.208494149342755, 422.392648132492525 ], [ 761.329923556064841, 422.392648135550303 ], [ 764.592334629451784, 424.236619610205821 ], [ 765.868930266526149, 425.938747129192677 ], [ 767.145525906785792, 428.775626323087408 ], [ 767.145525903473185, 432.321725313672005 ], [ 765.727086306270849, 435.158604509605198 ], [ 763.599426912505919, 436.293356186551478 ], [ 708.84765845906918, 448.633780684427109 ], [ 707.14553094428652, 449.05931256468341 ], [ 705.159715505680651, 449.05931256468341 ], [ 702.180992351020677, 447.924560888756389 ], [ 700.904396712544781, 446.080589410023777 ], [ 700.904396713309211, 447.49902900951929 ], [ 699.485957116489089, 449.910376323157607 ], [ 696.932765843996663, 452.463567597560882 ], [ 694.237730605770253, 454.307539073235716 ], [ 689.982411815437331, 455.158602834767578 ], [ 686.436312820393027, 454.591226991707799 ], [ 684.734185305865253, 453.598319278584199 ], [ 683.032057786878113, 452.17987968214652 ], [ 682.039150072225539, 454.165695118586314 ], [ 679.060426916036704, 456.86073034967751 ], [ 675.939859805453125, 458.562857866625791 ], [ 672.961136646716113, 458.562857866625791 ], [ 669.982413492565797, 457.00257430942321 ], [ 667.571066177907937, 455.584134715023993 ], [ 665.868938661723746, 453.172787402404879 ], [ 665.301562823505378, 450.903284042396706 ], [ 665.301562825416454, 448.35009276901269 ], [ 665.868938660449658, 446.364277334611472 ], [ 666.436314500069557, 444.378461896133217 ], [ 667.996598057272422, 442.676334380204082 ], [ 670.124257453967743, 441.257894782747087 ], [ 672.677448728243917, 440.123143105800921 ] ] ] } },
{ "type": "Feature", "properties": { "feature_type": "building", "subtype": "no-damage", "uid": "cae8527d-1bd8-44b4-ada0-f8c3e8c3746d" }, "geometry": { "type": "Polygon", "coordinates": [ [ [ 695.360716499825685, 436.435751130444373 ], [ 691.451578177205306, 415.78530303407598 ], [ 698.165098341470411, 412.810958657778997 ], [ 712.951838956522693, 409.751633011607623 ], [ 717.455846152083723, 430.911968716011017 ], [ 704.283749632030322, 433.886313094346519 ], [ 695.360716499825685, 436.435751130444373 ] ] ] } },
{ "type": "Feature", "properties": { "feature_type": "building", "subtype": "no-damage", "uid": "5ffd8c5a-8532-475e-bbde-2320f477fd12" }, "geometry": { "type": "Polygon", "coordinates": [ [ [ 724.150779407670029, 339.08459946086208 ], [ 743.760712489222897, 333.243342796396689 ], [ 750.645050701206287, 352.018810638965078 ], [ 737.919455826922785, 356.295444979988815 ], [ 733.538513330356977, 355.878212364956994 ], [ 731.869582854685973, 345.656013204436022 ], [ 726.341250655825547, 347.220635524819897 ], [ 724.150779407670029, 339.08459946086208 ] ] ] } }
]
}
