{
"type": "FeatureCollection",
"name": "hurricane-michael_00000006_post_disaster",
"features": [
{ "type": "Feature", "properties": { "feature_type": "building", "subtype": "major-damage", "uid": "8ec35ac6-4305-4cdc-8e06-98fa2d2f5a2d" }, "geometry": { "type": "Polygon", "coordinates": [ [ [ 60.884455248385507, 958.508128533332069 ], [ 115.100482601818996, 988.604201014573505 ], [ 100.035686467169398, 1014.82154330296305 ], [ 46.403862877970496, 982.642449151599976 ], [ 58.739182302030052, 961.18971971402766 ], [ 60.884455248385507, 958.508128533332069 ] ] ] } },
{ "type": "Feature", "properties": { "feature_type": "building", "subtype": "destroyed", "uid": "be0839a7-fbd6-4aaf-ad46-5901c52f5f58" }, "geometry": { "type": "Polygon", "coordinates": [ [ [ 0.079443260240657, 733.304679852810295 ], [ 11.964083563894439, 741.029656467218501 ], [ 0.079428028410062, 758.8770393210267 ], [ 0.079443260240657, 733.304679852810295 ] ] ] } },
{ "type": "Feature", "properties": { "feature_type": "building", "subtype": "major-damage", "uid": "81c93244-84d9-41f0-aaf7-1d4146d879d8" }, "geometry": { "type": "Polygon", "coordinates": [ [ [ 1023.056321331795971, 682.644276275327911 ], [ 976.062285614130701, 627.855220777658474 ], [ 997.331577085524941, 607.757705703686042 ], [ 1015.170065660273963, 592.251589193126165 ], [ 1015.652877759285047, 592.975807343641122 ], [ 1023.056348175706034, 601.11217072484169 ], [ 1023.056321331795971, 682.644276275327911 ] ] ] } },
{ "type": "Feature", "properties": { "feature_type": "building", "subtype": "no-damage", "uid": "b6deccb7-b468-40f3-b38a-5d00a692ad4f" }, "geometry": { "type": "Polygon", "coordinates": [ [ [ 818.966592910893155, 880.393407338356155 ], [ 845.494817744695638, 849.863718423750356 ], [ 878.395744635306528, 877.873966993667864 ], [ 851.126507934317146, 908.255453534586422 ], [ 819.114795283081662, 880.393407338356155 ], [ 818.966592910893155, 880.393407338356155 ] ] ] } },
{ "type": "Feature", "properties": { "feature_type": "building", "subtype": "destroyed", "uid": "9cc075df-66f7-4121-a974-9839b1cd2b6e" }, "geometry": { "type": "Polygon", "coordinates": [ [ [ 883.994503072411135, 899.406341233112585 ], [ 889.016768631849231, 895.969368582601192 ], [ 892.352027849899741, 902.068582252100668 ], [ 897.811031922374241, 908.892337346001455 ], [ 898.53889913313651, 910.075121563489915 ], [ 890.987276830220026, 914.715275022107107 ], [ 885.528272756496676, 907.969555195513067 ], [ 883.994503072411135, 899.406341233112585 ] ] ] } },
{ "type": "Feature", "properties": { "feature_type": "building", "subtype": "no-damage", "uid": "3b81d609-5831-4e6a-8eee-590f9024491a" }, "geometry": { "type": "Polygon", "coordinates": [ [ [ 23.183356114295641, 776.045392715919888 ], [ 35.667121254910718, 753.725933826842379 ], [ 96.239254698265626, 785.766584022083634 ], [ 86.901289695507387, 806.104988719015068 ], [ 84.950093711648861, 809.03178269492696 ], [ 79.066647556780651, 808.230403554507916 ], [ 22.615912243086932, 776.612836584380943 ], [ 23.183356114295641, 776.045392715919888 ] ] ] } }
]
}
