{
"type": "FeatureCollection",
"name": "hurricane-harvey_00000363_post_disaster",
"features": [
{ "type": "Feature", "properties": { "feature_type": "building", "subtype": "no-damage", "uid": "453d545a-3d98-4e63-9680-87d8d8ef1ec2" }, "geometry": { "type": "Polygon", "coordinates": [ [ [ 492.270663791175309, 1001.856254080611052 ], [ 502.392446508639523, 981.387760141328727 ], [ 493.170377810985997, 969.46654938311633 ], [ 501.717660996975212, 954.396339560083106 ], [ 513.638871753686658, 961.369123212730869 ], [ 515.213371287093423, 970.366263404485267 ], [ 537.031436256113921, 981.162831634989402 ], [ 518.137441849125707, 1015.127035864894992 ], [ 492.270663791175309, 1001.856254080611052 ] ] ] } },
{ "type": "Feature", "properties": { "feature_type": "building", "subtype": "no-damage", "uid": "b94e4687-ebc7-4bd4-a68f-c30a24d91d68" }, "geometry": { "type": "Polygon", "coordinates": [ [ [ 534.368724883635764, 954.293268076243749 ], [ 539.30337121763057, 940.01804117639017 ], [ 515.511326384157087, 937.198243268079864 ], [ 520.445972719834458, 918.693319509748903 ], [ 534.19248751498958, 918.8695568810125 ], [ 543.180593338252834, 925.214102169725493 ], [ 539.655845958599571, 931.029935349633206 ], [ 544.238017554118073, 934.554682733027107 ], [ 547.762764936575536, 928.210137446308181 ], [ 570.84986029178765, 944.423975400148606 ], [ 552.344936536144587, 967.863545498022631 ], [ 534.368724880457648, 955.703167029401925 ], [ 534.368724883635764, 954.293268076243749 ] ] ] } },
{ "type": "Feature", "properties": { "feature_type": "building", "subtype": "no-damage", "uid": "458004e0-5853-45ee-9ae0-40d046cbe820" }, "geometry": { "type": "Polygon", "coordinates": [ [ [ 547.78381326947499, 922.56620478675336 ], [ 558.805310006188961, 904.79685290758971 ], [ 553.856882900751089, 895.34985570215963 ], [ 559.705024028928506, 882.528930926566431 ], [ 590.070372179326682, 899.398568789346427 ], [ 570.051735251173909, 936.511772088060638 ], [ 547.78381326947499, 922.56620478675336 ] ] ] } },
{ "type": "Feature", "properties": { "feature_type": "building", "subtype": "no-damage", "uid": "9eb9df2a-ccb0-404f-a3d3-2eaa198ec096" }, "geometry": { "type": "Polygon", "coordinates": [ [ [ 561.824970000052531, 876.951893712545825 ], [ 568.176953152674287, 866.043053084999087 ], [ 579.638140140395308, 870.185650793416698 ], [ 586.680556242134799, 859.41489675711432 ], [ 563.758182264947891, 848.920315900309561 ], [ 570.662511776253041, 834.145050746833931 ], [ 586.404383059521479, 841.049380259201598 ], [ 582.123698764534993, 850.715441574522288 ], [ 588.337595324354538, 853.062913608727285 ], [ 593.032539394195737, 850.439268394027522 ], [ 609.188670448642142, 862.590888328815254 ], [ 592.204019848786061, 893.936544308982093 ], [ 561.824970000052531, 876.951893712545825 ] ] ] } },
{ "type": "Feature", "properties": { "feature_type": "building", "subtype": "no-damage", "uid": "c7455ebe-e7d0-4656-913e-8ce25b16ff91" }, "geometry": { "type": "Polygon", "coordinates": [ [ [ 606.77653923949174, 787.609541518972492 ], [ 614.649036909641381, 771.864546178915475 ], [ 616.223536446413164, 774.788616741385226 ], [ 625.670533646542253, 756.569407851537107 ], [ 664.808093492135299, 775.688330760760095 ], [ 644.789456561302927, 813.476319574504032 ], [ 606.77653923949174, 787.609541518972492 ] ] ] } },
{ "type": "Feature", "properties": { "feature_type": "building", "subtype": "no-damage", "uid": "975b4eab-e07d-42ed-9e46-315b2c3ee6c6" }, "geometry": { "type": "Polygon", "coordinates": [ [ [ 615.581936405585566, 741.639013530890338 ], [ 624.9718245409681, 723.549670213472382 ], [ 641.404128781268355, 732.387211985314707 ], [ 646.651419207300364, 722.721150669994131 ], [ 677.030469056283209, 738.877281724946215 ], [ 660.045818457361861, 767.875465673899271 ], [ 615.581936405585566, 741.639013530890338 ] ] ] } },
{ "type": "Feature", "properties": { "feature_type": "building", "subtype": "no-damage", "uid": "f007c141-9353-4d5d-8ae3-2953f66d69f3" }, "geometry": { "type": "Polygon", "coordinates": [ [ [ 725.367812240659305, 655.808156643717211 ], [ 720.124708057545831, 668.685398050123126 ], [ 718.022635211524403, 673.824982076139008 ], [ 713.016830429588708, 681.514318733899813 ], [ 700.153469393689647, 677.734960812936492 ], [ 693.85547125825542, 687.406886520717649 ], [ 711.849751648050187, 697.753597742531383 ], [ 691.381257705785742, 733.742158519519762 ], [ 661.69069506418532, 720.021519725548728 ], [ 674.061762830771045, 702.477096346742087 ], [ 674.286691335801606, 693.030099144303108 ], [ 669.788121241608906, 688.306600542086585 ], [ 656.967196462967877, 704.726381393185079 ], [ 640.772344115287069, 695.279384193737314 ], [ 663.265194602265751, 652.767896777776855 ], [ 676.915447941761727, 670.497164690749059 ], [ 670.237978249426646, 657.041538367314843 ], [ 676.985833393488747, 649.618897708967779 ], [ 699.92854088971842, 660.865322950156497 ], [ 708.475824076330809, 646.469898640158817 ], [ 725.367812240659305, 655.808156643717211 ] ] ] } },
{ "type": "Feature", "properties": { "feature_type": "building", "subtype": "no-damage", "uid": "0af73a4e-34c3-42ed-8061-f94982ba28ff" }, "geometry": { "type": "Polygon", "coordinates": [ [ [ 776.04575406310812, 512.801791615429806 ], [ 776.669995860362292, 511.300002127747916 ], [ 784.099995857582257, 522.150002125352216 ], [ 772.479995856217556, 542.96000212532374 ], [ 770.647820933553021, 544.852373223953009 ], [ 765.859995857655804, 556.150002124162938 ], [ 741.49340491653561, 542.023760358082313 ], [ 743.383939886227722, 538.861385762069972 ], [ 747.567675765679155, 530.616574249550695 ], [ 749.08328588010545, 528.437274757525756 ], [ 763.766243409841536, 506.512286159074904 ], [ 776.04575406310812, 512.801791615429806 ] ] ] } },
{ "type": "Feature", "properties": { "feature_type": "building", "subtype": "no-damage", "uid": "1e2e2985-e744-4f00-8526-4543b861bae4" }, "geometry": { "type": "Polygon", "coordinates": [ [ [ 825.76279718987746, 483.450766154766825 ], [ 808.092281860378648, 522.685300186283143 ], [ 784.669995859338542, 522.100002125317246 ], [ 776.899995855736961, 510.75000212536969 ], [ 785.330262117886377, 490.638772391740474 ], [ 792.218768095232349, 493.034774468737623 ], [ 802.401776925643503, 473.866757838802016 ], [ 825.76279718987746, 483.450766154766825 ] ] ] } },
{ "type": "Feature", "properties": { "feature_type": "building", "subtype": "no-damage", "uid": "053672c9-d00e-4ff7-82da-f0412f09626b" }, "geometry": { "type": "Polygon", "coordinates": [ [ [ 764.248178995915168, 471.281370845506672 ], [ 769.578574591330835, 459.035867448073986 ], [ 790.323897992754041, 463.790004063376784 ], [ 786.290085108953576, 482.518421020695826 ], [ 776.781811882901366, 480.645579324664823 ], [ 776.781811883960813, 476.179572204280419 ], [ 764.248178995915168, 471.281370845506672 ] ] ] } },
{ "type": "Feature", "properties": { "feature_type": "building", "subtype": "no-damage", "uid": "37e6f0ea-6950-4f9f-ad3b-23eac1869d69" }, "geometry": { "type": "Polygon", "coordinates": [ [ [ 856.158551973455928, 342.950709260047915 ], [ 878.022070940626691, 305.213676529895224 ], [ 901.083590942868113, 313.000683281631325 ], [ 912.46460081520479, 292.634665617185419 ], [ 907.073596137040681, 285.746159642079817 ], [ 914.26160237588067, 272.867648472487417 ], [ 944.810628874530039, 290.238663537197226 ], [ 929.236615363212763, 329.173697310833688 ], [ 907.97209692002707, 320.488189778478784 ], [ 895.992086529251537, 341.153707701801522 ], [ 908.571097437468893, 351.336716536517088 ], [ 902.281591982861642, 368.108731078487892 ], [ 856.158551973455928, 342.950709260047915 ] ] ] } },
{ "type": "Feature", "properties": { "feature_type": "building", "subtype": "no-damage", "uid": "25903dec-ec35-4c07-977c-cb1c9e29d180" }, "geometry": { "type": "Polygon", "coordinates": [ [ [ 921.883576628293781, 268.702213001741995 ], [ 935.49422147338737, 244.062252511459207 ], [ 905.456936303107682, 228.574277343119007 ], [ 914.374255337453178, 214.494299918533386 ], [ 931.739560826035245, 222.94228637208829 ], [ 925.403570986183468, 232.328937989475691 ], [ 936.66755292443861, 235.614266055910207 ], [ 941.360878733067921, 233.971602022692991 ], [ 968.582168421510232, 246.174249121607488 ], [ 948.166201155209592, 283.955521877628485 ], [ 921.883576628293781, 268.702213001741995 ] ] ] } },
{ "type": "Feature", "properties": { "feature_type": "building", "subtype": "no-damage", "uid": "2ff42c07-377e-448a-b333-f952f28681d4" }, "geometry": { "type": "Polygon", "coordinates": [ [ [ 938.449741029284496, 221.771897249159508 ], [ 949.511833837525046, 206.759057012028592 ], [ 955.72015123042695, 211.725710922762886 ], [ 960.461048147630095, 207.774963495559888 ], [ 955.607272730048066, 200.550739620868711 ], [ 963.508767592801064, 195.809842700049188 ], [ 979.311757319428693, 203.59845906647729 ], [ 981.230691788043259, 212.854495906236906 ], [ 967.346636527662326, 239.155185944207602 ], [ 938.449741029284496, 221.771897249159508 ] ] ] } },
{ "type": "Feature", "properties": { "feature_type": "building", "subtype": "no-damage", "uid": "c65c431a-784d-42ad-90c4-a372d8208c69" }, "geometry": { "type": "Polygon", "coordinates": [ [ [ 1021.594135016538985, 328.103640899520713 ], [ 1016.67881123052598, 325.140950357696283 ], [ 1006.382249213068008, 345.182472858732183 ], [ 990.20193746478617, 332.495637509466121 ], [ 997.372757442369902, 316.683060126181601 ], [ 1005.830647673008002, 319.441067807596824 ], [ 1010.795061504626005, 311.902513473543024 ], [ 1004.543577421698956, 310.247708862899174 ], [ 1015.759475336056994, 290.941655077040309 ], [ 1021.550220051698943, 292.621338475397181 ], [ 1021.594135016538985, 328.103640899520713 ] ] ] } },
{ "type": "Feature", "properties": { "feature_type": "building", "subtype": "no-damage", "uid": "0bf26773-a7a8-4492-860e-7aca0c824ee1" }, "geometry": { "type": "Polygon", "coordinates": [ [ [ 890.030805002472562, 528.544967138232209 ], [ 896.650023444110047, 513.46785846713351 ], [ 897.753226519492273, 502.987429271374822 ], [ 906.211116751377062, 491.219929817575519 ], [ 944.271622787256206, 511.445319497904222 ], [ 934.342795125765861, 526.338560992701218 ], [ 920.001155166360832, 514.387194358612078 ], [ 916.691545946258771, 523.028951773407812 ], [ 931.768654622522945, 531.302974821641442 ], [ 923.494631567625106, 542.335005557272552 ], [ 917.059280303971718, 537.186724549039582 ], [ 911.175530579006477, 542.151138376982772 ], [ 890.766273719082392, 530.935240465050015 ], [ 890.030805002472562, 528.544967138232209 ] ] ] } },
{ "type": "Feature", "properties": { "feature_type": "building", "subtype": "no-damage", "uid": "e01bcb3b-2faa-41c5-a161-f715b21aede2" }, "geometry": { "type": "Polygon", "coordinates": [ [ [ 880.640718653198405, 538.388375007211835 ], [ 895.87931588833851, 541.774729951651466 ], [ 910.102006638950684, 558.254990663110902 ], [ 903.103539765706046, 572.929195407393308 ], [ 869.691504347019304, 558.029233667213816 ], [ 872.852102287833077, 550.805009792522696 ], [ 880.640718653198405, 538.388375007211835 ] ] ] } },
{ "type": "Feature", "properties": { "feature_type": "building", "subtype": "no-damage", "uid": "edf10d1d-1e95-4578-bf05-07460941c3ff" }, "geometry": { "type": "Polygon", "coordinates": [ [ [ 927.095923353557851, 540.850858737131716 ], [ 936.239081696174935, 540.963737238071531 ], [ 944.366333554326388, 545.25312016310852 ], [ 937.142109679202349, 564.78110032017662 ], [ 922.693661932568375, 560.265960400239464 ], [ 927.095923353557851, 540.850858737131716 ] ] ] } },
{ "type": "Feature", "properties": { "feature_type": "building", "subtype": "no-damage", "uid": "b11952dd-33d3-48df-a7c2-88f8958045de" }, "geometry": { "type": "Polygon", "coordinates": [ [ [ 937.717617827662707, 571.649765880193854 ], [ 948.441075140312705, 555.395262165628651 ], [ 958.035747472418166, 562.61948603832559 ], [ 976.209185656463319, 532.029413069335533 ], [ 989.641726922993826, 537.334702475909694 ], [ 987.948549452768816, 545.574832837123267 ], [ 999.800791748518577, 557.088439635854343 ], [ 975.531914669332991, 592.87092350848468 ], [ 937.717617827662707, 571.649765880193854 ] ] ] } },
{ "type": "Feature", "properties": { "feature_type": "building", "subtype": "no-damage", "uid": "64b981d8-b5f5-499f-90cd-61f7696f9fce" }, "geometry": { "type": "Polygon", "coordinates": [ [ [ 1014.498120803391998, 527.862126936231675 ], [ 1010.60837266580404, 536.361946944593569 ], [ 995.049380112337872, 527.285867954371497 ], [ 1004.55765334063301, 502.362666926102179 ], [ 1014.642185547735039, 505.532091334309825 ], [ 1021.819160208272024, 509.84122095262012 ], [ 1021.824596098530947, 514.229813351297139 ], [ 1021.557293347690006, 514.608170321540683 ], [ 1021.825593953866019, 515.035411042249621 ], [ 1021.847831937470005, 532.988102852432576 ], [ 1014.498120803391998, 527.862126936231675 ] ] ] } },
{ "type": "Feature", "properties": { "feature_type": "building", "subtype": "no-damage", "uid": "933b3e1c-157e-4c9b-b710-25c32c37989c" }, "geometry": { "type": "Polygon", "coordinates": [ [ [ 888.700934761647318, 697.912311178366963 ], [ 895.334548692054796, 685.979219973160298 ], [ 907.580052091226889, 693.326522009825226 ], [ 911.469800226135021, 682.809795565949685 ], [ 892.30918902950043, 673.589651834250844 ], [ 892.021059540876195, 668.691450469494725 ], [ 890.724476828762363, 670.708356911987948 ], [ 882.3687215672403, 665.522026064278293 ], [ 888.563505636879199, 653.996846397162017 ], [ 899.224296830577259, 660.62382470450757 ], [ 900.520879542504076, 657.02220605791058 ], [ 926.740663288547012, 671.572745385775306 ], [ 939.56242566764729, 673.157457591873253 ], [ 916.097144420859422, 712.437818312584341 ], [ 888.700934761647318, 697.912311178366963 ] ] ] } },
{ "type": "Feature", "properties": { "feature_type": "building", "subtype": "no-damage", "uid": "e2381fba-6255-4f8f-8b62-6c6929739c3a" }, "geometry": { "type": "Polygon", "coordinates": [ [ [ 867.42557084498344, 690.288003197245644 ], [ 855.234693057507002, 704.849329440588122 ], [ 842.479422780350205, 701.462974500136852 ], [ 823.631956996244412, 678.642694085699873 ], [ 809.752426503883726, 706.57047726411804 ], [ 789.632676978952077, 696.218593081292624 ], [ 808.21702919135862, 665.820931709398224 ], [ 818.301561402261996, 666.685320182188548 ], [ 835.013071918700689, 655.016075766616041 ], [ 868.868287195762605, 688.871291039642415 ], [ 867.42557084498344, 690.288003197245644 ] ] ] } },
{ "type": "Feature", "properties": { "feature_type": "building", "subtype": "no-damage", "uid": "ac7b0cfa-c8bc-4670-a0f0-6753e667ae49" }, "geometry": { "type": "Polygon", "coordinates": [ [ [ 862.4914657825625, 708.497998682700199 ], [ 866.957472904378164, 694.6677830801666 ], [ 884.965566134363939, 700.718502407646042 ], [ 882.516465456286824, 709.794581391885686 ], [ 912.481932589591679, 717.141883427553466 ], [ 895.338227834327654, 758.488465485700999 ], [ 867.965926123941699, 742.497278694212127 ], [ 876.753875621235693, 724.345120720747445 ], [ 882.660530201876441, 727.658609875417255 ], [ 885.109630880638974, 718.438466143718415 ], [ 864.796501715486215, 710.082710882815832 ], [ 862.4914657825625, 708.497998682700199 ] ] ] } },
{ "type": "Feature", "properties": { "feature_type": "building", "subtype": "no-damage", "uid": "3aa0525a-d021-493c-abac-5e5983777b7d" }, "geometry": { "type": "Polygon", "coordinates": [ [ [ 829.58415795411986, 776.834790947895726 ], [ 837.984892424305031, 759.519997576765377 ], [ 864.826307176797854, 770.904907010523289 ], [ 871.162297020139249, 760.110257647387016 ], [ 885.711607025139074, 765.742248616423581 ], [ 869.988965568090975, 795.075534919886877 ], [ 829.58415795411986, 776.834790947895726 ] ] ] } },
{ "type": "Feature", "properties": { "feature_type": "building", "subtype": "no-damage", "uid": "fd9c30c1-4b93-44bc-a012-9d1b32bbcca4" }, "geometry": { "type": "Polygon", "coordinates": [ [ [ 1022.12765381875704, 758.779665195129155 ], [ 1016.538001066767038, 773.132548831506483 ], [ 993.487641729490861, 763.336146117947465 ], [ 985.131886470523682, 781.776433581345145 ], [ 966.547534258864971, 773.420678325427843 ], [ 991.167606464799974, 720.466271170616778 ], [ 1022.096137515742043, 733.35880214681174 ], [ 1022.12765381875704, 758.779665195129155 ] ] ] } },
{ "type": "Feature", "properties": { "feature_type": "building", "subtype": "no-damage", "uid": "3299697e-31b3-4498-abbc-f61eae29605a" }, "geometry": { "type": "Polygon", "coordinates": [ [ [ 775.49589561652283, 735.65621358554813 ], [ 778.253903300242428, 729.956331039436805 ], [ 777.334567403592018, 724.624182851911087 ], [ 789.87471434364295, 704.082317470943963 ], [ 802.065592132116421, 715.031531776940938 ], [ 813.127684939110623, 711.532298339538102 ], [ 826.560226205952631, 727.786802054103418 ], [ 814.707983911636347, 738.848894863034275 ], [ 798.792115688306467, 727.786802056097486 ], [ 789.197443355453288, 744.154184267614255 ], [ 775.49589561652283, 735.65621358554813 ] ] ] } },
{ "type": "Feature", "properties": { "feature_type": "building", "subtype": "no-damage", "uid": "0f14743f-23ed-4be9-a2fc-3338e285452e" }, "geometry": { "type": "Polygon", "coordinates": [ [ [ 745.417752595206366, 776.029536861389261 ], [ 749.307500734788164, 763.784033465950756 ], [ 760.40048616226386, 755.42827820704224 ], [ 766.595270234021655, 741.453997864028906 ], [ 775.527284474911085, 742.606515826752229 ], [ 802.467391949649823, 761.478997532527501 ], [ 801.314873984122755, 772.139788720871024 ], [ 793.823507198880293, 775.021083640142706 ], [ 780.137356341443933, 768.538170081253497 ], [ 776.967931932801434, 776.173601608848458 ], [ 784.027104479779382, 778.478637542271713 ], [ 783.450845498355648, 785.249680596079315 ], [ 771.205342101863152, 789.139428733606451 ], [ 745.417752595206366, 776.029536861389261 ] ] ] } },
{ "type": "Feature", "properties": { "feature_type": "building", "subtype": "no-damage", "uid": "d181838a-d843-48ee-9c7c-48787b0334c8" }, "geometry": { "type": "Polygon", "coordinates": [ [ [ 794.704981607197169, 832.221376198067787 ], [ 802.979004656361894, 815.857197275907879 ], [ 820.814121013229965, 825.234423398901185 ], [ 814.56263693030246, 835.898719775946802 ], [ 845.636190169946985, 851.159695626338248 ], [ 831.362051473629549, 878.928250425386977 ], [ 800.037129795655346, 864.949734044381557 ], [ 811.253027709016351, 842.885672576110437 ], [ 794.704981607197169, 832.221376198067787 ] ] ] } },
{ "type": "Feature", "properties": { "feature_type": "building", "subtype": "no-damage", "uid": "f210381a-ae17-4c80-89d9-331f7c464880" }, "geometry": { "type": "Polygon", "coordinates": [ [ [ 810.297263400084034, 871.743504822782597 ], [ 828.357823083937205, 881.338177157384962 ], [ 808.942721423642297, 910.686586643955366 ], [ 794.607152170968675, 901.656306802087101 ], [ 810.297263400084034, 871.743504822782597 ] ] ] } },
{ "type": "Feature", "properties": { "feature_type": "building", "subtype": "no-damage", "uid": "39ec6e13-2ea6-4f78-acd5-6f5ef0fdd54f" }, "geometry": { "type": "Polygon", "coordinates": [ [ [ 763.369545305340125, 957.941536440685923 ], [ 774.318465987974037, 912.561141503534486 ], [ 796.216307357915525, 921.205026252376115 ], [ 793.190947693367093, 933.882723885206815 ], [ 799.385731765311675, 936.475889308563183 ], [ 788.43681108012288, 963.704126274244004 ], [ 763.369545305340125, 957.941536440685923 ] ] ] } },
{ "type": "Feature", "properties": { "feature_type": "building", "subtype": "no-damage", "uid": "16a93da0-c03e-405f-a9d6-d1e4ebb4036a" }, "geometry": { "type": "Polygon", "coordinates": [ [ [ 667.72865854522172, 961.013218468934951 ], [ 657.644126337683474, 980.173829664643222 ], [ 665.56768735913397, 983.631383565775195 ], [ 658.940709049921907, 1000.054764591665048 ], [ 630.848083610777735, 983.05512458291787 ], [ 639.175692653309511, 968.838807513083907 ], [ 652.74592497978449, 949.055844565423513 ], [ 667.584593803744951, 958.275988297122353 ], [ 667.72865854522172, 961.013218468934951 ] ] ] } },
{ "type": "Feature", "properties": { "feature_type": "building", "subtype": "no-damage", "uid": "42382c40-4bf0-4913-8050-e175b6923513" }, "geometry": { "type": "Polygon", "coordinates": [ [ [ 655.039590144138288, 939.487172355113103 ], [ 653.022683702518407, 936.605877439829669 ], [ 667.717287777025717, 908.513252001358524 ], [ 678.666208464769511, 905.48789234060996 ], [ 695.089589488782622, 876.674943169828225 ], [ 704.885992206699598, 877.251202153682584 ], [ 709.351999328390548, 888.488252330865748 ], [ 706.470704408995516, 896.699942841318034 ], [ 684.572863041110509, 934.877100489263739 ], [ 689.326999655351756, 944.961632699735219 ], [ 711.080776276899314, 955.046164909209779 ], [ 705.030056953036933, 974.638970343307278 ], [ 687.454157959508507, 966.571344575328908 ], [ 690.767647114239139, 955.334294398145744 ], [ 687.598222708213939, 952.020805245470001 ], [ 682.555956599677643, 952.452999480868129 ], [ 655.039590144138288, 939.487172355113103 ] ] ] } },
{ "type": "Feature", "properties": { "feature_type": "building", "subtype": "no-damage", "uid": "277dfe03-7bdd-4927-a0fb-8f176cf2d891" }, "geometry": { "type": "Polygon", "coordinates": [ [ [ 741.22552897979358, 840.455240449624853 ], [ 717.972558386382389, 876.350602826186218 ], [ 701.266540677475177, 864.498360531615276 ], [ 710.635456015428417, 852.307482744195795 ], [ 705.668802099711002, 844.518866379761789 ], [ 709.958185024559157, 837.971913492762155 ], [ 708.716521549991967, 831.650717603653675 ], [ 717.859679888184587, 825.555278710442508 ], [ 741.22552897979358, 840.455240449624853 ] ] ] } },
{ "type": "Feature", "properties": { "feature_type": "building", "subtype": "no-damage", "uid": "48860c92-89b3-43a8-a3c0-e1c17b91f055" }, "geometry": { "type": "Polygon", "coordinates": [ [ [ 755.339198306764501, 842.635929131901548 ], [ 758.940816950742601, 832.695461669886186 ], [ 746.983443044619207, 830.246360990000881 ], [ 740.932723722813307, 818.433051830957538 ], [ 743.381824398148524, 805.467224703208331 ], [ 750.585061691650822, 798.552116905929779 ], [ 761.966176613421567, 802.441865042459881 ], [ 760.669593902616498, 817.712728100641016 ], [ 784.008082728703471, 828.229454544516557 ], [ 775.508262724707492, 851.856072863600389 ], [ 755.339198306764501, 842.635929131901548 ] ] ] } },
{ "type": "Feature", "properties": { "feature_type": "building", "subtype": "no-damage", "uid": "ad439cfb-5255-4ff8-9882-2a2377d9eb9a" }, "geometry": { "type": "Polygon", "coordinates": [ [ [ 863.312916909980459, 981.186088095472542 ], [ 876.406822681045128, 945.177847225947971 ], [ 886.565887504700413, 949.128594653151026 ], [ 895.483288848678512, 957.481603509321985 ], [ 900.562821261471981, 949.241473153093693 ], [ 928.139401059076818, 965.772239865474603 ], [ 917.043081974544407, 981.411845089375561 ], [ 905.868110671845102, 973.510350229984169 ], [ 905.416596676935228, 970.123995290529933 ], [ 897.402223316669961, 965.044462878855825 ], [ 896.273438334442744, 969.672481298735647 ], [ 892.209812406239507, 967.076275841930169 ], [ 881.486355092841563, 989.764853946543667 ], [ 863.312916909980459, 981.186088095472542 ] ] ] } },
{ "type": "Feature", "properties": { "feature_type": "building", "subtype": "no-damage", "uid": "719d4533-d6e4-4df4-a2a2-08a1cc22b00d" }, "geometry": { "type": "Polygon", "coordinates": [ [ [ 854.427500241538837, 1022.986420379546985 ], [ 854.592465966632631, 1020.235922913583977 ], [ 867.121979243280862, 1018.768502437260963 ], [ 868.137885727871094, 1011.544278562569957 ], [ 870.508334186846582, 1010.528372080035979 ], [ 872.878782643391673, 996.644316821393318 ], [ 907.645360040950436, 997.660223307915771 ], [ 907.211234757454577, 1022.985601847644944 ], [ 854.427500241538837, 1022.986420379546985 ] ] ] } },
{ "type": "Feature", "properties": { "feature_type": "building", "subtype": "no-damage", "uid": "07079978-c060-418d-bfb0-be78f8ad71cb" }, "geometry": { "type": "Polygon", "coordinates": [ [ [ 929.40751800511066, 984.0579821597413 ], [ 933.153201397357975, 966.482083167139763 ], [ 942.229280387015137, 968.643054354100855 ], [ 944.534316320312769, 965.329565202422259 ], [ 947.559675985484319, 950.202766887711959 ], [ 944.96651055571067, 945.736759767327612 ], [ 948.424064457838085, 941.126687901478135 ], [ 951.737553612319516, 929.313378738446545 ], [ 973.203200743061757, 936.084421793251181 ], [ 973.059136000151739, 942.711400103587948 ], [ 979.686114306434888, 943.863918069302485 ], [ 980.694567526060837, 938.5335224731366 ], [ 1000.143308219172013, 941.126687898487035 ], [ 994.236653638219195, 975.8462916462978 ], [ 950.440970899270951, 967.634601131857266 ], [ 943.95805733596012, 987.947730294277108 ], [ 929.40751800511066, 984.0579821597413 ] ] ] } },
{ "type": "Feature", "properties": { "feature_type": "building", "subtype": "no-damage", "uid": "3fc1dd26-b3be-411d-97db-9f2b90c1a3bf" }, "geometry": { "type": "Polygon", "coordinates": [ [ [ 994.331506048823258, 978.498222115332737 ], [ 1013.295093721124999, 977.369437134849932 ], [ 1013.295093723306991, 995.429996821577674 ], [ 994.67014154316746, 995.091361327731988 ], [ 994.331506048823258, 978.498222115332737 ] ] ] } },
{ "type": "Feature", "properties": { "feature_type": "building", "subtype": "no-damage", "uid": "d7938d40-fb02-407a-9ccb-85ebb35c2746" }, "geometry": { "type": "Polygon", "coordinates": [ [ [ 1022.259901365843007, 865.422087689649175 ], [ 999.875049991237802, 863.818003880938477 ], [ 1001.60382694236398, 858.199478793842559 ], [ 986.332963881198225, 860.216385238329849 ], [ 987.029357930666947, 830.056477556762047 ], [ 994.930852792298197, 821.026197712899602 ], [ 986.013451449753461, 816.39817929301978 ], [ 986.352086942975802, 807.706534944997202 ], [ 992.786161329780725, 798.224741110337618 ], [ 1008.137637062371027, 807.255020955197097 ], [ 1004.97703911825397, 818.655749254982425 ], [ 1015.587617932395005, 824.525431148308257 ], [ 1022.210831990326028, 825.85850001591848 ], [ 1022.259901365843007, 865.422087689649175 ] ] ] } },
{ "type": "Feature", "properties": { "feature_type": "building", "subtype": "no-damage", "uid": "a64dbcb7-030b-4ac4-8e3e-28b67c215885" }, "geometry": { "type": "Polygon", "coordinates": [ [ [ 679.185529371687721, 1022.988301096339001 ], [ 681.814185421535058, 1017.291889975425988 ], [ 691.98515995862806, 1015.523024836111972 ], [ 693.488695326383777, 1018.176322541095033 ], [ 704.101886145064668, 1016.495900662933991 ], [ 705.870751283879486, 1017.999436027762044 ], [ 709.673811328891475, 1017.910992770596977 ], [ 710.632492462601704, 1022.98805829982598 ], [ 679.185529371687721, 1022.988301096339001 ] ] ] } },
{ "type": "Feature", "properties": { "feature_type": "building", "subtype": "no-damage", "uid": "19bce13a-a6b2-4441-9b58-c56a738fceaa" }, "geometry": { "type": "Polygon", "coordinates": [ [ [ 739.860576495341775, 953.880793709168302 ], [ 791.003561269643001, 967.855074056169883 ], [ 781.207158554031821, 998.684929664459446 ], [ 762.190612102737646, 994.074857798609969 ], [ 766.512554475287061, 979.38025372328616 ], [ 760.605899895082416, 978.948059486890998 ], [ 756.283957520227318, 996.668023224957551 ], [ 742.309677172858073, 991.193562882329502 ], [ 747.496008025613037, 978.659929997954919 ], [ 736.979281578252426, 971.456692703763906 ], [ 739.860576495341775, 953.880793709168302 ] ] ] } },
{ "type": "Feature", "properties": { "feature_type": "building", "subtype": "no-damage", "uid": "7a18c59b-82e2-40eb-9098-38b5c881c729" }, "geometry": { "type": "Polygon", "coordinates": [ [ [ 880.614394941846967, 936.532728893304238 ], [ 911.012056313042422, 888.99136276919171 ], [ 919.079682077652251, 891.872657681484043 ], [ 927.291372592712264, 905.991002777938888 ], [ 904.241013258427756, 947.625714321034138 ], [ 882.055042396434601, 938.98182957219251 ], [ 880.614394941846967, 936.532728893304238 ] ] ] } },
{ "type": "Feature", "properties": { "feature_type": "building", "subtype": "no-damage", "uid": "e075e40a-0beb-4476-b177-1d36b1cab1fa" }, "geometry": { "type": "Polygon", "coordinates": [ [ [ 612.346775850367976, 1022.988679581995029 ], [ 603.087561551325393, 1015.277861464075045 ], [ 611.936093483769355, 997.317130574926637 ], [ 627.028674721634047, 1011.056583841295037 ], [ 615.49351608688653, 1022.988665959140008 ], [ 612.346775850367976, 1022.988679581995029 ] ] ] } }
]
}
