{
"type": "FeatureCollection",
"name": "hurricane-florence_00000052_post_disaster",
"features": [
{ "type": "Feature", "properties": { "feature_type": "building", "subtype": "minor-damage", "uid": "cd905ae7-c9bc-4694-a8ad-9da65b1a6e64" }, "geometry": { "type": "Polygon", "coordinates": [ [ [ -0.000008377282133, 170.775516944224108 ], [ 19.98362770424141, 174.132484683288908 ], [ 21.351409575212561, 181.752983676846213 ], [ 16.271076911059652, 202.074314328369894 ], [ -0.000008377918903, 199.086662984274909 ], [ -0.000008377282133, 170.775516944224108 ] ] ] } },
{ "type": "Feature", "properties": { "feature_type": "building", "subtype": "major-damage", "uid": "a4cb87c9-16a8-4c5a-a280-662bdfcee45e" }, "geometry": { "type": "Polygon", "coordinates": [ [ [ 252.54392317868701, 146.774667649132113 ], [ 264.463165193875, 150.682615851034711 ], [ 265.244754835885374, 153.027384771972493 ], [ 262.313793682931077, 161.624870815750711 ], [ 249.41756461624891, 157.130730385141902 ], [ 252.54392317868701, 146.774667649132113 ] ] ] } },
{ "type": "Feature", "properties": { "feature_type": "building", "subtype": "minor-damage", "uid": "9d5b52e9-1fef-4665-9e85-ee1494aa3e43" }, "geometry": { "type": "Polygon", "coordinates": [ [ [ 217.236603775438994, 182.292846868435305 ], [ 227.800433649950691, 184.130034671591289 ], [ 227.34113669954391, 187.651311295495702 ], [ 233.005799095111314, 188.723004178462588 ], [ 231.192840773277595, 202.373043212636304 ], [ 225.963245847049905, 201.430219828335595 ], [ 223.666761090049107, 213.065742588109799 ], [ 212.490535280557907, 210.616158851247604 ], [ 217.236603775438994, 182.292846868435305 ] ] ] } },
{ "type": "Feature", "properties": { "feature_type": "building", "subtype": "minor-damage", "uid": "089608d1-1116-4ccc-ba56-68b635081ecc" }, "geometry": { "type": "Polygon", "coordinates": [ [ [ 82.446583281323839, 342.710396290827077 ], [ 87.805047712967379, 343.475891206940901 ], [ 87.345750761923796, 350.977741407067015 ], [ 85.508562957622132, 351.896335309663812 ], [ 81.681088361516984, 350.97774140604821 ], [ 82.446583281323839, 342.710396290827077 ] ] ] } },
{ "type": "Feature", "properties": { "feature_type": "building", "subtype": "no-damage", "uid": "82eed7ff-b902-4f02-811a-32bb18734758" }, "geometry": { "type": "Polygon", "coordinates": [ [ [ 9.77172656894906, 384.167148110988421 ], [ 12.374409291019919, 371.153734499356517 ], [ 64.121865780357254, 381.411366402178885 ], [ 67.0307464697905, 385.391939976362892 ], [ 65.040459683972657, 396.108868835577994 ], [ 9.77172656894906, 384.167148110988421 ] ] ] } },
{ "type": "Feature", "properties": { "feature_type": "building", "subtype": "minor-damage", "uid": "7b5388a9-d28f-40f7-9d49-b4de3c5b38b0" }, "geometry": { "type": "Polygon", "coordinates": [ [ [ 132.418339895538111, 312.354632123499982 ], [ 154.130567718086695, 316.913000396500024 ], [ 155.690009494612212, 319.432098650996011 ], [ 152.811040062231513, 333.467074641640977 ], [ 128.699671043166802, 327.829092834347477 ], [ 132.418339895538111, 312.354632123499982 ] ] ] } },
{ "type": "Feature", "properties": { "feature_type": "building", "subtype": "minor-damage", "uid": "3a822231-de7b-4a18-9dbd-eec9a7ab9532" }, "geometry": { "type": "Polygon", "coordinates": [ [ [ 185.992276478570886, 357.910247122068199 ], [ 191.350740909450309, 346.887120296000091 ], [ 214.795416701187094, 353.011079641212007 ], [ 214.468687447602804, 355.307564399741807 ], [ 219.980250858597486, 357.070547700167083 ], [ 216.152776267331802, 374.444937356585626 ], [ 187.063969365612792, 366.330691222753387 ], [ 185.992276478570886, 357.910247122068199 ] ] ] } },
{ "type": "Feature", "properties": { "feature_type": "building", "subtype": "no-damage", "uid": "4cd700c8-d4c8-40f9-9753-993b4bcf8bf9" }, "geometry": { "type": "Polygon", "coordinates": [ [ [ 216.454939943103909, 353.241591199981485 ], [ 218.614167015510986, 346.404038789972219 ], [ 227.73090355908829, 348.563265865691221 ], [ 229.410302395630708, 351.322278241749189 ], [ 227.371032379801903, 356.840302990808823 ], [ 216.454939943103909, 353.241591199981485 ] ] ] } },
{ "type": "Feature", "properties": { "feature_type": "building", "subtype": "minor-damage", "uid": "ce6dacc0-5259-4e24-9fb3-676fbc01b5c8" }, "geometry": { "type": "Polygon", "coordinates": [ [ [ 124.559829722922004, 311.312598153157921 ], [ 131.5777242434024, 313.177529189764812 ], [ 127.823203442099299, 328.532638113127007 ], [ 125.631522610345897, 329.225179243608181 ], [ 120.426157164548599, 327.694189406286512 ], [ 124.559829722922004, 311.312598153157921 ] ] ] } },
{ "type": "Feature", "properties": { "feature_type": "building", "subtype": "minor-damage", "uid": "a56805d3-78c0-43a9-afa8-7bdb9ad44337" }, "geometry": { "type": "Polygon", "coordinates": [ [ [ -0.000008378428319, 522.378670810829817 ], [ -0.000008378173611, 504.939138648494179 ], [ 2.635294977730691, 505.103492369072001 ], [ 2.967836760755931, 500.293967385911117 ], [ 28.518690494419069, 502.573151516807513 ], [ 26.359463418573419, 528.363919371276438 ], [ 17.482640993246861, 527.644177013722242 ], [ 16.762898634164689, 535.56134295598747 ], [ 1.528352044883944, 534.121858237822607 ], [ 2.607965581342195, 522.605980503711407 ], [ -0.000008378428319, 522.378670810829817 ] ] ] } },
{ "type": "Feature", "properties": { "feature_type": "building", "subtype": "destroyed", "uid": "5c3ae3a0-7050-4b2f-b920-b3f0cb9e52b8" }, "geometry": { "type": "Polygon", "coordinates": [ [ [ 52.953070852348283, 526.535593251363025 ], [ 56.16814951143629, 519.186842031607057 ], [ 75.764819425303401, 526.535593250344277 ], [ 76.377215357608449, 528.066583082571924 ], [ 73.62143365262051, 534.802938366584158 ], [ 52.953070852348283, 526.535593251363025 ] ] ] } },
{ "type": "Feature", "properties": { "feature_type": "building", "subtype": "major-damage", "uid": "a92cd88d-7846-4b6a-8406-305f6b8e4ab9" }, "geometry": { "type": "Polygon", "coordinates": [ [ [ 111.822720960251502, 773.116867524685404 ], [ 117.098451030704297, 761.197625509748377 ], [ 131.557859378605514, 765.887163350605192 ], [ 126.0867318952304, 778.392597598323732 ], [ 111.822720960251502, 773.116867524685404 ] ] ] } },
{ "type": "Feature", "properties": { "feature_type": "building", "subtype": "major-damage", "uid": "bdcc175f-86e1-45b3-ac3c-b9d1ec4158a8" }, "geometry": { "type": "Polygon", "coordinates": [ [ [ 144.844883269731497, 782.105148386921883 ], [ 144.2586910377143, 771.358290833472552 ], [ 151.097600391805912, 763.15159961019026 ], [ 178.682078524422906, 772.281293177141833 ], [ 171.418931043832799, 791.875018894225491 ], [ 144.844883269731497, 782.105148386921883 ] ] ] } },
{ "type": "Feature", "properties": { "feature_type": "building", "subtype": "major-damage", "uid": "2495f479-6f66-4a00-a655-dbc72caf602b" }, "geometry": { "type": "Polygon", "coordinates": [ [ [ 834.586314968750798, 984.236633340973412 ], [ 856.080030081755581, 982.868851467200102 ], [ 856.861619723384024, 992.247927155026673 ], [ 834.977109792303054, 993.615709030837706 ], [ 834.586314968750798, 984.236633340973412 ] ] ] } },
{ "type": "Feature", "properties": { "feature_type": "building", "subtype": "major-damage", "uid": "14875c02-f8f0-4016-b383-8944e9f42e42" }, "geometry": { "type": "Polygon", "coordinates": [ [ [ 826.793123508912231, 675.450064036547133 ], [ 839.524395166259296, 656.989720133910282 ], [ 902.225908078228827, 700.276043761109577 ], [ 901.907626286725076, 704.09542525915549 ], [ 890.449481797557951, 720.646078409203369 ], [ 826.793123508912231, 675.450064036547133 ] ] ] } },
{ "type": "Feature", "properties": { "feature_type": "building", "subtype": "minor-damage", "uid": "5d00f2a3-ec40-4748-ad48-323b2cbc1827" }, "geometry": { "type": "Polygon", "coordinates": [ [ [ 413.078317540499825, 441.421202509626596 ], [ 414.325228103866323, 428.203950581085678 ], [ 419.811634563422672, 416.482991321758789 ], [ 469.937439058616917, 426.458275792015513 ], [ 472.181878061800489, 431.94468225361129 ], [ 467.443617935831981, 451.645869093626516 ], [ 466.944853711147687, 454.139690208643572 ], [ 455.722658677145489, 451.895251205331874 ], [ 455.22389445348, 456.38412922316229 ], [ 438.51529295610078, 452.892779653172681 ], [ 439.01405717836542, 448.902665864866208 ], [ 413.078317540499825, 441.421202509626596 ] ] ] } },
{ "type": "Feature", "properties": { "feature_type": "building", "subtype": "minor-damage", "uid": "ab5bd08a-da5e-4e1d-b142-e52df06b6bde" }, "geometry": { "type": "Polygon", "coordinates": [ [ [ 458.216479796619183, 384.063316771519624 ], [ 481.658398313355519, 388.302812671531512 ], [ 482.655926763106208, 390.547251680956094 ], [ 480.660869868826182, 402.517593051988513 ], [ 459.712772467106277, 399.026243490149511 ], [ 455.473276567477797, 393.539837025497093 ], [ 458.216479796619183, 384.063316771519624 ] ] ] } },
{ "type": "Feature", "properties": { "feature_type": "building", "subtype": "destroyed", "uid": "f3c0434f-c4e0-4fbd-8cda-80be90d78fa5" }, "geometry": { "type": "Polygon", "coordinates": [ [ [ 435.321213990720025, 362.514203888060422 ], [ 443.588559109886489, 364.198292708808708 ], [ 441.904470292959275, 372.618736811531676 ], [ 433.48402618667302, 370.781549007356773 ], [ 435.321213990720025, 362.514203888060422 ] ] ] } },
{ "type": "Feature", "properties": { "feature_type": "building", "subtype": "no-damage", "uid": "d2584ae4-91f6-4bcb-9ff6-438a6c3d401e" }, "geometry": { "type": "Polygon", "coordinates": [ [ [ 442.475364294908786, 350.256176212420428 ], [ 446.383312498465784, 333.647396354588977 ], [ 464.359874230064975, 337.946139372912228 ], [ 466.900040562141498, 341.463292753299982 ], [ 463.187489769723811, 356.50889333526078 ], [ 446.969504729718892, 353.187137365120918 ], [ 447.360299549323202, 351.623958084156072 ], [ 442.475364294908786, 350.256176212420428 ] ] ] } },
{ "type": "Feature", "properties": { "feature_type": "building", "subtype": "minor-damage", "uid": "8b956b3d-2cc1-4cc8-aca1-3e3eee365931" }, "geometry": { "type": "Polygon", "coordinates": [ [ [ 461.038118257888527, 312.739873469264921 ], [ 468.463219842214414, 314.303052751248515 ], [ 470.612591352776178, 304.337784832678096 ], [ 487.416768624543579, 308.050335625351579 ], [ 488.979947905125925, 310.395104546289417 ], [ 482.727230781650576, 337.750741962664222 ], [ 457.130170057769988, 332.475011890044811 ], [ 461.038118257888527, 312.739873469264921 ] ] ] } }
]
}
