{
"type": "FeatureCollection",
"name": "hurricane-harvey_00000395_post_disaster",
"features": [
{ "type": "Feature", "properties": { "feature_type": "building", "subtype": "no-damage", "uid": "d9912fab-e559-4d71-bdac-902e32dd56a2" }, "geometry": { "type": "Polygon", "coordinates": [ [ [ 98.491333448971005, 6.865821216896283 ], [ 104.961477344882496, 1.936187775048954 ], [ 134.539278015022205, 34.286907249510691 ], [ 110.199212877653096, 53.697338937378333 ], [ 85.551045658269729, 34.286907250507753 ], [ 92.945495821598314, 26.584354993259151 ], [ 104.037171072293106, 39.216540694349213 ], [ 111.739723333152696, 36.135519794440953 ], [ 104.037171071981504, 30.281580080128489 ], [ 110.815417060501005, 24.735742451320078 ], [ 98.491333448971005, 6.865821216896283 ] ] ] } },
{ "type": "Feature", "properties": { "feature_type": "building", "subtype": "no-damage", "uid": "a7d9b7d7-4705-4548-8279-9c0c4fbed42c" }, "geometry": { "type": "Polygon", "coordinates": [ [ [ 76.352873085598162, 62.603331018789348 ], [ 80.97440444106698, 74.311210449408392 ], [ 88.985058791044793, 73.386904178937385 ], [ 92.066079691824115, 78.932741804754613 ], [ 111.784613469175397, 77.39223135131077 ], [ 116.406144824831102, 98.035071403129962 ], [ 111.476511379932504, 102.656602754487906 ], [ 110.244103017290101, 114.056380093620504 ], [ 88.985058786807272, 118.061707271976303 ], [ 92.374181781690169, 104.197113203943502 ], [ 77.893383538418163, 103.580909023961894 ], [ 76.044770996292954, 110.0510529202501 ], [ 62.796381113793807, 108.818644562280895 ], [ 60.947768571357017, 66.300556103664562 ], [ 70.190831279988942, 64.760045649223656 ], [ 70.190831278804936, 63.527637289260348 ], [ 76.352873085598162, 62.603331018789348 ] ] ] } },
{ "type": "Feature", "properties": { "feature_type": "building", "subtype": "no-damage", "uid": "cf6fd400-953c-4e0c-9945-ceffaa89512e" }, "geometry": { "type": "Polygon", "coordinates": [ [ [ 155.843212381839294, 45.349613963350137 ], [ 160.464743734690813, 13.30699657339539 ], [ 173.405031528258689, 10.53407776098531 ], [ 170.632112715538199, 23.78246764006289 ], [ 190.966850677793786, 23.166263459084181 ], [ 187.885829772029211, 38.571367976572553 ], [ 161.697152095526008, 43.501001419416937 ], [ 155.843212381839294, 45.349613963350137 ] ] ] } },
{ "type": "Feature", "properties": { "feature_type": "building", "subtype": "no-damage", "uid": "b466e51e-149e-409b-a065-7897ca896299" }, "geometry": { "type": "Polygon", "coordinates": [ [ [ 227.322897330159094, 3.7558317722136 ], [ 231.636326593331489, 8.377363127559819 ], [ 230.403918230938388, 28.095896904919751 ], [ 235.3335516758371, 28.40399899640617 ], [ 228.863407778803889, 63.219535197773943 ], [ 212.53399699378059, 62.295228926305867 ], [ 212.842099087946508, 45.041511869869602 ], [ 191.891156946519601, 45.965818141337671 ], [ 199.285607111904596, 3.447729682721305 ], [ 212.225894905908689, 3.447729683718367 ], [ 212.84209908545381, 1.599117141779292 ], [ 227.322897330159094, 3.7558317722136 ] ] ] } },
{ "type": "Feature", "properties": { "feature_type": "building", "subtype": "minor-damage", "uid": "41d38023-9682-4700-933c-d868c49ca698" }, "geometry": { "type": "Polygon", "coordinates": [ [ [ 256.31557427016719, 5.686424706471171 ], [ 264.638084364394786, 5.118980837712931 ], [ 264.25978845191031, 23.27718467785909 ], [ 274.284630153284184, 23.27718467785909 ], [ 274.095482200625099, 51.271082263421647 ], [ 269.934227151205619, 52.405970004926381 ], [ 269.55593123685162, 64.700587186946166 ], [ 254.802390615804597, 63.187403534265357 ], [ 255.937278355439304, 47.298975172143358 ], [ 244.588400957409391, 49.947046569320079 ], [ 245.534140738278097, 44.461755826358043 ], [ 238.346518388919804, 42.002832385766418 ], [ 239.670554081649897, 5.118980839707055 ], [ 256.31557427016719, 5.686424706471171 ] ] ] } },
{ "type": "Feature", "properties": { "feature_type": "building", "subtype": "minor-damage", "uid": "beb3540a-f873-4e15-9784-7d35db8b1681" }, "geometry": { "type": "Polygon", "coordinates": [ [ [ 291.307946254847025, 17.413598021726841 ], [ 315.140588797396276, 16.278710279225049 ], [ 317.599512232004486, 30.843102944254291 ], [ 315.897180621679979, 39.733056907742267 ], [ 318.545252015490405, 39.543908949163047 ], [ 319.869287712458004, 39.354760991580882 ], [ 320.436731580717378, 54.864893439535628 ], [ 290.929650342487093, 54.67574548195347 ], [ 287.903283034509514, 18.170189846073121 ], [ 291.307946254847025, 17.413598021726841 ] ] ] } },
{ "type": "Feature", "properties": { "feature_type": "building", "subtype": "minor-damage", "uid": "82ea74fc-f9e2-448f-9a9a-a5550a0b839b" }, "geometry": { "type": "Polygon", "coordinates": [ [ [ 322.156127597574425, 6.944631329582795 ], [ 336.342224346124397, 6.377187461821617 ], [ 338.611999828322723, 18.48265668625924 ], [ 343.908142613887321, 18.293508731668261 ], [ 344.475586482645213, 22.265615820952441 ], [ 361.309754628869314, 23.96794742922128 ], [ 361.877198497689619, 62.364982632946763 ], [ 341.260071220637599, 64.634758112965031 ], [ 342.016663047040026, 45.341666532311208 ], [ 336.909668216938826, 47.422294056741443 ], [ 336.9096682174997, 54.420768453381349 ], [ 323.858459207400415, 53.664176628038007 ], [ 322.156127597574425, 6.944631329582795 ] ] ] } },
{ "type": "Feature", "properties": { "feature_type": "building", "subtype": "minor-damage", "uid": "af72a62a-ab91-4a62-abef-7ace8d6ab101" }, "geometry": { "type": "Polygon", "coordinates": [ [ [ 365.092713761379798, 52.340140928951122 ], [ 363.579530110132907, 16.59117711741705 ], [ 401.787417354826118, 16.212881206240969 ], [ 402.354861226886896, 69.552604984177648 ], [ 387.601320605839874, 68.228569288081943 ], [ 385.52069308084981, 47.043998142574168 ], [ 376.819887078873705, 47.043998144568299 ], [ 376.819887073763823, 52.907584797709362 ], [ 365.092713761379798, 52.340140928951122 ] ] ] } },
{ "type": "Feature", "properties": { "feature_type": "building", "subtype": "no-damage", "uid": "3bba112f-7f5b-42f8-bfde-96413a59cfba" }, "geometry": { "type": "Polygon", "coordinates": [ [ [ 406.932649343027322, 16.562635586293471 ], [ 418.344232095201221, 17.0072427026778 ], [ 418.492434468097827, 18.34106406479259 ], [ 442.204814212317899, 19.82308779737372 ], [ 443.390433197173422, 30.34545630787273 ], [ 444.724254560783208, 47.240526872060023 ], [ 430.941433833040719, 49.463562472925837 ], [ 430.348624341080324, 43.090860417243427 ], [ 407.229054090503098, 40.867824820365847 ], [ 405.598827984402874, 30.938265799708709 ], [ 406.339839849571376, 20.119492545285841 ], [ 406.932649343027322, 16.562635586293471 ] ] ] } },
{ "type": "Feature", "properties": { "feature_type": "building", "subtype": "no-damage", "uid": "51cec1ea-59a3-4046-938b-8df598bcf511" }, "geometry": { "type": "Polygon", "coordinates": [ [ [ 452.875385095272691, 50.2045743392164 ], [ 452.28257560013418, 46.944122125144958 ], [ 449.763135255158716, 45.165693643654663 ], [ 446.947290158843828, 21.008706783039809 ], [ 465.91719395149039, 19.971290169834191 ], [ 466.954610566004192, 50.056371965758878 ], [ 453.764599335518881, 52.27940756762176 ], [ 452.875385095272691, 50.2045743392164 ] ] ] } },
{ "type": "Feature", "properties": { "feature_type": "building", "subtype": "no-damage", "uid": "846f8df8-bbb7-46f7-8461-5c343aa5c13c" }, "geometry": { "type": "Polygon", "coordinates": [ [ [ 470.876705352132319, 28.353897558294999 ], [ 484.066716585484073, 28.650302305210051 ], [ 483.770311838506927, 50.880658311874143 ], [ 481.547276238265226, 51.473467805704239 ], [ 483.770311839129988, 61.403026822373143 ], [ 469.098276872948475, 61.403026822373143 ], [ 467.912657884540977, 46.286384739676151 ], [ 472.35872908851411, 44.359753880740072 ], [ 470.135693486963703, 31.169742653987981 ], [ 470.876705352132319, 28.353897558294999 ] ] ] } },
{ "type": "Feature", "properties": { "feature_type": "building", "subtype": "no-damage", "uid": "0d5ee0b9-acd5-4c4c-983f-187eae31189d" }, "geometry": { "type": "Polygon", "coordinates": [ [ [ 490.735823387642426, 28.20569518284335 ], [ 503.925834620744922, 28.20569518284335 ], [ 504.666846484230916, 30.132326037791181 ], [ 532.380690311677768, 28.502099929758401 ], [ 532.084285561397792, 64.515276660992924 ], [ 520.079893321376517, 67.331121756685917 ], [ 519.783488574461558, 60.81021732854304 ], [ 513.558988891865511, 60.662014953091393 ], [ 512.521572276043003, 65.404490901738086 ], [ 490.439418640852125, 63.033252927414743 ], [ 490.439418638920301, 29.243111796048971 ], [ 490.735823387642426, 28.20569518284335 ] ] ] } },
{ "type": "Feature", "properties": { "feature_type": "building", "subtype": "no-damage", "uid": "c3da04c0-ff3d-4c56-ab01-4de87d241cc7" }, "geometry": { "type": "Polygon", "coordinates": [ [ [ 516.226631608428988, 12.199838857407091 ], [ 531.936083188688144, 5.678934429264216 ], [ 534.159118789241347, 22.425802618996919 ], [ 524.970571640300363, 27.909290433934181 ], [ 518.005060092348913, 26.575469075807629 ], [ 516.226631608428988, 12.199838857407091 ] ] ] } },
{ "type": "Feature", "properties": { "feature_type": "building", "subtype": "no-damage", "uid": "a68c4952-4d86-4701-a82a-bbc059b39610" }, "geometry": { "type": "Polygon", "coordinates": [ [ [ 608.764432507414199, 16.328196247040591 ], [ 616.248020047372961, 13.1899175986609 ], [ 622.041765241090616, 31.77818342663873 ], [ 614.316771649924021, 41.193019362804229 ], [ 618.903486595329582, 57.367224691414869 ], [ 606.591778061499326, 61.953939635825442 ], [ 605.384747811566967, 56.884412590743793 ], [ 599.108190523160715, 57.367224692411931 ], [ 599.832408669057145, 60.988315437474448 ], [ 582.209767041494501, 58.574254941098459 ], [ 583.416797291800776, 53.74613394535529 ], [ 581.968360992841554, 37.81333466508606 ], [ 594.521475577505839, 35.882086269381148 ], [ 594.762881628090554, 42.158643562152271 ], [ 599.349596569134064, 41.434425412142708 ], [ 600.798032867345341, 38.296146766754212 ], [ 612.144117206377132, 33.709431821346577 ], [ 608.764432507414199, 16.328196247040591 ] ] ] } },
{ "type": "Feature", "properties": { "feature_type": "building", "subtype": "no-damage", "uid": "4938c965-315e-4ca5-bb23-a5bcae078725" }, "geometry": { "type": "Polygon", "coordinates": [ [ [ 658.498020384507072, 0.012416729644773 ], [ 665.97766628517229, 23.570377735171508 ], [ 658.976890842332296, 25.26022007954381 ], [ 661.873763441496862, 36.123492318719627 ], [ 629.042540684055211, 45.296922208537843 ], [ 622.765983390975293, 40.710207265124318 ], [ 624.697231789795183, 25.01881403319652 ], [ 626.628480184938326, 21.15631723879552 ], [ 632.180819327448148, 19.225068842093538 ], [ 626.869886236270872, 1.602427213463765 ], [ 629.504511820490393, 0.012578439109733 ], [ 658.498020384507072, 0.012416729644773 ] ] ] } },
{ "type": "Feature", "properties": { "feature_type": "building", "subtype": "no-damage", "uid": "9c5626d4-d28f-4f3a-b0ad-2e34a0763c63" }, "geometry": { "type": "Polygon", "coordinates": [ [ [ 693.984167434356323, 0.012170991799628 ], [ 695.912016445318841, 6.91336030688684 ], [ 691.083895454438448, 8.844608702591749 ], [ 691.808113600459478, 12.22429340030992 ], [ 693.256549897175205, 26.950062430895549 ], [ 671.771411476334947, 33.226619723666673 ], [ 662.118770811375384, 0.012394065433016 ], [ 693.984167434356323, 0.012170991799628 ] ] ] } },
{ "type": "Feature", "properties": { "feature_type": "building", "subtype": "no-damage", "uid": "06b52593-ab17-42bc-abbd-b614c2771870" }, "geometry": { "type": "Polygon", "coordinates": [ [ [ 766.859740193885045, 0.011501305271601 ], [ 772.152437430248256, 17.67539721334435 ], [ 755.885713159512306, 22.214948178366189 ], [ 750.403303915991728, 0.01167193146023 ], [ 766.859740193885045, 0.011501305271601 ] ] ] } },
{ "type": "Feature", "properties": { "feature_type": "building", "subtype": "no-damage", "uid": "c996705a-e565-4c47-abf7-ff9e83d65ff8" }, "geometry": { "type": "Polygon", "coordinates": [ [ [ 836.620931996837612, 0.010652299173118 ], [ 837.78677839796535, 8.785443250853431 ], [ 817.547947032899287, 10.298626902537171 ], [ 817.547947032712386, 2.92185659571825 ], [ 792.769564709730616, 6.137371859659084 ], [ 792.958367325050176, 0.011207491100623 ], [ 836.620931996837612, 0.010652299173118 ] ] ] } },
{ "type": "Feature", "properties": { "feature_type": "building", "subtype": "no-damage", "uid": "6b46d326-8f28-4b6b-bb3c-4d1ab56b98b2" }, "geometry": { "type": "Polygon", "coordinates": [ [ [ 898.021815101169068, 0.009736738202478 ], [ 896.81643704140231, 7.111790059325512 ], [ 842.25866981222407, 7.594602159996596 ], [ 842.499739898535722, 0.010571459396565 ], [ 898.021815101169068, 0.009736738202478 ] ] ] } },
{ "type": "Feature", "properties": { "feature_type": "building", "subtype": "no-damage", "uid": "55306556-2170-4a59-8f37-8443aabc26ad" }, "geometry": { "type": "Polygon", "coordinates": [ [ [ 51.995471251285629, 151.238089126574607 ], [ 135.807066424083303, 98.040310150279197 ], [ 141.327590660706903, 113.0962853317981 ], [ 123.762286279035493, 121.628004599530797 ], [ 132.236013655334006, 137.884445551330487 ], [ 127.885610654377103, 142.613144468949088 ], [ 121.300358691431001, 176.597532323552088 ], [ 106.751033054496304, 175.81108229114389 ], [ 101.245882815115905, 180.923007512764713 ], [ 89.055907281636379, 168.339806964322094 ], [ 74.506581643953908, 178.170432393353792 ], [ 51.995471251285629, 151.238089126574607 ] ] ] } },
{ "type": "Feature", "properties": { "feature_type": "building", "subtype": "no-damage", "uid": "d9d14cd8-8cd0-4f5f-aa4c-cc0ec83a7570" }, "geometry": { "type": "Polygon", "coordinates": [ [ [ 151.916481640593702, 140.177450903184905 ], [ 184.575303209020092, 141.409859267136397 ], [ 179.337567672323587, 164.825618124386295 ], [ 168.553994515856914, 165.749924395854293 ], [ 166.705381972485412, 174.376782927562203 ], [ 166.397279883367105, 176.225395468504189 ], [ 142.981521019771293, 175.609191285531409 ], [ 151.916481640593702, 140.177450903184905 ] ] ] } },
{ "type": "Feature", "properties": { "feature_type": "building", "subtype": "no-damage", "uid": "4062c70d-e976-4f11-8d21-b479bfc0f090" }, "geometry": { "type": "Polygon", "coordinates": [ [ [ 196.900401241257498, 141.382174192157095 ], [ 219.575364370091307, 137.825317229176505 ], [ 219.575364371836201, 124.338901251521094 ], [ 227.401923301365912, 124.693912125425797 ], [ 235.404851463893607, 127.213352474203703 ], [ 235.553053835294605, 156.705624777295412 ], [ 226.068101936135889, 156.261017655925713 ], [ 227.994732790584294, 179.825195024704612 ], [ 211.544269346091397, 178.34317128813521 ], [ 210.655055105346605, 174.045302461855186 ], [ 204.726960170039405, 175.527326193439308 ], [ 204.134150677705207, 177.89856416975681 ], [ 194.35279403586901, 176.564742810633192 ], [ 196.42762726115771, 157.743041388506896 ], [ 196.872234380657602, 143.367411171103413 ], [ 196.900401241257498, 141.382174192157095 ] ] ] } },
{ "type": "Feature", "properties": { "feature_type": "building", "subtype": "no-damage", "uid": "c90c2503-9203-4097-bdaa-743058be04ac" }, "geometry": { "type": "Polygon", "coordinates": [ [ [ 240.88833927571261, 126.768745354828198 ], [ 257.783409841575008, 126.6205429803736 ], [ 257.0423979751601, 140.403363703947008 ], [ 256.153183735350126, 141.440780317152587 ], [ 256.745993230800082, 146.776065758632313 ], [ 261.784873923991711, 146.776065758632313 ], [ 263.118695285358115, 139.810554212110986 ], [ 268.750385472877895, 141.440780317152587 ], [ 271.121623448446485, 156.705624774304198 ], [ 264.156111898064694, 155.22360104072601 ], [ 263.859707151398993, 163.967541072725908 ], [ 245.186208104857201, 162.633719708617008 ], [ 245.92721997139671, 157.743041388506896 ], [ 238.66530367434919, 155.816410534556098 ], [ 240.88833927571261, 126.768745354828198 ] ] ] } },
{ "type": "Feature", "properties": { "feature_type": "building", "subtype": "minor-damage", "uid": "766bcf98-ae33-41d8-b76a-3999178af61b" }, "geometry": { "type": "Polygon", "coordinates": [ [ [ 284.60803942809008, 144.55303015876359 ], [ 302.688728981175984, 144.55303015876359 ], [ 302.244121857687787, 154.186184425526193 ], [ 302.244121860803602, 155.964612907016601 ], [ 304.467157458428005, 155.964612907016601 ], [ 303.726145591576881, 128.695376206784914 ], [ 322.992454133818001, 128.547173830336192 ], [ 321.065823279369624, 173.60069533948851 ], [ 284.608039424288791, 173.156088218118896 ], [ 284.60803942809008, 144.55303015876359 ] ] ] } },
{ "type": "Feature", "properties": { "feature_type": "building", "subtype": "minor-damage", "uid": "f7ec9b84-a64b-4f8f-a5df-b7285b90de5d" }, "geometry": { "type": "Polygon", "coordinates": [ [ [ 325.43703254893029, 130.028273942696103 ], [ 341.81001423196011, 130.028273941699098 ], [ 342.042255106715913, 133.395766631549009 ], [ 346.803193044039972, 133.047405320318688 ], [ 346.803193048339779, 135.021452755276812 ], [ 346.570952172088425, 141.640317692582187 ], [ 357.834634605255417, 141.640317692582187 ], [ 357.834634605068402, 142.337040315042799 ], [ 363.756776917044078, 144.194967317577095 ], [ 360.621525107996092, 175.083003682363199 ], [ 324.972550799979501, 175.199124124757589 ], [ 323.462985110296415, 156.155372377696409 ], [ 325.437032547310082, 155.574770192644905 ], [ 329.849609172406872, 153.832963626522712 ], [ 330.314090920921501, 147.794700878257004 ], [ 325.901514296697087, 146.865737377986903 ], [ 325.43703254893029, 130.028273942696103 ] ] ] } },
{ "type": "Feature", "properties": { "feature_type": "building", "subtype": "minor-damage", "uid": "19871b2a-54e9-444b-95a7-c654652ce8a6" }, "geometry": { "type": "Polygon", "coordinates": [ [ [ 369.483157062331316, 141.229315320743893 ], [ 383.669253813000012, 139.71613167205129 ], [ 383.101809941936324, 147.660345850619592 ], [ 385.749881339423382, 147.849493806207704 ], [ 385.749881335497491, 149.930121327646788 ], [ 392.93750369021501, 151.065009073139692 ], [ 391.613467992499579, 162.035590558066701 ], [ 387.263064990296414, 162.6030344258279 ], [ 387.073917033773682, 184.733345355258308 ], [ 371.942080500429086, 188.705452446536611 ], [ 370.239748888546728, 188.138008575784198 ], [ 367.969973408217811, 144.823126502840211 ], [ 369.483157062331316, 141.229315320743893 ] ] ] } },
{ "type": "Feature", "properties": { "feature_type": "building", "subtype": "no-damage", "uid": "d9c3d8bf-1c4c-424f-ace5-4615c0dadb91" }, "geometry": { "type": "Polygon", "coordinates": [ [ [ 385.74988133811479, 132.150213404659013 ], [ 393.504947560406208, 127.610662441631305 ], [ 405.799564745598673, 127.421514489034493 ], [ 405.988712701124427, 148.984381547712388 ], [ 388.208804772099825, 148.038641763789911 ], [ 386.506473166573585, 133.852545009936705 ], [ 385.74988133811479, 132.150213404659013 ] ] ] } },
{ "type": "Feature", "properties": { "feature_type": "building", "subtype": "no-damage", "uid": "b3693574-fa5d-40aa-9589-486a8fc8b968" }, "geometry": { "type": "Polygon", "coordinates": [ [ [ 409.204227963381186, 146.147162192953488 ], [ 410.149967746680204, 126.475774704114798 ], [ 421.498845148386806, 126.6649226577088 ], [ 420.742253323293085, 128.934698138724087 ], [ 426.038396108732911, 130.258733835816912 ], [ 423.579472672068277, 149.173529501306291 ], [ 408.825932054137127, 148.038641763789911 ], [ 409.204227963381186, 146.147162192953488 ] ] ] } },
{ "type": "Feature", "properties": { "feature_type": "building", "subtype": "no-damage", "uid": "96b3dd9f-0857-4981-b327-baee44566d18" }, "geometry": { "type": "Polygon", "coordinates": [ [ [ 421.120549236774707, 150.308417243808094 ], [ 426.984135891471112, 150.308417241813999 ], [ 428.308171587503921, 141.418463278325987 ], [ 442.872564255767088, 142.364203060254511 ], [ 445.520635647396489, 162.603034422836714 ], [ 429.064763416087317, 164.683661950258113 ], [ 428.119023633598374, 161.468146685320193 ], [ 422.633732889143175, 160.333258947803813 ], [ 421.120549236774707, 150.308417243808094 ] ] ] } },
{ "type": "Feature", "properties": { "feature_type": "building", "subtype": "no-damage", "uid": "002b516e-25cf-4318-99d5-54e8e4960608" }, "geometry": { "type": "Polygon", "coordinates": [ [ [ 451.384222302092894, 148.227789718380791 ], [ 472.190497537038596, 145.579718327186498 ], [ 469.920722055276485, 129.12384609630621 ], [ 480.513007631328378, 127.799810399213499 ], [ 489.213813639972273, 128.178106312383704 ], [ 488.835517723063276, 176.221687301949288 ], [ 453.46484982502659, 176.410835262522596 ], [ 451.195074345881778, 154.091376376507213 ], [ 451.384222302092894, 148.227789718380791 ] ] ] } },
{ "type": "Feature", "properties": { "feature_type": "building", "subtype": "no-damage", "uid": "f958d943-4465-41d2-bf22-531084a1fd47" }, "geometry": { "type": "Polygon", "coordinates": [ [ [ 494.699104381374127, 129.312994047905988 ], [ 511.911568436468372, 127.610662438640105 ], [ 513.613900048537744, 131.393621573333292 ], [ 529.502328411400526, 129.691289961076308 ], [ 530.448068190898312, 171.492988384330602 ], [ 532.52869571607539, 187.003120835276491 ], [ 514.937935743760477, 186.813972874703211 ], [ 513.424752091391952, 166.764289469703101 ], [ 495.455696206654693, 166.95343742628819 ], [ 494.699104381374127, 129.312994047905988 ] ] ] } },
{ "type": "Feature", "properties": { "feature_type": "building", "subtype": "no-damage", "uid": "d89c1969-0017-49ec-aed2-e0e4b8af0c6b" }, "geometry": { "type": "Polygon", "coordinates": [ [ [ 512.448510821370292, 222.621964539458986 ], [ 511.216102461968319, 202.595328674600893 ], [ 533.399452962610212, 202.595328672606797 ], [ 534.015657143401654, 225.394883351869112 ], [ 512.448510821370292, 222.621964539458986 ] ] ] } },
{ "type": "Feature", "properties": { "feature_type": "building", "subtype": "no-damage", "uid": "ff28e6c9-b503-43ca-a33a-72b2aac8fd2b" }, "geometry": { "type": "Polygon", "coordinates": [ [ [ 505.670264834969487, 230.940720978683402 ], [ 530.934636239008, 229.70831261772301 ], [ 534.631861322199029, 230.632618888194003 ], [ 534.323759234389399, 249.426846395083004 ], [ 507.210775287602587, 248.810642216098387 ], [ 505.670264834969487, 230.940720978683402 ] ] ] } },
{ "type": "Feature", "properties": { "feature_type": "building", "subtype": "no-damage", "uid": "cd0953f8-3d46-45eb-9568-27ef28096b47" }, "geometry": { "type": "Polygon", "coordinates": [ [ [ 450.063578146542511, 200.126324660042513 ], [ 465.032017854903017, 201.756550768075186 ], [ 466.069434470226781, 217.021395226223888 ], [ 446.654923555836888, 214.501954879440092 ], [ 450.063578146542511, 200.126324660042513 ] ] ] } },
{ "type": "Feature", "properties": { "feature_type": "building", "subtype": "no-damage", "uid": "4cf69504-3768-41f6-bd51-fd18cd286600" }, "geometry": { "type": "Polygon", "coordinates": [ [ [ 453.027625612451175, 223.690502024833108 ], [ 464.735613110044483, 222.949490160536612 ], [ 465.328422603811987, 227.691966108186307 ], [ 474.813374500540419, 228.136573228558802 ], [ 475.109779248701614, 221.615668798421808 ], [ 487.114171492773494, 223.542299653369696 ], [ 486.521361995890175, 249.922322116844498 ], [ 454.657851719984819, 247.847488888439102 ], [ 452.583018493262898, 247.847488890433198 ], [ 453.027625612451175, 223.690502024833108 ] ] ] } },
{ "type": "Feature", "properties": { "feature_type": "building", "subtype": "no-damage", "uid": "7d97dc1f-3b9f-4e12-a562-b69b51949f52" }, "geometry": { "type": "Polygon", "coordinates": [ [ [ 424.276365173045576, 204.572395862771089 ], [ 426.054793657775519, 223.394097278915098 ], [ 405.751068504323428, 224.431513897105987 ], [ 405.454663752610088, 205.758014849434289 ], [ 424.276365173045576, 204.572395862771089 ] ] ] } },
{ "type": "Feature", "properties": { "feature_type": "building", "subtype": "minor-damage", "uid": "0d0a46ee-68bc-4b20-ad9b-3e41d7348e61" }, "geometry": { "type": "Polygon", "coordinates": [ [ [ 430.649067229036689, 225.172525762399488 ], [ 432.131090962988196, 229.173989841764495 ], [ 442.801661849121103, 230.507811202882209 ], [ 443.987280834350372, 252.589964838082892 ], [ 414.34680615706651, 254.0719885696669 ], [ 414.643210906723425, 226.061740003144706 ], [ 430.649067229036689, 225.172525762399488 ] ] ] } },
{ "type": "Feature", "properties": { "feature_type": "building", "subtype": "no-damage", "uid": "5dbfc847-4db9-4bf7-af75-ed43e7ffa688" }, "geometry": { "type": "Polygon", "coordinates": [ [ [ 363.583058572812376, 198.557544567248186 ], [ 385.766409073641228, 203.487178009095487 ], [ 385.766409072332522, 221.048997157018192 ], [ 366.972181565576477, 215.503159533195088 ], [ 363.583058572812376, 198.557544567248186 ] ] ] } },
{ "type": "Feature", "properties": { "feature_type": "building", "subtype": "minor-damage", "uid": "39a7ce2e-bdc1-4bac-8d00-65b01c55f2c0" }, "geometry": { "type": "Polygon", "coordinates": [ [ [ 387.248835155367772, 225.506977521124014 ], [ 385.766409072332522, 221.048997157018192 ], [ 399.832035708914873, 225.113752503922797 ], [ 400.225260724246425, 245.168228382178512 ], [ 366.014684229817817, 253.425953744399806 ], [ 367.194359280922185, 234.157927901543388 ], [ 385.282710070048381, 235.337602952149808 ], [ 387.248835155367772, 225.506977521124014 ] ] ] } },
{ "type": "Feature", "properties": { "feature_type": "building", "subtype": "no-damage", "uid": "6154826e-9a7f-47e3-aabf-699d1ad55172" }, "geometry": { "type": "Polygon", "coordinates": [ [ [ 322.759932335093083, 222.361177387503005 ], [ 357.363733850087726, 222.361177386506 ], [ 359.723083951424087, 243.202103296172794 ], [ 323.153157351297011, 245.168228382178512 ], [ 322.759932335093083, 222.361177387503005 ] ] ] } },
{ "type": "Feature", "properties": { "feature_type": "building", "subtype": "no-damage", "uid": "f9d6540b-3c0f-4d55-b0ba-808a2211b4ff" }, "geometry": { "type": "Polygon", "coordinates": [ [ [ 319.614132195927425, 214.103452024284792 ], [ 325.905732473074806, 196.408326252227113 ], [ 342.421183197634605, 202.699926524454412 ], [ 337.309257974084176, 217.249252161893992 ], [ 319.614132195927425, 214.103452024284792 ] ] ] } },
{ "type": "Feature", "properties": { "feature_type": "building", "subtype": "no-damage", "uid": "1e1d3b79-b1a2-4f11-8e58-1751c4ef4f7a" }, "geometry": { "type": "Polygon", "coordinates": [ [ [ 278.196389829776308, 211.995355776317894 ], [ 277.580185648610779, 204.60090560856159 ], [ 285.590839997093099, 191.044413636003497 ], [ 302.844557051278287, 201.519884705662207 ], [ 296.374413157423305, 213.535866223779408 ], [ 286.515146268124511, 217.849295489633306 ], [ 278.196389829776308, 211.995355776317894 ] ] ] } },
{ "type": "Feature", "properties": { "feature_type": "building", "subtype": "minor-damage", "uid": "7878f89e-8560-405a-b692-4275d726d32d" }, "geometry": { "type": "Polygon", "coordinates": [ [ [ 280.661206550823522, 223.39513311345641 ], [ 314.552436484696386, 222.470826843982508 ], [ 315.476742757161219, 244.962279435746609 ], [ 310.855211401256213, 245.270381523244794 ], [ 310.855211400321423, 251.740525419532986 ], [ 305.001271683768209, 252.972933781490497 ], [ 304.076965412425125, 251.740525420530105 ], [ 285.282737906728528, 251.432423332034887 ], [ 280.661206550823522, 223.39513311345641 ] ] ] } },
{ "type": "Feature", "properties": { "feature_type": "building", "subtype": "no-damage", "uid": "6c3cfa75-c335-4fac-9a75-8fc928891f28" }, "geometry": { "type": "Polygon", "coordinates": [ [ [ 236.910709729645788, 214.76827458972511 ], [ 242.456547357516996, 215.384478768709698 ], [ 242.764649448629399, 211.379151593345114 ], [ 273.574858478482611, 208.298130692439798 ], [ 275.731573105924781, 254.513444233937207 ], [ 258.7859581405462, 254.513444234934298 ], [ 254.472528879243299, 253.281035870982691 ], [ 240.607934817199009, 254.513444234934298 ], [ 236.910709729645788, 214.76827458972511 ] ] ] } },
{ "type": "Feature", "properties": { "feature_type": "building", "subtype": "no-damage", "uid": "9710608b-6efb-4f65-820c-0ed51bd0a3de" }, "geometry": { "type": "Polygon", "coordinates": [ [ [ 196.549335902790091, 218.773601762098508 ], [ 202.403275618657887, 217.541193401138088 ], [ 203.327581889066209, 216.000682951682506 ], [ 192.544008730044595, 203.984701428579996 ], [ 200.862765165401697, 196.282149172328388 ], [ 214.727359228505406, 206.449518148506598 ], [ 215.035461318994606, 210.762947414360497 ], [ 234.137790916364509, 210.762947414360497 ], [ 233.52158674037139, 250.200014970077405 ], [ 195.316927542391198, 249.89191288058521 ], [ 195.933131721126188, 221.546520576502701 ], [ 196.549335902790091, 218.773601762098508 ] ] ] } },
{ "type": "Feature", "properties": { "feature_type": "building", "subtype": "no-damage", "uid": "26e275a4-c471-415b-8dd9-4d5a495430d6" }, "geometry": { "type": "Polygon", "coordinates": [ [ [ 167.766283034760903, 216.576199745666003 ], [ 188.213983933947787, 214.610074659660199 ], [ 187.034308879291302, 234.66455053691891 ], [ 153.216957399197213, 236.630675624918808 ], [ 154.003407433786094, 218.149099815467594 ], [ 153.279995898359687, 216.690002097148209 ], [ 159.483336598998505, 214.767603166315411 ], [ 168.179995898099492, 213.450002099273206 ], [ 167.766283034760903, 216.576199745666003 ] ] ] } },
{ "type": "Feature", "properties": { "feature_type": "building", "subtype": "no-damage", "uid": "04fb91eb-9858-4763-ada4-fff85bc50dee" }, "geometry": { "type": "Polygon", "coordinates": [ [ [ 176.024008395545195, 206.745574317631309 ], [ 168.552733071157007, 210.677824489642802 ], [ 168.249995897138803, 212.930002097115505 ], [ 159.371150979983213, 214.278894343454908 ], [ 153.049995896441914, 216.24000210082221 ], [ 152.037282348217389, 214.216849647444405 ], [ 150.071157260841602, 212.250724557450411 ], [ 148.105032174400492, 204.386224212430307 ], [ 161.47468276291039, 192.58947369739289 ], [ 176.024008395545195, 206.745574317631309 ] ] ] } },
{ "type": "Feature", "properties": { "feature_type": "building", "subtype": "no-damage", "uid": "1cf68b50-ebfb-48c5-a7c1-544776e0dcd9" }, "geometry": { "type": "Polygon", "coordinates": [ [ [ 140.55244296259761, 198.794248069331786 ], [ 138.193092858519293, 223.9606491672142 ], [ 125.216667293005898, 225.533549236018814 ], [ 124.430217257045996, 233.398049578047704 ], [ 109.880891619488196, 232.218374529435408 ], [ 111.847016706303194, 195.255222913524392 ], [ 127.969242411107004, 196.041672945932589 ], [ 129.148917463706994, 199.580698101740012 ], [ 140.55244296259761, 198.794248069331786 ] ] ] } },
{ "type": "Feature", "properties": { "feature_type": "building", "subtype": "no-damage", "uid": "90dd0014-5720-4723-b006-ae6fe62d6f9e" }, "geometry": { "type": "Polygon", "coordinates": [ [ [ 63.873564606413026, 191.716197759711093 ], [ 79.209340279369883, 192.50264779311641 ], [ 78.422890244095498, 198.794248070328905 ], [ 91.006090795523818, 199.973923119938206 ], [ 91.792540832044523, 207.051973431552994 ], [ 96.511241034717273, 207.445198445762998 ], [ 96.118016021317587, 230.2522494424326 ], [ 87.073840623763317, 232.218374527441313 ], [ 86.680615606437712, 249.913500304484302 ], [ 86.680615604505903, 256.205100575714425 ], [ 62.300664540164092, 256.991550614104995 ], [ 63.08711457419215, 232.611599547633688 ], [ 64.660014643868479, 223.56742415300431 ], [ 64.266789625670441, 210.984223600573387 ], [ 59.548089417389228, 205.872298377955389 ], [ 61.514214502833269, 196.434897967121998 ], [ 63.873564606413026, 191.716197759711093 ] ] ] } },
{ "type": "Feature", "properties": { "feature_type": "building", "subtype": "no-damage", "uid": "8e2ca351-cefd-46aa-a39c-9bad6854590f" }, "geometry": { "type": "Polygon", "coordinates": [ [ [ 587.89007608315444, 139.99818836865191 ], [ 604.451648782992379, 137.488859172729093 ], [ 600.938587907044393, 132.470200777892387 ], [ 620.511355641602108, 128.455274065014208 ], [ 627.035611554139109, 149.031773476366709 ], [ 619.005758123712553, 150.035505155334107 ], [ 622.016953161236415, 166.597077854805491 ], [ 594.9161978353618, 172.117602086633212 ], [ 587.89007608315444, 139.99818836865191 ] ] ] } },
{ "type": "Feature", "properties": { "feature_type": "building", "subtype": "no-damage", "uid": "eb877472-ca1f-4dae-92ae-1b8dda1e0a75" }, "geometry": { "type": "Polygon", "coordinates": [ [ [ 626.533745714406336, 118.919823114325993 ], [ 642.09158673565139, 111.893701363548701 ], [ 647.612110969408491, 129.459005738996296 ], [ 661.162488632096483, 127.953408225032007 ], [ 666.18114702580931, 143.511249242544892 ], [ 666.181147028177293, 153.548566027232994 ], [ 662.166220312995165, 153.548566027232994 ], [ 662.166220309380833, 162.080285296959801 ], [ 645.10278177093187, 165.593346172846907 ], [ 644.60091593070058, 152.042968510277603 ], [ 636.571062505882537, 155.054163549173694 ], [ 626.533745714406336, 118.919823114325993 ] ] ] } },
{ "type": "Feature", "properties": { "feature_type": "building", "subtype": "no-damage", "uid": "f0cfbf08-96a8-4ba9-bb95-be392ee3001f" }, "geometry": { "type": "Polygon", "coordinates": [ [ [ 674.71286629434826, 136.485127488776499 ], [ 666.181147026120811, 106.373177128729793 ], [ 684.248317243100587, 101.354518734890206 ], [ 690.772573155575287, 117.414225594379403 ], [ 705.828548334657171, 115.406762238438802 ], [ 714.862133444673759, 153.548566027232994 ], [ 688.263243958220301, 159.570956099042888 ], [ 683.244585562825023, 137.990725011714289 ], [ 678.225927170857062, 140.500054203648688 ], [ 674.71286629434826, 136.485127488776499 ] ] ] } },
{ "type": "Feature", "properties": { "feature_type": "building", "subtype": "no-damage", "uid": "62d9f82c-114c-45a6-8123-07858f6b236a" }, "geometry": { "type": "Polygon", "coordinates": [ [ [ 708.839743373676697, 97.339592021014951 ], [ 730.921840304592138, 90.815336108225779 ], [ 736.944230376960263, 104.365713768801001 ], [ 749.992742201909664, 99.848921216937711 ], [ 760.030058987839652, 135.481395808812096 ], [ 723.895718553381812, 147.024310115440898 ], [ 708.839743373676697, 97.339592021014951 ] ] ] } },
{ "type": "Feature", "properties": { "feature_type": "building", "subtype": "no-damage", "uid": "c0435ec5-dc77-4e91-86a1-5bde4fdf1c2b" }, "geometry": { "type": "Polygon", "coordinates": [ [ [ 755.011400593254507, 95.332128662083207 ], [ 772.074839133635237, 92.320933625181198 ], [ 774.082302494061764, 91.317201947210918 ], [ 771.071107454481421, 79.272421799602839 ], [ 785.62521679819281, 77.26495844366228 ], [ 799.677460298806409, 128.957139897019914 ], [ 769.063644096610005, 140.500054203648688 ], [ 755.011400593254507, 95.332128662083207 ] ] ] } },
{ "type": "Feature", "properties": { "feature_type": "building", "subtype": "no-damage", "uid": "37d553ed-e79a-44c9-9f76-3ca221c39c11" }, "geometry": { "type": "Polygon", "coordinates": [ [ [ 802.297194148061067, 89.832236888304621 ], [ 831.789070437074997, 82.754186578683914 ], [ 832.575520471476921, 91.405136956112159 ], [ 836.507770647225698, 92.978037026910883 ], [ 841.619695868283429, 126.795388502221499 ], [ 816.453294769477338, 127.975063553824995 ], [ 816.060069749285162, 105.954462594548801 ], [ 806.229444318949163, 104.774787541948299 ], [ 802.297194148061067, 89.832236888304621 ] ] ] } },
{ "type": "Feature", "properties": { "feature_type": "building", "subtype": "no-damage", "uid": "bb219e49-fff4-4c75-b9f8-9c427956cb46" }, "geometry": { "type": "Polygon", "coordinates": [ [ [ 843.585820952979589, 80.394836475477021 ], [ 859.708046662083234, 80.001611460269984 ], [ 857.348696558628149, 69.777761010048906 ], [ 876.616722399668788, 66.631960872439706 ], [ 882.515097658618288, 116.964763072192795 ], [ 846.731621091148327, 119.324113177393798 ], [ 843.585820952979589, 80.394836475477021 ] ] ] } },
{ "type": "Feature", "properties": { "feature_type": "building", "subtype": "no-damage", "uid": "439ee0e0-2729-4d80-969d-42d57369a984" }, "geometry": { "type": "Polygon", "coordinates": [ [ [ 884.481222745682544, 87.472886782106528 ], [ 901.389898484327432, 87.866111799307689 ], [ 899.423773397013861, 60.340360597221299 ], [ 919.478249277192617, 59.947135580020152 ], [ 922.230824394047431, 59.947135580020152 ], [ 922.624049413678677, 114.605412970979998 ], [ 886.447347830378703, 113.818962933586505 ], [ 884.481222745682544, 87.472886782106528 ] ] ] } },
{ "type": "Feature", "properties": { "feature_type": "building", "subtype": "no-damage", "uid": "b569c451-b080-415e-abe0-ec367614c22f" }, "geometry": { "type": "Polygon", "coordinates": [ [ [ 924.590174500992248, 76.462586302468452 ], [ 958.800750995732415, 76.855811316678427 ], [ 959.587201032689336, 102.022212415557902 ], [ 959.587201030508254, 105.168012554164207 ], [ 970.990726529461199, 108.707037711965697 ], [ 966.665251340063492, 130.727638675230111 ], [ 951.722700685491645, 127.9750635518309 ], [ 954.868500822787837, 112.246062865778995 ], [ 922.624049413678677, 114.605412970979998 ], [ 924.590174500992248, 76.462586302468452 ] ] ] } },
{ "type": "Feature", "properties": { "feature_type": "building", "subtype": "no-damage", "uid": "02b3b959-aa15-4a90-b253-afd8367f998f" }, "geometry": { "type": "Polygon", "coordinates": [ [ [ 974.529751685142401, 113.8189629325895 ], [ 983.180702064623233, 107.920587677563404 ], [ 977.675551820818441, 102.022212417551998 ], [ 982.787477045552805, 98.089962247534643 ], [ 970.597501511076189, 88.259336816508835 ], [ 977.282326807169511, 78.428711386480089 ], [ 980.821351959797198, 78.428711386480089 ], [ 984.753602131370712, 76.069361284270244 ], [ 983.180702063003082, 73.710011181063336 ], [ 999.696152787002006, 57.194560456620913 ], [ 1022.457680803914968, 73.030217832414749 ], [ 1022.45762459349703, 100.298234169883798 ], [ 1019.75062866150995, 101.628987400350894 ], [ 1009.526778216466028, 96.123837158537711 ], [ 991.438427423351186, 112.639287882980099 ], [ 998.123252716951811, 120.1105632078079 ], [ 983.180702061943634, 128.761513587230212 ], [ 974.529751685142401, 113.8189629325895 ] ] ] } },
{ "type": "Feature", "properties": { "feature_type": "building", "subtype": "no-damage", "uid": "a0799055-f11a-496e-90b0-6a5123cb9ffa" }, "geometry": { "type": "Polygon", "coordinates": [ [ [ 1022.457713825730025, 57.760303499473792 ], [ 1008.347103161871019, 57.981010492020268 ], [ 1007.953878149966954, 52.869085268405328 ], [ 1007.560653131208028, 15.11948361809198 ], [ 1022.457812611870963, 14.822947257025319 ], [ 1022.457713825730025, 57.760303499473792 ] ] ] } },
{ "type": "Feature", "properties": { "feature_type": "building", "subtype": "no-damage", "uid": "fae89170-9ff8-4358-b8ef-505d2906aba0" }, "geometry": { "type": "Polygon", "coordinates": [ [ [ 1004.365074141000036, 143.388687187676112 ], [ 1011.124443530139956, 155.458989668559013 ], [ 996.398674499996901, 158.838674364283008 ], [ 997.122892648261313, 166.322261906737793 ], [ 999.054141046769587, 184.186309582711914 ], [ 991.811959555899875, 190.462866874485997 ], [ 972.25806953344329, 187.807400327774388 ], [ 971.533851386362926, 166.322261904743613 ], [ 986.25962041388857, 164.391013508041709 ], [ 984.08696596741288, 142.423062989325103 ], [ 1004.365074141000036, 143.388687187676112 ] ] ] } },
{ "type": "Feature", "properties": { "feature_type": "building", "subtype": "no-damage", "uid": "60705f46-11e2-4003-a4bd-d2b74eccdcc8" }, "geometry": { "type": "Polygon", "coordinates": [ [ [ 928.080762439462433, 133.491039152833594 ], [ 944.496373817404333, 139.284784341942498 ], [ 942.806531469730089, 146.526965832067503 ], [ 962.601827544703156, 149.182432378779112 ], [ 956.566676304575935, 164.149607458703201 ], [ 953.186991607295454, 167.046480055750294 ], [ 957.049488401944018, 184.910527730727409 ], [ 928.563574540071045, 189.497242678129112 ], [ 931.943259233674894, 174.530067594216689 ], [ 933.874507632307768, 157.631644118587701 ], [ 933.874507635672899, 156.424613868904089 ], [ 922.287017246243295, 150.872274728136688 ], [ 928.080762439462433, 133.491039152833594 ] ] ] } },
{ "type": "Feature", "properties": { "feature_type": "building", "subtype": "no-damage", "uid": "f35c4780-ba46-400b-8c63-8493519ad9ac" }, "geometry": { "type": "Polygon", "coordinates": [ [ [ 909.733902663261574, 158.114456216267598 ], [ 910.216714763932487, 170.184758702135809 ], [ 922.045611196593313, 170.667570801809887 ], [ 920.355768849666788, 192.394115273182109 ], [ 888.248764242732932, 192.394115275176205 ], [ 892.111261035449616, 175.737097846891487 ], [ 891.199995930249884, 174.540002078688786 ], [ 895.724036151436962, 172.278970386956701 ], [ 896.943118570385423, 161.551045099357907 ], [ 898.769995931717858, 156.440002081008203 ], [ 909.733902663261574, 158.114456216267598 ] ] ] } },
{ "type": "Feature", "properties": { "feature_type": "building", "subtype": "no-damage", "uid": "0c0afd8f-eb1f-4d73-bf4d-f601c2fcab13" }, "geometry": { "type": "Polygon", "coordinates": [ [ [ 897.180788079843637, 141.698844841309693 ], [ 895.490945734661977, 155.941801773218288 ], [ 898.259995928470516, 156.360002082747002 ], [ 896.452833387835426, 161.437236728613613 ], [ 895.25785531520728, 171.953043812712991 ], [ 890.889995931317344, 174.140002081400695 ], [ 888.972982389065464, 171.63319499716971 ], [ 888.972982391869778, 158.355862268597292 ], [ 879.07533435291873, 159.080080418606798 ], [ 880.523770649883772, 140.250408545278788 ], [ 897.180788079843637, 141.698844841309693 ] ] ] } },
{ "type": "Feature", "properties": { "feature_type": "building", "subtype": "no-damage", "uid": "2dbf35b5-f842-4e60-98b7-f31b802312a6" }, "geometry": { "type": "Polygon", "coordinates": [ [ [ 836.829275656386812, 149.906650533774013 ], [ 862.659722973294265, 150.3894626294597 ], [ 862.41831692451683, 153.527741274848211 ], [ 867.729250021364919, 152.803523124838591 ], [ 869.901904465908842, 172.116007101829013 ], [ 860.00425643001131, 174.771473647543388 ], [ 861.211286677388671, 190.462866877477211 ], [ 860.969880627427187, 193.601145522865608 ], [ 837.55349380913799, 194.083957621542595 ], [ 836.829275656386812, 149.906650533774013 ] ] ] } },
{ "type": "Feature", "properties": { "feature_type": "building", "subtype": "no-damage", "uid": "d059f99c-78a2-44af-b20f-22de282bbfc0" }, "geometry": { "type": "Polygon", "coordinates": [ [ [ 790.23790806864838, 147.975402135077786 ], [ 806.894925496240148, 147.733996084742301 ], [ 805.929301296581002, 167.046480058741508 ], [ 805.687895252227918, 166.805074010400006 ], [ 788.065253620677026, 166.563667960064492 ], [ 790.23790806864838, 147.975402135077786 ] ] ] } },
{ "type": "Feature", "properties": { "feature_type": "building", "subtype": "no-damage", "uid": "8cee0661-8c63-4d14-a732-9ae94fa9c9cb" }, "geometry": { "type": "Polygon", "coordinates": [ [ [ 742.439510232410839, 160.287110670284591 ], [ 755.475436913321573, 157.148832021904894 ], [ 760.062151858228617, 172.116007103823108 ], [ 746.784819125175318, 175.495691796556002 ], [ 742.439510232410839, 160.287110670284591 ] ] ] } },
{ "type": "Feature", "properties": { "feature_type": "building", "subtype": "no-damage", "uid": "8ca68973-947a-4673-b518-ee2fc32d8b3b" }, "geometry": { "type": "Polygon", "coordinates": [ [ [ 758.372309508497892, 178.3925643946001 ], [ 772.615266442394386, 174.771473647543388 ], [ 773.339484592403551, 178.633970443938608 ], [ 786.134005223477402, 175.254285748214613 ], [ 791.927750418815322, 193.11833342219461 ], [ 764.890272850978477, 201.56754516599139 ], [ 758.372309508497892, 178.3925643946001 ] ] ] } },
{ "type": "Feature", "properties": { "feature_type": "building", "subtype": "no-damage", "uid": "3e2ec073-2d6c-4ca9-824b-03bcafe50910" }, "geometry": { "type": "Polygon", "coordinates": [ [ [ 711.056723771123984, 192.152709225837697 ], [ 738.335607385432695, 185.634745887716292 ], [ 743.163728380114321, 201.084733061332088 ], [ 716.367656865479489, 208.809726654122386 ], [ 711.056723771123984, 192.152709225837697 ] ] ] } },
{ "type": "Feature", "properties": { "feature_type": "building", "subtype": "no-damage", "uid": "f645dd0f-2b9a-4e53-a682-659f23d72bdb" }, "geometry": { "type": "Polygon", "coordinates": [ [ [ 705.745790678201843, 175.012879701867206 ], [ 713.953596369852335, 176.702722046239586 ], [ 711.298129822207216, 187.807400336748003 ], [ 702.848918083150124, 187.56599428342119 ], [ 705.745790678201843, 175.012879701867206 ] ] ] } },
{ "type": "Feature", "properties": { "feature_type": "building", "subtype": "no-damage", "uid": "ccc623f7-da91-447f-8ccb-c83bac42391a" }, "geometry": { "type": "Polygon", "coordinates": [ [ [ 832.210057588796644, 166.712484310219111 ], [ 834.382712035895452, 186.024968286212413 ], [ 821.588191404946315, 189.404652979942313 ], [ 821.588191404634699, 198.095270768092291 ], [ 807.828046571409118, 200.750737315800905 ], [ 806.379610273447042, 189.404652978945194 ], [ 801.310083232916668, 189.646059032271893 ], [ 798.896022732241931, 173.713259752002699 ], [ 832.210057588796644, 166.712484310219111 ] ] ] } },
{ "type": "Feature", "properties": { "feature_type": "building", "subtype": "no-damage", "uid": "13458cfc-839e-4058-869a-b4978419bb86" }, "geometry": { "type": "Polygon", "coordinates": [ [ [ 667.497476350558941, 178.012141502338011 ], [ 680.774809082989123, 180.426201999711111 ], [ 676.429500190162344, 197.807437574017086 ], [ 663.393573505574977, 194.910564976969994 ], [ 667.497476350558941, 178.012141502338011 ] ] ] } },
{ "type": "Feature", "properties": { "feature_type": "building", "subtype": "no-damage", "uid": "927fb784-5e78-4a99-8b28-6027f358843a" }, "geometry": { "type": "Polygon", "coordinates": [ [ [ 673.774033642392624, 216.154297348668194 ], [ 695.017766015203051, 209.153521909875707 ], [ 699.363074909213879, 221.70663649242681 ], [ 680.774809083861555, 227.741787733865294 ], [ 673.774033642392624, 216.154297348668194 ] ] ] } },
{ "type": "Feature", "properties": { "feature_type": "building", "subtype": "no-damage", "uid": "dfd9107d-1b3e-4f32-aeaf-71c674717c4f" }, "geometry": { "type": "Polygon", "coordinates": [ [ [ 632.735005195107533, 216.395703399003708 ], [ 664.359197708287638, 208.187897710527693 ], [ 669.670130797159345, 227.983193785197898 ], [ 662.669355361174212, 231.362878478927797 ], [ 661.220919063212136, 224.362103038141299 ], [ 647.943586326482205, 228.224599831545191 ], [ 650.357646823230994, 234.742563177643092 ], [ 637.080314091050127, 236.190999474671003 ], [ 632.735005195107533, 216.395703399003708 ] ] ] } },
{ "type": "Feature", "properties": { "feature_type": "building", "subtype": "no-damage", "uid": "b42e71f8-59cb-47de-b88c-c79769665377" }, "geometry": { "type": "Polygon", "coordinates": [ [ [ 584.936607357561343, 201.187122271735205 ], [ 600.628000589606927, 199.980092025042808 ], [ 600.386594538710597, 206.256649312828614 ], [ 605.456121580611921, 206.256649312828614 ], [ 605.214715532395189, 224.362103039138304 ], [ 585.902231556721972, 225.086321188150805 ], [ 584.936607357561343, 201.187122271735205 ] ] ] } },
{ "type": "Feature", "properties": { "feature_type": "building", "subtype": "no-damage", "uid": "e63704db-c2e5-42c1-9e84-c9aa08fb60a2" }, "geometry": { "type": "Polygon", "coordinates": [ [ [ 590.730352551029796, 231.362878479924888 ], [ 613.663927270953764, 229.190224031890295 ], [ 613.422521221802413, 222.913666741113303 ], [ 625.734229755632668, 220.982418346405495 ], [ 628.631102350746687, 242.950368866119106 ], [ 594.351443297274727, 250.916768505256613 ], [ 590.730352551029796, 231.362878479924888 ] ] ] } },
{ "type": "Feature", "properties": { "feature_type": "building", "subtype": "no-damage", "uid": "43291ef1-a8f0-4fc2-b8ae-938ab08857ab" }, "geometry": { "type": "Polygon", "coordinates": [ [ [ 66.765458852458778, 321.037760303465518 ], [ 73.543704839794231, 319.497249851018694 ], [ 85.867788451947391, 323.194474937888003 ], [ 84.635380092233902, 331.821333462616508 ], [ 102.813403416952099, 335.210456455008227 ], [ 105.278220139993394, 348.458846338074011 ], [ 102.1971992390895, 369.717890566883682 ], [ 89.25691144452459, 369.409788475397193 ], [ 87.716400994072615, 372.798911470780183 ], [ 67.689765123054002, 374.647524011722226 ], [ 68.614071393213024, 367.561175934455207 ], [ 65.533050490751165, 351.847969330465673 ], [ 66.149254672788985, 331.513231371130018 ], [ 63.99254003942675, 326.583597928285712 ], [ 66.765458852458778, 321.037760303465518 ] ] ] } },
{ "type": "Feature", "properties": { "feature_type": "building", "subtype": "no-damage", "uid": "7b4650ae-a508-4b31-9ca4-dabbb21f040c" }, "geometry": { "type": "Polygon", "coordinates": [ [ [ 107.434934770800695, 368.177380115433891 ], [ 108.359241041707506, 348.458846336079887 ], [ 107.434934774539698, 320.729658210981995 ], [ 124.688651827104707, 321.345862392957827 ], [ 126.537264369229902, 333.053741821582719 ], [ 149.028716959426191, 334.594252274029486 ], [ 144.099083514776908, 345.685927524666909 ], [ 146.255798147142002, 363.863950852571179 ], [ 107.434934770800695, 368.177380115433891 ] ] ] } },
{ "type": "Feature", "properties": { "feature_type": "building", "subtype": "no-damage", "uid": "b1db943c-417d-4738-a587-2df42970b7d1" }, "geometry": { "type": "Polygon", "coordinates": [ [ [ 150.569227412744794, 372.798911468786116 ], [ 151.801635772333611, 352.156071419957982 ], [ 149.028716959426191, 334.594252274029486 ], [ 166.59053610646879, 335.518558543503389 ], [ 166.898638197518807, 320.421556119495619 ], [ 184.768559433741899, 319.805351939513912 ], [ 183.844253164455409, 367.869278022950482 ], [ 167.206740289005097, 366.020665481011406 ], [ 166.590536108088997, 372.798911467789026 ], [ 150.569227412744794, 372.798911468786116 ] ] ] } },
{ "type": "Feature", "properties": { "feature_type": "building", "subtype": "no-damage", "uid": "2610ea83-f94c-449e-999e-1cc22b83c724" }, "geometry": { "type": "Polygon", "coordinates": [ [ [ 193.087315875455289, 320.729658208987928 ], [ 212.497747559575402, 324.118781204370805 ], [ 213.730155922404691, 336.75096690446378 ], [ 230.367668798041905, 336.442864812977291 ], [ 230.983872979207291, 373.107013557281277 ], [ 194.935928414464712, 372.798911465794788 ], [ 194.6278263243494, 355.545194411352725 ], [ 192.779213783906698, 349.999356789523688 ], [ 193.087315875455289, 320.729658208987928 ] ] ] } },
{ "type": "Feature", "properties": { "feature_type": "building", "subtype": "no-damage", "uid": "fdff1f96-f778-4ad4-ab8d-ac1f3cf86e54" }, "geometry": { "type": "Polygon", "coordinates": [ [ [ 256.24824438436741, 333.053741818591504 ], [ 256.864448562604025, 318.572943575562419 ], [ 272.885757259879881, 321.345862388969522 ], [ 272.577655166835825, 372.798911465794788 ], [ 236.221608513473512, 372.490809375305503 ], [ 236.837812694077996, 334.902354362524704 ], [ 256.24824438436741, 333.053741818591504 ] ] ] } },
{ "type": "Feature", "properties": { "feature_type": "building", "subtype": "no-damage", "uid": "b1186ee0-4f9b-461c-9596-57228d7bc6c5" }, "geometry": { "type": "Polygon", "coordinates": [ [ [ 295.37720984964011, 317.34053521360488 ], [ 301.847353744990698, 338.599579443411585 ], [ 310.782314363008823, 339.523885715876816 ], [ 310.474212275261493, 370.950298923855826 ], [ 298.458230752226598, 370.334094744871209 ], [ 298.766332842528925, 374.03131982675518 ], [ 275.966778160970875, 374.339421917244579 ], [ 279.355901152239426, 317.340535214602028 ], [ 295.37720984964011, 317.34053521360488 ] ] ] } },
{ "type": "Feature", "properties": { "feature_type": "building", "subtype": "no-damage", "uid": "334a3482-91d4-4ccd-89e8-855e4cc017fd" }, "geometry": { "type": "Polygon", "coordinates": [ [ [ 337.895298308424572, 322.578270744944575 ], [ 356.68952581667628, 321.037760297483089 ], [ 359.462444630830021, 334.286150176560682 ], [ 357.921934178695381, 361.091032031187581 ], [ 334.814277408517682, 361.091032033181705 ], [ 334.814277406835174, 380.501463720052186 ], [ 319.101070800546893, 380.501463721049277 ], [ 318.484866619506192, 336.134762718499815 ], [ 338.819604580702389, 333.05374181560029 ], [ 337.895298308424572, 322.578270744944575 ] ] ] } },
{ "type": "Feature", "properties": { "feature_type": "building", "subtype": "no-damage", "uid": "e0922dfe-b9cd-45c7-a1cf-587f96a0bb5d" }, "geometry": { "type": "Polygon", "coordinates": [ [ [ 399.804941863477779, 334.959612101025527 ], [ 402.460408408007083, 373.343174001679472 ], [ 391.597136171889588, 373.101767949349778 ], [ 384.469995907524208, 372.45000209262588 ], [ 382.433114942389807, 366.544274175859528 ], [ 382.916085004321019, 341.671315904255493 ], [ 380.513170624845372, 335.904321382693183 ], [ 381.319995908068279, 332.560002095087384 ], [ 399.804941863477779, 334.959612101025527 ] ] ] } },
{ "type": "Feature", "properties": { "feature_type": "building", "subtype": "no-damage", "uid": "09a097a0-44ac-43b3-a0ea-4aa3dfce688d" }, "geometry": { "type": "Polygon", "coordinates": [ [ [ 374.69655768285179, 338.589296796924089 ], [ 381.094139664452825, 338.589296796924089 ], [ 382.414139662743992, 341.766647085676993 ], [ 381.931485528505789, 366.623335044603209 ], [ 383.919995908386795, 372.400002094585091 ], [ 365.28387676060521, 370.687707455964983 ], [ 365.76668885572991, 356.927562624727386 ], [ 363.111222309954314, 355.237720276366815 ], [ 362.387004161315986, 340.029139145110094 ], [ 362.38700415950882, 338.38000209496289 ], [ 374.69655768285179, 338.589296796924089 ] ] ] } },
{ "type": "Feature", "properties": { "feature_type": "building", "subtype": "no-damage", "uid": "712c18f7-899e-4930-83dc-8bbe14263f77" }, "geometry": { "type": "Polygon", "coordinates": [ [ [ 381.039995906988111, 331.5600020933922 ], [ 379.988933054704376, 335.946151221045113 ], [ 380.884139664218992, 338.089296796575013 ], [ 374.700867705758185, 338.089296796575013 ], [ 362.387004159695778, 337.880002092619691 ], [ 362.387004161565187, 336.649454451380223 ], [ 363.352628359853497, 321.440873320123387 ], [ 378.078397390557313, 320.716655169116791 ], [ 379.768239737359181, 324.33774591717048 ], [ 381.039995906988111, 331.5600020933922 ] ] ] } },
{ "type": "Feature", "properties": { "feature_type": "building", "subtype": "no-damage", "uid": "272ac27f-324e-48b6-a024-7a849015e87f" }, "geometry": { "type": "Polygon", "coordinates": [ [ [ 411.39243224860752, 335.442424199702486 ], [ 424.428358931636978, 336.408048401044709 ], [ 421.531486335962086, 324.096339861849685 ], [ 438.671315862604615, 320.958061218455327 ], [ 439.395534011990719, 334.959612101025527 ], [ 441.8095945071816, 335.442424198705396 ], [ 441.809594507867075, 344.133041987852607 ], [ 443.016624756179226, 344.615854086529509 ], [ 445.43068525367579, 344.615854086529509 ], [ 443.982248955962973, 375.274422394393184 ], [ 406.805717305009125, 375.033016348045919 ], [ 404.391656807263189, 361.031465464478572 ], [ 419.358831886121322, 360.790059415140092 ], [ 419.841643985919802, 354.513502124363072 ], [ 407.529935452400991, 353.78928397634769 ], [ 411.39243224860752, 335.442424199702486 ] ] ] } },
{ "type": "Feature", "properties": { "feature_type": "building", "subtype": "no-damage", "uid": "20d2c66e-55c2-4f3e-b345-b32787fc25e7" }, "geometry": { "type": "Polygon", "coordinates": [ [ [ 448.439795000819515, 340.510795998133517 ], [ 463.294903114755527, 341.728427811500524 ], [ 467.619995910825025, 341.370002090669175 ], [ 467.881447873988293, 342.684605685839301 ], [ 482.365810854668325, 343.167417788504508 ], [ 485.262683451527096, 369.480677203290213 ], [ 446.637715503358891, 369.23927115195761 ], [ 446.879121551451021, 338.580702845091025 ], [ 446.909995910122518, 338.57000209270268 ], [ 448.439795000819515, 340.510795998133517 ] ] ] } },
{ "type": "Feature", "properties": { "feature_type": "building", "subtype": "no-damage", "uid": "65d7f30d-338b-4251-b786-b9061835b898" }, "geometry": { "type": "Polygon", "coordinates": [ [ [ 464.018951078218095, 323.130715665492914 ], [ 467.519995912936281, 340.87000209131719 ], [ 463.294562744964878, 341.226723066793227 ], [ 448.698132796807784, 340.030294385778404 ], [ 447.419995910752391, 338.400002092783382 ], [ 448.327557850223116, 338.097890745416976 ], [ 446.154903402812579, 324.33774591717048 ], [ 447.844745748679827, 321.923685418800403 ], [ 457.259581690387279, 321.6822793674678 ], [ 464.018951078218095, 323.130715665492914 ] ] ] } },
{ "type": "Feature", "properties": { "feature_type": "building", "subtype": "no-damage", "uid": "34f6f022-7327-4424-b02b-86be012d747e" }, "geometry": { "type": "Polygon", "coordinates": [ [ [ 487.918149998673698, 341.236169387814186 ], [ 492.263458894242376, 338.580702845091025 ], [ 490.090804445585604, 334.235393949021784 ], [ 504.333761376366283, 333.752581849347791 ], [ 506.747821873551288, 382.033791787835412 ], [ 492.504864941898177, 381.068167589484403 ], [ 492.263458893058385, 366.825210653587476 ], [ 488.883774200389325, 364.169744108870077 ], [ 488.400962098534478, 344.133041987852607 ], [ 487.918149998673698, 341.236169387814186 ] ] ] } },
{ "type": "Feature", "properties": { "feature_type": "building", "subtype": "no-damage", "uid": "bee05ca9-858b-4eca-aa07-05d7a0c53c58" }, "geometry": { "type": "Polygon", "coordinates": [ [ [ 532.619688877593603, 324.777655498529725 ], [ 550.777892718354906, 323.64276776201018 ], [ 563.450805813165402, 322.886175933675702 ], [ 564.018249683792874, 321.562140236582877 ], [ 572.34075977658722, 321.183844322415723 ], [ 574.421387303072947, 363.17469069926392 ], [ 574.421387301452683, 368.470833488632081 ], [ 567.990356776191106, 383.602670022419488 ], [ 550.021300888899077, 374.523568100352293 ], [ 560.424438507805121, 358.445991781645318 ], [ 553.425964108301741, 357.121956089537775 ], [ 531.484801135777843, 358.445991784636419 ], [ 533.376280704494548, 337.450568595713776 ], [ 532.619688877593603, 324.777655498529725 ] ] ] } },
{ "type": "Feature", "properties": { "feature_type": "building", "subtype": "no-damage", "uid": "ae0d9b08-2f08-4df1-ae71-935ef5b75cbb" }, "geometry": { "type": "Polygon", "coordinates": [ [ [ 577.826050518985994, 336.315680856203187 ], [ 596.362550274475211, 333.100165591265181 ], [ 595.795106403224509, 320.048956581907987 ], [ 615.088197985240868, 318.535772927233097 ], [ 616.979677552711223, 328.749762590805005 ], [ 615.088197987048034, 331.019538068829092 ], [ 617.168825509171597, 371.308052835414514 ], [ 605.063356280813423, 370.929756925235381 ], [ 605.252504237710014, 374.901864014519617 ], [ 587.661744266516735, 377.928231318884173 ], [ 577.258606650664206, 379.630562929147118 ], [ 576.502014826567461, 361.472359089998122 ], [ 576.312866869546269, 347.475410296718223 ], [ 578.58264234619844, 346.529670513792723 ], [ 577.826050523535059, 338.585456335224421 ], [ 577.826050518985994, 336.315680856203187 ] ] ] } },
{ "type": "Feature", "properties": { "feature_type": "building", "subtype": "no-damage", "uid": "47f9b1af-10cf-4f6d-89f5-4f562638ae81" }, "geometry": { "type": "Polygon", "coordinates": [ [ [ 617.547121421095312, 319.859808625322898 ], [ 644.973575142249729, 313.996221969190685 ], [ 649.134830185437522, 326.101691193628312 ], [ 638.35339665791048, 327.993170759479312 ], [ 640.24487622220272, 334.613349242949027 ], [ 658.970523933653908, 331.776129892178403 ], [ 665.590702415874375, 351.636665345578706 ], [ 655.376712756606707, 353.71729286402649 ], [ 656.133304583507652, 358.256843827054183 ], [ 625.869631515572109, 364.877022307532798 ], [ 617.547121421095312, 319.859808625322898 ] ] ] } },
{ "type": "Feature", "properties": { "feature_type": "building", "subtype": "no-damage", "uid": "4ee5c5f5-ada5-4085-b205-12e9312ec520" }, "geometry": { "type": "Polygon", "coordinates": [ [ [ 686.360411159375417, 320.235654268095175 ], [ 682.015102265551604, 306.958321537528718 ], [ 698.913525742045636, 303.578636842801814 ], [ 707.121331436064111, 331.823144657280579 ], [ 692.395562402680753, 334.961423299677904 ], [ 699.154931793876585, 363.930149258183974 ], [ 675.255732874480373, 368.275458157244316 ], [ 667.772145332402829, 324.580963165161393 ], [ 686.360411159375417, 320.235654268095175 ] ] ] } },
{ "type": "Feature", "properties": { "feature_type": "building", "subtype": "no-damage", "uid": "f377824b-e9b4-4371-8e2e-21bb0ec93a33" }, "geometry": { "type": "Polygon", "coordinates": [ [ [ 706.879925382488295, 322.408308717126886 ], [ 723.536942810765595, 317.821593772716312 ], [ 724.985379107979838, 322.166902668785383 ], [ 734.400215045886057, 319.994248218756809 ], [ 724.502567013291355, 298.026297699043084 ], [ 740.193960239977628, 293.198176705294088 ], [ 757.575195817578788, 349.445786276936815 ], [ 746.470517531561995, 353.066877024990617 ], [ 741.642396538189018, 344.134853186504927 ], [ 731.986154553810934, 347.273131833887589 ], [ 735.124433195833035, 354.756719372353984 ], [ 721.847100465646236, 359.102028268423226 ], [ 706.879925382488295, 322.408308717126886 ] ] ] } },
{ "type": "Feature", "properties": { "feature_type": "building", "subtype": "no-damage", "uid": "478fc7bf-70c4-4686-90ea-bb8f5bf57b87" }, "geometry": { "type": "Polygon", "coordinates": [ [ [ 795.717351669625259, 333.995799097338704 ], [ 781.957206836274963, 339.548138244088477 ], [ 776.887679791133223, 325.78799341185379 ], [ 759.989256314140675, 333.512986999658779 ], [ 752.439995922273852, 312.050002085354777 ], [ 756.991413381841312, 307.653089879977585 ], [ 766.716777711268946, 303.519810039115328 ], [ 768.479995925712956, 297.030002087032699 ], [ 778.818928188021232, 293.922394852312379 ], [ 795.717351669625259, 333.995799097338704 ] ] ] } },
{ "type": "Feature", "properties": { "feature_type": "building", "subtype": "no-damage", "uid": "7fd57cf6-8d45-4753-aa04-e7adbe1f2b92" }, "geometry": { "type": "Polygon", "coordinates": [ [ [ 766.748625705897325, 297.543485598372115 ], [ 767.909995924891518, 297.190002084552077 ], [ 766.297661602347489, 303.154651542825889 ], [ 756.710541954481755, 307.229177393430916 ], [ 752.249995924409518, 311.540002082605781 ], [ 751.298638524062653, 311.303630429609598 ], [ 744.297863083466041, 291.508334357930607 ], [ 759.506444215650845, 284.266152868802578 ], [ 766.748625705897325, 297.543485598372115 ] ] ] } },
{ "type": "Feature", "properties": { "feature_type": "building", "subtype": "no-damage", "uid": "0bcefc5f-8cad-4740-beeb-de65ec17590a" }, "geometry": { "type": "Polygon", "coordinates": [ [ [ 802.549163309269943, 272.849493549490319 ], [ 811.722593199894277, 292.886195673499003 ], [ 825.241331979793244, 290.230729127784514 ], [ 834.656167917512562, 315.81977039455478 ], [ 800.135102812645755, 327.407260777757813 ], [ 784.202303536621116, 278.401832694246025 ], [ 802.549163309269943, 272.849493549490319 ] ] ] } },
{ "type": "Feature", "properties": { "feature_type": "building", "subtype": "no-damage", "uid": "8466e345-fc4d-465e-9450-388bd2566933" }, "geometry": { "type": "Polygon", "coordinates": [ [ [ 851.55459139737161, 268.262778605079689 ], [ 870.625669321400778, 263.676063662663182 ], [ 872.556917718226487, 281.781517387975782 ], [ 868.453014875485906, 283.712765783680823 ], [ 869.177233025806686, 287.575262580075901 ], [ 876.902226612985032, 288.29948073108261 ], [ 882.937377858845366, 317.026800639253111 ], [ 843.588191757489767, 322.337733735667314 ], [ 836.346010269860585, 282.747141585329814 ], [ 853.003027697763969, 280.574487138292284 ], [ 851.55459139737161, 268.262778605079689 ] ] ] } },
{ "type": "Feature", "properties": { "feature_type": "building", "subtype": "no-damage", "uid": "a005e3f8-f761-4725-b24a-b15ff4a83e7e" }, "geometry": { "type": "Polygon", "coordinates": [ [ [ 904.422516277442242, 256.433882170544109 ], [ 917.941255060207823, 257.399506369892094 ], [ 916.010006662571982, 276.229178244217223 ], [ 918.665473208347635, 276.229178244217223 ], [ 916.734224813391279, 312.922897791525315 ], [ 901.767049733473755, 314.85414619121849 ], [ 901.767049732414421, 317.992424838601096 ], [ 890.903777494178144, 319.440861137623187 ], [ 889.213935148124051, 312.44008569384539 ], [ 886.558468602909215, 309.543213099789511 ], [ 885.110032305134155, 299.162752964276024 ], [ 881.97175365582109, 296.748692466902924 ], [ 881.006129458716828, 264.641687859020124 ], [ 896.697522688082813, 263.193251561992213 ], [ 902.974079982159765, 263.193251561992213 ], [ 903.698298128305396, 258.365130569240193 ], [ 904.422516277442242, 256.433882170544109 ] ] ] } },
{ "type": "Feature", "properties": { "feature_type": "building", "subtype": "no-damage", "uid": "ce831901-9357-4328-91f8-b8ee91e59d28" }, "geometry": { "type": "Polygon", "coordinates": [ [ [ 946.473055086323484, 282.508767240983275 ], [ 963.159995932249217, 282.990002080620684 ], [ 963.084186351230528, 291.920571469165623 ], [ 961.394344004864934, 306.887746551083922 ], [ 950.289665719533673, 308.33618285110299 ], [ 949.806853622726408, 314.129928042206018 ], [ 941.116235832585971, 313.647115940537788 ], [ 940.633423733473023, 323.54476397837152 ], [ 925.424842600540501, 321.854921632005016 ], [ 924.459218401442172, 277.194802441571085 ], [ 944.819995935244151, 276.040002078759699 ], [ 946.473055086323484, 282.508767240983275 ] ] ] } },
{ "type": "Feature", "properties": { "feature_type": "building", "subtype": "no-damage", "uid": "2d3944e0-54a3-45b4-b7c8-ef14b86932d1" }, "geometry": { "type": "Polygon", "coordinates": [ [ [ 963.325592399821176, 264.883093908358603 ], [ 963.169995934711437, 282.490002080271609 ], [ 946.864094862497268, 282.019891729331221 ], [ 945.32999593151203, 276.010002078539287 ], [ 945.702950774626515, 275.987772191887586 ], [ 944.254514476477539, 265.365906005041381 ], [ 946.668574973351042, 264.40028180868461 ], [ 963.325592399821176, 264.883093908358603 ] ] ] } },
{ "type": "Feature", "properties": { "feature_type": "building", "subtype": "no-damage", "uid": "1c594053-2ea0-468a-a870-14571fd688a8" }, "geometry": { "type": "Polygon", "coordinates": [ [ [ 993.501348613917571, 261.262003163296072 ], [ 994.466972813140615, 264.88309390935558 ], [ 994.708378864161432, 267.055748352404919 ], [ 1004.123214798827007, 266.572936254724993 ], [ 1003.640402702581014, 279.126050838273216 ], [ 1005.088838997114976, 290.472135172137712 ], [ 970.084961793883508, 288.782292823777084 ], [ 970.326367845963887, 263.434657612327726 ], [ 981.672452178950948, 260.296378963947973 ], [ 993.501348613917571, 261.262003163296072 ] ] ] } },
{ "type": "Feature", "properties": { "feature_type": "building", "subtype": "no-damage", "uid": "4b9ed271-1d10-43d3-919a-e318f81d1a54" }, "geometry": { "type": "Polygon", "coordinates": [ [ [ 972.981834389807659, 296.507286411582072 ], [ 978.775579580347198, 293.610413819520318 ], [ 989.638851818458875, 315.095552238562789 ], [ 974.91308278594795, 323.303357931027108 ], [ 965.981058947030078, 306.887746551083922 ], [ 975.154488839149963, 302.783843708341408 ], [ 972.981834389807659, 296.507286411582072 ] ] ] } },
{ "type": "Feature", "properties": { "feature_type": "building", "subtype": "no-damage", "uid": "054f3509-dcb2-40d1-b0a8-4be6d310b1d1" }, "geometry": { "type": "Polygon", "coordinates": [ [ [ 116.639995896500693, 522.92000209976527 ], [ 120.669652258548496, 529.875571776577772 ], [ 211.623792964863298, 583.679429656619391 ], [ 208.421182376660198, 649.653207770043423 ], [ 169.349333200532186, 649.653207771040456 ], [ 168.068288963281702, 643.888508712072849 ], [ 64.303705904964474, 584.31995177605495 ], [ 66.19999589398688, 523.500002101366704 ], [ 72.653730842694543, 519.757992849131483 ], [ 116.639995896500693, 522.92000209976527 ] ] ] } },
{ "type": "Feature", "properties": { "feature_type": "building", "subtype": "no-damage", "uid": "7a2f8517-2a71-418c-8fda-016bfb17bafa" }, "geometry": { "type": "Polygon", "coordinates": [ [ [ 213.599992386032397, 520.96291222027719 ], [ 115.501604093036505, 520.962912221274223 ], [ 116.339995898846396, 522.400002096610478 ], [ 72.535931107003734, 519.248216943998386 ], [ 66.219995894860801, 522.910002098362384 ], [ 66.225272258035915, 522.829828483724327 ], [ 61.101095318443889, 520.908262132396885 ], [ 64.817436806529386, 389.347574598941776 ], [ 216.869938666611688, 389.347574596947709 ], [ 213.599992386032397, 520.96291222027719 ] ] ] } },
{ "type": "Feature", "properties": { "feature_type": "building", "subtype": "no-damage", "uid": "c09e5160-c75d-4ecd-9c63-9f3b028453ca" }, "geometry": { "type": "Polygon", "coordinates": [ [ [ 330.349136290460876, 392.851553515086493 ], [ 331.352867966872793, 395.360882712006287 ], [ 327.839807094414596, 472.146356133565121 ], [ 307.765173517631581, 493.224721384899794 ], [ 305.757710161816476, 671.387094358230456 ], [ 250.552467828047014, 672.390826033209464 ], [ 253.061797029452492, 403.390736145739083 ], [ 266.110308847796375, 392.349687679092483 ], [ 330.349136290460876, 392.851553515086493 ] ] ] } },
{ "type": "Feature", "properties": { "feature_type": "building", "subtype": "no-damage", "uid": "d65c990e-0675-46a9-8dc8-266a2c6504df" }, "geometry": { "type": "Polygon", "coordinates": [ [ [ 338.880855558314408, 408.409394534593503 ], [ 515.035765177620988, 412.926187083465607 ], [ 513.028301822055141, 470.640758608633178 ], [ 339.884587237779783, 467.127697738728386 ], [ 338.880855558314408, 408.409394534593503 ] ] ] } },
{ "type": "Feature", "properties": { "feature_type": "building", "subtype": "no-damage", "uid": "c7ed829b-0ba4-4ac4-9470-fb5e758628e8" }, "geometry": { "type": "Polygon", "coordinates": [ [ [ 429.216706649631419, 576.032584877271461 ], [ 447.785742703602011, 574.025121517342654 ], [ 445.276413506247025, 562.984073051693031 ], [ 490.444339052902592, 562.482207211710829 ], [ 489.942473211175809, 584.062438305021942 ], [ 491.448070729252208, 653.319924136818258 ], [ 431.726035845054582, 652.31619245984507 ], [ 429.216706649631419, 576.032584877271461 ] ] ] } },
{ "type": "Feature", "properties": { "feature_type": "building", "subtype": "no-damage", "uid": "fac5af68-050d-4bf5-b8f2-4b80c5127c3f" }, "geometry": { "type": "Polygon", "coordinates": [ [ [ 688.843646678939876, 610.411285196520907 ], [ 709.178384639762271, 610.103183107028599 ], [ 708.870282547652778, 629.82171688638266 ], [ 715.032324353448985, 629.513614793899137 ], [ 715.032324354757634, 650.156454843724305 ], [ 714.108018081669684, 650.156454843724305 ], [ 715.340426445620778, 677.577540878332798 ], [ 691.000361310432709, 677.269438789837523 ], [ 691.924667582087295, 656.934700830501811 ], [ 686.378829955773995, 656.318496648526093 ], [ 684.83831950868705, 635.059452420713455 ], [ 689.76795295015836, 634.135146151239496 ], [ 688.843646678939876, 610.411285196520907 ] ] ] } },
{ "type": "Feature", "properties": { "feature_type": "building", "subtype": "no-damage", "uid": "051a714a-5987-4575-aa27-6be1457a5a34" }, "geometry": { "type": "Polygon", "coordinates": [ [ [ 961.186285113394206, 616.356000141002141 ], [ 983.985839793892865, 618.820816866911173 ], [ 992.612698323789687, 626.831471211657913 ], [ 998.77474012665698, 622.826144039284486 ], [ 1003.704373571056976, 627.139573303144289 ], [ 1005.552986115924, 629.912492114557381 ], [ 969.505041549810699, 659.490292780597201 ], [ 965.499714375818826, 654.560659338749929 ], [ 960.570080931854932, 653.020148886303105 ], [ 957.797162118324422, 645.317596627060425 ], [ 957.489060027523578, 617.588408502959624 ], [ 961.186285113394206, 616.356000141002141 ] ] ] } },
{ "type": "Feature", "properties": { "feature_type": "building", "subtype": "no-damage", "uid": "8e616564-e98d-4a2b-9fd4-51f6eaf13dc2" }, "geometry": { "type": "Polygon", "coordinates": [ [ [ 982.445329344064021, 659.490292782591382 ], [ 1003.704373572739996, 638.847452733763362 ], [ 1022.457253055242973, 663.045438119493156 ], [ 1022.457258437009045, 670.793602688676174 ], [ 1005.552986113743032, 689.992399718105162 ], [ 982.445329344064021, 659.490292782591382 ] ] ] } },
{ "type": "Feature", "properties": { "feature_type": "building", "subtype": "no-damage", "uid": "f99934ce-ed80-402a-9dce-cdc791410882" }, "geometry": { "type": "Polygon", "coordinates": [ [ [ 100.794082628136294, 839.336704148722902 ], [ 105.512782832990098, 840.516379201323389 ], [ 106.692457886524807, 831.078978789492908 ], [ 127.926608814629802, 827.93317865288077 ], [ 127.926608814629802, 829.506078720688265 ], [ 156.238810052726194, 830.685753768303471 ], [ 157.418485106260988, 842.089279269130998 ], [ 157.41848510663479, 885.344031157269228 ], [ 160.171060225732987, 887.310156244272093 ], [ 157.811710124832899, 910.90365727634105 ], [ 159.777835207908907, 916.015582498958906 ], [ 160.957510260820499, 963.202584561102867 ], [ 157.025260092051212, 964.775484630904543 ], [ 156.632035069864912, 979.71803528454825 ], [ 158.204935140849813, 982.077385387755044 ], [ 158.991385177495204, 1015.501511848856012 ], [ 97.255057474573803, 1017.860861952063033 ], [ 100.007632592986496, 989.155435697375765 ], [ 104.3331077817611, 987.975760643778244 ], [ 105.512782835171194, 945.114233771844056 ], [ 101.973757680175396, 940.395533565430242 ], [ 100.400857612306297, 919.161382635571044 ], [ 102.366982700367601, 917.981707584964738 ], [ 98.82795754287919, 903.432381951513321 ], [ 101.973757682543393, 889.669506350470101 ], [ 102.366982697688002, 875.12018071303055 ], [ 102.3669826973141, 866.07600531740411 ], [ 100.0076325967255, 846.414754458343623 ], [ 100.794082628136294, 839.336704148722902 ] ] ] } },
{ "type": "Feature", "properties": { "feature_type": "building", "subtype": "no-damage", "uid": "d413fb5b-2ad2-430a-bd50-577c43a45ac3" }, "geometry": { "type": "Polygon", "coordinates": [ [ [ 166.069435485243304, 838.943479131521826 ], [ 170.788135693337608, 837.370579060723003 ], [ 170.394910672086013, 832.651878857300403 ], [ 220.334487858167989, 829.899303733901206 ], [ 219.154812805630314, 833.831553903918575 ], [ 222.693837960812999, 834.224778924110865 ], [ 225.053188065639091, 864.50310524461122 ], [ 221.514162912388201, 864.50310524461122 ], [ 221.907387927345809, 906.184957066936022 ], [ 171.18136070698651, 905.398507036522005 ], [ 169.215235620109212, 860.570855076587918 ], [ 165.676210466609007, 861.357305110990296 ], [ 166.069435485243304, 838.943479131521826 ] ] ] } },
{ "type": "Feature", "properties": { "feature_type": "building", "subtype": "no-damage", "uid": "40be5505-4703-4f15-b3ca-11dc5bf14c29" }, "geometry": { "type": "Polygon", "coordinates": [ [ [ 168.822010605338505, 951.01260902886429 ], [ 215.222562633620498, 949.046483941861425 ], [ 219.154812807312908, 991.90801081578968 ], [ 222.693837961373788, 991.90801081578968 ], [ 222.693837964427303, 1020.613437072471015 ], [ 163.316860363590109, 1019.826987037071035 ], [ 163.31686036246839, 987.18931060937598 ], [ 167.642335555106598, 984.436735490961951 ], [ 168.822010605338505, 951.01260902886429 ] ] ] } },
{ "type": "Feature", "properties": { "feature_type": "building", "subtype": "no-damage", "uid": "8e3104a7-6ecb-4776-b1ee-fd16ebdbe095" }, "geometry": { "type": "Polygon", "coordinates": [ [ [ 228.198988202623696, 837.370579060723003 ], [ 286.396290750175524, 833.045103869516311 ], [ 287.182740783455813, 861.357305107999082 ], [ 282.857265597734681, 861.750530125200271 ], [ 282.85726559754778, 929.385233079809836 ], [ 262.016339682219325, 931.351358167809622 ], [ 261.623114665267622, 943.148108685838338 ], [ 282.857265594992782, 943.541333701045346 ], [ 285.2166156964538, 993.087685865399067 ], [ 287.182740782583323, 995.840260982815948 ], [ 286.396290747620526, 1017.467636931869947 ], [ 229.378663254662911, 1017.860861949071023 ], [ 224.266738030177692, 1000.952186212413039 ], [ 229.7718882746058, 992.301235830996802 ], [ 227.019313152204802, 949.83293397825787 ], [ 231.344788341353194, 941.575208618030729 ], [ 231.344788340792405, 917.981707582970557 ], [ 232.917688410406413, 884.950806139071005 ], [ 230.165113288254702, 857.03182991978349 ], [ 228.592213220510189, 855.852154870174218 ], [ 228.198988202623696, 837.370579060723003 ] ] ] } },
{ "type": "Feature", "properties": { "feature_type": "building", "subtype": "no-damage", "uid": "dc45eaec-8ff7-4185-88ff-dda62f4b930b" }, "geometry": { "type": "Polygon", "coordinates": [ [ [ 293.867566077367883, 838.550254110332389 ], [ 297.01336621210919, 837.370579057731902 ], [ 295.047241126166625, 827.146728610502009 ], [ 347.346168415018212, 828.326403663102496 ], [ 344.200368278968313, 836.58412902233249 ], [ 352.064868622240112, 836.58412902233249 ], [ 355.997118796867085, 861.75053012320609 ], [ 346.559718382236497, 858.604729988588133 ], [ 349.312293501521708, 884.950806136079791 ], [ 351.671643607968008, 929.778458098008059 ], [ 330.437492676622583, 929.385233078812689 ], [ 329.257817627013821, 940.788758579640216 ], [ 341.841018173893019, 938.429408477430343 ], [ 342.627468208294886, 943.148108682847123 ], [ 348.132618452348993, 945.114233765861627 ], [ 347.739393433029306, 997.806386070815847 ], [ 352.851318658636217, 997.806386070815847 ], [ 351.278418587215015, 1017.860861946080036 ], [ 293.867566075623074, 1017.860861947076955 ], [ 294.654016111271289, 997.806386070815847 ], [ 298.586266282658016, 995.447035968605974 ], [ 297.406591231304276, 947.080358853861526 ], [ 298.586266281723226, 860.964080088803826 ], [ 294.654016110149712, 860.177630056395628 ], [ 293.867566077367883, 838.550254110332389 ] ] ] } },
{ "type": "Feature", "properties": { "feature_type": "building", "subtype": "no-damage", "uid": "d6bf68d3-bd46-4525-89c8-15dbaf9eb9ed" }, "geometry": { "type": "Polygon", "coordinates": [ [ [ 381.078838962281793, 1022.988523449094032 ], [ 378.410944774144696, 991.121560779393349 ], [ 383.522869998692101, 989.15543569139345 ], [ 383.522870001807917, 988.762210674192261 ], [ 380.77029488027938, 947.080358850870425 ], [ 389.028020239630507, 947.080358850870425 ], [ 388.241570208967516, 941.575208613045447 ], [ 378.41094477377078, 941.575208613045447 ], [ 381.163519898352774, 919.554607647786952 ], [ 387.061895157302217, 918.768157615378755 ], [ 386.275445121965504, 911.690107305758033 ], [ 383.129644984793913, 910.510432256148761 ], [ 381.949969930012912, 878.265980847648507 ], [ 384.702545050980518, 877.479530809257994 ], [ 384.702545049422611, 868.0421303974274 ], [ 381.163519896296293, 868.0421303974274 ], [ 383.916095017014811, 831.865428817912857 ], [ 387.848345186656616, 829.112853694513547 ], [ 388.241570206100903, 824.787378509289169 ], [ 418.519896529890616, 822.034803385889973 ], [ 420.092796598258303, 833.438328882729138 ], [ 426.384396874471008, 834.618003936326772 ], [ 425.204721822244892, 846.414754451364161 ], [ 425.204721825672323, 884.164356098686312 ], [ 424.418271787469109, 921.520732732795636 ], [ 413.407971307898208, 921.520732732795636 ], [ 414.194421342673991, 929.385233078812689 ], [ 424.811496808346703, 929.778458095016845 ], [ 426.777621892108186, 976.965460159154873 ], [ 422.452146704143786, 978.931585246157624 ], [ 423.631821753877318, 993.87413589481605 ], [ 423.631821754500379, 1022.186337135293002 ], [ 404.845521251728997, 1022.988640237933964 ], [ 381.078838962281793, 1022.988523449094032 ] ] ] } },
{ "type": "Feature", "properties": { "feature_type": "building", "subtype": "no-damage", "uid": "15887ef6-d180-4e31-9696-301bc1aecb45" }, "geometry": { "type": "Polygon", "coordinates": [ [ [ 456.384083325261884, 834.269429989702985 ], [ 516.155888841409933, 833.345123719231992 ], [ 518.312603474460502, 860.150005571864767 ], [ 514.307276298599277, 861.9986181138039 ], [ 513.074867939508863, 888.803499968430742 ], [ 511.226255396698207, 938.716038590815174 ], [ 514.615378390895671, 998.179742016375485 ], [ 513.999174208670865, 1015.433459075802944 ], [ 455.76787914845869, 1016.35776534627405 ], [ 457.308389595607878, 992.325802305054253 ], [ 457.924593777708026, 990.169087674619959 ], [ 460.389410498256723, 923.310934083297411 ], [ 479.491740096997489, 919.921811088911568 ], [ 480.724148459203718, 914.375973462097249 ], [ 462.546125131058091, 913.143565105125163 ], [ 459.465104227349912, 895.889848046694738 ], [ 461.00561467886132, 892.500725051311861 ], [ 460.697512589680684, 862.614822295779618 ], [ 457.308389599658426, 858.609495124403338 ], [ 457.924593776025517, 838.274757165067626 ], [ 456.384083325261884, 834.269429989702985 ] ] ] } },
{ "type": "Feature", "properties": { "feature_type": "building", "subtype": "no-damage", "uid": "2cd3444e-5724-43da-8f02-e54376b045a0" }, "geometry": { "type": "Polygon", "coordinates": [ [ [ 524.78274736875187, 838.274757162076412 ], [ 530.020482906881625, 837.042348803110144 ], [ 530.020482904388928, 833.96132790021079 ], [ 545.117485329013334, 829.339796547855713 ], [ 548.506608321029603, 831.496511177292973 ], [ 554.360548037769831, 833.345123719231992 ], [ 556.517262673063897, 831.188409083812417 ], [ 581.165429895999296, 833.037021627745617 ], [ 587.327471699489706, 845.669207328835682 ], [ 585.786961250470995, 856.144678398494307 ], [ 579.933021532858447, 858.301393029925748 ], [ 579.316817352939324, 886.338683244515892 ], [ 581.473531985179875, 918.997504816446394 ], [ 581.473531981939459, 927.932465433658308 ], [ 563.603610746651043, 927.316261251682477 ], [ 561.754998206395385, 937.791732321341215 ], [ 581.781634076229921, 938.09983441282759 ], [ 584.862654976884642, 1012.044336079423033 ], [ 561.754998205335937, 1017.282071614750976 ], [ 523.242236919234529, 1015.741561162304038 ], [ 522.626032740063351, 991.093393942099738 ], [ 528.171870361889887, 990.477189761121053 ], [ 528.171870363323137, 951.964428473880957 ], [ 531.560993355838036, 926.700057073695007 ], [ 526.939462000992307, 921.154219446880688 ], [ 531.252891265411108, 889.41970415040646 ], [ 531.252891266470442, 864.155332747229295 ], [ 525.707053639471724, 861.998618115797967 ], [ 523.242236921104109, 842.588186428927429 ], [ 524.78274736875187, 838.274757162076412 ] ] ] } },
{ "type": "Feature", "properties": { "feature_type": "building", "subtype": "no-damage", "uid": "57e0cdb5-3845-444d-8529-7fd557a0a42a" }, "geometry": { "type": "Polygon", "coordinates": [ [ [ 688.827944606862047, 1022.988209664771944 ], [ 690.344286533740046, 1022.44588316765396 ], [ 690.102880483466834, 1019.066198469936012 ], [ 689.378662334517003, 1018.583386371259053 ], [ 688.41303813579259, 1002.891993146310028 ], [ 691.068504682752177, 1000.477932647939951 ], [ 691.309910732838375, 997.339654002551697 ], [ 687.206007886981979, 997.339654000557516 ], [ 691.309910732090543, 968.129521989721866 ], [ 732.348939177069951, 970.784988535436241 ], [ 732.3489391783786, 971.50920668345168 ], [ 735.970029925807466, 972.716236933135292 ], [ 731.947123047667787, 1022.987849591856957 ], [ 688.827944606862047, 1022.988209664771944 ] ] ] } },
{ "type": "Feature", "properties": { "feature_type": "building", "subtype": "no-damage", "uid": "9fd24498-d330-43ef-93e4-0fc9b3f07692" }, "geometry": { "type": "Polygon", "coordinates": [ [ [ 751.902829202393036, 1016.893544022898027 ], [ 753.592671551687658, 976.820139776874839 ], [ 776.043434171065314, 976.820139776874839 ], [ 776.284840220029878, 972.474830883796812 ], [ 795.838730246100795, 973.440455080153697 ], [ 797.528572593401236, 975.854515578523774 ], [ 819.496523115909326, 978.50998212324123 ], [ 817.608285104529273, 1022.986903775046017 ], [ 800.804470565495535, 1022.987113488051023 ], [ 751.902829202766952, 1020.031822668286964 ], [ 751.902829202393036, 1016.893544022898027 ] ] ] } },
{ "type": "Feature", "properties": { "feature_type": "building", "subtype": "no-damage", "uid": "22bf8fb4-d7a0-4c9d-8f18-ac44ed0b7a19" }, "geometry": { "type": "Polygon", "coordinates": [ [ [ 679.239608246850821, 954.852189256164138 ], [ 679.481014297248521, 912.364724515759008 ], [ 706.518491862094265, 912.123318465423381 ], [ 709.415364456772068, 909.709257967053304 ], [ 793.666075798627958, 908.743633767705205 ], [ 791.493421352276869, 913.08894266477148 ], [ 823.117613860970323, 911.157694263084181 ], [ 824.324644109718633, 961.370152596279581 ], [ 683.826323191820165, 963.059994945637186 ], [ 679.239608246850821, 954.852189256164138 ] ] ] } },
{ "type": "Feature", "properties": { "feature_type": "building", "subtype": "no-damage", "uid": "46c3438d-4dec-45b9-b98a-548d98882539" }, "geometry": { "type": "Polygon", "coordinates": [ [ [ 833.739480048808787, 942.057668620286336 ], [ 842.430097835646393, 939.885014174245839 ], [ 843.637128083833886, 916.710033406842854 ], [ 888.297247277550809, 916.710033404848673 ], [ 888.78005937610294, 952.920940854476839 ], [ 886.124592831635937, 955.335001355838131 ], [ 888.055841226966095, 996.374029795227102 ], [ 891.676931973335741, 1020.514634763972026 ], [ 864.713836530778735, 1022.986252990815046 ], [ 862.628080377073275, 1022.986283768119051 ], [ 858.604303164623843, 1013.755265373520956 ], [ 842.430097837142057, 1015.203701675534944 ], [ 843.878534133920084, 995.166999548534704 ], [ 834.946510295687631, 985.510757564027813 ], [ 833.256667949197322, 945.437353318004511 ], [ 833.739480048808787, 942.057668620286336 ] ] ] } },
{ "type": "Feature", "properties": { "feature_type": "building", "subtype": "no-damage", "uid": "3675df26-e232-4ffb-aac3-f4a5dde17e15" }, "geometry": { "type": "Polygon", "coordinates": [ [ [ 684.950983446975215, 815.513529874383835 ], [ 688.340106439801616, 814.897325694402184 ], [ 690.496821070546616, 801.340833718852878 ], [ 720.690825919296799, 803.189446260791897 ], [ 722.231336375357273, 805.654262987697962 ], [ 737.636440889037544, 804.113752530265856 ], [ 738.868849246943796, 806.886671344670049 ], [ 744.72278896393334, 806.57856925517774 ], [ 745.338993143665448, 805.038058801733996 ], [ 794.019123410863472, 802.265139990320904 ], [ 797.100144313699275, 852.485780704191825 ], [ 766.28993528228807, 858.031618330008996 ], [ 765.057526923446972, 851.869576527201275 ], [ 751.192932859844746, 854.642495338614367 ], [ 747.803809867080645, 846.939943082362788 ], [ 737.020236706688138, 845.399432629915964 ], [ 734.863522074509888, 858.955924600479989 ], [ 691.421127343260537, 860.49643505492088 ], [ 691.729229431568797, 843.24271799948167 ], [ 686.491493898486624, 841.086003366056161 ], [ 684.950983446975215, 815.513529874383835 ] ] ] } },
{ "type": "Feature", "properties": { "feature_type": "building", "subtype": "no-damage", "uid": "c9d4ddcc-f488-4b4d-bda7-d463d46fca48" }, "geometry": { "type": "Polygon", "coordinates": [ [ [ 802.954084029691671, 804.113752530265856 ], [ 806.651309115126082, 801.340833715861663 ], [ 853.174724744848959, 803.805650440773547 ], [ 852.250418474627622, 809.351488065593799 ], [ 859.644868642816959, 808.735283885612148 ], [ 860.261072821863536, 805.654262981715647 ], [ 878.747198242056243, 806.270467157709049 ], [ 880.287708691885086, 803.805650440773547 ], [ 910.17361145002144, 803.805650439776514 ], [ 908.016896819401154, 811.200100604541603 ], [ 911.714121899476368, 810.583896424559953 ], [ 914.795142805365572, 836.156369917229426 ], [ 907.092590546126303, 838.004982457174378 ], [ 908.324998907646886, 858.647822508993613 ], [ 880.287708689766305, 858.955924596491741 ], [ 839.926334866587354, 856.799209970045695 ], [ 840.542539044948512, 851.869576525207208 ], [ 828.218455432421479, 850.32906607176335 ], [ 829.450863794066777, 857.415414147036131 ], [ 801.721675667236241, 856.491107877562172 ], [ 800.797369397887337, 809.043385975104343 ], [ 802.954084029691671, 804.113752530265856 ] ] ] } },
{ "type": "Feature", "properties": { "feature_type": "building", "subtype": "no-damage", "uid": "4abdc62a-1b15-4b32-9719-76a50c6e9b18" }, "geometry": { "type": "Polygon", "coordinates": [ [ [ 635.961481430855201, 813.529654251712145 ], [ 649.517973401475501, 812.605347978249938 ], [ 651.366585944473172, 861.901682424640967 ], [ 634.420970977910542, 861.285478240671068 ], [ 635.961481430855201, 813.529654251712145 ] ] ] } },
{ "type": "Feature", "properties": { "feature_type": "building", "subtype": "no-damage", "uid": "40b08ac3-818b-41b8-bd69-5c2fb2aa15b5" }, "geometry": { "type": "Polygon", "coordinates": [ [ [ 976.955395347058243, 1022.984328633624955 ], [ 978.409197038585376, 1015.351869609481014 ], [ 982.734672231597415, 1010.633169406057959 ], [ 982.341447214458753, 971.703892702146959 ], [ 977.229521987481007, 970.524217651540653 ], [ 978.015972022568349, 957.941017101103853 ], [ 975.263396900728253, 955.581667001885194 ], [ 976.443071953764502, 943.391691465658369 ], [ 1022.457630172057975, 943.839305575854951 ], [ 1022.45780411640601, 1022.983398532501951 ], [ 976.955395347058243, 1022.984328633624955 ] ] ] } },
{ "type": "Feature", "properties": { "feature_type": "building", "subtype": "no-damage", "uid": "b03bd465-7aee-468d-9913-daeeb0131386" }, "geometry": { "type": "Polygon", "coordinates": [ [ [ 129.306039022642295, 0.009836653765373 ], [ 134.781645821136209, 5.570599541934436 ], [ 121.162992936732806, 15.217145333756941 ], [ 110.577340120495805, 0.009530892799917 ], [ 129.306039022642295, 0.009836653765373 ] ] ] } },
{ "type": "Feature", "properties": { "feature_type": "building", "subtype": "no-damage", "uid": "315b40a1-508b-4868-b975-73b44b63ae4d" }, "geometry": { "type": "Polygon", "coordinates": [ [ [ 552.391751868384404, 657.699389778763248 ], [ 551.159343504184108, 457.741133188765616 ], [ 597.11498078525176, 413.050997172693485 ], [ 713.045989681500373, 413.552863008687382 ], [ 716.588540807393542, 412.460521736723308 ], [ 717.345132633671255, 403.192271861062125 ], [ 730.396341645826965, 403.003123903479889 ], [ 731.720377343168479, 406.975230994758192 ], [ 731.531229388826773, 414.541149262150611 ], [ 732.287821214668384, 432.888501058881786 ], [ 746.284770004950815, 431.942761273962219 ], [ 746.663065919554128, 374.630930404747176 ], [ 753.472392361662401, 373.306894706657374 ], [ 860.34098787849814, 373.496042659254215 ], [ 862.043319490131353, 376.711557923195073 ], [ 860.530135838012029, 400.544200464882522 ], [ 864.880538840215308, 402.246532074148377 ], [ 912.36195578840568, 403.364055779025875 ], [ 912.86382162863697, 367.731581187151619 ], [ 1022.457259398176006, 369.219277932163322 ], [ 1022.457210058012038, 474.155772288880712 ], [ 888.7742613369835, 476.636468327688817 ], [ 864.684701048632746, 498.718565256993713 ], [ 723.660400185191065, 500.224162779931476 ], [ 708.604425003616484, 478.142065848632399 ], [ 664.440231141660888, 479.647663367582027 ], [ 617.76670807624339, 519.79693051730203 ], [ 617.608128100120894, 596.284402721519427 ], [ 624.620802096597345, 614.324677433214447 ], [ 625.122667938074869, 657.987005455830513 ], [ 552.391751868384404, 657.699389778763248 ] ] ] } }
]
}
