{
"type": "FeatureCollection",
"name": "hurricane-michael_00000332_post_disaster",
"features": [
{ "type": "Feature", "properties": { "feature_type": "building", "subtype": "no-damage", "uid": "0193a3b1-7e3c-4d2f-b046-5e2cc58501fc" }, "geometry": { "type": "Polygon", "coordinates": [ [ [ 0.077025939274304, 177.465209633369199 ], [ 33.873235932871637, 179.158768130449687 ], [ 33.428628815706553, 202.278338379005589 ], [ 0.077044445789992, 199.674549791158711 ], [ 0.077025939274304, 177.465209633369199 ] ] ] } },
{ "type": "Feature", "properties": { "feature_type": "building", "subtype": "no-damage", "uid": "e35dc2a9-90b4-4a71-8481-f655277dc4ef" }, "geometry": { "type": "Polygon", "coordinates": [ [ [ 0.077147230103752, 377.937404916512492 ], [ 4.574004241217308, 378.2288103617621 ], [ 5.463218483546306, 370.077679828995088 ], [ 26.211550755480172, 372.00431068395801 ], [ 25.766943635815451, 380.600048339639102 ], [ 25.61874126151071, 398.236130769916088 ], [ 21.7654795545836, 397.791523651001398 ], [ 21.469074807973811, 405.794451814463002 ], [ 6.056027979265514, 402.830404348365789 ], [ 6.204230350070778, 399.866356877269425 ], [ 0.077154257815417, 399.864766965176727 ], [ 0.077147230103752, 377.937404916512492 ] ] ] } },
{ "type": "Feature", "properties": { "feature_type": "building", "subtype": "no-damage", "uid": "a46f212b-9d73-42c6-b164-dd4e56b47cc4" }, "geometry": { "type": "Polygon", "coordinates": [ [ [ 0.077170939600707, 511.411036858482078 ], [ 7.292858053087537, 511.870603593134376 ], [ 7.176737616470994, 520.927997714712888 ], [ 0.077170887358426, 520.927997727710931 ], [ 0.077170939600707, 511.411036858482078 ] ] ] } },
{ "type": "Feature", "properties": { "feature_type": "building", "subtype": "no-damage", "uid": "22e8677f-02a4-4fd8-b8a9-9f73684b834c" }, "geometry": { "type": "Polygon", "coordinates": [ [ [ 0.077169324839286, 478.427018248492516 ], [ 9.963628118764577, 478.311797161248421 ], [ 9.034664615333776, 493.407454030879194 ], [ 0.077170384932658, 493.078788157806173 ], [ 0.077169324839286, 478.427018248492516 ] ] ] } },
{ "type": "Feature", "properties": { "feature_type": "building", "subtype": "no-damage", "uid": "e2693d3a-039c-4896-bef6-2ae50bfaf86a" }, "geometry": { "type": "Polygon", "coordinates": [ [ [ 83.583572539084173, 302.177139805625302 ], [ 85.740287171238549, 281.534299755617099 ], [ 100.837289593069599, 281.534299756616917 ], [ 100.529187502726103, 302.793343983312525 ], [ 83.583572539084173, 302.177139805625302 ] ] ] } },
{ "type": "Feature", "properties": { "feature_type": "building", "subtype": "no-damage", "uid": "88d4bbca-fc66-4f53-ae0d-cfff2a15c93d" }, "geometry": { "type": "Polygon", "coordinates": [ [ [ 59.190643099326962, 140.194764825906191 ], [ 58.949237045236629, 114.847129612859206 ], [ 71.01953952903564, 114.364317512677502 ], [ 71.502351629467441, 139.7119527287241 ], [ 59.190643099326962, 140.194764825906191 ] ] ] } },
{ "type": "Feature", "properties": { "feature_type": "building", "subtype": "no-damage", "uid": "f083e150-dc4a-49db-bd4f-4a22a251d559" }, "geometry": { "type": "Polygon", "coordinates": [ [ [ 257.234485057605923, 128.02927689687769 ], [ 258.200109255720008, 112.337883664468507 ], [ 280.650871871681716, 114.269132062195794 ], [ 280.892277924022324, 127.787870845287102 ], [ 257.234485057605923, 128.02927689687769 ] ] ] } },
{ "type": "Feature", "properties": { "feature_type": "building", "subtype": "minor-damage", "uid": "c440f53e-8bf5-4d2f-9f1b-962a90506cfc" }, "geometry": { "type": "Polygon", "coordinates": [ [ [ 389.042188177781611, 119.338659106604894 ], [ 356.693777524839675, 119.580065155195996 ], [ 357.176589622021879, 103.888671926786103 ], [ 342.209414543131004, 103.647265877195196 ], [ 341.002384291176611, 82.886345606375855 ], [ 356.93518357043132, 82.644939554785211 ], [ 356.693777522089988, 58.74574063928376 ], [ 390.732030524918514, 59.469958787056697 ], [ 392.421872872055417, 78.782442761330287 ], [ 387.593751879985575, 78.782442759330578 ], [ 389.042188177781611, 119.338659106604894 ] ] ] } },
{ "type": "Feature", "properties": { "feature_type": "building", "subtype": "minor-damage", "uid": "b282747c-3075-4c46-a1d6-e4baeca203ce" }, "geometry": { "type": "Polygon", "coordinates": [ [ [ 354.933412180377672, 142.409882604326214 ], [ 387.656008683379184, 140.896698951112597 ], [ 386.521120941969002, 153.569612048776094 ], [ 381.792422027675116, 161.702974185798894 ], [ 379.144350632800922, 162.459566009406188 ], [ 380.090090417309511, 165.675081276484406 ], [ 381.98156998482682, 182.509249416485801 ], [ 399.761477909091013, 180.996065764272089 ], [ 404.679324781786306, 192.344943165373593 ], [ 355.879151961886691, 194.04727477523889 ], [ 355.879151962386572, 184.779024897305987 ], [ 350.772157133789392, 173.430147497204302 ], [ 352.28534078850322, 161.892122140450908 ], [ 348.880677568521776, 149.975800870394096 ], [ 352.474488743405118, 147.89517334622559 ], [ 354.933412180377672, 142.409882604326214 ] ] ] } },
{ "type": "Feature", "properties": { "feature_type": "building", "subtype": "no-damage", "uid": "83b2eeb2-0cd2-4825-950e-f5aca3e70cfa" }, "geometry": { "type": "Polygon", "coordinates": [ [ [ 758.459266796281327, 0.005538817647373 ], [ 759.245534189114551, 23.84950210413642 ], [ 727.787532809937375, 23.849502107135979 ], [ 728.18066158220654, 0.005837365537337 ], [ 758.459266796281327, 0.005538817647373 ] ] ] } },
{ "type": "Feature", "properties": { "feature_type": "building", "subtype": "no-damage", "uid": "ca11680c-d715-4126-908a-825a129b2e66" }, "geometry": { "type": "Polygon", "coordinates": [ [ [ 673.032146847769923, 159.967589939414808 ], [ 679.027630678599394, 115.864156129601696 ], [ 703.014356726844312, 119.403181282542903 ], [ 695.543081401661311, 161.478258123285514 ], [ 673.032146847769923, 159.967589939414808 ] ] ] } },
{ "type": "Feature", "properties": { "feature_type": "building", "subtype": "no-damage", "uid": "c84dfeb5-7e8b-4d71-b661-1021e5c740bf" }, "geometry": { "type": "Polygon", "coordinates": [ [ [ 996.406941300146514, 0.001832896192129 ], [ 996.330467374812883, 3.768333707920235 ], [ 966.591379531294933, 3.789013334534079 ], [ 966.521120861166082, 0.002430827848556 ], [ 996.406941300146514, 0.001832896192129 ] ] ] } },
{ "type": "Feature", "properties": { "feature_type": "building", "subtype": "no-damage", "uid": "da2b37a7-b988-4821-bde9-d6828b41ad58" }, "geometry": { "type": "Polygon", "coordinates": [ [ [ 977.432271838492397, 43.171045870838228 ], [ 1002.210654163870004, 44.305933612748127 ], [ 1002.210654162121045, 49.223780484692412 ], [ 1009.776572429939961, 49.602076397995809 ], [ 1011.47890404030602, 70.408351632682127 ], [ 1001.643210293164998, 70.408351630682418 ], [ 1001.832358249567051, 78.16341785640158 ], [ 971.19038927223437, 77.595973985446633 ], [ 971.946981095341926, 59.437770145883803 ], [ 975.540792273974716, 59.437770145883803 ], [ 977.432271838492397, 43.171045870838228 ] ] ] } },
{ "type": "Feature", "properties": { "feature_type": "building", "subtype": "no-damage", "uid": "21898f9d-0891-4437-9060-705a38476ddb" }, "geometry": { "type": "Polygon", "coordinates": [ [ [ 1002.896445744116022, 167.136097102422212 ], [ 974.145956336049949, 166.3795052748155 ], [ 973.389364504443733, 156.165515619623193 ], [ 957.879232059750507, 155.787219705320013 ], [ 957.879232060750383, 137.250719952453693 ], [ 974.335104288452271, 137.439867907105707 ], [ 974.713400201505806, 129.117357815430893 ], [ 1002.518149830812035, 129.495653726734588 ], [ 1004.598777354230947, 129.306505768083213 ], [ 1002.896445744116022, 167.136097102422212 ] ] ] } },
{ "type": "Feature", "properties": { "feature_type": "building", "subtype": "no-damage", "uid": "899dee6c-8c85-4f5a-bf90-ed3c92fc0723" }, "geometry": { "type": "Polygon", "coordinates": [ [ [ 723.653556957135947, 167.95757076082819 ], [ 737.034860803801962, 168.30971033369471 ], [ 738.091279528900486, 176.408920558615193 ], [ 724.005696530002524, 176.408920558615193 ], [ 723.653556957135947, 167.95757076082819 ] ] ] } },
{ "type": "Feature", "properties": { "feature_type": "building", "subtype": "destroyed", "uid": "af3cd3aa-41c0-4545-a523-438af6207e88" }, "geometry": { "type": "Polygon", "coordinates": [ [ [ 785.409183703436611, 37.484420227891292 ], [ 786.608835517545003, 67.27577358174517 ], [ 776.411795106372892, 67.675657516448339 ], [ 774.012491482405608, 38.684072038999773 ], [ 785.409183703436611, 37.484420227891292 ] ] ] } }
]
}
