{
"type": "FeatureCollection",
"name": "hurricane-michael_00000084_post_disaster",
"features": [
{ "type": "Feature", "properties": { "feature_type": "building", "subtype": "minor-damage", "uid": "9b1e1f69-f05a-4e51-887e-1564966b1f85" }, "geometry": { "type": "Polygon", "coordinates": [ [ [ 953.061840346985718, 347.790238695065284 ], [ 954.061840347005045, 383.790238695767414 ], [ 933.06184034709986, 383.790238697766426 ], [ 933.061840345350788, 366.790238694686309 ], [ 928.061840345504265, 366.790238694686309 ], [ 928.061840347003454, 353.790238696681513 ], [ 932.061840347830184, 353.790238694682614 ], [ 932.061840349329373, 348.79023869683391 ], [ 953.061840346985718, 347.790238695065284 ] ] ] } },
{ "type": "Feature", "properties": { "feature_type": "building", "subtype": "no-damage", "uid": "2159403e-8dd7-4a4f-9e1b-31f06d9afbba" }, "geometry": { "type": "Polygon", "coordinates": [ [ [ 209.000000141458088, 429.000000055092983 ], [ 217.000000144360996, 429.000000053094027 ], [ 218.000000140382411, 435.000000054710313 ], [ 210.000000141227588, 435.0000000527113 ], [ 209.000000141458088, 429.000000055092983 ] ] ] } },
{ "type": "Feature", "properties": { "feature_type": "building", "subtype": "no-damage", "uid": "57cacb2b-c194-4cdf-9392-f5fe12dabf13" }, "geometry": { "type": "Polygon", "coordinates": [ [ [ 198.195397551340989, 444.804602643560884 ], [ 223.1953975508236, 442.804602643022179 ], [ 224.195397551592492, 455.804602643025873 ], [ 199.195397549361388, 458.804602644333727 ], [ 198.195397551340989, 444.804602643560884 ] ] ] } },
{ "type": "Feature", "properties": { "feature_type": "building", "subtype": "no-damage", "uid": "44cabd93-abb3-4647-bdfe-ad59e148ac63" }, "geometry": { "type": "Polygon", "coordinates": [ [ [ 172.000000139745197, 427.000000053554686 ], [ 180.000000144147293, 427.000000053554686 ], [ 180.000000142647991, 437.000000055249018 ], [ 172.000000139995109, 437.000000053250119 ], [ 172.000000139745197, 427.000000053554686 ] ] ] } },
{ "type": "Feature", "properties": { "feature_type": "building", "subtype": "minor-damage", "uid": "57a94978-0160-4e96-b955-fd435ee47ee7" }, "geometry": { "type": "Polygon", "coordinates": [ [ [ 183.501099846960386, 326.225773182596072 ], [ 204.501099847115398, 326.225773180597116 ], [ 204.501099849364209, 363.225773182068394 ], [ 183.501099845211286, 363.225773182068394 ], [ 183.501099846960386, 326.225773182596072 ] ] ] } },
{ "type": "Feature", "properties": { "feature_type": "building", "subtype": "no-damage", "uid": "b49878cd-f33b-4f29-883d-aef4ccf5231e" }, "geometry": { "type": "Polygon", "coordinates": [ [ [ 202.90969088933781, 378.862336764622626 ], [ 223.182818057725314, 377.81718213910051 ], [ 225.227972679518388, 421.045154676691482 ], [ 205.273127306634393, 421.135463929196021 ], [ 202.90969088933781, 378.862336764622626 ] ] ] } },
{ "type": "Feature", "properties": { "feature_type": "building", "subtype": "no-damage", "uid": "488fbd81-8142-456f-9a45-69048a82e578" }, "geometry": { "type": "Polygon", "coordinates": [ [ [ 79.000000139201305, 328.000000054372379 ], [ 97.00000013979826, 328.000000054372379 ], [ 97.000000138798782, 367.00000005438352 ], [ 79.000000140700521, 367.00000005438352 ], [ 79.000000139201305, 328.000000054372379 ] ] ] } },
{ "type": "Feature", "properties": { "feature_type": "building", "subtype": "major-damage", "uid": "7d01f331-cc45-4582-a22b-08a276ec9409" }, "geometry": { "type": "Polygon", "coordinates": [ [ [ 165.954845513627191, 389.772027514581509 ], [ 165.954845513377307, 395.772027514198783 ], [ 165.95484551737519, 414.772027511820909 ], [ 145.954845514990609, 414.772027510821374 ], [ 145.954845516489797, 424.772027513515127 ], [ 120.954845514258693, 424.772027512515592 ], [ 120.954845515757896, 414.772027511820909 ], [ 120.954845515757896, 394.772027516428125 ], [ 144.954845513722006, 395.772027512199884 ], [ 144.954845518469511, 389.772027514581509 ], [ 165.954845513627191, 389.772027514581509 ] ] ] } },
{ "type": "Feature", "properties": { "feature_type": "building", "subtype": "major-damage", "uid": "fde2253d-82c4-47cc-8d38-423f452c2b1c" }, "geometry": { "type": "Polygon", "coordinates": [ [ [ 375.014829456383211, 467.249382165924374 ], [ 376.01235790224132, 480.501235829929783 ], [ 367.000000140756697, 481.000000055107819 ], [ 367.000000140506927, 491.00000005380349 ], [ 359.00000014260138, 491.00000005380349 ], [ 359.000000143350974, 481.000000053108806 ], [ 337.000000139678491, 482.00000005287842 ], [ 337.000000142926808, 468.000000055104124 ], [ 375.014829456383211, 467.249382165924374 ] ] ] } },
{ "type": "Feature", "properties": { "feature_type": "building", "subtype": "no-damage", "uid": "c6fa2113-7d02-4db7-8d48-8c19bfab4d62" }, "geometry": { "type": "Polygon", "coordinates": [ [ [ 128.000000139896287, 210.000000051571106 ], [ 137.000000142818408, 210.000000053570091 ], [ 138.000000139089593, 223.000000053573814 ], [ 129.000000140415295, 223.000000053573814 ], [ 128.000000139896287, 210.000000051571106 ] ] ] } },
{ "type": "Feature", "properties": { "feature_type": "building", "subtype": "no-damage", "uid": "499636be-b005-4363-901c-51f93db9e4f5" }, "geometry": { "type": "Polygon", "coordinates": [ [ [ 172.000000139245486, 165.000000053941704 ], [ 172.000000140244993, 176.000000053406694 ], [ 154.000000140897413, 176.000000053406694 ], [ 147.000000141012208, 176.000000053406694 ], [ 147.000000139263193, 169.0000000550192 ], [ 154.000000139398111, 169.000000053020187 ], [ 154.000000140147705, 165.000000055940689 ], [ 172.000000139245486, 165.000000053941704 ] ] ] } },
{ "type": "Feature", "properties": { "feature_type": "building", "subtype": "minor-damage", "uid": "1b62af04-6483-4e63-832d-40088a384f1e" }, "geometry": { "type": "Polygon", "coordinates": [ [ [ 177.990286930235811, 136.540703104375609 ], [ 200.990286928180609, 135.54070310160759 ], [ 201.990286928199907, 167.540703103231209 ], [ 177.990286926987494, 167.540703103231209 ], [ 177.990286930235811, 136.540703104375609 ] ] ] } },
{ "type": "Feature", "properties": { "feature_type": "building", "subtype": "no-damage", "uid": "70198498-6024-4ac3-b428-118cb80bd437" }, "geometry": { "type": "Polygon", "coordinates": [ [ [ 161.000000141282186, 113.000000053926996 ], [ 171.00000014372381, 114.000000053696596 ], [ 171.00000013997581, 123.000000052622795 ], [ 160.000000140013611, 122.000000052853196 ], [ 161.000000141282186, 113.000000053926996 ] ] ] } },
{ "type": "Feature", "properties": { "feature_type": "building", "subtype": "minor-damage", "uid": "0442635f-46ec-4721-87f8-04df49fa2525" }, "geometry": { "type": "Polygon", "coordinates": [ [ [ 103.000000143911905, 141.000000052474093 ], [ 103.000000140163806, 152.00000005393801 ], [ 97.000000143546302, 152.00000005393801 ], [ 97.00000014004813, 172.000000054328098 ], [ 74.000000139354768, 172.000000054328098 ], [ 73.000000139085614, 134.000000052087699 ], [ 97.000000139548391, 134.000000052087699 ], [ 97.000000143046563, 141.000000054473105 ], [ 103.000000143911905, 141.000000052474093 ] ] ] } },
{ "type": "Feature", "properties": { "feature_type": "building", "subtype": "minor-damage", "uid": "14266ac2-324f-4a87-9c64-3f24c70dc879" }, "geometry": { "type": "Polygon", "coordinates": [ [ [ 79.000000140200783, 282.000000053974873 ], [ 96.000000143277148, 282.000000053974873 ], [ 96.000000139529106, 315.000000054368684 ], [ 79.00000014120026, 315.000000054368684 ], [ 79.000000140200783, 282.000000053974873 ] ] ] } },
{ "type": "Feature", "properties": { "feature_type": "building", "subtype": "no-damage", "uid": "d2b4e76a-1317-4851-a7c0-6d7af466bc25" }, "geometry": { "type": "Polygon", "coordinates": [ [ [ 117.000000142932507, 309.000000051752977 ], [ 128.000000143394402, 309.000000051752977 ], [ 128.000000138896809, 317.000000053908025 ], [ 117.0000001401839, 318.000000051678626 ], [ 117.000000142932507, 309.000000051752977 ] ] ] } },
{ "type": "Feature", "properties": { "feature_type": "building", "subtype": "no-damage", "uid": "fe94e564-13bd-450a-8264-fba3f24a56d0" }, "geometry": { "type": "Polygon", "coordinates": [ [ [ 184.546254474731086, 279.363436471424393 ], [ 203.546254472848602, 279.36343646942538 ], [ 204.54625447236819, 317.363436473664819 ], [ 185.5462544727514, 317.363436471665807 ], [ 184.546254474731086, 279.363436471424393 ] ] ] } },
{ "type": "Feature", "properties": { "feature_type": "building", "subtype": "no-damage", "uid": "1e77506b-bacc-4555-917d-6ef560b66949" }, "geometry": { "type": "Polygon", "coordinates": [ [ [ 153.000000139628696, 313.000000053829922 ], [ 163.00000014331971, 314.000000052600114 ], [ 163.000000144319188, 323.00000005252582 ], [ 153.000000141127913, 322.000000053755628 ], [ 153.000000139628696, 313.000000053829922 ] ] ] } },
{ "type": "Feature", "properties": { "feature_type": "building", "subtype": "no-damage", "uid": "2cc847d1-44da-4ae2-a648-cfef4f99b81a" }, "geometry": { "type": "Polygon", "coordinates": [ [ [ 151.273127307342207, 193.230172003727688 ], [ 158.273127307727009, 193.230172003727688 ], [ 159.273127307746307, 214.23017200488701 ], [ 151.273127304843513, 214.230172003887503 ], [ 151.273127307342207, 193.230172003727688 ] ] ] } },
{ "type": "Feature", "properties": { "feature_type": "building", "subtype": "major-damage", "uid": "1971bcfd-3ff3-4848-97e8-611ac49eda52" }, "geometry": { "type": "Polygon", "coordinates": [ [ [ 131.000000142452791, 108.000000054079294 ], [ 141.000000142395805, 108.000000054079294 ], [ 141.000000141146387, 122.000000052853196 ], [ 131.000000141703197, 122.000000052853196 ], [ 131.000000142452791, 108.000000054079294 ] ] ] } },
{ "type": "Feature", "properties": { "feature_type": "building", "subtype": "minor-damage", "uid": "890357cc-6a08-4f49-85f9-43c272252810" }, "geometry": { "type": "Polygon", "coordinates": [ [ [ 201.864536264315603, 230.408591096471014 ], [ 202.864536262835713, 265.408591097403473 ], [ 183.86453626196959, 266.408591096173723 ], [ 182.864536262949798, 261.40859109632612 ], [ 176.864536263583688, 261.40859109632612 ], [ 176.864536262834093, 254.408591095939613 ], [ 182.864536262450002, 254.408591096939091 ], [ 182.864536265948203, 230.408591094472087 ], [ 201.864536264315603, 230.408591096471014 ] ] ] } },
{ "type": "Feature", "properties": { "feature_type": "building", "subtype": "minor-damage", "uid": "ba87e53a-9719-4e41-a5f8-f0af4ce8c9fa" }, "geometry": { "type": "Polygon", "coordinates": [ [ [ 54.344769060570343, 466.264436314042825 ], [ 89.344769060495622, 466.264436311044278 ], [ 90.344769063263456, 486.827615593424582 ], [ 53.758576829785589, 487.436820771504983 ], [ 54.344769060570343, 466.264436314042825 ] ] ] } },
{ "type": "Feature", "properties": { "feature_type": "building", "subtype": "major-damage", "uid": "fcf951b4-af3b-4c45-9429-39535fecdf8a" }, "geometry": { "type": "Polygon", "coordinates": [ [ [ 89.000000142142696, 79.375131327272868 ], [ 89.000000142892304, 95.375131325585983 ], [ 81.000000143237784, 95.375131325585983 ], [ 82.000000142007721, 102.375131327971303 ], [ 70.00000014002724, 102.375131325972404 ], [ 70.000000140526978, 96.375131326355103 ], [ 53.000000143697349, 96.375131325355625 ], [ 52.000000142678587, 79.375131325273912 ], [ 89.000000142142696, 79.375131327272868 ] ] ] } },
{ "type": "Feature", "properties": { "feature_type": "building", "subtype": "destroyed", "uid": "51e12248-6f86-4c45-be2f-d32fb5275499" }, "geometry": { "type": "Polygon", "coordinates": [ [ [ 54.365757408453391, 508.461138596777005 ], [ 71.365757411529756, 508.461138595777527 ], [ 71.596562994887691, 522.53886151153597 ], [ 54.538861598595467, 522.250354528715434 ], [ 54.365757408453391, 508.461138596777005 ] ] ] } },
{ "type": "Feature", "properties": { "feature_type": "building", "subtype": "minor-damage", "uid": "fae323c0-9b26-4e26-bee6-ebbdc2643b19" }, "geometry": { "type": "Polygon", "coordinates": [ [ [ 841.83718794520712, 139.550416313809393 ], [ 841.837187947705843, 144.550416314656502 ], [ 856.837187946745644, 144.550416312657489 ], [ 856.83718794624599, 175.550416318509491 ], [ 852.837187949666941, 175.550416317510013 ], [ 852.837187947418215, 191.550416315823099 ], [ 834.837187945072174, 190.550416315054008 ], [ 834.837187945322057, 175.550416317510013 ], [ 808.837187945320352, 175.550416317510013 ], [ 808.837187944820698, 159.550416316198408 ], [ 803.837187946473364, 159.550416316198408 ], [ 803.837187948472319, 144.550416315656008 ], [ 808.837187945070582, 144.550416314656502 ], [ 826.837187946666972, 144.550416314656502 ], [ 826.837187945667438, 139.550416313809393 ], [ 841.83718794520712, 139.550416313809393 ] ] ] } },
{ "type": "Feature", "properties": { "feature_type": "building", "subtype": "no-damage", "uid": "d698fdc6-77af-4434-b63f-36ac6935c62f" }, "geometry": { "type": "Polygon", "coordinates": [ [ [ 908.000000142942781, 127.000000053700305 ], [ 914.000000141059559, 127.000000053700305 ], [ 914.000000141059559, 122.000000052853196 ], [ 929.000000141098894, 123.000000053622301 ], [ 928.000000141079681, 148.000000054859498 ], [ 914.000000141559326, 148.000000054859498 ], [ 914.000000141559326, 142.000000055242197 ], [ 908.000000141443593, 141.000000054473105 ], [ 908.000000141443593, 151.000000054168396 ], [ 888.000000141057967, 150.000000053399305 ], [ 888.000000142557155, 141.000000054473105 ], [ 888.000000143056923, 127.000000053700305 ], [ 889.000000143575903, 123.000000052622795 ], [ 909.00000014146292, 123.000000053622301 ], [ 908.000000142942781, 127.000000053700305 ] ] ] } },
{ "type": "Feature", "properties": { "feature_type": "building", "subtype": "no-damage", "uid": "dab8cf03-a89c-4526-972a-0508a4bfa09d" }, "geometry": { "type": "Polygon", "coordinates": [ [ [ 715.67951855344711, 162.828350005014698 ], [ 716.771248590669984, 141.218909355922705 ], [ 732.771248588729691, 141.218909355922705 ], [ 743.771248588192179, 141.218909357921689 ], [ 743.771248589441598, 139.218909357382898 ], [ 752.771248586866591, 139.218909355383886 ], [ 752.771248586866591, 141.218909357921689 ], [ 757.771248589461607, 141.218909357921689 ], [ 757.771248588212302, 143.21890935646141 ], [ 772.357963531895507, 143.460315405421909 ], [ 773.26621623773633, 165.150123233585902 ], [ 733.885974312025382, 163.897354334470094 ], [ 715.67951855344711, 162.828350005014698 ] ] ] } },
{ "type": "Feature", "properties": { "feature_type": "building", "subtype": "no-damage", "uid": "455962ef-cb89-4e95-a180-d8fc3e92673d" }, "geometry": { "type": "Polygon", "coordinates": [ [ [ 0.079073292506802, 250.616900498912202 ], [ 9.37482498536736, 250.599288674653707 ], [ 9.156934085058019, 258.342043886292117 ], [ 13.502242978088789, 258.583449934252997 ], [ 14.709273227138491, 268.963910071535111 ], [ 9.398340135517618, 269.205316120495525 ], [ 10.60537038331797, 296.242793685022207 ], [ 0.079101556974875, 296.242793703012808 ], [ 0.079073292506802, 250.616900498912202 ] ] ] } },
{ "type": "Feature", "properties": { "feature_type": "building", "subtype": "minor-damage", "uid": "e240cccd-662e-450e-8da6-f8df84fd42b7" }, "geometry": { "type": "Polygon", "coordinates": [ [ [ 1023.055873959674955, 186.811470628164813 ], [ 996.159079369395499, 186.479232139319691 ], [ 995.431212157924847, 172.103854742756113 ], [ 995.795145765409302, 167.008784276453298 ], [ 997.068913380235585, 167.190751077322091 ], [ 996.613996372316933, 157.819460752124002 ], [ 1006.531187108614972, 157.546510548322203 ], [ 1018.995913076063971, 158.183394356859907 ], [ 1018.995913076063971, 160.366995987274407 ], [ 1023.055850495195955, 160.145544937124299 ], [ 1023.055873959674955, 186.811470628164813 ] ] ] } },
{ "type": "Feature", "properties": { "feature_type": "building", "subtype": "major-damage", "uid": "4aa311a3-b299-4479-a825-c22bc6b1bbda" }, "geometry": { "type": "Polygon", "coordinates": [ [ [ 181.400355341660912, 220.841652993366893 ], [ 181.88018357884971, 217.003027079863614 ], [ 177.081901187471402, 216.523198840425806 ], [ 176.722030006144109, 208.725989952310499 ], [ 182.000140636710199, 208.60603289619911 ], [ 181.880183576350987, 181.615694444565491 ], [ 198.674171944675692, 181.49573738645509 ], [ 197.95442958876751, 208.366118773981498 ], [ 201.313227261582909, 208.965904074528112 ], [ 201.553141380302293, 218.802382974506997 ], [ 197.474601348580194, 218.322554736068696 ], [ 198.31430076559721, 222.161180650571396 ], [ 181.400355341660912, 220.841652993366893 ] ] ] } },
{ "type": "Feature", "properties": { "feature_type": "building", "subtype": "destroyed", "uid": "0ba7cb87-a061-4019-bfa5-3ad051c19609" }, "geometry": { "type": "Polygon", "coordinates": [ [ [ 681.586846942017928, 187.179728383429506 ], [ 717.094136634918868, 191.618139594480908 ], [ 714.694995440479033, 212.49066799353281 ], [ 675.948865133872573, 206.492815004058713 ], [ 678.587920448780778, 187.179728383429506 ], [ 681.586846942017928, 187.179728383429506 ] ] ] } },
{ "type": "Feature", "properties": { "feature_type": "building", "subtype": "no-damage", "uid": "2682cb5e-8008-4115-8bd9-7df25a8c4f0b" }, "geometry": { "type": "Polygon", "coordinates": [ [ [ 709.139727994361238, 162.470959627261209 ], [ 731.791196333064818, 163.128886094778011 ], [ 731.885185832850652, 174.407625516363311 ], [ 706.226053642927809, 173.279751572905411 ], [ 706.602011623580665, 162.188991142895986 ], [ 709.139727994361238, 162.470959627261209 ] ] ] } },
{ "type": "Feature", "properties": { "feature_type": "building", "subtype": "no-damage", "uid": "bb5ccefb-acb5-4291-aee6-7eafc5c31429" }, "geometry": { "type": "Polygon", "coordinates": [ [ [ 77.566229012258688, 257.67438407218151 ], [ 76.611383635743053, 236.349504048800412 ], [ 80.749046925815037, 233.484967928747892 ], [ 124.353652349333103, 235.712940467788087 ], [ 124.671934138589805, 238.259194797834198 ], [ 124.035370560576098, 258.310947656192184 ], [ 117.351452939958904, 258.947511239203379 ], [ 77.566229012258688, 257.67438407218151 ] ] ] } },
{ "type": "Feature", "properties": { "feature_type": "building", "subtype": "minor-damage", "uid": "29606937-5f6d-4c13-8ab8-0536b87d028d" }, "geometry": { "type": "Polygon", "coordinates": [ [ [ 75.736729657730194, 218.237857644481295 ], [ 76.142946840736798, 180.053442526807004 ], [ 94.422720035305588, 179.647225347798212 ], [ 97.672457487864477, 182.49074562084931 ], [ 99.297326217642095, 217.019206095461186 ], [ 95.641371578828284, 216.612988913453989 ], [ 75.736729657730194, 218.237857644481295 ] ] ] } },
{ "type": "Feature", "properties": { "feature_type": "building", "subtype": "major-damage", "uid": "8381eff4-a2d8-42ce-8b32-602fc4d374a3" }, "geometry": { "type": "Polygon", "coordinates": [ [ [ 134.988926671053093, 103.351200525221202 ], [ 95.337170880354961, 102.104289960277299 ], [ 96.833463551890645, 80.906810453180498 ], [ 101.821105793174794, 79.90928200482351 ], [ 112.544536604514505, 80.408046231000966 ], [ 113.292682937283899, 61.704387837800297 ], [ 123.7667316350352, 61.205623616620237 ], [ 125.512406418160296, 65.6945016302288 ], [ 124.764260082142599, 80.408046229002011 ], [ 138.230894124214586, 81.405574678358477 ], [ 139.727186796999689, 85.894452690967555 ], [ 138.480276238052909, 103.849964745401806 ], [ 134.988926671053093, 103.351200525221202 ] ] ] } },
{ "type": "Feature", "properties": { "feature_type": "building", "subtype": "no-damage", "uid": "cc0f0d48-2703-44b1-9d36-32a030d2a9c5" }, "geometry": { "type": "Polygon", "coordinates": [ [ [ 172.200846042353703, 104.457206650247002 ], [ 155.005873956991707, 103.871014420711404 ], [ 154.419681722458904, 98.20448952920438 ], [ 149.92554129427171, 97.032105068134356 ], [ 148.557759423606711, 89.802400893867983 ], [ 150.316336110213996, 80.032530388615854 ], [ 153.247297262638511, 79.250940746236708 ], [ 156.959848054193714, 79.250940748235664 ], [ 157.15524546803681, 73.19362103703827 ], [ 171.028461583282791, 73.193621035039314 ], [ 172.200846042603501, 76.319979594561119 ], [ 172.200846046851296, 79.641735568925498 ], [ 182.166113958947989, 80.618722618151395 ], [ 185.683267341657512, 83.354286359981799 ], [ 185.292472520218212, 98.00909211935921 ], [ 175.522602015967692, 98.7906817597394 ], [ 174.741012373588688, 103.675617013864695 ], [ 172.200846042353703, 104.457206650247002 ] ] ] } },
{ "type": "Feature", "properties": { "feature_type": "building", "subtype": "major-damage", "uid": "37954f74-f713-4e01-8032-bddf604afbd8" }, "geometry": { "type": "Polygon", "coordinates": [ [ [ 210.994148735451489, 99.49688864626188 ], [ 199.052428005464208, 98.272096777544419 ], [ 195.990448332421892, 95.363216088091136 ], [ 195.6842503639933, 85.564881132354671 ], [ 200.889615812038187, 82.196703493881415 ], [ 208.697663976109709, 81.27810959084411 ], [ 208.85076296044889, 74.235556341221127 ], [ 219.261493851541303, 74.082457354882877 ], [ 219.414592837129902, 80.818812636826763 ], [ 233.0404023836048, 82.043604508542643 ], [ 235.949283075306312, 81.278109589844632 ], [ 236.408580024076286, 97.506601859845887 ], [ 231.662511531048096, 99.649987631600638 ], [ 216.811910111608199, 98.88449271190315 ], [ 215.740217227480201, 101.180977467997195 ], [ 212.06584161658111, 101.180977469996193 ], [ 210.994148735451489, 99.49688864626188 ] ] ] } },
{ "type": "Feature", "properties": { "feature_type": "building", "subtype": "no-damage", "uid": "b22937ec-5163-4c83-80e0-efe68fd2fc3e" }, "geometry": { "type": "Polygon", "coordinates": [ [ [ 173.102440505363802, 468.618196368944211 ], [ 184.738275304980789, 468.498239307835377 ], [ 185.5779747207485, 471.137294623243918 ], [ 185.81788883971771, 493.569264802717385 ], [ 185.218103541669905, 502.446087224820189 ], [ 166.384845157484193, 499.926988969520892 ], [ 167.704372815937802, 485.532141796382518 ], [ 170.583342249315507, 484.812399434727126 ], [ 171.782912849159089, 470.297595206476672 ], [ 173.102440505363802, 468.618196368944211 ] ] ] } },
{ "type": "Feature", "properties": { "feature_type": "building", "subtype": "minor-damage", "uid": "843acd21-d853-4f2b-b6f4-31b18dbeacb6" }, "geometry": { "type": "Polygon", "coordinates": [ [ [ 230.132277881926399, 510.622677944461486 ], [ 211.764921331746592, 511.208870174996491 ], [ 206.2937938488366, 460.600940958130309 ], [ 223.879560756887287, 458.842364266525294 ], [ 230.132277883425587, 461.968722827046577 ], [ 232.867841621257497, 507.10552456424989 ], [ 230.132277881926399, 510.622677944461486 ] ] ] } },
{ "type": "Feature", "properties": { "feature_type": "building", "subtype": "minor-damage", "uid": "ba6f0296-9fd2-442e-aa71-9c75925b6de4" }, "geometry": { "type": "Polygon", "coordinates": [ [ [ 917.48157533242329, 432.578422464446021 ], [ 943.417314967960692, 430.832747683319383 ], [ 945.66175397601387, 433.82533302639149 ], [ 945.911136086603847, 443.800617501965576 ], [ 951.646924661157072, 444.299381727143611 ], [ 952.145688884835749, 450.284552412288122 ], [ 946.659282421871922, 451.53146297023568 ], [ 946.908664533961087, 485.447430185388612 ], [ 944.6642255289064, 487.691869191693115 ], [ 916.733428997904753, 486.94372285392609 ], [ 915.985282660637722, 457.017869431201689 ], [ 912.493933094387444, 456.768487319612177 ], [ 912.992697319565309, 448.040113405983618 ], [ 917.232193220084241, 448.538877627163572 ], [ 917.48157533242329, 432.578422464446021 ] ] ] } },
{ "type": "Feature", "properties": { "feature_type": "building", "subtype": "minor-damage", "uid": "8658c969-41a9-407c-aa1a-184d1b7c2c73" }, "geometry": { "type": "Polygon", "coordinates": [ [ [ 950.89589297588725, 485.688664530147889 ], [ 951.199259790470364, 465.562731290108218 ], [ 971.998813268396589, 466.930513160023793 ], [ 975.320569243259911, 469.079884670319814 ], [ 975.906761473544975, 486.274856761682372 ], [ 972.194210677741921, 488.228830863132714 ], [ 952.459072256397462, 487.447241223751917 ], [ 950.89589297588725, 485.688664530147889 ] ] ] } },
{ "type": "Feature", "properties": { "feature_type": "building", "subtype": "destroyed", "uid": "bc6f0fe8-8bd2-41c2-b897-3bbcdc68b992" }, "geometry": { "type": "Polygon", "coordinates": [ [ [ 808.598363444246047, 414.083556872485303 ], [ 806.104542327102081, 410.093443080056772 ], [ 803.860103317549829, 392.387313136212583 ], [ 807.60083499663881, 389.644109907728478 ], [ 821.566233264388529, 389.145345683549976 ], [ 824.808200716050806, 391.639166802443583 ], [ 827.302021835443611, 411.34035364300172 ], [ 825.556347056066443, 414.582321099662181 ], [ 808.598363444246047, 414.083556872485303 ] ] ] } },
{ "type": "Feature", "properties": { "feature_type": "building", "subtype": "un-classified", "uid": "e805a4b8-afb8-417d-a816-01f7fd43aef2" }, "geometry": { "type": "Polygon", "coordinates": [ [ [ 894.03923976389126, 343.871041200389527 ], [ 917.157186300920216, 344.024140185728299 ], [ 919.300572075173136, 345.555130024123798 ], [ 918.994374104245821, 355.965860914218979 ], [ 917.769582237277746, 357.649949732955918 ], [ 894.192338747730787, 356.884454814257879 ], [ 894.03923976389126, 343.871041200389527 ] ] ] } }
]
}
