{
"type": "FeatureCollection",
"name": "hurricane-florence_00000295_post_disaster",
"features": [
{ "type": "Feature", "properties": { "feature_type": "building", "subtype": "no-damage", "uid": "a95db00c-f18f-460a-934c-3148d6ee6eac" }, "geometry": { "type": "Polygon", "coordinates": [ [ [ 754.745618188548065, 874.784984643375651 ], [ 758.885696736352088, 884.287867064621196 ], [ 767.681849065382039, 893.544519213109197 ], [ 741.899399138343938, 908.608053816152506 ], [ 734.426106817359027, 899.307828088945826 ], [ 731.822447493549021, 889.748265535691189 ], [ 754.745618188548065, 874.784984643375651 ] ] ] } },
{ "type": "Feature", "properties": { "feature_type": "building", "subtype": "no-damage", "uid": "f4feb3d1-260d-4e91-86ae-07ad78c08d9e" }, "geometry": { "type": "Polygon", "coordinates": [ [ [ 620.805980369588042, 1022.987428049650021 ], [ 620.583474333331083, 1019.931322427439 ], [ 646.256650928082081, 1016.566267265743022 ], [ 647.207478372482683, 1022.987268091869964 ], [ 620.805980369588042, 1022.987428049650021 ] ] ] } },
{ "type": "Feature", "properties": { "feature_type": "building", "subtype": "no-damage", "uid": "bf5e68c9-2f1f-4512-9ff5-d1cac418f16d" }, "geometry": { "type": "Polygon", "coordinates": [ [ [ 710.30886710155562, 1005.358614171878003 ], [ 715.443502421728908, 1010.19702052636103 ], [ 708.136521392408781, 1017.109029609581967 ], [ 703.495601004731043, 1012.073137276953048 ], [ 710.30886710155562, 1005.358614171878003 ] ] ] } },
{ "type": "Feature", "properties": { "feature_type": "building", "subtype": "un-classified", "uid": "6de03799-56fc-47c9-96f8-9694c832c41d" }, "geometry": { "type": "Polygon", "coordinates": [ [ [ 581.657505002238963, 603.313970404894008 ], [ 585.623495126598527, 611.908183728684548 ], [ 591.654857957354238, 617.217923806461727 ], [ 574.883278931571112, 629.589756385231794 ], [ 566.672095807745563, 624.252487356892743 ], [ 565.235138761595294, 614.69619684458246 ], [ 581.657505002238963, 603.313970404894008 ] ] ] } },
{ "type": "Feature", "properties": { "feature_type": "building", "subtype": "no-damage", "uid": "156319ee-b1c7-4c95-9a9d-dc8393de94b9" }, "geometry": { "type": "Polygon", "coordinates": [ [ [ 223.452644849122692, 430.470347295884324 ], [ 243.170192906652204, 429.718384241350407 ], [ 245.156008341181092, 431.420511756260225 ], [ 245.156008341563307, 447.732567124976811 ], [ 223.453882501233494, 447.874411085741713 ], [ 222.177286865560603, 442.768028536935219 ], [ 222.744662702504911, 437.519802025325077 ], [ 223.452644849122692, 430.470347295884324 ] ] ] } },
{ "type": "Feature", "properties": { "feature_type": "building", "subtype": "no-damage", "uid": "8367cdda-a71d-43c2-abf2-8e31b2aed3d4" }, "geometry": { "type": "Polygon", "coordinates": [ [ [ 140.689472688632407, 452.36655045850091 ], [ 165.619121662931292, 452.679474918500716 ], [ 165.306197197198088, 475.522960796105679 ], [ 139.855007450924404, 475.105728180054712 ], [ 140.689472688632407, 452.36655045850091 ] ] ] } }
]
}
