{
"type": "FeatureCollection",
"name": "hurricane-michael_00000438_post_disaster",
"features": [
{ "type": "Feature", "properties": { "feature_type": "building", "subtype": "minor-damage", "uid": "de45ea14-6e1b-4a51-a109-19d4f5fa9146" }, "geometry": { "type": "Polygon", "coordinates": [ [ [ 0.074457701727839, 31.31878445502679 ], [ 36.386030632689938, 29.83599608795183 ], [ 36.489477842508173, 54.26323781086073 ], [ 0.074485802825941, 54.913994869407738 ], [ 0.074457701727839, 31.31878445502679 ] ] ] } },
{ "type": "Feature", "properties": { "feature_type": "building", "subtype": "minor-damage", "uid": "644c7d2b-2d4e-4c3f-8c91-3bc0c646bc2d" }, "geometry": { "type": "Polygon", "coordinates": [ [ [ 0.074513362004111, 79.295277015780343 ], [ 23.13475636208446, 79.29527697778596 ], [ 23.13475636208446, 86.373327286668015 ], [ 36.111181927454943, 87.159777322765748 ], [ 35.717956914655197, 113.899078490097907 ], [ 8.585430725517943, 114.685528524195902 ], [ 8.192205707968899, 104.854903093471094 ], [ 0.074541041914442, 105.244550168656104 ], [ 0.074513362004111, 79.295277015780343 ] ] ] } },
{ "type": "Feature", "properties": { "feature_type": "building", "subtype": "no-damage", "uid": "7884f464-883e-4821-a326-056ef0477f92" }, "geometry": { "type": "Polygon", "coordinates": [ [ [ 16.056706053700559, 139.851929623332012 ], [ 16.449931069249899, 122.156803852626595 ], [ 42.00955718894086, 122.156803851626805 ], [ 42.402782204490201, 140.638379659429688 ], [ 16.056706053700559, 139.851929623332012 ] ] ] } },
{ "type": "Feature", "properties": { "feature_type": "building", "subtype": "major-damage", "uid": "9243f23d-7e54-4571-a269-20e489db31a9" }, "geometry": { "type": "Polygon", "coordinates": [ [ [ 195.094829362800112, 114.335341734808495 ], [ 227.137446755272208, 114.335341734808495 ], [ 226.829344660679311, 132.205262966726792 ], [ 244.699265897101498, 131.589058788039694 ], [ 244.699265901350913, 147.610367483896795 ], [ 255.482839060123013, 147.610367483896795 ], [ 256.407145329653702, 158.393940641916402 ], [ 256.407145330903518, 170.409922162309414 ], [ 195.711033545736797, 171.026126345995692 ], [ 195.094829362800112, 114.335341734808495 ] ] ] } },
{ "type": "Feature", "properties": { "feature_type": "building", "subtype": "no-damage", "uid": "7b0a1d86-5976-49c6-9cb2-dc1d103ad336" }, "geometry": { "type": "Polygon", "coordinates": [ [ [ 98.350773017945073, 125.735119073514795 ], [ 110.366754536341404, 125.735119071515101 ], [ 125.463756960172205, 126.351323255201507 ], [ 125.771859050015706, 142.064529859715293 ], [ 138.404044750598814, 141.756427768371992 ], [ 140.560759387002491, 151.307592569017402 ], [ 135.63112593850741, 163.631676175754393 ], [ 125.771859049515797, 163.939778268097513 ], [ 125.771859051015596, 158.702042734259493 ], [ 114.372081710306702, 157.777736464229093 ], [ 100.815589737193406, 158.702042734259493 ], [ 100.507487648349695, 147.6103674818971 ], [ 82.021362230740664, 146.377959120523514 ], [ 82.329464320084284, 126.043221162858401 ], [ 98.350773017945073, 125.735119073514795 ] ] ] } },
{ "type": "Feature", "properties": { "feature_type": "building", "subtype": "no-damage", "uid": "0e9563aa-38a2-403b-95fb-74b237dbb220" }, "geometry": { "type": "Polygon", "coordinates": [ [ [ 0.074619596808066, 190.0142235409661 ], [ 26.22649057989188, 191.015099364951112 ], [ 27.158196155935261, 205.832532124808296 ], [ 33.204208777456003, 204.613880581883791 ], [ 33.204208781455407, 210.134404814083894 ], [ 60.304964103194258, 210.134404813083989 ], [ 60.304964103694182, 236.184183353428097 ], [ 43.241525565821867, 236.231428460029093 ], [ 7.107185135003676, 235.227696781992705 ], [ 7.107185131504194, 229.707172549792602 ], [ 0.074650486494158, 230.203767045644497 ], [ 0.074619596808066, 190.0142235409661 ] ] ] } },
{ "type": "Feature", "properties": { "feature_type": "building", "subtype": "no-damage", "uid": "b1f579e2-c005-4d78-bf87-f4f5bfc9c227" }, "geometry": { "type": "Polygon", "coordinates": [ [ [ 93.834326684126765, 170.20005753351731 ], [ 122.942545365688503, 170.701923369535905 ], [ 122.942545365188494, 175.720581764717508 ], [ 127.459337919103305, 175.720581764717508 ], [ 126.455606244566098, 180.2373743198809 ], [ 129.968667115444902, 180.739240158899207 ], [ 130.972398797480992, 198.806410376553401 ], [ 121.938813686152002, 199.308276214571691 ], [ 121.938813690401403, 213.862385558098595 ], [ 94.336192522895161, 214.866117235135192 ], [ 93.834326684126765, 170.20005753351731 ] ] ] } },
{ "type": "Feature", "properties": { "feature_type": "building", "subtype": "minor-damage", "uid": "3ee2d3a7-8537-46cd-8e31-7413cffec1a5" }, "geometry": { "type": "Polygon", "coordinates": [ [ [ 98.909192143293808, 221.244207340166696 ], [ 130.291978600871289, 219.55436499403001 ], [ 131.740414899167206, 259.869175289713723 ], [ 100.357628444589196, 261.076205537668386 ], [ 98.909192143293808, 221.244207340166696 ] ] ] } },
{ "type": "Feature", "properties": { "feature_type": "building", "subtype": "no-damage", "uid": "66a4f4d1-be1b-4773-b535-a8264809927c" }, "geometry": { "type": "Polygon", "coordinates": [ [ [ 4.512097162402348, 242.78477964647891 ], [ 31.336726741586681, 242.78477964647891 ], [ 31.336726740836792, 252.714338664903408 ], [ 32.818750477885153, 252.714338662903714 ], [ 32.966952849190342, 278.501551631946825 ], [ 23.630203325982709, 279.835372992690395 ], [ 18.294917883007081, 275.092897045935104 ], [ 11.92221582814701, 274.796492298325518 ], [ 8.217156492525087, 269.757611601960889 ], [ 1.548049690805265, 269.609409230655785 ], [ 1.39984732, 243.229386768393198 ], [ 4.512097162402348, 242.78477964647891 ] ] ] } },
{ "type": "Feature", "properties": { "feature_type": "building", "subtype": "no-damage", "uid": "65eb4d2f-db9a-4477-bd70-176fe094af9f" }, "geometry": { "type": "Polygon", "coordinates": [ [ [ 136.377503334532292, 310.217534501458715 ], [ 152.398812026893893, 310.217534500458783 ], [ 152.706914116487496, 306.520309419337593 ], [ 161.641874736948211, 306.828411506681391 ], [ 162.258078915885392, 309.909432413114985 ], [ 178.279387609996803, 310.525636590802208 ], [ 177.663183431059593, 344.259781650649018 ], [ 164.219280186867792, 344.470127056407023 ], [ 164.219280187867611, 331.109148448468488 ], [ 134.445966158221211, 330.380355536610693 ], [ 134.836992883064909, 324.082128561912384 ], [ 136.377503334532292, 310.217534501458715 ] ] ] } },
{ "type": "Feature", "properties": { "feature_type": "building", "subtype": "no-damage", "uid": "6a309f13-80c6-472e-89ec-a66d98fb802e" }, "geometry": { "type": "Polygon", "coordinates": [ [ [ 107.232623474358903, 404.547513392885605 ], [ 111.754919599628593, 409.474927840233875 ], [ 116.633957428806397, 420.182110646822025 ], [ 97.027281915419849, 434.583408820987074 ], [ 91.821904577701844, 427.917092421990787 ], [ 86.203885660954839, 418.87291702336438 ], [ 107.232623474358903, 404.547513392885605 ] ] ] } },
{ "type": "Feature", "properties": { "feature_type": "building", "subtype": "no-damage", "uid": "a19ea87c-abf2-4515-afad-7b07a81fa643" }, "geometry": { "type": "Polygon", "coordinates": [ [ [ 139.298228375958388, 402.647322496455615 ], [ 155.68845661171909, 402.809979613092082 ], [ 172.364244956619814, 404.059884941313214 ], [ 171.703017402573806, 414.266177819693496 ], [ 172.882692458720413, 423.310353214320628 ], [ 137.885665926351095, 424.09680325141818 ], [ 137.099215890253191, 414.266177820693372 ], [ 139.298228375958388, 402.647322496455615 ] ] ] } },
{ "type": "Feature", "properties": { "feature_type": "building", "subtype": "no-damage", "uid": "244011fd-7983-42e2-85a5-c1a77a4db928" }, "geometry": { "type": "Polygon", "coordinates": [ [ [ 0.074752314199255, 508.622458844016819 ], [ 4.975610117506105, 507.460506892806279 ], [ 5.329858641528009, 501.484178647017188 ], [ 20.337370116772341, 500.499386069754905 ], [ 20.704610804970009, 510.999532048747085 ], [ 22.986007915961061, 511.405749230721824 ], [ 20.967914172262681, 538.918508269725976 ], [ 3.655954766503908, 539.665981808547144 ], [ 5.323231670903727, 528.816912386509784 ], [ 0.074752057487184, 529.221470735574712 ], [ 0.074752314199255, 508.622458844016819 ] ] ] } },
{ "type": "Feature", "properties": { "feature_type": "building", "subtype": "minor-damage", "uid": "b9ca7451-8733-4dea-b125-20f550647d0f" }, "geometry": { "type": "Polygon", "coordinates": [ [ [ 227.147744829246108, 394.998151977792475 ], [ 265.683796512807703, 394.604926961243507 ], [ 264.110896444611228, 409.940702630654528 ], [ 267.6499216020527, 427.242603386810515 ], [ 224.001944690603409, 424.490028267967318 ], [ 225.968069777848712, 408.367802561458575 ], [ 227.147744829246108, 394.998151977792475 ] ] ] } },
{ "type": "Feature", "properties": { "feature_type": "building", "subtype": "no-damage", "uid": "38b2bb22-977f-4fa5-8517-39e6e394dc6d" }, "geometry": { "type": "Polygon", "coordinates": [ [ [ 232.652895067933713, 443.364829090319574 ], [ 241.30384544601381, 443.758054109868283 ], [ 240.910620428964705, 441.00547899002521 ], [ 261.75154634056679, 441.00547899002521 ], [ 262.537996375664875, 448.47675431545639 ], [ 268.436371631901579, 448.476754317456084 ], [ 266.077021528357079, 458.307379748180892 ], [ 268.043146617602076, 465.385430056063115 ], [ 256.639621116428714, 466.171880088161402 ], [ 257.426071151776682, 481.900880778121007 ], [ 240.910620431464395, 482.687330812218988 ], [ 240.910620429964609, 461.059954866024327 ], [ 233.046120089482088, 460.666729849475075 ], [ 232.652895067933713, 443.364829090319574 ] ] ] } },
{ "type": "Feature", "properties": { "feature_type": "building", "subtype": "minor-damage", "uid": "bd9eef44-2b1b-4e7a-807b-b56bd77491b9" }, "geometry": { "type": "Polygon", "coordinates": [ [ [ 227.934194861344594, 491.338281191296915 ], [ 228.327419880393393, 491.338281191296915 ], [ 238.944495344219092, 490.94505617174832 ], [ 238.944495343969095, 487.799256036355928 ], [ 264.110896442861474, 487.012805999258376 ], [ 264.50412146391011, 533.020133013490749 ], [ 239.337720359518414, 533.413358028040079 ], [ 239.337720359768412, 505.887606824610316 ], [ 228.327419879643486, 505.887606823610383 ], [ 227.934194861344594, 491.338281191296915 ] ] ] } },
{ "type": "Feature", "properties": { "feature_type": "building", "subtype": "no-damage", "uid": "7682dd50-c156-4725-9dae-ac7048096f45" }, "geometry": { "type": "Polygon", "coordinates": [ [ [ 466.177247790957608, 102.170464088611595 ], [ 487.309521353348316, 102.400248842232799 ], [ 486.991520385550189, 123.732197426410707 ], [ 483.317077315667518, 123.172790410021705 ], [ 481.297612706762493, 135.8790948311634 ], [ 466.6716811858592, 134.672064580209195 ], [ 466.177247790957608, 102.170464088611595 ] ] ] } },
{ "type": "Feature", "properties": { "feature_type": "building", "subtype": "no-damage", "uid": "63813061-3419-4bea-89ce-13fedd3a3ccd" }, "geometry": { "type": "Polygon", "coordinates": [ [ [ 709.037934003157488, 92.452408371867591 ], [ 712.550994878535562, 46.78261699021354 ], [ 732.625628456767117, 46.782616991213388 ], [ 732.123762614749239, 55.314336258522658 ], [ 739.149884364755621, 55.81620209954059 ], [ 738.648018526487135, 66.355384726922168 ], [ 726.60323838429747, 66.857250563940681 ], [ 726.101372540529837, 91.448676693831132 ], [ 709.037934003157488, 92.452408371867591 ] ] ] } },
{ "type": "Feature", "properties": { "feature_type": "building", "subtype": "no-damage", "uid": "efa4af72-c6fb-4456-823b-f6deaabb61d3" }, "geometry": { "type": "Polygon", "coordinates": [ [ [ 810.965500674301097, 35.955629212643807 ], [ 835.305565803436934, 37.188037571017837 ], [ 834.38125953440624, 53.825550446561863 ], [ 844.240526423897677, 55.366060901278424 ], [ 843.316220151117591, 72.003573773822879 ], [ 833.456953262875913, 72.003573773822879 ], [ 831.608340724814411, 86.176269927619543 ], [ 805.111560957025176, 84.635759474902699 ], [ 810.965500674301097, 35.955629212643807 ] ] ] } },
{ "type": "Feature", "properties": { "feature_type": "building", "subtype": "no-damage", "uid": "ad4c4c42-5b01-443f-99f0-b84ab69be530" }, "geometry": { "type": "Polygon", "coordinates": [ [ [ 813.738419484142923, 122.532316580141895 ], [ 836.846076254904347, 122.532316580141895 ], [ 843.316220152867345, 134.856400191878208 ], [ 839.310892976902323, 145.331871261553999 ], [ 816.203236208890416, 145.331871262553904 ], [ 822.057175922666943, 135.472604371565097 ], [ 813.738419484142923, 122.532316580141895 ] ] ] } },
{ "type": "Feature", "properties": { "feature_type": "building", "subtype": "no-damage", "uid": "aeb139e2-3185-4e68-96a6-2a147f35f684" }, "geometry": { "type": "Polygon", "coordinates": [ [ [ 919.417436450458581, 31.950302038179611 ], [ 950.84384966124378, 33.182710400553063 ], [ 950.227645478807176, 47.35540655334988 ], [ 957.930197738393872, 47.355406551350178 ], [ 958.238299827487594, 56.290367170308912 ], [ 970.562383437727135, 57.214673441339109 ], [ 970.254281345633899, 71.387369593136071 ], [ 961.319320730422419, 72.003573773822879 ], [ 961.3193207309223, 89.56539291939724 ], [ 936.979255597037195, 88.641086650366745 ], [ 938.519766047504731, 55.366060901278424 ], [ 918.493130179178138, 55.05795881093502 ], [ 919.417436450458581, 31.950302038179611 ] ] ] } },
{ "type": "Feature", "properties": { "feature_type": "building", "subtype": "no-damage", "uid": "818e8b09-8e4c-4db9-9fc0-b05406f776e2" }, "geometry": { "type": "Polygon", "coordinates": [ [ [ 951.151951750087505, 126.229541663262793 ], [ 968.09756671372952, 124.689031210546005 ], [ 964.400341632357367, 135.472604371565097 ], [ 967.173260442949072, 141.634646176433392 ], [ 972.410995978788151, 141.942748267776608 ], [ 971.794791796851428, 154.574933970856193 ], [ 944.373705762531017, 151.493913065422504 ], [ 946.222318304341911, 137.321216912625601 ], [ 951.151951750087505, 126.229541663262793 ] ] ] } },
{ "type": "Feature", "properties": { "feature_type": "building", "subtype": "no-damage", "uid": "2ee27046-a463-4c68-b4e0-43582b85847f" }, "geometry": { "type": "Polygon", "coordinates": [ [ [ 933.282030512915526, 185.693245086540912 ], [ 945.606114126654575, 185.385142995197612 ], [ 944.989909944217857, 176.450182378238594 ], [ 956.081585194333343, 176.142080288894988 ], [ 967.789464626635549, 176.450182378238594 ], [ 966.865158354855225, 186.925653447914414 ], [ 972.102893889944426, 188.158061809288 ], [ 972.10289389169418, 205.103676776175291 ], [ 953.924870561429088, 203.255064230115494 ], [ 933.898234692852498, 202.638860052428299 ], [ 933.282030512915526, 185.693245086540912 ] ] ] } },
{ "type": "Feature", "properties": { "feature_type": "building", "subtype": "no-damage", "uid": "48e6b29d-7c2f-4c27-a60d-f348ac5e75d0" }, "geometry": { "type": "Polygon", "coordinates": [ [ [ 322.616565631133881, 205.794104169485394 ], [ 358.176381483661714, 205.983252129136588 ], [ 357.608937615706225, 212.414282656294205 ], [ 368.76866705815911, 213.360022436553095 ], [ 368.957815013811, 229.626746712598589 ], [ 345.503468389244574, 229.437598750947586 ], [ 344.557728608235493, 251.378761727543804 ], [ 331.884815508819088, 251.567909684195513 ], [ 332.641407335925976, 230.194190581553812 ], [ 325.075489068606373, 229.62674670959899 ], [ 326.021228852115087, 218.467017267148805 ], [ 321.481677891473396, 217.332129528238511 ], [ 322.616565631133881, 205.794104169485394 ] ] ] } },
{ "type": "Feature", "properties": { "feature_type": "building", "subtype": "no-damage", "uid": "aa49ab37-c269-4253-891b-b214584e28b8" }, "geometry": { "type": "Polygon", "coordinates": [ [ [ 0.074740840144531, 609.414224083471481 ], [ 8.023254560266645, 609.039452177500834 ], [ 7.644958645713339, 604.878197132163336 ], [ 25.23571861732519, 606.769676696680676 ], [ 43.772218368696286, 610.363487876062436 ], [ 42.637330629785673, 618.496850012085474 ], [ 26.181458399084139, 619.253441839692073 ], [ 27.883790012449332, 619.253441839692073 ], [ 28.07293796660144, 632.115502890007861 ], [ 24.100830875165059, 632.30465084665957 ], [ 24.66827474562022, 649.138818992660049 ], [ 5.375183167142213, 649.138818992660049 ], [ 4.240295428231594, 621.334069363860635 ], [ 1.781371993258686, 620.199181622950618 ], [ 1.781371991508944, 616.416222488916787 ], [ 0.074739136396258, 616.235010403751062 ], [ 0.074740840144531, 609.414224083471481 ] ] ] } },
{ "type": "Feature", "properties": { "feature_type": "building", "subtype": "no-damage", "uid": "48ea4be0-28e9-4225-b551-97579dfdeaf4" }, "geometry": { "type": "Polygon", "coordinates": [ [ [ 238.594613734241705, 540.946187777890373 ], [ 262.805552188914589, 540.378743909934997 ], [ 263.372996060619528, 559.293539577104525 ], [ 259.968332841138078, 560.428427314015153 ], [ 259.779184881736683, 581.045554593049587 ], [ 237.081430081277688, 579.721518894487986 ], [ 239.162057605196793, 564.967978275655582 ], [ 235.379098474911387, 564.400534404700693 ], [ 235.379098472661809, 550.971029483430016 ], [ 239.540353518250299, 549.646993788867803 ], [ 238.594613734241705, 540.946187777890373 ] ] ] } },
{ "type": "Feature", "properties": { "feature_type": "building", "subtype": "no-damage", "uid": "efcce4fb-8884-4bee-8986-284ed675c213" }, "geometry": { "type": "Polygon", "coordinates": [ [ [ 239.645737669638095, 594.146305214312292 ], [ 264.802415904070187, 595.659488869525489 ], [ 264.613267948918178, 602.657963265638386 ], [ 268.017931167899803, 602.657963264638511 ], [ 268.017931170649376, 608.710697880492376 ], [ 264.424119991266707, 609.467289703099709 ], [ 266.693895472087377, 635.569707727033119 ], [ 246.076768196297309, 637.27203933489875 ], [ 244.75273250248469, 626.868901717055678 ], [ 233.782151011434308, 628.382085371269113 ], [ 232.647263272773614, 601.144779611424951 ], [ 240.213181537593613, 600.388187784818115 ], [ 239.645737669638095, 594.146305214312292 ] ] ] } },
{ "type": "Feature", "properties": { "feature_type": "building", "subtype": "no-damage", "uid": "dc14af82-d2a8-4d3d-95fd-c210468a9d14" }, "geometry": { "type": "Polygon", "coordinates": [ [ [ 106.947635895878307, 635.520166111738149 ], [ 106.191044069271399, 625.117028496894591 ], [ 104.110416549351697, 625.3061764535463 ], [ 104.488712458905695, 616.794518400220454 ], [ 97.301090107389243, 617.740258187478389 ], [ 96.922794193085892, 604.689049176511503 ], [ 102.786380849539995, 604.499901218860032 ], [ 102.786380852289597, 596.744834996140412 ], [ 126.808171344061606, 598.825462518309223 ], [ 126.808171344811498, 619.442589797343658 ], [ 134.374089612880994, 619.631737753995367 ], [ 134.563237567783005, 627.954247843670487 ], [ 127.564763172918305, 628.143395800322196 ], [ 128.132207041123792, 635.33101815508644 ], [ 106.947635895878307, 635.520166111738149 ] ] ] } },
{ "type": "Feature", "properties": { "feature_type": "building", "subtype": "no-damage", "uid": "35e2fbc9-833b-4293-90d1-45153a3e0e5f" }, "geometry": { "type": "Polygon", "coordinates": [ [ [ 0.074733843428286, 393.03946050374168 ], [ 2.037704548479175, 391.786069252560878 ], [ 2.761922694752523, 398.545438646106277 ], [ 15.556443331323941, 398.786844694697379 ], [ 20.384564320394212, 393.95872370187891 ], [ 24.24706111884937, 401.20090519160658 ], [ 23.7642490181676, 415.926674221652775 ], [ 27.385339761282609, 416.168080272243515 ], [ 28.83377606382783, 425.582916208289589 ], [ 36.317363599898798, 428.72119485397161 ], [ 36.558769649739759, 430.893849302289709 ], [ 46.215011637878817, 430.893849304289404 ], [ 46.215011635879122, 438.618842892199098 ], [ 36.317363602148468, 437.894624741426583 ], [ 36.558769649739759, 440.791497339517321 ], [ 0.074745300735485, 439.346022456426908 ], [ 0.074733843428286, 393.03946050374168 ] ] ] } },
{ "type": "Feature", "properties": { "feature_type": "building", "subtype": "no-damage", "uid": "e57de37b-6702-4f26-ba95-cbc3db6612b4" }, "geometry": { "type": "Polygon", "coordinates": [ [ [ 696.513396892394553, 169.279588231580192 ], [ 711.918501407068788, 171.436302866983596 ], [ 713.150909768942597, 164.658056881428507 ], [ 727.015503830399666, 164.966158968772305 ], [ 726.399299653462094, 173.284915407044309 ], [ 741.804404163636946, 176.674038399821796 ], [ 734.101851906049887, 213.646289235030594 ], [ 702.367336609920471, 208.100451610849092 ], [ 700.210621979515849, 219.192126858212191 ], [ 683.57310910196793, 215.186799684747911 ], [ 688.194640454120531, 192.079142914992104 ], [ 693.432375989459729, 191.771040822649013 ], [ 695.589090620864226, 179.44695721191249 ], [ 696.513396892394553, 169.279588231580192 ] ] ] } },
{ "type": "Feature", "properties": { "feature_type": "building", "subtype": "no-damage", "uid": "7408298b-3b6b-497b-ad26-0e7ad4ba3ef0" }, "geometry": { "type": "Polygon", "coordinates": [ [ [ 810.819272386827834, 164.04185269974181 ], [ 838.240358420398252, 164.041852698741991 ], [ 836.083643790993506, 176.057834218135213 ], [ 847.175319041358989, 176.982140491165012 ], [ 847.79152322079608, 191.154836644961705 ], [ 865.661444455718424, 190.846734553618489 ], [ 866.27764863565551, 219.192126860211999 ], [ 834.235031246682979, 218.267820588181905 ], [ 834.543133337526342, 211.489574600627094 ], [ 822.835253906224011, 210.873370419940301 ], [ 822.219049730036318, 218.267820588181905 ], [ 785.863003072255765, 216.727310137464798 ], [ 787.403513525722815, 197.316878448830209 ], [ 808.662557755173339, 196.700674269143207 ], [ 815.748905830073795, 196.392572177799991 ], [ 816.98131419294748, 189.614326192244903 ], [ 808.662557753923579, 189.306224099901812 ], [ 808.662557754673458, 177.906446761195411 ], [ 814.208395379856142, 177.598344670851986 ], [ 810.819272386827834, 164.04185269974181 ] ] ] } },
{ "type": "Feature", "properties": { "feature_type": "building", "subtype": "no-damage", "uid": "b93bbad4-085d-4950-ad7b-e11272fb8649" }, "geometry": { "type": "Polygon", "coordinates": [ [ [ 829.891937887453082, 233.785513830523911 ], [ 831.432448337420738, 268.414301061230617 ], [ 819.851989685374974, 269.412767575187672 ], [ 809.098080621773875, 268.05293843405758 ], [ 807.234636030377715, 254.834212650461609 ], [ 814.756506976877859, 253.489215557916907 ], [ 814.02771406676959, 233.687757150937699 ], [ 829.891937887453082, 233.785513830523911 ] ] ] } },
{ "type": "Feature", "properties": { "feature_type": "building", "subtype": "no-damage", "uid": "f5ac15ed-5312-49c1-88c4-78be637fb8c3" }, "geometry": { "type": "Polygon", "coordinates": [ [ [ 937.757333581844136, 228.127087479170712 ], [ 957.167765267983896, 228.435189566514509 ], [ 956.859663178890287, 245.07270244005889 ], [ 961.789296622136249, 245.688906623745197 ], [ 961.173092441949166, 250.618540066240001 ], [ 966.102725887194879, 250.310437976896509 ], [ 965.486521706257918, 275.266707290712475 ], [ 955.319152725673121, 274.650503110025625 ], [ 955.01105063857915, 284.81787209035798 ], [ 936.833027311063688, 282.661157457954175 ], [ 937.75733358209402, 267.256052940784173 ], [ 938.989741942218188, 241.067375270593914 ], [ 937.757333581844136, 228.127087479170712 ] ] ] } },
{ "type": "Feature", "properties": { "feature_type": "building", "subtype": "no-damage", "uid": "c283a522-5119-4135-9f7d-37e4a14b7734" }, "geometry": { "type": "Polygon", "coordinates": [ [ [ 782.781982171570576, 290.979913894226399 ], [ 798.803290866681778, 291.288015981570311 ], [ 800.035699227305713, 287.282688808105888 ], [ 836.08364378999363, 287.590790899449189 ], [ 835.159337519713063, 291.904220163256923 ], [ 844.402400228517649, 291.596118073913374 ], [ 843.478093954737574, 324.254939644314618 ], [ 853.337360845728881, 325.179245915344779 ], [ 853.337360847978516, 329.800777266496425 ], [ 882.915161513203429, 331.033185629869706 ], [ 881.374651060486144, 348.144649859758317 ], [ 851.684261667339683, 348.760854038445416 ], [ 850.970300802567181, 358.018748796332886 ], [ 837.624154242710915, 358.146169575089573 ], [ 821.762627156838562, 356.321153470688216 ], [ 809.062348869840662, 345.386563095253109 ], [ 806.85237370060679, 322.406327101254419 ], [ 812.975987020981847, 318.400999929789691 ], [ 803.424822219084263, 311.622753942234908 ], [ 783.217505039920752, 309.323786485488711 ], [ 782.781982171570576, 290.979913894226399 ] ] ] } },
{ "type": "Feature", "properties": { "feature_type": "building", "subtype": "no-damage", "uid": "c3f8cc65-a08d-4cb3-a2b3-8bda9852a8c2" }, "geometry": { "type": "Polygon", "coordinates": [ [ [ 897.087857664503986, 300.839180784215273 ], [ 906.947124556495055, 300.222976602528718 ], [ 907.87143082702562, 293.752832706317179 ], [ 931.287189688630519, 293.136628522630815 ], [ 932.211495955661576, 300.531078691872324 ], [ 955.319152725673121, 299.298670330498624 ], [ 957.475867358327378, 338.119533704768287 ], [ 953.162438094768618, 353.5246382179389 ], [ 942.995069115683464, 353.524638220938414 ], [ 941.14645657387257, 337.811431615424681 ], [ 926.04945414954193, 337.811431615424681 ], [ 929.130475054226508, 318.09289783844639 ], [ 908.795737094056676, 319.325306198820215 ], [ 909.720043365337006, 315.628081115699274 ], [ 896.471653485566776, 315.011876933012672 ], [ 897.087857664503986, 300.839180784215273 ] ] ] } },
{ "type": "Feature", "properties": { "feature_type": "building", "subtype": "no-damage", "uid": "50848275-8cbf-4909-ba28-6a2916b9f11f" }, "geometry": { "type": "Polygon", "coordinates": [ [ [ 458.733970011925919, 241.525774182790286 ], [ 459.45818816219861, 235.490622944016792 ], [ 474.425363242339415, 239.111713687880808 ], [ 476.115205586976685, 232.352344300334607 ], [ 490.599568569685175, 233.800780596880287 ], [ 490.599568568685413, 242.974210483335497 ], [ 497.35893795923289, 242.2499923365624 ], [ 497.117531909391914, 264.45934890492731 ], [ 493.979253266208786, 264.700754953518413 ], [ 495.669095612845808, 279.90933608574602 ], [ 476.839423737499374, 279.90933608574602 ], [ 476.115205590976075, 272.425748543427801 ], [ 464.04490310742699, 272.667154594018484 ], [ 464.286309154018511, 263.735130755154614 ], [ 455.354285315652191, 263.252318656972591 ], [ 454.388661118788093, 272.425748543427801 ], [ 439.904298136329487, 272.425748543427801 ], [ 439.180079989556191, 241.525774182790286 ], [ 458.733970011925919, 241.525774182790286 ] ] ] } },
{ "type": "Feature", "properties": { "feature_type": "building", "subtype": "no-damage", "uid": "2f844cda-eed4-4d78-8eb7-3ec12ddfa498" }, "geometry": { "type": "Polygon", "coordinates": [ [ [ 459.94100025888099, 335.915539609839527 ], [ 426.385559355484475, 334.467103311294125 ], [ 424.767859514642225, 318.997231718369676 ], [ 426.587196572865309, 306.92692923182409 ], [ 424.49407978646741, 299.2218200610194 ], [ 427.109777502757709, 290.048390170564915 ], [ 440.628516285602416, 290.048390170564915 ], [ 440.805174981275172, 300.25219161205149 ], [ 459.69959420954001, 300.670256356565289 ], [ 453.66444296776541, 318.292897984702222 ], [ 459.94100025888099, 335.915539609839527 ] ] ] } },
{ "type": "Feature", "properties": { "feature_type": "building", "subtype": "no-damage", "uid": "1cafa523-477c-45ee-86e7-ab406a190bf5" }, "geometry": { "type": "Polygon", "coordinates": [ [ [ 469.35583619692909, 295.359323264564921 ], [ 485.047229428592516, 294.635105115792101 ], [ 484.805823378751484, 292.945262769655415 ], [ 497.600344010573622, 293.428074864837924 ], [ 498.565968210937285, 294.876511163383327 ], [ 507.256585995713124, 295.359323264564921 ], [ 507.98080414548599, 300.911662407156086 ], [ 514.015955387010536, 300.428850306974425 ], [ 514.740173536783345, 307.912437846293017 ], [ 509.429240445531491, 307.912437847292779 ], [ 510.153458590804973, 329.880388368066519 ], [ 489.875350423161876, 329.638982316475904 ], [ 490.599568569435291, 343.157721099567311 ], [ 466.941775700019321, 342.192096901203513 ], [ 469.35583619692909, 295.359323264564921 ] ] ] } },
{ "type": "Feature", "properties": { "feature_type": "building", "subtype": "no-damage", "uid": "b5be7437-c392-4e3f-9db4-a16307d4b418" }, "geometry": { "type": "Polygon", "coordinates": [ [ [ 310.503338863588283, 297.996022178956707 ], [ 336.794904839430728, 298.752614006563306 ], [ 336.605756885528479, 303.481312920855999 ], [ 347.387190413178189, 303.481312920855999 ], [ 347.387190411178494, 312.182118928833802 ], [ 358.736067810783084, 311.992970972182093 ], [ 357.979475986675823, 347.363638869049225 ], [ 334.714277315511481, 347.363638867049474 ], [ 334.335981401458184, 340.743460383240176 ], [ 309.557599077829877, 340.365164470936577 ], [ 310.503338863588283, 297.996022178956707 ] ] ] } },
{ "type": "Feature", "properties": { "feature_type": "building", "subtype": "no-damage", "uid": "055685f2-1f79-4c74-a7fc-55a16225b849" }, "geometry": { "type": "Polygon", "coordinates": [ [ [ 462.250921998397814, 399.912088311513401 ], [ 471.182945837513785, 400.153494364103892 ], [ 472.389976085468788, 397.498027817603827 ], [ 490.495429812292173, 397.980839916785726 ], [ 490.495429810542475, 414.155045245377323 ], [ 494.840738704930118, 413.913639195786288 ], [ 493.875114509565719, 420.673008588331925 ], [ 496.530581055316475, 419.707384386968613 ], [ 496.047768953385003, 442.882365154697084 ], [ 493.633708459724687, 444.330801454242419 ], [ 493.633708456475176, 450.607358744606472 ], [ 476.976691029447409, 450.848764795197326 ], [ 477.942315228311315, 440.226898610196713 ], [ 479.632157576698091, 432.260498969696528 ], [ 475.045442629720014, 430.329250571969226 ], [ 471.907163986286776, 430.812062670151192 ], [ 471.907163987786589, 426.466753778514317 ], [ 461.526703848874888, 426.466753778514317 ], [ 461.526703849374826, 416.086293640104998 ], [ 462.250921998397814, 399.912088311513401 ] ] ] } },
{ "type": "Feature", "properties": { "feature_type": "building", "subtype": "minor-damage", "uid": "2f74f5e3-238c-4119-a907-e53761d27eee" }, "geometry": { "type": "Polygon", "coordinates": [ [ [ 436.420474681413111, 425.742535629741383 ], [ 456.939988905646089, 425.259723529559722 ], [ 457.664207053419318, 452.297201091742977 ], [ 436.661880733503722, 451.572982942970214 ], [ 436.420474681413111, 425.742535629741383 ] ] ] } },
{ "type": "Feature", "properties": { "feature_type": "building", "subtype": "no-damage", "uid": "398e3c52-f307-4d48-9848-a31e52aef393" }, "geometry": { "type": "Polygon", "coordinates": [ [ [ 324.166661583106873, 441.675334906742421 ], [ 321.269788987265088, 401.843336711240511 ], [ 331.167437026245011, 401.843336710240578 ], [ 331.891655175767823, 395.566779420876287 ], [ 339.375242712838713, 395.808185469467389 ], [ 338.892430612906821, 403.77458510796788 ], [ 341.547897162407082, 403.53317906037671 ], [ 340.823679010384581, 399.187870165740208 ], [ 344.444769756749224, 398.463652015967511 ], [ 344.68617580409051, 393.635531023148985 ], [ 362.067411381890906, 392.911312874376222 ], [ 362.550223481072919, 399.187870163740513 ], [ 364.722877929641527, 399.429276213331377 ], [ 364.722877930891286, 440.468304657787883 ], [ 352.893981495433479, 440.951116759969295 ], [ 353.135387543774584, 445.055019604015115 ], [ 341.789303209998423, 444.813613551424623 ], [ 336.478370115996995, 441.192522805560827 ], [ 324.166661583106873, 441.675334906742421 ] ] ] } },
{ "type": "Feature", "properties": { "feature_type": "building", "subtype": "no-damage", "uid": "a91ba262-d47c-4dba-bbae-2b45828993c8" }, "geometry": { "type": "Polygon", "coordinates": [ [ [ 372.554777720059974, 399.615494970768225 ], [ 390.58896064604528, 401.09956666823291 ], [ 391.277543392899474, 399.670682263922174 ], [ 392.0017615424224, 408.119894001604621 ], [ 398.0369127856967, 406.671457704058923 ], [ 398.278318837287372, 402.808960909604195 ], [ 408.900185022040716, 402.084742760831375 ], [ 409.141591069132119, 408.602706102786101 ], [ 415.418148359997701, 407.878487952013586 ], [ 414.93533626456508, 419.70738438596868 ], [ 406.727530571472414, 419.707384383968986 ], [ 406.244718476039793, 442.399553057514879 ], [ 370.516623123324791, 440.709710707378918 ], [ 372.554777720059974, 399.615494970768225 ] ] ] } },
{ "type": "Feature", "properties": { "feature_type": "building", "subtype": "no-damage", "uid": "42d49a27-2508-4d1c-82c1-5fcfd58c9642" }, "geometry": { "type": "Polygon", "coordinates": [ [ [ 379.207240908850622, 453.262825290106719 ], [ 377.034586463531525, 486.094048047471688 ], [ 306.785426004806482, 483.197175449380893 ], [ 307.026832059146784, 469.195624569107395 ], [ 307.026832056397325, 453.262825292106527 ], [ 317.648698242650312, 453.262825293106289 ], [ 318.855728491355194, 447.227674049333586 ], [ 358.929132737458019, 449.883140596833528 ], [ 359.411944836389978, 441.91674095833298 ], [ 368.343968675006181, 442.640959105106219 ], [ 367.619750523483617, 451.572982943970089 ], [ 379.207240908850622, 453.262825290106719 ] ] ] } },
{ "type": "Feature", "properties": { "feature_type": "building", "subtype": "minor-damage", "uid": "385f47ff-cf25-42e4-8191-18593891efe1" }, "geometry": { "type": "Polygon", "coordinates": [ [ [ 496.530581051317085, 474.747963711698617 ], [ 496.771987101658112, 530.512761191200525 ], [ 474.079818435605318, 529.788543039428191 ], [ 474.060000128482727, 530.210000047739641 ], [ 468.240000127910719, 526.420000049983628 ], [ 467.803261143739917, 518.201052653064266 ], [ 473.114194233491901, 518.925270805836476 ], [ 472.631382134059891, 508.786216716018316 ], [ 465.147794596489177, 508.303404617836293 ], [ 463.699358297193498, 492.129199289244696 ], [ 471.66575793894549, 492.612011389426414 ], [ 472.389976085468788, 489.473732741744811 ], [ 469.251697441285785, 488.990920643562674 ], [ 469.010291387945415, 482.714363353198621 ], [ 472.389976087968478, 482.714363352198689 ], [ 471.907163985786895, 472.333903217788873 ], [ 496.530581051317085, 474.747963711698617 ] ] ] } },
{ "type": "Feature", "properties": { "feature_type": "building", "subtype": "no-damage", "uid": "12d01f9d-3429-4c77-b115-2dc06574d6d3" }, "geometry": { "type": "Polygon", "coordinates": [ [ [ 638.696090228263984, 402.160011433989325 ], [ 639.197956067782229, 400.654413914934878 ], [ 651.482437078250996, 401.179902309753288 ], [ 652.414142651044813, 416.26065848594078 ], [ 638.098575730202356, 416.571227011871827 ], [ 638.696090228263984, 402.160011433989325 ] ] ] } },
{ "type": "Feature", "properties": { "feature_type": "building", "subtype": "no-damage", "uid": "242bea23-2ce4-41a8-81c8-f1167a188ae0" }, "geometry": { "type": "Polygon", "coordinates": [ [ [ 711.716435147078414, 483.90449242927798 ], [ 711.968620024862503, 477.288095697720109 ], [ 712.660501700804502, 466.172638588094117 ], [ 713.450816763600074, 448.616093879229027 ], [ 731.807031393847751, 448.682190797501107 ], [ 731.828589042735075, 485.419025645095587 ], [ 711.716435147078414, 483.90449242927798 ] ] ] } },
{ "type": "Feature", "properties": { "feature_type": "building", "subtype": "no-damage", "uid": "8d568750-9dc8-4967-8062-aed26ca5c484" }, "geometry": { "type": "Polygon", "coordinates": [ [ [ 709.853337064986022, 495.496929550768584 ], [ 733.695164493301149, 495.152143370448584 ], [ 738.131933433343875, 495.462840998305012 ], [ 738.488639700987505, 506.935031166116289 ], [ 738.281879435030078, 518.809936239358763 ], [ 733.936570541142373, 518.809936239358763 ], [ 734.177976591983111, 535.225547616541462 ], [ 710.715023903450742, 535.466953666132326 ], [ 709.853337064986022, 495.496929550768584 ] ] ] } },
{ "type": "Feature", "properties": { "feature_type": "building", "subtype": "no-damage", "uid": "fcdb94e0-c00a-48bb-bd18-fc4fdbdc5ada" }, "geometry": { "type": "Polygon", "coordinates": [ [ [ 930.441094978200454, 398.831129554670781 ], [ 930.923907078132402, 395.210038807807223 ], [ 963.030911684482817, 397.382693253125808 ], [ 963.030911686232571, 420.316267973263109 ], [ 947.580924507659688, 419.59204982249048 ], [ 947.339518457818826, 428.524073661354521 ], [ 956.271542297684732, 429.006885759536488 ], [ 955.788730194503387, 451.940460482673302 ], [ 928.992658679904594, 450.733430233718821 ], [ 929.234064730995442, 433.110788606581821 ], [ 919.336416692765397, 432.869382554991091 ], [ 919.577822745106005, 414.763928830671887 ], [ 929.475470780836304, 415.488146980444526 ], [ 930.441094978200454, 398.831129554670781 ] ] ] } },
{ "type": "Feature", "properties": { "feature_type": "building", "subtype": "no-damage", "uid": "bc2c4303-6799-45a0-b075-d181fe931a7f" }, "geometry": { "type": "Polygon", "coordinates": [ [ [ 889.40206653523353, 443.974060842173117 ], [ 920.78485299231113, 444.456872942354778 ], [ 920.784852994810763, 457.492799622264897 ], [ 889.402066534483538, 457.009987523083112 ], [ 889.40206653523353, 443.974060842173117 ] ] ] } },
{ "type": "Feature", "properties": { "feature_type": "building", "subtype": "no-damage", "uid": "aa09b0e7-99d7-4dee-9ca1-e9d605814f61" }, "geometry": { "type": "Polygon", "coordinates": [ [ [ 807.1989433171766, 444.707005596602016 ], [ 809.130191713154659, 439.637478551193112 ], [ 804.543476769925974, 439.154666452011213 ], [ 804.784882819266954, 418.635152231782627 ], [ 810.337221962109425, 418.152340132600784 ], [ 810.578628010950524, 407.530473943600782 ], [ 846.789535463347534, 408.0132860437825 ], [ 847.755159662461438, 420.083588528328391 ], [ 841.961414469527995, 420.807806680100725 ], [ 842.68563261880081, 429.981236566555879 ], [ 837.374699524549442, 430.464048661738275 ], [ 836.891887427367237, 442.77575719687502 ], [ 819.510651848816906, 443.741381397238513 ], [ 807.1989433171766, 444.707005596602016 ] ] ] } },
{ "type": "Feature", "properties": { "feature_type": "building", "subtype": "no-damage", "uid": "8e1d268e-64bb-42be-9800-f9ed85815ce0" }, "geometry": { "type": "Polygon", "coordinates": [ [ [ 804.909949148640294, 465.459199260765388 ], [ 832.430238809512389, 466.183417411537903 ], [ 831.464614612148239, 478.736531994265818 ], [ 834.12008115714923, 479.219344095447411 ], [ 832.913050910194102, 513.016191048176438 ], [ 807.324009646049944, 512.774785001585087 ], [ 807.806821741732506, 507.705257955176307 ], [ 801.288858402525648, 507.222445854994476 ], [ 801.530264450866866, 493.703707074902809 ], [ 808.289633842664216, 494.910737322857415 ], [ 807.806821744232138, 483.564652990083914 ], [ 802.978700751662359, 483.323246938493185 ], [ 804.909949148640294, 465.459199260765388 ] ] ] } },
{ "type": "Feature", "properties": { "feature_type": "building", "subtype": "no-damage", "uid": "4e19eef9-f955-437c-95af-4422a37c1202" }, "geometry": { "type": "Polygon", "coordinates": [ [ [ 942.028585366816969, 513.016191048176438 ], [ 922.233289290106995, 511.084942651449012 ], [ 922.474695338698098, 498.531828068721097 ], [ 919.33641669401527, 498.531828069720973 ], [ 918.612198545742217, 496.117767569812202 ], [ 910.645798906739742, 495.876361521221213 ], [ 910.645798906239861, 478.253719897083727 ], [ 917.646574345878435, 477.529501745311279 ], [ 916.439544096673671, 464.734981111992624 ], [ 924.647349787266762, 464.49357506240159 ], [ 924.888755837857616, 457.492799622264897 ], [ 948.305142655682857, 457.492799623264773 ], [ 949.512172902637985, 471.735756554129125 ], [ 941.062961167453068, 473.184192850674776 ], [ 941.545773263385513, 479.702156192629616 ], [ 947.822330556250904, 479.702156192629616 ], [ 947.58092450690981, 491.772458677175507 ], [ 941.545773265135267, 492.255270777357225 ], [ 942.028585366816969, 513.016191048176438 ] ] ] } },
{ "type": "Feature", "properties": { "feature_type": "building", "subtype": "no-damage", "uid": "9c022aee-27d3-4b4a-a476-ed3ec8ba01cc" }, "geometry": { "type": "Polygon", "coordinates": [ [ [ 890.60909678318842, 484.047465089265813 ], [ 903.403617417510191, 485.254495336220486 ], [ 902.920805314828726, 505.291197459266925 ], [ 889.402066537983046, 503.601355109130793 ], [ 890.60909678318842, 484.047465089265813 ] ] ] } },
{ "type": "Feature", "properties": { "feature_type": "building", "subtype": "no-damage", "uid": "5c872675-44da-4cd4-b71d-b9c475fa2dc9" }, "geometry": { "type": "Polygon", "coordinates": [ [ [ 572.337725213658587, 290.182973753027227 ], [ 617.23925045458077, 289.941567704436125 ], [ 618.204874654194555, 315.047796869891897 ], [ 595.512705984142485, 317.220451316210301 ], [ 595.754112032233706, 344.257928879393376 ], [ 560.267422730609383, 344.982147027166377 ], [ 561.233046927973533, 314.323578721119077 ], [ 571.854913113976636, 314.323578719119382 ], [ 572.337725213658587, 290.182973753027227 ] ] ] } },
{ "type": "Feature", "properties": { "feature_type": "building", "subtype": "no-damage", "uid": "ee00673b-bc4b-4884-95a4-19a43a605ec9" }, "geometry": { "type": "Polygon", "coordinates": [ [ [ 837.5351608758574, 545.99059953304868 ], [ 838.45946714588797, 572.179277207238442 ], [ 834.57157992783209, 570.433602423266962 ], [ 832.136478789897865, 580.835851318417667 ], [ 805.667992238825036, 580.513247026754357 ], [ 807.692764712250437, 544.391369102127214 ], [ 837.5351608758574, 545.99059953304868 ] ] ] } },
{ "type": "Feature", "properties": { "feature_type": "building", "subtype": "no-damage", "uid": "e959a23e-bd30-4f9f-b1bd-42bf9fea15c2" }, "geometry": { "type": "Polygon", "coordinates": [ [ [ 778.687661630751791, 524.11535112166689 ], [ 822.746260540870253, 522.574840672949449 ], [ 821.730992664040969, 536.600830868348112 ], [ 789.119626106469241, 535.798464813820033 ], [ 788.385981971372644, 544.456301945389669 ], [ 777.678157035155664, 543.63169620174483 ], [ 778.687661630751791, 524.11535112166689 ] ] ] } },
{ "type": "Feature", "properties": { "feature_type": "building", "subtype": "no-damage", "uid": "61103ed8-1a09-4931-82d3-324f12f36f05" }, "geometry": { "type": "Polygon", "coordinates": [ [ [ 810.251419475557896, 613.704387077838305 ], [ 822.267400998953462, 614.320591255525528 ], [ 822.575503088547066, 603.537018098505769 ], [ 826.580830262012341, 601.996507644789062 ], [ 826.27272817491837, 595.83446583792113 ], [ 851.228997484991169, 597.374976293637474 ], [ 851.537099573584896, 611.239570353091381 ], [ 856.466733021080245, 611.855774532778355 ], [ 854.926222570612708, 626.952776957605238 ], [ 842.602138956873659, 626.952776959604876 ], [ 843.526445226404235, 635.271533394877224 ], [ 810.251419475557896, 635.579635486220468 ], [ 810.251419475557896, 613.704387077838305 ] ] ] } },
{ "type": "Feature", "properties": { "feature_type": "building", "subtype": "no-damage", "uid": "f43e7f45-d3c9-4f1b-9299-998fc4587f3b" }, "geometry": { "type": "Polygon", "coordinates": [ [ [ 691.49477008679446, 583.887156637288058 ], [ 691.802872172388675, 564.168622859309949 ], [ 713.061916403588953, 564.476724949653317 ], [ 713.678120582276165, 557.69847896309841 ], [ 708.748487142029717, 555.233662241350999 ], [ 708.440385047436848, 542.601476538271527 ], [ 731.239939730104538, 543.833884901644751 ], [ 731.54804182319765, 552.152641336917213 ], [ 737.71008362556779, 552.768845518603825 ], [ 737.09387944488094, 570.638766755521488 ], [ 724.461693743797923, 570.330664667177757 ], [ 724.153591654454317, 585.119564996661893 ], [ 691.49477008679446, 583.887156637288058 ] ] ] } },
{ "type": "Feature", "properties": { "feature_type": "building", "subtype": "no-damage", "uid": "32b40d56-e022-4eef-ba35-9432948c48eb" }, "geometry": { "type": "Polygon", "coordinates": [ [ [ 765.716834736185433, 572.795481386925417 ], [ 764.782348765441498, 586.578637839672751 ], [ 738.326287806754749, 586.280715453292146 ], [ 738.018185717911024, 582.346646187570741 ], [ 730.931837639761056, 581.730442002884502 ], [ 732.164245999635227, 572.179277206238567 ], [ 765.716834736185433, 572.795481386925417 ] ] ] } },
{ "type": "Feature", "properties": { "feature_type": "building", "subtype": "no-damage", "uid": "095e3868-aaf2-4bb3-af24-60db05f87bf5" }, "geometry": { "type": "Polygon", "coordinates": [ [ [ 584.596203889436197, 434.300185765800791 ], [ 583.237946001655246, 399.748253156930275 ], [ 611.231843587363414, 400.315697025885584 ], [ 611.231843590362928, 408.070763250604898 ], [ 611.610139502916581, 420.176232476313487 ], [ 609.579053590043145, 436.247507872659924 ], [ 584.596203889436197, 434.300185765800791 ] ] ] } },
{ "type": "Feature", "properties": { "feature_type": "building", "subtype": "no-damage", "uid": "6d2f90ea-4fa6-4d52-b1b4-b8c852617502" }, "geometry": { "type": "Polygon", "coordinates": [ [ [ 370.015882273590876, 533.547325645510455 ], [ 370.323984363684417, 558.811697046670247 ], [ 365.702453011031878, 558.503594956326765 ], [ 366.626759283812021, 569.287168118345789 ], [ 352.454063128762016, 568.97906602600267 ], [ 352.762165222105011, 572.060086928436817 ], [ 336.740856526743926, 571.135780658406475 ], [ 335.508448161370609, 558.195492866983273 ], [ 329.346406359500293, 558.503594955327003 ], [ 327.805895909282697, 543.71469462284324 ], [ 332.735529349529088, 541.866082084782192 ], [ 331.195018899311492, 533.54732564651033 ], [ 370.015882273590876, 533.547325645510455 ] ] ] } },
{ "type": "Feature", "properties": { "feature_type": "building", "subtype": "no-damage", "uid": "afd9135e-80f0-4c05-9054-daf195ccd1c6" }, "geometry": { "type": "Polygon", "coordinates": [ [ [ 471.461279901542014, 565.669752958419394 ], [ 484.093465602624917, 566.902161318793105 ], [ 484.093465600375282, 565.05354877873242 ], [ 501.039080568516624, 566.285957140106007 ], [ 501.039080566016878, 569.675080129884009 ], [ 514.595572541129968, 569.98318222422688 ], [ 513.05506208866268, 582.307265834963232 ], [ 509.66593909363462, 581.69106165327662 ], [ 509.665939092634687, 588.161205548488283 ], [ 495.493242941334074, 586.620695095771453 ], [ 495.493242940334312, 590.317920178892336 ], [ 479.780036337566287, 591.858430630609405 ], [ 478.855730066285901, 584.463980464367523 ], [ 469.612667358731187, 584.772082553711016 ], [ 468.072156909263526, 574.91281566872135 ], [ 471.461279901542014, 565.669752958419394 ] ] ] } },
{ "type": "Feature", "properties": { "feature_type": "building", "subtype": "no-damage", "uid": "822869cf-9b0a-4811-bebc-028dc31cf35f" }, "geometry": { "type": "Polygon", "coordinates": [ [ [ 565.353715218198886, 527.64437429238717 ], [ 587.321665739228024, 526.437344043432631 ], [ 587.080259694136316, 538.7490525775695 ], [ 589.73572623763755, 538.990458626160603 ], [ 589.494320186546815, 548.163888514615451 ], [ 586.114635492772777, 548.163888512615699 ], [ 586.114635491773015, 550.819355061115516 ], [ 568.009181767699147, 551.302167161297234 ], [ 565.595121268289745, 548.405294566206067 ], [ 561.008406328060573, 547.681076415433608 ], [ 561.249812374652038, 538.507646525978885 ], [ 566.077933367221817, 537.05921022943312 ], [ 565.353715218198886, 527.64437429238717 ] ] ] } },
{ "type": "Feature", "properties": { "feature_type": "building", "subtype": "no-damage", "uid": "f6e26a5f-86e4-440e-a3a6-57995dff90e3" }, "geometry": { "type": "Polygon", "coordinates": [ [ [ 563.905278921152785, 556.130288155115636 ], [ 587.321665740977778, 555.1646639547522 ], [ 586.356041543863626, 565.545124092161586 ], [ 608.323992060643377, 564.82090594238889 ], [ 607.116961812188492, 587.030262513753428 ], [ 596.97790772586734, 586.064638312390116 ], [ 596.736501676276248, 593.548225852708583 ], [ 586.114635493022774, 592.341195606753558 ], [ 586.597447589705098, 583.891983868071407 ], [ 581.286514499953114, 583.891983868071407 ], [ 580.079484250498354, 593.065413752526865 ], [ 564.629497070425714, 592.582601655344661 ], [ 567.284963617176459, 579.788081021026187 ], [ 565.112309172107302, 573.752929780252998 ], [ 567.526369665767561, 566.752154341116011 ], [ 567.284963620175972, 564.096687791616432 ], [ 563.905278921152785, 556.130288155115636 ] ] ] } },
{ "type": "Feature", "properties": { "feature_type": "building", "subtype": "no-damage", "uid": "1cc833ae-4494-4691-9102-43da72b68d54" }, "geometry": { "type": "Polygon", "coordinates": [ [ [ 624.256791339648089, 518.47094440193257 ], [ 640.189590621402317, 518.229538354341344 ], [ 638.982560372197554, 539.473270726342321 ], [ 643.086463216744164, 541.163113073478826 ], [ 641.638026918448304, 551.060761112706132 ], [ 635.844281724764983, 549.129512712979135 ], [ 636.085687775855831, 555.647476052934167 ], [ 620.635700595533194, 556.130288156115512 ], [ 624.256791339648089, 518.47094440193257 ] ] ] } },
{ "type": "Feature", "properties": { "feature_type": "building", "subtype": "no-damage", "uid": "3af52f10-7cce-440c-9a64-08f919e3066e" }, "geometry": { "type": "Polygon", "coordinates": [ [ [ 23.98075505095154, 665.550600158751195 ], [ 22.77372480099687, 677.138090542115492 ], [ 24.946379250065409, 690.898235373797888 ], [ 21.808100601883009, 690.656829325206786 ], [ 23.01513085108779, 696.209168466798133 ], [ 10.46201627010648, 697.657604762344022 ], [ 8.530767870378975, 692.346671670343653 ], [ 0.074712133885841, 692.346671684341572 ], [ 0.0747192963276, 675.689654249569116 ], [ 5.151083178104775, 675.689654243569976 ], [ 7.082331572083127, 666.033412255933285 ], [ 23.98075505095154, 665.550600158751195 ] ] ] } },
{ "type": "Feature", "properties": { "feature_type": "building", "subtype": "major-damage", "uid": "8587f385-0bf6-4135-9d0b-feee9213cf54" }, "geometry": { "type": "Polygon", "coordinates": [ [ [ 123.2752483142893, 580.689431818695653 ], [ 95.030740501644601, 581.413649969468224 ], [ 95.030740502644463, 557.273045000376442 ], [ 115.7916607739689, 557.514451050967182 ], [ 116.274472873400896, 543.512900168693932 ], [ 143.070544389499389, 543.512900168693932 ], [ 143.553356487431614, 561.618353895012888 ], [ 125.206496712766906, 562.583978093376572 ], [ 123.2752483142893, 580.689431818695653 ] ] ] } },
{ "type": "Feature", "properties": { "feature_type": "building", "subtype": "no-damage", "uid": "b3941644-099d-46e0-bd7a-f7f5993e33e2" }, "geometry": { "type": "Polygon", "coordinates": [ [ [ 98.831775337519488, 675.089521329375884 ], [ 97.696887595359343, 670.36082241008387 ], [ 89.941821375137422, 671.11741423969022 ], [ 89.374377505932088, 672.630597889904266 ], [ 82.75419902087134, 672.630597889904266 ], [ 82.565051062719817, 662.98405210266742 ], [ 98.453479422716214, 662.794904144015959 ], [ 98.075183509662693, 659.579388880937131 ], [ 125.690785183816999, 659.579388882936769 ], [ 129.095448405298214, 678.494184547106784 ], [ 124.555897441906893, 678.305036590455074 ], [ 124.555897443406593, 681.142255940230484 ], [ 118.692310787202501, 681.142255940230484 ], [ 118.503162828051202, 683.97947528700638 ], [ 133.06755549273521, 682.466291638792086 ], [ 133.2567034483871, 687.005842597433002 ], [ 149.523427721187005, 686.627546686129335 ], [ 150.09087159339191, 707.433821918815852 ], [ 131.55437183802141, 707.05552600251292 ], [ 130.419484102110403, 711.027633095198212 ], [ 92.022448894807141, 711.216781051849807 ], [ 92.400744811860079, 700.05705160939965 ], [ 87.293749978013579, 700.246199566051359 ], [ 90.130969331289251, 685.492658945219205 ], [ 85.213122458093906, 685.681806901870914 ], [ 85.213122457843951, 674.900373370724424 ], [ 98.831775337519488, 675.089521329375884 ] ] ] } },
{ "type": "Feature", "properties": { "feature_type": "building", "subtype": "no-damage", "uid": "0e86a795-79bb-4ae5-9351-c9ecedeef386" }, "geometry": { "type": "Polygon", "coordinates": [ [ [ 142.048664671560402, 651.256878790262135 ], [ 161.838557478595988, 650.268980158914928 ], [ 160.556680629872403, 661.1347313802396 ], [ 163.674203149493991, 670.843948587861064 ], [ 139.687733976296101, 671.929839956917135 ], [ 137.985402364680709, 657.365447296736079 ], [ 142.048664671560402, 651.256878790262135 ] ] ] } },
{ "type": "Feature", "properties": { "feature_type": "building", "subtype": "no-damage", "uid": "7bc5c028-b66c-4877-ae3a-0f47403078c1" }, "geometry": { "type": "Polygon", "coordinates": [ [ [ 456.357436468710716, 380.256645634912502 ], [ 491.425808581869376, 381.301729573209911 ], [ 491.309688146752592, 389.546280632223727 ], [ 488.638918083325279, 389.546280633223489 ], [ 488.290556773975482, 393.842736820779692 ], [ 474.704465588854816, 393.494375505680978 ], [ 474.356104274005872, 397.326349943771618 ], [ 464.253626213127689, 397.674711255870818 ], [ 463.90526490177831, 399.184276946633304 ], [ 455.660713839262883, 399.300397382000028 ], [ 456.357436468710716, 380.256645634912502 ] ] ] } },
{ "type": "Feature", "properties": { "feature_type": "building", "subtype": "no-damage", "uid": "86c0fda9-87e9-41a3-b8e0-9a26bae2d0dc" }, "geometry": { "type": "Polygon", "coordinates": [ [ [ 395.846449654836192, 673.019482867688112 ], [ 415.796988211185123, 676.204259500356898 ], [ 413.031420926165822, 691.747909806578718 ], [ 402.817102572035708, 690.493741838156893 ], [ 393.383162230636685, 687.607784997278145 ], [ 395.846449654836192, 673.019482867688112 ] ] ] } },
{ "type": "Feature", "properties": { "feature_type": "building", "subtype": "no-damage", "uid": "ddec92a3-f308-445a-bec4-f9159ea0ae15" }, "geometry": { "type": "Polygon", "coordinates": [ [ [ 449.177572772363703, 684.614029483503828 ], [ 462.547223358032795, 684.614029483503828 ], [ 462.153998338484087, 679.895329276915845 ], [ 473.164298823608192, 680.288554292465165 ], [ 474.737198888555213, 665.34600364060293 ], [ 497.099056212150572, 666.525678692249926 ], [ 497.807553256444919, 702.952691475624874 ], [ 449.216549270640087, 699.702954020827406 ], [ 449.177572772363703, 684.614029483503828 ] ] ] } },
{ "type": "Feature", "properties": { "feature_type": "building", "subtype": "no-damage", "uid": "35d8c043-342b-4384-ae9a-c9f8c936bfc9" }, "geometry": { "type": "Polygon", "coordinates": [ [ [ 580.178037562133227, 658.695455677842119 ], [ 608.451262303641442, 657.870029147467335 ], [ 609.630937355288779, 693.653505711426305 ], [ 604.506019965975042, 703.02594529947396 ], [ 591.03243206390016, 702.278471761652668 ], [ 591.844866427849752, 708.89833622985725 ], [ 570.740637150204861, 708.07290969948258 ], [ 571.881335705825336, 698.372205920013926 ], [ 570.753629312880776, 691.017860076413967 ], [ 580.58425474135845, 690.991875745562766 ], [ 580.178037562133227, 658.695455677842119 ] ] ] } },
{ "type": "Feature", "properties": { "feature_type": "building", "subtype": "no-damage", "uid": "cc8c78a5-b8a6-4f92-bf54-c87800fc4afa" }, "geometry": { "type": "Polygon", "coordinates": [ [ [ 580.733992609796019, 627.476791731149092 ], [ 597.8341868383161, 627.121870409282224 ], [ 599.157704799622934, 648.374765118560504 ], [ 582.383500075105871, 648.911833041519571 ], [ 581.817500340781521, 645.325132296580932 ], [ 578.278475186589617, 644.931907279031975 ], [ 578.058024884316069, 637.172946142780461 ], [ 581.031050305433496, 636.280956901953914 ], [ 580.733992609796019, 627.476791731149092 ] ] ] } },
{ "type": "Feature", "properties": { "feature_type": "building", "subtype": "no-damage", "uid": "303bfdf2-1e95-49c3-aca2-393ad17a28c6" }, "geometry": { "type": "Polygon", "coordinates": [ [ [ 690.393229880582112, 605.411448169062169 ], [ 722.187557637003579, 604.901042422803357 ], [ 720.568986091204579, 628.103616836608921 ], [ 721.051798190386535, 645.00204031597309 ], [ 690.393229879582236, 645.726258463746035 ], [ 690.393229880582112, 605.411448169062169 ] ] ] } },
{ "type": "Feature", "properties": { "feature_type": "building", "subtype": "no-damage", "uid": "07687e02-67b3-42a3-9af0-3a3cfd3fd413" }, "geometry": { "type": "Polygon", "coordinates": [ [ [ 715.740865097634924, 670.71305908660338 ], [ 716.223677195067239, 711.269275432877862 ], [ 690.634635930673085, 708.372402836786819 ], [ 691.358854078946138, 677.713834526740129 ], [ 699.566659772038861, 677.713834528739881 ], [ 700.773690016994237, 669.506028838648717 ], [ 715.740865097634924, 670.71305908660338 ] ] ] } },
{ "type": "Feature", "properties": { "feature_type": "building", "subtype": "no-damage", "uid": "158d3faf-2a67-4341-8852-948de601928f" }, "geometry": { "type": "Polygon", "coordinates": [ [ [ 805.302509528138671, 666.367750192966696 ], [ 841.754823028126907, 667.091968340739641 ], [ 844.41028957562753, 689.301324912104178 ], [ 839.099356483875795, 700.406003196286633 ], [ 842.961853275581916, 731.064571508332961 ], [ 813.993127316663958, 731.064571510332712 ], [ 813.993127318413713, 715.85599037610541 ], [ 809.6478184210265, 714.166148029968781 ], [ 809.406412370685644, 691.232573311831175 ], [ 802.647042980887932, 691.232573311831175 ], [ 805.302509528138671, 666.367750192966696 ] ] ] } },
{ "type": "Feature", "properties": { "feature_type": "building", "subtype": "no-damage", "uid": "b7ef1574-5b27-4118-9f7b-ddd5d67029e4" }, "geometry": { "type": "Polygon", "coordinates": [ [ [ 807.233757925616487, 760.627568377540797 ], [ 856.94016156541943, 761.604813873873923 ], [ 856.76372913306659, 779.805350945760324 ], [ 847.042513529439134, 780.859191360300542 ], [ 844.770021568724474, 792.917872546877106 ], [ 830.373874800692533, 792.028843265720525 ], [ 830.615280850783506, 806.44823262593809 ], [ 808.211003423949478, 805.712393175196439 ], [ 807.233757925616487, 760.627568377540797 ] ] ] } },
{ "type": "Feature", "properties": { "feature_type": "building", "subtype": "no-damage", "uid": "d33de43c-4649-43b1-bac7-0d25e195f5e1" }, "geometry": { "type": "Polygon", "coordinates": [ [ [ 957.627768735359609, 841.308321153198904 ], [ 1004.421545781951977, 837.376070982708711 ], [ 1004.814770802001021, 866.081497235785832 ], [ 983.580619870350006, 866.081497235785832 ], [ 985.546744955845497, 892.42757338856859 ], [ 930.102017533672665, 895.573373524960743 ], [ 928.922342480025577, 872.766322529118725 ], [ 923.810417256137384, 859.003446923904221 ], [ 927.34944241232904, 840.915096134650071 ], [ 934.82071773851203, 840.521871119100865 ], [ 933.641042687114691, 829.904795655277894 ], [ 956.841318700511579, 829.511570637728937 ], [ 957.627768735359609, 841.308321153198904 ] ] ] } },
{ "type": "Feature", "properties": { "feature_type": "building", "subtype": "no-damage", "uid": "f7ab8132-1e49-465a-b4f0-707776426b28" }, "geometry": { "type": "Polygon", "coordinates": [ [ [ 920.206783147328906, 1022.979233377841979 ], [ 919.484942072346598, 1011.574753594916046 ], [ 926.562992379980642, 1011.967978614463959 ], [ 925.776542343882625, 993.879627823210285 ], [ 974.536444474970722, 992.699952772563165 ], [ 973.749994440372575, 1004.103478270483947 ], [ 981.614494784604517, 1005.283153321130953 ], [ 981.614494783854639, 1017.866353870698958 ], [ 972.963544407524182, 1017.473128853150001 ], [ 970.997419319279061, 1020.61892899154202 ], [ 964.31259402894409, 1020.22570397399295 ], [ 964.599385756614083, 1022.978420328969037 ], [ 920.206783147328906, 1022.979233377841979 ] ] ] } },
{ "type": "Feature", "properties": { "feature_type": "building", "subtype": "minor-damage", "uid": "ddc37f87-dc52-41e0-975f-421d8ff4da8e" }, "geometry": { "type": "Polygon", "coordinates": [ [ [ 821.910919148902394, 1022.980735317932954 ], [ 821.178687774322384, 1009.215403491622055 ], [ 852.636689149000176, 1007.642503424424945 ], [ 853.742824685508822, 1022.98029393614604 ], [ 821.910919148902394, 1022.980735317932954 ] ] ] } },
{ "type": "Feature", "properties": { "feature_type": "building", "subtype": "no-damage", "uid": "4d35c3bd-bb00-4d28-b913-0f2daafd461e" }, "geometry": { "type": "Polygon", "coordinates": [ [ [ 807.415812172853975, 848.386371463080764 ], [ 826.683838011760258, 848.386371463080764 ], [ 827.470288046608289, 851.92539661802175 ], [ 842.806063715773348, 849.566046514727759 ], [ 842.019613683174839, 869.227297374177738 ], [ 837.694138495884545, 868.440847339079824 ], [ 837.30091347533596, 875.518897647961921 ], [ 826.683838010510385, 873.552772563216763 ], [ 826.683838013759896, 886.529198127334098 ], [ 811.741287359644389, 885.349523077686854 ], [ 816.066762548184556, 873.552772564216639 ], [ 803.483561998113373, 874.732447613863883 ], [ 807.415812172853975, 848.386371463080764 ] ] ] } },
{ "type": "Feature", "properties": { "feature_type": "building", "subtype": "minor-damage", "uid": "1d33e053-c7a7-4e59-a9f9-a7bcd332034f" }, "geometry": { "type": "Polygon", "coordinates": [ [ [ 574.480796436857645, 776.807145102516074 ], [ 596.664146938088493, 776.499043012172706 ], [ 596.664146936838733, 778.963859734919879 ], [ 613.609761902480386, 778.039553463889661 ], [ 614.534068175260586, 800.531006053958549 ], [ 610.220638911701712, 800.531006051958911 ], [ 612.069251451012974, 806.69304785982672 ], [ 571.707877625516176, 807.925456221200307 ], [ 572.324081805453147, 803.612026953393183 ], [ 568.010652542644266, 802.99582277570596 ], [ 568.010652543394144, 788.823126622909058 ], [ 571.091673443829336, 789.131228712252664 ], [ 571.399775535922572, 782.352982726697519 ], [ 574.480796440107156, 782.661084816041125 ], [ 574.480796436857645, 776.807145102516074 ] ] ] } },
{ "type": "Feature", "properties": { "feature_type": "building", "subtype": "no-damage", "uid": "89c15694-bae7-430e-a5eb-408605d95459" }, "geometry": { "type": "Polygon", "coordinates": [ [ [ 696.559825650110042, 765.92545685186542 ], [ 719.66748241987159, 767.157865214238882 ], [ 718.435074061497289, 781.638663454379525 ], [ 727.370034679458399, 783.179173903096967 ], [ 727.061932586615285, 795.811359607176314 ], [ 712.581134345471128, 802.589605594731097 ], [ 724.597115866867057, 803.51391186476144 ], [ 723.672809596836487, 826.005364453830452 ], [ 694.403111018955428, 825.697262363487084 ], [ 696.559825650110042, 765.92545685186542 ] ] ] } },
{ "type": "Feature", "properties": { "feature_type": "building", "subtype": "no-damage", "uid": "3e9d8bbf-9cab-4639-a936-5bbdfbc0c2a0" }, "geometry": { "type": "Polygon", "coordinates": [ [ [ 692.175794923569356, 831.957419262986264 ], [ 717.132064235641792, 830.416908809269557 ], [ 717.440166326485269, 835.038440165420411 ], [ 721.753595593043656, 835.346542253764028 ], [ 722.986003952917827, 844.897707052409714 ], [ 718.056370508921987, 844.897707052409714 ], [ 718.980676780452313, 847.362523776156763 ], [ 713.434839155269515, 848.286830047186982 ], [ 715.899655874767859, 849.827340495904423 ], [ 718.364472599265468, 849.2111363182172 ], [ 718.672574689108956, 853.832667672368302 ], [ 730.688556208005252, 854.448871854055028 ], [ 731.304760389442094, 873.859303538690142 ], [ 705.116082715745733, 876.324120261437429 ], [ 705.116082715745733, 870.470180544912751 ], [ 699.570245090313051, 871.394486816942845 ], [ 699.262142999719572, 855.989382303772231 ], [ 691.251488654038781, 856.605586483459206 ], [ 692.175794923569356, 831.957419262986264 ] ] ] } },
{ "type": "Feature", "properties": { "feature_type": "building", "subtype": "no-damage", "uid": "c1aa9dc4-bc2a-4eb2-a8ed-780f1d9ce401" }, "geometry": { "type": "Polygon", "coordinates": [ [ [ 709.598228536417309, 883.284839617805005 ], [ 733.082771469021054, 883.186724525173872 ], [ 730.814184931285581, 897.722550028112778 ], [ 708.114562730232365, 896.546986311021783 ], [ 709.598228536417309, 883.284839617805005 ] ] ] } },
{ "type": "Feature", "properties": { "feature_type": "building", "subtype": "no-damage", "uid": "ec3aae1a-d42a-4234-a7ab-bab1888fd120" }, "geometry": { "type": "Polygon", "coordinates": [ [ [ 680.169993107886057, 877.52598951992104 ], [ 678.917225341836001, 896.124091648121748 ], [ 694.846916726277755, 896.442373439428479 ], [ 698.276758524409161, 916.3264934942639 ], [ 661.088022912266638, 915.618672000907964 ], [ 661.846742904690018, 876.991222946940638 ], [ 680.169993107886057, 877.52598951992104 ] ] ] } },
{ "type": "Feature", "properties": { "feature_type": "building", "subtype": "minor-damage", "uid": "64200845-09e0-4dbd-9a5b-48e1c67e747c" }, "geometry": { "type": "Polygon", "coordinates": [ [ [ 567.905374216870882, 872.843118931556774 ], [ 568.629592369643206, 846.771265567737146 ], [ 573.457713361463107, 846.288453466555552 ], [ 573.940525458895308, 841.218926425146037 ], [ 609.910026863950975, 841.943144573918858 ], [ 609.910026862201221, 872.843118931556774 ], [ 567.905374216870882, 872.843118931556774 ] ] ] } },
{ "type": "Feature", "properties": { "feature_type": "building", "subtype": "no-damage", "uid": "8cf52d5d-99a8-465a-9469-8ba82c0b9e22" }, "geometry": { "type": "Polygon", "coordinates": [ [ [ 571.767871013576269, 875.49858548005659 ], [ 589.390512639467943, 875.49858548005659 ], [ 589.631918689058921, 885.879045611466836 ], [ 626.08423218929704, 886.120451662057576 ], [ 625.8428261387063, 920.882922815150096 ], [ 566.456937918824906, 920.158704665377513 ], [ 566.939750017756978, 895.05247550092156 ], [ 571.04365286155371, 894.811069453330333 ], [ 571.767871013576269, 875.49858548005659 ] ] ] } },
{ "type": "Feature", "properties": { "feature_type": "building", "subtype": "no-damage", "uid": "894cbda1-d988-44c5-8b12-851a7707fbce" }, "geometry": { "type": "Polygon", "coordinates": [ [ [ 558.249132229731572, 922.572765164286352 ], [ 611.841275257929283, 924.504013564013349 ], [ 611.841275258429278, 949.851648779060156 ], [ 588.424888441103917, 951.541491126196661 ], [ 587.942076339672326, 940.678218891605184 ], [ 557.524914083958151, 940.436812842014206 ], [ 558.249132229731572, 922.572765164286352 ] ] ] } },
{ "type": "Feature", "properties": { "feature_type": "building", "subtype": "no-damage", "uid": "6bb2d74f-f72e-4c01-931d-595dd5957b10" }, "geometry": { "type": "Polygon", "coordinates": [ [ [ 495.359796561851624, 855.193184407907324 ], [ 495.164283203179195, 885.470113892561244 ], [ 454.171873145660413, 885.176843847803639 ], [ 454.171873149159921, 869.771739333633263 ], [ 445.236912527949187, 869.771739333633263 ], [ 446.581909617744714, 854.689568956391895 ], [ 495.359796561851624, 855.193184407907324 ] ] ] } },
{ "type": "Feature", "properties": { "feature_type": "building", "subtype": "no-damage", "uid": "8e31882f-b75d-45d3-838d-6b944ed8b971" }, "geometry": { "type": "Polygon", "coordinates": [ [ [ 494.225144882063603, 891.338885655671447 ], [ 493.608940702126517, 908.284500620559015 ], [ 491.144123980628478, 908.90070480024599 ], [ 492.376532341502525, 919.068073779578413 ], [ 444.312606256668914, 918.143767507548432 ], [ 444.928810439355516, 902.430560903034575 ], [ 453.863771055066991, 902.738662994377819 ], [ 452.93946478903581, 891.646987742015426 ], [ 494.225144882063603, 891.338885655671447 ] ] ] } },
{ "type": "Feature", "properties": { "feature_type": "building", "subtype": "no-damage", "uid": "9c09effa-0828-4a7b-aef8-cc00ffb48691" }, "geometry": { "type": "Polygon", "coordinates": [ [ [ 448.235008801883112, 923.171157634628685 ], [ 495.374628613686525, 923.479259724972053 ], [ 494.758424430999924, 940.732976778203351 ], [ 488.904484715723584, 939.808670506173257 ], [ 488.288280534786679, 952.132754117909599 ], [ 476.580401105733984, 951.516549937222749 ], [ 476.272299014140685, 947.819324855101627 ], [ 467.645440486773111, 948.435529034788601 ], [ 467.337338396679627, 953.981366659969922 ], [ 454.397050603753314, 952.748958300596087 ], [ 455.321356876533514, 937.651955875769204 ], [ 445.770192076135686, 937.03575169608223 ], [ 448.235008801883112, 923.171157634628685 ] ] ] } },
{ "type": "Feature", "properties": { "feature_type": "building", "subtype": "minor-damage", "uid": "86d91058-0e5c-49da-ad4c-4c3dcc3782c7" }, "geometry": { "type": "Polygon", "coordinates": [ [ [ 459.31185200041358, 965.283387319090139 ], [ 467.322506348594118, 965.283387320090014 ], [ 467.014404256250884, 958.813243423878475 ], [ 494.435490292320992, 958.505141335534745 ], [ 495.3597965628515, 979.147981382543435 ], [ 460.236158271444026, 978.839879291200191 ], [ 459.003749910070098, 985.61812527575546 ], [ 446.063462119893472, 985.926227366098828 ], [ 446.987768388674226, 965.591489411433258 ], [ 459.31185200041358, 965.283387319090139 ] ] ] } },
{ "type": "Feature", "properties": { "feature_type": "building", "subtype": "minor-damage", "uid": "a6e18d4f-eb75-45f8-91b1-d1f84ada2bec" }, "geometry": { "type": "Polygon", "coordinates": [ [ [ 455.411104311224392, 788.599672617928491 ], [ 498.158542519518107, 791.058596055400358 ], [ 494.75387929678709, 843.074284137616814 ], [ 468.651461276346708, 841.561100483403379 ], [ 468.462313321194813, 825.294376208357789 ], [ 457.680879791795292, 824.537784383750704 ], [ 458.626619572804373, 809.216799893963412 ], [ 469.218905147301825, 810.351687632873677 ], [ 469.78634901725701, 806.94702441314314 ], [ 454.276216571314023, 806.001284628884832 ], [ 455.411104311224392, 788.599672617928491 ] ] ] } },
{ "type": "Feature", "properties": { "feature_type": "building", "subtype": "no-damage", "uid": "e1ee7704-cd88-4cd4-884a-76d846f489fe" }, "geometry": { "type": "Polygon", "coordinates": [ [ [ 338.360560028297982, 822.501019381955416 ], [ 355.662460783208473, 821.321344333307934 ], [ 353.696335697462985, 814.636519039975155 ], [ 380.042411848752522, 814.636519039975155 ], [ 380.042411849002519, 822.894244400504135 ], [ 386.727237141587125, 832.724869831228943 ], [ 388.300137211533297, 841.375820208307118 ], [ 375.716936661962109, 842.555495261953865 ], [ 368.245661335279294, 844.128395331149704 ], [ 339.147010061396372, 842.948720277503071 ], [ 338.360560028297982, 822.501019381955416 ] ] ] } },
{ "type": "Feature", "properties": { "feature_type": "building", "subtype": "no-damage", "uid": "98123168-2c8c-4ff6-9793-3c8c8818a131" }, "geometry": { "type": "Polygon", "coordinates": [ [ [ 332.301847149472621, 911.27976592526386 ], [ 331.12217209707552, 886.506589841677055 ], [ 345.278272715843002, 886.113364824128098 ], [ 345.671497732392197, 880.214989567892871 ], [ 338.593447426008026, 880.608214583442077 ], [ 337.806997388660193, 866.452113964678119 ], [ 345.278272718342578, 866.452113964678119 ], [ 344.098597666695412, 856.621488533953311 ], [ 373.197248936578774, 856.621488533953311 ], [ 372.80402392177939, 885.326914791029822 ], [ 377.915949141918077, 884.933689775480616 ], [ 378.702399177016218, 898.696565375695855 ], [ 371.624348870881988, 899.089790394244574 ], [ 372.410798901480689, 909.70686585906742 ], [ 332.301847149472621, 911.27976592526386 ] ] ] } },
{ "type": "Feature", "properties": { "feature_type": "building", "subtype": "no-damage", "uid": "1076491d-7842-4731-aa0c-7c98c97b76b1" }, "geometry": { "type": "Polygon", "coordinates": [ [ [ 331.870522402605786, 1022.982090212748972 ], [ 332.31111171889529, 1021.775995754533028 ], [ 326.805961479457778, 1020.177111357485046 ], [ 329.938769453174814, 987.604395753046788 ], [ 354.426117907903517, 988.403837953570246 ], [ 353.756597359135981, 1003.424341596985983 ], [ 362.303610418310882, 1005.338498023028023 ], [ 363.561238455512694, 1019.390661322387018 ], [ 356.18090828355929, 1019.809870671787053 ], [ 354.950705484816581, 1022.982255656305028 ], [ 331.870522402605786, 1022.982090212748972 ] ] ] } },
{ "type": "Feature", "properties": { "feature_type": "building", "subtype": "no-damage", "uid": "8ecdc905-7eba-47f9-b187-61548b68800a" }, "geometry": { "type": "Polygon", "coordinates": [ [ [ 208.02602195652949, 977.328576649069873 ], [ 249.99716147662761, 978.231956164999019 ], [ 249.919208489073412, 992.901671356922066 ], [ 240.914009586471394, 994.552524414672007 ], [ 240.507792406246409, 1004.763382697520001 ], [ 231.122360651271009, 1003.125521803195966 ], [ 230.638190480992108, 1013.479293898726951 ], [ 209.624906354327294, 1012.247650187376962 ], [ 208.02602195652949, 977.328576649069873 ] ] ] } },
{ "type": "Feature", "properties": { "feature_type": "building", "subtype": "no-damage", "uid": "29660952-5ae4-40d3-883f-51feb05652c0" }, "geometry": { "type": "Polygon", "coordinates": [ [ [ 227.989552688052498, 1022.981065026218971 ], [ 227.989552679553697, 1017.84374558404204 ], [ 244.505003401615795, 1018.236970601590997 ], [ 244.159898771846201, 1022.98125477718304 ], [ 227.989552688052498, 1022.981065026218971 ] ] ] } },
{ "type": "Feature", "properties": { "feature_type": "building", "subtype": "no-damage", "uid": "ddedff3e-0717-4a8e-b0c5-681282923a5d" }, "geometry": { "type": "Polygon", "coordinates": [ [ [ 387.756492933971288, 908.141708802852122 ], [ 405.137728508772227, 907.900302757260533 ], [ 405.379134559363024, 920.212011289397651 ], [ 386.790868733607624, 920.453417336988878 ], [ 387.515086883130493, 908.383114855442614 ], [ 387.756492933971288, 908.141708802852122 ] ] ] } },
{ "type": "Feature", "properties": { "feature_type": "building", "subtype": "no-damage", "uid": "acbec7f8-1807-42c1-a2ed-ed5c04237a93" }, "geometry": { "type": "Polygon", "coordinates": [ [ [ 124.250000127560796, 973.250000048106813 ], [ 123.658274587688595, 977.908057162627529 ], [ 125.106710882984899, 1007.842407319902009 ], [ 101.690324063659901, 1009.532249670038027 ], [ 103.138760361955704, 998.910383484037652 ], [ 97.345015172771753, 998.186165335264832 ], [ 98.310639369885905, 980.804929757718696 ], [ 100.966105914636898, 981.770553956082495 ], [ 101.448918015068699, 975.976808765900046 ], [ 103.380166411046801, 975.976808765900046 ], [ 103.750000128128093, 972.460000048511233 ], [ 124.250000127560796, 973.250000048106813 ] ] ] } },
{ "type": "Feature", "properties": { "feature_type": "building", "subtype": "no-damage", "uid": "38c2baf0-24de-4e35-a7bb-0019a826c2eb" }, "geometry": { "type": "Polygon", "coordinates": [ [ [ 126.796553229371995, 953.043234047762439 ], [ 124.310000130643502, 972.75000004741355 ], [ 103.800000130697001, 971.960000047817971 ], [ 104.828602711592296, 962.21666393421765 ], [ 105.066540377382196, 953.391546296110846 ], [ 126.796553229371995, 953.043234047762439 ] ] ] } },
{ "type": "Feature", "properties": { "feature_type": "building", "subtype": "no-damage", "uid": "fbfc879a-1f2b-49e4-8ad0-117165e0b585" }, "geometry": { "type": "Polygon", "coordinates": [ [ [ 95.655172825634793, 894.62297002076059 ], [ 120.519995937506494, 895.347188171533048 ], [ 119.554371740392398, 916.108108445351945 ], [ 133.797328671260203, 918.039356842079428 ], [ 132.831704471146509, 933.006531921716487 ], [ 118.588747542528296, 931.075283522989366 ], [ 117.864529392005593, 927.454192780125254 ], [ 113.036408398185998, 926.24716253017084 ], [ 112.553596301253705, 921.419041536352552 ], [ 110.6223479012762, 920.936229438170471 ], [ 110.380941853185007, 928.178410927898199 ], [ 112.070784199322105, 928.419816978488939 ], [ 112.553596298504104, 935.179186369034824 ], [ 111.105160000708196, 935.661998468216666 ], [ 112.553596300753796, 936.627622668580102 ], [ 112.070784202321704, 940.97293156121691 ], [ 113.277814449526701, 947.249488852580839 ], [ 96.137984920067481, 947.490894902171817 ], [ 95.655172825634793, 894.62297002076059 ] ] ] } },
{ "type": "Feature", "properties": { "feature_type": "building", "subtype": "minor-damage", "uid": "fe08677d-49d3-409d-b582-8c0d69a9a657" }, "geometry": { "type": "Polygon", "coordinates": [ [ [ 224.937171252675995, 906.583680908312999 ], [ 249.817744726453611, 907.067851077841851 ], [ 248.127915175676009, 918.790108673537475 ], [ 246.957772215675391, 928.211056852508136 ], [ 247.744222251023388, 943.153607503370381 ], [ 223.770488367454192, 941.450785786917663 ], [ 223.364271183229704, 929.783956919704337 ], [ 228.869421423917089, 929.390731904155132 ], [ 228.869421424416998, 923.885581663469111 ], [ 224.5439462361268, 921.919456577724077 ], [ 224.937171252675995, 906.583680908312999 ] ] ] } },
{ "type": "Feature", "properties": { "feature_type": "building", "subtype": "no-damage", "uid": "949c5822-c3dd-4ebe-9d52-6b24cf32fa53" }, "geometry": { "type": "Polygon", "coordinates": [ [ [ 237.524450337399287, 830.365762558057213 ], [ 261.472199891867092, 831.493468949001794 ], [ 259.545051300648709, 855.532163657193223 ], [ 258.667656113570615, 870.016528469377818 ], [ 235.165100239103992, 869.584326958551742 ], [ 235.558325251653798, 859.071188811134334 ], [ 237.131225321100089, 838.230262900037474 ], [ 237.524450337399287, 830.365762558057213 ] ] ] } },
{ "type": "Feature", "properties": { "feature_type": "building", "subtype": "no-damage", "uid": "ceb813e1-fe85-45bd-bd2c-10a6a67be524" }, "geometry": { "type": "Polygon", "coordinates": [ [ [ 138.431746005776802, 844.521863172821782 ], [ 130.960470679093987, 848.060888329762406 ], [ 130.960470679843809, 864.969564068369436 ], [ 105.007619545103495, 866.542464138565265 ], [ 105.400844562152599, 849.240563380409526 ], [ 98.716019269817934, 850.420238435056035 ], [ 98.716019271067751, 834.298012730547157 ], [ 82.200568548255802, 834.298012728547405 ], [ 82.200568547255955, 822.108037195528482 ], [ 104.221169513254907, 822.894487230626396 ], [ 105.007619545603404, 818.962237058136452 ], [ 138.431746006026714, 818.962237058136452 ], [ 138.431746005776802, 844.521863172821782 ] ] ] } },
{ "type": "Feature", "properties": { "feature_type": "building", "subtype": "no-damage", "uid": "d29721f9-2a67-4b10-b63e-2771c002d8cf" }, "geometry": { "type": "Polygon", "coordinates": [ [ [ 111.692444838438007, 765.090409704923331 ], [ 133.31982078463821, 765.483634718472899 ], [ 133.713045801937312, 794.9755110116472 ], [ 128.601120576299309, 796.155186061294557 ], [ 128.207895561749808, 808.738386610862563 ], [ 101.468594391411401, 810.311286681058277 ], [ 101.468594391161503, 804.019686405274456 ], [ 100.708128686164599, 787.517227847642289 ], [ 100.682144357313206, 780.032960354785814 ], [ 110.905994802590001, 779.246510322687527 ], [ 111.692444838438007, 765.090409704923331 ] ] ] } },
{ "type": "Feature", "properties": { "feature_type": "building", "subtype": "no-damage", "uid": "33f7d993-ad26-4398-9938-2d2c5aba4d8c" }, "geometry": { "type": "Polygon", "coordinates": [ [ [ 243.279911783703199, 769.035652039839306 ], [ 244.904780510602393, 797.965405168931625 ], [ 215.568810203027596, 797.926428672654879 ], [ 215.214561676756006, 776.718262074860149 ], [ 198.120535559905989, 775.944804204188017 ], [ 197.28211686635521, 758.392592249164522 ], [ 215.412904222419996, 758.785817260714339 ], [ 215.819121404394707, 768.707387849418183 ], [ 243.279911783703199, 769.035652039839306 ] ] ] } },
{ "type": "Feature", "properties": { "feature_type": "building", "subtype": "no-damage", "uid": "3355d9bb-2a89-4d7f-a724-7bb7d85419da" }, "geometry": { "type": "Polygon", "coordinates": [ [ [ 1.533328408854255, 596.759768765696663 ], [ 1.782710521492995, 563.591947886237449 ], [ 19.239458351712869, 564.340094222653761 ], [ 22.23204369962831, 597.258532986974615 ], [ 3.528385304964917, 597.507915102112861 ], [ 1.533328408854255, 596.759768765696663 ] ] ] } },
{ "type": "Feature", "properties": { "feature_type": "building", "subtype": "no-damage", "uid": "46f507c8-3991-4f88-86fb-7d896a399f8d" }, "geometry": { "type": "Polygon", "coordinates": [ [ [ 111.106689177024506, 114.253223068727493 ], [ 110.588241675923697, 55.668655586333308 ], [ 135.473721671519513, 54.631760588131421 ], [ 141.176644169130213, 81.591030578375012 ], [ 141.176644166880493, 115.808565568030005 ], [ 112.662031675577495, 114.771670566828604 ], [ 111.106689177024506, 114.253223068727493 ] ] ] } },
{ "type": "Feature", "properties": { "feature_type": "building", "subtype": "minor-damage", "uid": "1df5b951-d7b9-4716-9599-8c0663a873b0" }, "geometry": { "type": "Polygon", "coordinates": [ [ [ 120.945665741133396, 332.979791322578023 ], [ 88.801920749623847, 327.276868826468387 ], [ 90.875710750027551, 306.538968831435284 ], [ 126.130140736643497, 311.723443828443919 ], [ 123.537903238638506, 331.424448821275689 ], [ 120.945665741133396, 332.979791322578023 ] ] ] } },
{ "type": "Feature", "properties": { "feature_type": "building", "subtype": "no-damage", "uid": "51840def-6b1b-47b0-8273-48dcb7da365d" }, "geometry": { "type": "Polygon", "coordinates": [ [ [ 342.691227963367112, 763.987256481282429 ], [ 361.873785456102894, 764.505703982383125 ], [ 362.910680456554701, 792.50186897282822 ], [ 344.246570464169679, 792.501868973828095 ], [ 342.691227963367112, 763.987256481282429 ] ] ] } },
{ "type": "Feature", "properties": { "feature_type": "building", "subtype": "no-damage", "uid": "54322e9d-9555-4267-ad1e-731345432142" }, "geometry": { "type": "Polygon", "coordinates": [ [ [ 609.724906413490771, 988.289682944814444 ], [ 610.679751787411078, 972.37559337248058 ], [ 618.636796573330116, 972.375593374480331 ], [ 619.59164194875018, 962.508857838973427 ], [ 632.95947718763432, 963.145421422586651 ], [ 631.686350021407293, 988.607964736121176 ], [ 610.99803358021768, 988.607964736121176 ], [ 609.724906413490771, 988.289682944814444 ] ] ] } },
{ "type": "Feature", "properties": { "feature_type": "building", "subtype": "no-damage", "uid": "9f7a4fce-b9d2-49d4-8cec-f7e63ac7ae3a" }, "geometry": { "type": "Polygon", "coordinates": [ [ [ 686.07900664383169, 970.523907147552563 ], [ 684.454137910933355, 955.493871409490566 ], [ 681.610617640859459, 953.056568316642711 ], [ 682.4230520028093, 946.150876222073521 ], [ 692.984698735653069, 945.338441855124643 ], [ 697.04687055940019, 969.30525559862906 ], [ 686.07900664383169, 970.523907147552563 ] ] ] } },
{ "type": "Feature", "properties": { "feature_type": "building", "subtype": "no-damage", "uid": "1b47e948-b4f3-4c5c-9628-2397e9e9cec2" }, "geometry": { "type": "Polygon", "coordinates": [ [ [ 934.481969521841165, 976.410860315385548 ], [ 933.263317975166956, 965.442996400069774 ], [ 937.731706980638933, 965.036779218095148 ], [ 940.169010069737965, 943.101051386463723 ], [ 964.135823812748413, 942.288617023514348 ], [ 964.135823812998296, 975.192208767461807 ], [ 936.106838251239992, 976.004643135410561 ], [ 934.481969521841165, 976.410860315385548 ] ] ] } },
{ "type": "Feature", "properties": { "feature_type": "building", "subtype": "no-damage", "uid": "4e3d5a43-67d7-46aa-b0bc-3c34f728a250" }, "geometry": { "type": "Polygon", "coordinates": [ [ [ 899.32443638485006, 811.842911142668072 ], [ 899.84288388520099, 753.258343663273422 ], [ 924.209916374696718, 756.887476161979293 ], [ 924.728363874797651, 770.885558658701598 ], [ 955.31676636525458, 772.959348657105124 ], [ 951.687633869047431, 819.101176143079329 ], [ 943.392473867182616, 821.693413641583561 ], [ 939.244893870374653, 808.213778644962076 ], [ 921.617678874942044, 807.176883645760313 ], [ 921.617678878941433, 820.138071141281216 ], [ 899.324436381350665, 820.656518643381673 ], [ 899.32443638485006, 811.842911142668072 ] ] ] } },
{ "type": "Feature", "properties": { "feature_type": "building", "subtype": "no-damage", "uid": "3e375a44-3c21-4768-bde6-cb80e873dae7" }, "geometry": { "type": "Polygon", "coordinates": [ [ [ 454.493122149815576, 545.211858019027545 ], [ 456.084531106849511, 527.388077701853035 ], [ 467.636665092075475, 527.548281347986403 ], [ 472.107560594465895, 530.348728818756058 ], [ 473.271747841414879, 543.938730856800248 ], [ 456.721094692962481, 545.530139812333914 ], [ 454.493122149815576, 545.211858019027545 ] ] ] } },
{ "type": "Feature", "properties": { "feature_type": "building", "subtype": "no-damage", "uid": "67741b7c-2bde-4ffd-bd2c-b9ca3ca0260f" }, "geometry": { "type": "Polygon", "coordinates": [ [ [ 711.208811983946703, 415.817888311620095 ], [ 695.366341882181359, 416.630322678568973 ], [ 695.366341884181111, 394.288377664962979 ], [ 718.520721262742086, 395.100812025912774 ], [ 718.926938442217192, 388.601337115318017 ], [ 727.863716447161892, 387.788902747369207 ], [ 728.269933632386255, 395.507029210887026 ], [ 735.175625725207396, 397.944332301735074 ], [ 735.175625724707515, 435.722530236377679 ], [ 711.615029167671196, 435.722530235377803 ], [ 710.802594802721842, 416.224105495594472 ], [ 711.208811983946703, 415.817888311620095 ] ] ] } },
{ "type": "Feature", "properties": { "feature_type": "building", "subtype": "no-damage", "uid": "cc066f84-5235-47d5-99d8-d0546290e784" }, "geometry": { "type": "Polygon", "coordinates": [ [ [ 971.294657157300662, 552.381223716187606 ], [ 950.626294357738175, 552.534322698025335 ], [ 951.851086225938388, 537.071325346441427 ], [ 972.366350039663757, 537.683721281791122 ], [ 971.29465715355127, 552.075025746513006 ], [ 971.294657157300662, 552.381223716187606 ] ] ] } },
{ "type": "Feature", "properties": { "feature_type": "building", "subtype": "no-damage", "uid": "a45feb80-972a-45c5-b372-b3f9becf5ff9" }, "geometry": { "type": "Polygon", "coordinates": [ [ [ 427.061388808370111, 147.687639511061889 ], [ 430.311126264168308, 116.408916491013699 ], [ 451.840636916330027, 117.221350850963603 ], [ 450.621985366906188, 152.156028510783614 ], [ 429.092474716994218, 149.3125082349612 ], [ 427.061388808370111, 147.687639511061889 ] ] ] } },
{ "type": "Feature", "properties": { "feature_type": "building", "subtype": "no-damage", "uid": "77f4e307-72f1-45c1-ba4a-f1bcced70356" }, "geometry": { "type": "Polygon", "coordinates": [ [ [ 954.675541544332532, 669.890844294698695 ], [ 954.954153657279221, 708.617927854805885 ], [ 933.501021036869247, 708.060703631912133 ], [ 936.008530045391126, 669.612232184251639 ], [ 954.675541544332532, 669.890844294698695 ] ] ] } }
]
}
