{
"type": "FeatureCollection",
"name": "hurricane-florence_00000207_post_disaster",
"features": [
{ "type": "Feature", "properties": { "feature_type": "building", "subtype": "no-damage", "uid": "c74ef38c-cfcb-4047-9ced-f6f5c41fc0fc" }, "geometry": { "type": "Polygon", "coordinates": [ [ [ 667.137690664038246, 321.39795839270198 ], [ 708.696198859593096, 328.984035286789208 ], [ 708.696198859083438, 329.643694145460586 ], [ 711.311889296841628, 330.303353009228317 ], [ 706.38739284889175, 352.072095393290226 ], [ 662.190249210751631, 343.826359643589399 ], [ 663.509566932553867, 332.282329591358121 ], [ 667.137690664038246, 321.39795839270198 ] ] ] } },
{ "type": "Feature", "properties": { "feature_type": "building", "subtype": "no-damage", "uid": "c8999ace-fba8-430a-9d35-f75125dc35bb" }, "geometry": { "type": "Polygon", "coordinates": [ [ [ 522.978642346792412, 460.817758288617881 ], [ 532.900488616313282, 451.300885339289721 ], [ 546.062121421374854, 465.474951433361525 ], [ 550.31434125395424, 461.425218262025112 ], [ 567.672250560556336, 477.882580933536815 ], [ 564.893380668346822, 482.888804066541127 ], [ 551.124287890005348, 496.050436873639512 ], [ 546.872068056788976, 496.860383506887615 ], [ 518.726422517015976, 468.107277996004427 ], [ 522.978642346792412, 460.817758288617881 ] ] ] } },
{ "type": "Feature", "properties": { "feature_type": "building", "subtype": "no-damage", "uid": "3a9a1bd8-be0d-4a0a-8447-0e1f80567bb2" }, "geometry": { "type": "Polygon", "coordinates": [ [ [ 408.453007197718591, 451.94929245061121 ], [ 415.27511179807459, 446.713723806309872 ], [ 414.957804607144112, 444.492573467885393 ], [ 424.159713139797589, 439.41565841707461 ], [ 425.746249091137713, 441.160847965854487 ], [ 434.948157622389715, 435.449318532927919 ], [ 446.688523678028218, 454.963710758526418 ], [ 435.582772001575222, 457.978129073576383 ], [ 427.967399427396572, 461.627161765645894 ], [ 420.034719659993982, 468.607919957707793 ], [ 408.453007197718591, 451.94929245061121 ] ] ] } },
{ "type": "Feature", "properties": { "feature_type": "building", "subtype": "no-damage", "uid": "ddd93494-b908-425c-8a49-8aa5b139473f" }, "geometry": { "type": "Polygon", "coordinates": [ [ [ 370.101561847259177, 557.534545687531022 ], [ 407.966566996839504, 526.756573583335125 ], [ 415.256086705628377, 533.84360662986137 ], [ 417.483439952794072, 536.273446535721064 ], [ 379.415948140824696, 566.646445320235102 ], [ 376.378648261047772, 566.443958660394287 ], [ 370.506535165284674, 561.989252174472199 ], [ 370.101561847259177, 557.534545687531022 ] ] ] } },
{ "type": "Feature", "properties": { "feature_type": "building", "subtype": "un-classified", "uid": "bc5ff957-078f-47c0-859c-f65e1b8a596d" }, "geometry": { "type": "Polygon", "coordinates": [ [ [ 129.807030437368297, 239.306447636220412 ], [ 143.762249841300587, 226.126518199068698 ], [ 149.706139589111586, 232.587267923542413 ], [ 136.009350174402897, 246.025627351956103 ], [ 129.807030437368297, 239.306447636220412 ] ] ] } },
{ "type": "Feature", "properties": { "feature_type": "building", "subtype": "no-damage", "uid": "2d28240b-f001-4e42-90e6-b6ac4474f14e" }, "geometry": { "type": "Polygon", "coordinates": [ [ [ 154.616309380028213, 240.340167590056893 ], [ 193.365253420761888, 280.188901748213311 ], [ 174.624365399107091, 295.947166253149817 ], [ 147.12183970018819, 266.958456452564519 ], [ 151.256719521395411, 263.340436609550125 ], [ 142.470099896456702, 253.003237048761406 ], [ 147.1218396984045, 243.958187436129009 ], [ 154.616309380028213, 240.340167590056893 ] ] ] } },
{ "type": "Feature", "properties": { "feature_type": "building", "subtype": "no-damage", "uid": "0446f6f8-b3f4-4a3a-a5ad-f54b9cfea387" }, "geometry": { "type": "Polygon", "coordinates": [ [ [ 227.956826217592408, 206.577563594664298 ], [ 240.275927202181094, 197.200337470023811 ], [ 247.262880001483296, 205.290493338285501 ], [ 249.285418970077899, 204.003423085983798 ], [ 257.559442023465579, 214.851586641680598 ], [ 238.25338823549771, 230.848031209641903 ], [ 222.808545203670803, 214.8515866426998 ], [ 227.956826217592408, 206.577563594664298 ] ] ] } },
{ "type": "Feature", "properties": { "feature_type": "building", "subtype": "no-damage", "uid": "5fedda8a-e6cc-41ab-a6af-5c8565bc98dc" }, "geometry": { "type": "Polygon", "coordinates": [ [ [ 212.96580955346181, 263.091036654150287 ], [ 223.481969500315614, 253.037125498077387 ], [ 231.720647623234811, 260.689760373473973 ], [ 222.788596315420307, 269.793644089493682 ], [ 219.437292597875597, 269.909206288271491 ], [ 212.96580955346181, 263.091036654150287 ] ] ] } },
{ "type": "Feature", "properties": { "feature_type": "building", "subtype": "no-damage", "uid": "c62231df-3db4-4ab3-b5fa-a93edad6bfea" }, "geometry": { "type": "Polygon", "coordinates": [ [ [ 428.682034469951475, 415.316399076953928 ], [ 453.511390825513899, 398.187286148227713 ], [ 459.168712527542482, 405.258938275953597 ], [ 433.082173571217879, 422.230903378214975 ], [ 428.682034469951475, 415.316399076953928 ] ] ] } }
]
}
