{
"type": "FeatureCollection",
"name": "hurricane-michael_00000161_post_disaster",
"features": [
{ "type": "Feature", "properties": { "feature_type": "building", "subtype": "major-damage", "uid": "0ba0ffdc-288d-4111-8549-cbd1f04b73e7" }, "geometry": { "type": "Polygon", "coordinates": [ [ [ 909.191951962803387, 241.387604113838194 ], [ 959.55041638930868, 239.387604116297894 ], [ 960.703515373417417, 263.071692932965107 ], [ 910.957446879271629, 263.918593950394381 ], [ 909.191951962803387, 241.387604113838194 ] ] ] } },
{ "type": "Feature", "properties": { "feature_type": "building", "subtype": "no-damage", "uid": "a1749bdb-a135-4cab-a3c8-153753f21bf7" }, "geometry": { "type": "Polygon", "coordinates": [ [ [ 998.760504226265198, 372.254325264647321 ], [ 1009.758032675313984, 387.24938216136502 ], [ 988.506179009408811, 404.748146382626715 ], [ 976.760504231338018, 390.254325266497574 ], [ 998.760504226265198, 372.254325264647321 ] ] ] } },
{ "type": "Feature", "properties": { "feature_type": "building", "subtype": "minor-damage", "uid": "c7e12e8a-58c5-4070-9f91-0278a857e960" }, "geometry": { "type": "Polygon", "coordinates": [ [ [ 843.01482944466818, 453.254325264977695 ], [ 873.511122119261699, 454.000000050332517 ], [ 873.765447331427708, 497.496292722187889 ], [ 834.790162858544932, 502.987642286978712 ], [ 833.222684538872954, 478.725448442280879 ], [ 843.696733239622745, 476.979773660154876 ], [ 843.01482944466818, 453.254325264977695 ] ] ] } },
{ "type": "Feature", "properties": { "feature_type": "building", "subtype": "destroyed", "uid": "308a3d95-6103-47a2-8527-1bd0101dace5" }, "geometry": { "type": "Polygon", "coordinates": [ [ [ 932.765447332565373, 409.012357812764776 ], [ 946.765447334584337, 427.012357812616187 ], [ 920.765447335082513, 447.012357812006826 ], [ 908.765447332852204, 431.012357811694699 ], [ 929.765447331507971, 414.012357811613015 ], [ 928.765447331988412, 413.012357808845024 ], [ 932.765447332565373, 409.012357812764776 ] ] ] } },
{ "type": "Feature", "properties": { "feature_type": "building", "subtype": "no-damage", "uid": "ab46f794-3357-4e12-9ffb-c5576896e61c" }, "geometry": { "type": "Polygon", "coordinates": [ [ [ 945.261740004562967, 435.753089490304376 ], [ 957.007414787131324, 448.75061793689639 ], [ 948.758032678635914, 456.498764273050824 ], [ 937.261740005658112, 442.753089490690684 ], [ 945.261740004562967, 435.753089490304376 ] ] ] } },
{ "type": "Feature", "properties": { "feature_type": "building", "subtype": "no-damage", "uid": "f32b2e27-17a8-460a-ace5-0ff585b02466" }, "geometry": { "type": "Polygon", "coordinates": [ [ [ 969.000000128876991, 433.00000004717441 ], [ 978.000000129550244, 442.00000004809948 ], [ 972.000000132932769, 447.000000047947196 ], [ 964.000000128780584, 438.000000047022127 ], [ 969.000000128876991, 433.00000004717441 ] ] ] } },
{ "type": "Feature", "properties": { "feature_type": "building", "subtype": "minor-damage", "uid": "6bca1e75-1783-4f3d-88c3-7067a3609735" }, "geometry": { "type": "Polygon", "coordinates": [ [ [ 1017.064829447211991, 405.310617936748883 ], [ 999.014829443678309, 419.750617938579694 ], [ 989.014829445484452, 407.750617937346078 ], [ 1009.014829443871008, 390.750617937264508 ], [ 1017.064829448211981, 401.2206179374312 ], [ 1017.064829447211991, 405.310617936748883 ] ] ] } },
{ "type": "Feature", "properties": { "feature_type": "building", "subtype": "minor-damage", "uid": "991966f0-abc5-46dd-b96a-902730c648a9" }, "geometry": { "type": "Polygon", "coordinates": [ [ [ 952.755561123802181, 383.002471602109608 ], [ 968.012357890918338, 405.249382160216783 ], [ 948.012357891032366, 422.249382162297422 ], [ 946.012357892493014, 419.249382158990613 ], [ 945.012357890724729, 420.249382159759705 ], [ 934.012357893011313, 407.249382159756124 ], [ 943.012357894184333, 400.249382159369702 ], [ 938.012357893838043, 394.249382159752372 ], [ 952.755561123802181, 383.002471602109608 ] ] ] } },
{ "type": "Feature", "properties": { "feature_type": "building", "subtype": "no-damage", "uid": "41d93728-d9a8-4098-9093-d8a91a685802" }, "geometry": { "type": "Polygon", "coordinates": [ [ [ 183.257358458100612, 1022.980479030410038 ], [ 207.720388230618198, 998.305240619332949 ], [ 189.157634269843697, 973.294372125167911 ], [ 235.72061102488999, 935.123375023056269 ], [ 305.614490696960786, 1014.132430837781044 ], [ 292.175659009390188, 1022.981747515010056 ], [ 183.257358458100612, 1022.980479030410038 ] ] ] } },
{ "type": "Feature", "properties": { "feature_type": "building", "subtype": "no-damage", "uid": "da47ebac-998a-41ba-8c1e-f04166991c47" }, "geometry": { "type": "Polygon", "coordinates": [ [ [ 162.988847300852797, 811.305667153362606 ], [ 195.22941997102609, 812.868846432124087 ], [ 193.080048455983189, 847.063393202005614 ], [ 136.610196935028711, 847.649585432540675 ], [ 136.414799525433494, 840.224483850428101 ], [ 127.426518661063298, 836.707330468217492 ], [ 129.380492761513608, 810.524077512982444 ], [ 162.988847300852797, 811.305667153362606 ] ] ] } },
{ "type": "Feature", "properties": { "feature_type": "building", "subtype": "major-damage", "uid": "6e984576-02a1-4dc3-844a-e4f3a969579b" }, "geometry": { "type": "Polygon", "coordinates": [ [ [ 113.873165964403498, 871.615469520161355 ], [ 91.597861214572518, 875.328020308219266 ], [ 88.862297469744291, 864.776560165585352 ], [ 91.402463801978826, 805.375747493692529 ], [ 116.608729706233305, 805.961939723228056 ], [ 113.873165964403498, 871.615469520161355 ] ] ] } },
{ "type": "Feature", "properties": { "feature_type": "building", "subtype": "major-damage", "uid": "4a576af9-5184-4192-bf9f-0215789567e8" }, "geometry": { "type": "Polygon", "coordinates": [ [ [ 100.428019350452502, 721.446981405698352 ], [ 125.864994761561604, 720.698835071929238 ], [ 124.368702091525194, 754.614802286082636 ], [ 99.430490900846365, 754.116038059905122 ], [ 100.428019350452502, 721.446981405698352 ] ] ] } },
{ "type": "Feature", "properties": { "feature_type": "building", "subtype": "minor-damage", "uid": "e160da66-4f16-4aef-9a1d-4c659bd804be" }, "geometry": { "type": "Polygon", "coordinates": [ [ [ 167.51180744497529, 720.200070845751839 ], [ 185.217937389565208, 721.446981406697773 ], [ 185.966083725332993, 728.928444762378945 ], [ 199.183335657314814, 727.681534203431852 ], [ 196.938896648762011, 749.876542160884583 ], [ 170.005628564368095, 749.128395827115469 ], [ 160.030344088546286, 746.63457470622302 ], [ 160.778490426313112, 720.698835072928773 ], [ 167.51180744497529, 720.200070845751839 ] ] ] } },
{ "type": "Feature", "properties": { "feature_type": "building", "subtype": "destroyed", "uid": "a901b327-39fc-464e-8ce0-8233cd6b1472" }, "geometry": { "type": "Polygon", "coordinates": [ [ [ 182.533876820285286, 779.158346871217304 ], [ 196.312785351849101, 779.158346871217304 ], [ 197.6906762049056, 796.611631014933323 ], [ 182.840074788214196, 795.846136095235806 ], [ 182.533876820285286, 779.158346871217304 ] ] ] } },
{ "type": "Feature", "properties": { "feature_type": "building", "subtype": "major-damage", "uid": "0b236b62-77f2-4c46-9fd0-1a906afb60d9" }, "geometry": { "type": "Polygon", "coordinates": [ [ [ 20.695865429347879, 885.769915463832717 ], [ 7.799636360079153, 854.50632984762558 ], [ 9.167418233742616, 843.173280060613592 ], [ 29.29335147152911, 841.414703369008635 ], [ 30.27033852250387, 824.415128688490654 ], [ 56.258194066388803, 826.564500199786039 ], [ 57.821373346399227, 853.138547975710935 ], [ 66.028064574637199, 854.115535027935266 ], [ 69.936012774038588, 885.379120642143334 ], [ 20.695865429347879, 885.769915463832717 ] ] ] } },
{ "type": "Feature", "properties": { "feature_type": "building", "subtype": "major-damage", "uid": "173a8689-1f60-484e-bfc0-4ce84316c62b" }, "geometry": { "type": "Polygon", "coordinates": [ [ [ 716.43423195148182, 103.945598799108296 ], [ 735.732023503966843, 102.382419521346407 ], [ 739.835369116211837, 150.450182407226691 ], [ 718.732448824202265, 149.473195358000908 ], [ 716.43423195148182, 103.945598799108296 ] ] ] } },
{ "type": "Feature", "properties": { "feature_type": "building", "subtype": "no-damage", "uid": "3adf7058-66e9-4a51-bafe-f9b276d5d0c6" }, "geometry": { "type": "Polygon", "coordinates": [ [ [ 764.822205143520591, 77.764043326113438 ], [ 778.890818670111003, 76.982453689731159 ], [ 782.603369462415799, 131.107536287808387 ], [ 769.12094816461115, 131.498331109497713 ], [ 764.822205143520591, 77.764043326113438 ] ] ] } },
{ "type": "Feature", "properties": { "feature_type": "building", "subtype": "minor-damage", "uid": "22d07d99-d317-45e6-8b7c-21b18e2178db" }, "geometry": { "type": "Polygon", "coordinates": [ [ [ 706.253234929489281, 169.624518320565301 ], [ 716.477901519648981, 169.87390043315429 ], [ 716.727283630988609, 158.152941177453187 ], [ 731.191446117919213, 157.903559063864691 ], [ 731.690210340598355, 179.101038576958302 ], [ 706.502617040578912, 181.844241804442902 ], [ 706.253234929489281, 169.624518320565301 ] ] ] } },
{ "type": "Feature", "properties": { "feature_type": "building", "subtype": "no-damage", "uid": "9e815da0-9dbf-4c1e-b71e-2548a8db1b9f" }, "geometry": { "type": "Polygon", "coordinates": [ [ [ 9.750159919864714, 638.85650547937712 ], [ 6.075784307966185, 617.575746746168988 ], [ 10.821852803243161, 617.422647762829115 ], [ 10.3625558542233, 612.217282318281264 ], [ 41.441649540162693, 609.155302646487712 ], [ 41.747847506842241, 639.775099377417064 ], [ 23.22287048000145, 642.377782102189713 ], [ 17.098911136665429, 637.63171360966021 ], [ 9.750159919864714, 638.85650547937712 ] ] ] } },
{ "type": "Feature", "properties": { "feature_type": "building", "subtype": "minor-damage", "uid": "a1003833-8fa4-4b7d-a768-457309df746e" }, "geometry": { "type": "Polygon", "coordinates": [ [ [ 18.4651118115241, 371.288965171683401 ], [ 21.220893514638529, 324.899973114775321 ], [ 41.123761395535233, 326.12476498349281 ], [ 39.592771556640329, 374.504043826816826 ], [ 18.618210791615571, 374.350944845476022 ], [ 18.4651118115241, 371.288965171683401 ] ] ] } },
{ "type": "Feature", "properties": { "feature_type": "building", "subtype": "minor-damage", "uid": "1cbb05d2-6512-4de9-9fc7-d546585f611b" }, "geometry": { "type": "Polygon", "coordinates": [ [ [ 764.305363536314644, 530.913031006197571 ], [ 785.777677235658416, 514.718827937416222 ], [ 798.733039690480723, 532.832343963948688 ], [ 792.37531552317887, 539.789853429299797 ], [ 808.209647412128447, 557.903369455832262 ], [ 799.452782050636642, 564.141136564525368 ], [ 784.33819251834484, 547.467105256306354 ], [ 779.899781308793649, 551.785559405249387 ], [ 764.305363536314644, 530.913031006197571 ] ] ] } }
]
}
