{
"type": "FeatureCollection",
"name": "hurricane-harvey_00000359_post_disaster",
"features": [
{ "type": "Feature", "properties": { "feature_type": "building", "subtype": "no-damage", "uid": "dd7e836b-7cf1-44c7-90ae-0caa6cdc0868" }, "geometry": { "type": "Polygon", "coordinates": [ [ [ -0.000003808277542, 519.827515569458456 ], [ 5.711298351897843, 521.059923932412971 ], [ 6.327502529947419, 524.449046924804634 ], [ 23.273117499065119, 529.070578281147959 ], [ 21.732607048862391, 573.745381369201709 ], [ -0.000003808900706, 571.588666739764449 ], [ -0.000003808277542, 519.827515569458456 ] ] ] } },
{ "type": "Feature", "properties": { "feature_type": "building", "subtype": "no-damage", "uid": "25429bb4-cb9e-4494-a78e-3ecb3ec1fd0c" }, "geometry": { "type": "Polygon", "coordinates": [ [ [ 37.445813649791567, 621.193103269665585 ], [ 38.062017834197412, 586.069464981796614 ], [ 58.704857878778952, 584.220852434872199 ], [ 59.012959972010101, 586.377567070291889 ], [ 96.601414984400691, 584.837056619839132 ], [ 97.525721255743733, 594.388221419026877 ], [ 89.51506690863242, 595.620629779987212 ], [ 89.206964819638785, 619.344490727726566 ], [ 37.445813649791567, 621.193103269665585 ] ] ] } },
{ "type": "Feature", "properties": { "feature_type": "building", "subtype": "no-damage", "uid": "536ad514-92ed-4233-9e0f-61f2343651a8" }, "geometry": { "type": "Polygon", "coordinates": [ [ [ 7.868012982268899, 684.045929690609114 ], [ 5.403196260099977, 676.035275340876979 ], [ 4.170787898018453, 670.489437717053875 ], [ 9.408523433780267, 665.867906364698797 ], [ 8.792319256478487, 655.70053738054412 ], [ 14.64625896817112, 647.997985125289688 ], [ 92.904189902144367, 651.695210208170806 ], [ 114.163234133188197, 655.392435294043025 ], [ 111.082213229978507, 669.257029354099359 ], [ 100.606742160137401, 668.3327230846254 ], [ 98.141925436348274, 677.883887881818964 ], [ 91.979883632109974, 678.191989971311273 ], [ 88.282658549479763, 685.894542229557032 ], [ 79.347697930963093, 688.05125686098836 ], [ 84.83861967945424, 701.261052812939056 ], [ 85.080025726860811, 704.157925408989058 ], [ 103.426885502625595, 703.916519357656512 ], [ 103.909697605103702, 699.571210465575518 ], [ 122.015151328165103, 700.054022564252591 ], [ 123.222181579592998, 711.882918998788227 ], [ 114.531563789016403, 713.331355297810319 ], [ 114.290157740114196, 718.159476289565191 ], [ 122.015151328165103, 716.7110399905431 ], [ 121.049527131434701, 735.057899769182541 ], [ 108.737818595236305, 734.575087666517334 ], [ 106.806570198348197, 717.918070239229678 ], [ 99.805794758624074, 716.469633942201767 ], [ 94.977673762945301, 720.573536785941201 ], [ 118.246214687344505, 771.101231756121479 ], [ 115.349342088491497, 781.964503990312096 ], [ 100.140760957552999, 788.482467333418754 ], [ 94.347015766016312, 777.860601149563763 ], [ 88.311864524081884, 779.550443495930153 ], [ 81.793901181164983, 767.721547060397484 ], [ 85.414991931024304, 763.134832115986796 ], [ 76.965780188602039, 744.063754192323131 ], [ 69.723598701159744, 746.960626789370281 ], [ 55.963453866376078, 730.786421459762551 ], [ 64.895477704110007, 725.716894418669085 ], [ 58.618920411902458, 713.887997983136415 ], [ 33.271285195416397, 713.16377983611801 ], [ 36.409563840928179, 688.298956719357193 ], [ 64.654071655207858, 691.43723536175446 ], [ 65.619695851626616, 679.608338931207072 ], [ 61.515793007265742, 677.435684483172508 ], [ 52.342363122935353, 682.74661757559852 ], [ 43.168933234990618, 682.263805475924528 ], [ 37.02448219487048, 671.384611523796593 ], [ 30.98933095623882, 668.004926826078417 ], [ 23.264337362891059, 671.867423619482338 ], [ 20.12605871538517, 674.764296218523555 ], [ 18.436216368084729, 678.143980915244697 ], [ 18.436216372696141, 683.937726105350634 ], [ 7.868012982268899, 684.045929690609114 ] ] ] } },
{ "type": "Feature", "properties": { "feature_type": "building", "subtype": "no-damage", "uid": "319a03d1-64ef-4469-bfc8-51786d21fdbb" }, "geometry": { "type": "Polygon", "coordinates": [ [ [ 8.352522602401264, 875.504893660107768 ], [ 13.59025813772686, 870.575260217263349 ], [ 11.741645594853839, 865.645626770430795 ], [ 13.28215604580436, 859.791687056118235 ], [ 17.903687399715299, 854.553951524778654 ], [ 34.849302366464983, 850.240522259921704 ], [ 36.389812817602447, 857.634972428675155 ], [ 47.789590158350357, 857.943074513182069 ], [ 46.557181796767367, 820.66272159388177 ], [ 63.502796762893887, 818.197904869966919 ], [ 63.502796765199591, 836.99213237685592 ], [ 68.124328120980024, 837.300234468342296 ], [ 70.281042749232327, 865.953728860920137 ], [ 62.578490493669612, 869.650953944798289 ], [ 62.886592586963062, 887.828977271705639 ], [ 66.583817667723793, 888.445181452684324 ], [ 60.113673770877519, 908.163715229047284 ], [ 57.032652871656083, 907.855613136563761 ], [ 53.951631965766794, 918.022982119721405 ], [ 60.113673772186161, 920.487798840645041 ], [ 52.719223603373678, 927.882249009398492 ], [ 38.238425360475468, 933.428086633221596 ], [ 31.46017937376314, 926.341738554957487 ], [ 12.3578497777641, 906.007000600607057 ], [ 20.368504123379822, 902.617877606221214 ], [ 19.136095763479371, 895.223427443450191 ], [ 0.649970345903802, 888.445181454678391 ], [ 3.114787067698827, 878.277812475509108 ], [ 8.352522602401264, 875.504893660107768 ] ] ] } },
{ "type": "Feature", "properties": { "feature_type": "building", "subtype": "no-damage", "uid": "c4380887-1b2b-4508-af6f-1000efafee9e" }, "geometry": { "type": "Polygon", "coordinates": [ [ [ 6.986168919895454, 1022.983443330492037 ], [ 9.305669465889611, 1006.757380769848055 ], [ 19.164936359612931, 1005.216870317401003 ], [ 27.483692793474489, 1003.984461958434963 ], [ 33.64573459914606, 1001.211543145028031 ], [ 44.429307761034281, 999.671032691584173 ], [ 45.661716121370937, 1003.676359864954975 ], [ 45.969818211299319, 1006.449278676367953 ], [ 50.283247475531148, 1007.989789131805992 ], [ 47.510328666611983, 1016.308545566045041 ], [ 53.980472557849787, 1017.232851838509987 ], [ 53.718610737664967, 1022.984381232627015 ], [ 6.986168919895454, 1022.983443330492037 ] ] ] } },
{ "type": "Feature", "properties": { "feature_type": "building", "subtype": "no-damage", "uid": "951e8bb4-1aa5-4af2-a23a-3842f96dd3b8" }, "geometry": { "type": "Polygon", "coordinates": [ [ [ 426.575991781428115, 706.899958299864352 ], [ 436.40661721008172, 701.00158304184697 ], [ 434.047267108620588, 678.587757063375534 ], [ 439.159192329366817, 677.408082013766148 ], [ 439.552417346443178, 667.184231565539221 ], [ 474.942668896338489, 668.757131631352649 ], [ 474.549443877891179, 700.608358021654681 ], [ 479.661369105492213, 701.39480806104234 ], [ 477.695244016869992, 732.066359401735099 ], [ 449.383042775719787, 735.605384558539527 ], [ 449.776267795288788, 727.347659195321285 ], [ 426.575991780742584, 726.167984140726617 ], [ 426.575991781428115, 706.899958299864352 ] ] ] } },
{ "type": "Feature", "properties": { "feature_type": "building", "subtype": "no-damage", "uid": "64486461-46bf-486f-958e-fa65dc0bcc59" }, "geometry": { "type": "Polygon", "coordinates": [ [ [ 485.68999621157451, 881.480001929736204 ], [ 481.765331708727501, 979.719616527850121 ], [ 466.03633102106221, 979.326391509652012 ], [ 464.463430951572775, 996.235067251295618 ], [ 445.354745568932685, 992.392404160759838 ], [ 445.195405109534875, 973.821241269832854 ], [ 434.57832964404912, 976.573816391237983 ], [ 434.185104628593024, 968.316091032007989 ], [ 416.883203873557079, 969.495766079623195 ], [ 412.129626974912696, 969.702295442649074 ], [ 413.620461453838288, 934.346920583849169 ], [ 411.989996208821822, 933.800001931167117 ], [ 412.419996209944372, 901.610001929033501 ], [ 414.917078785495676, 901.467838105818032 ], [ 412.164503662907805, 884.165937350961599 ], [ 426.320604284199476, 884.95238738436683 ], [ 426.320604282828526, 884.320001928328907 ], [ 429.377736558774075, 885.766505215664552 ], [ 428.175282608193982, 876.146873571635297 ], [ 436.129996210372326, 875.820001930371177 ], [ 436.821404338026127, 894.132598035236242 ], [ 428.161261456804425, 895.575955180808933 ], [ 427.863081159249873, 898.259577858364423 ], [ 438.03990065557042, 896.733054933641483 ], [ 439.429996209870524, 875.690001931078086 ], [ 475.78953804056232, 874.195469658404591 ], [ 485.68999621157451, 881.480001929736204 ] ] ] } },
{ "type": "Feature", "properties": { "feature_type": "building", "subtype": "no-damage", "uid": "bb6d1323-514c-48b2-8ae3-3d3f3a3da3f2" }, "geometry": { "type": "Polygon", "coordinates": [ [ [ 400.160880540093672, 917.339066052145427 ], [ 403.571214556580287, 916.608280195243992 ], [ 405.429716645352983, 925.668477861493216 ], [ 402.231080708100308, 930.097358388723933 ], [ 407.249996212332121, 935.120001929895125 ], [ 408.232253494637007, 949.83451521956556 ], [ 388.17777761402192, 944.329364981740696 ], [ 381.099727304342025, 931.746164433297963 ], [ 363.797826548807507, 932.925839482907236 ], [ 361.438476443669913, 904.613638246418532 ], [ 398.879996208872626, 902.410001929592113 ], [ 400.160880540093672, 917.339066052145427 ] ] ] } },
{ "type": "Feature", "properties": { "feature_type": "building", "subtype": "no-damage", "uid": "524380f0-97ac-4917-baab-349c34f38cf6" }, "geometry": { "type": "Polygon", "coordinates": [ [ [ 491.595957140060591, 846.023110681452749 ], [ 491.20273212148868, 868.43693666191848 ], [ 490.02305706976108, 876.694662022145508 ], [ 485.999996211691098, 881.080001927462831 ], [ 475.944374863044516, 873.688704148061561 ], [ 428.659996209161022, 875.63000192964023 ], [ 429.614245337305476, 874.930138188614137 ], [ 429.318563505872874, 874.526935692639086 ], [ 427.769996209125793, 875.660001929860641 ], [ 427.611726099370685, 875.669550408836585 ], [ 427.61999621082839, 875.77000192834214 ], [ 425.399996211223709, 877.400001931673614 ], [ 417.2764288883277, 876.694662024139689 ], [ 418.062878925658481, 873.942086903731592 ], [ 417.2764288883277, 845.236660652035766 ], [ 491.595957140060591, 846.023110681452749 ] ] ] } },
{ "type": "Feature", "properties": { "feature_type": "building", "subtype": "no-damage", "uid": "03bda094-7b97-4e7e-beb2-dd2027a6ae99" }, "geometry": { "type": "Polygon", "coordinates": [ [ [ 489.223178186163295, 937.796124229010616 ], [ 512.639565005262739, 936.830500029662517 ], [ 512.398158957419923, 960.488292894745655 ], [ 486.567711639577624, 960.005480797065729 ], [ 489.223178186163295, 937.796124229010616 ] ] ] } },
{ "type": "Feature", "properties": { "feature_type": "building", "subtype": "no-damage", "uid": "d49c16f8-6a5c-4bd2-99f6-77d17b7a7268" }, "geometry": { "type": "Polygon", "coordinates": [ [ [ 568.409598401674657, 845.180106892009462 ], [ 572.329996215665915, 859.32000192782516 ], [ 571.30123508048473, 859.339158081335995 ], [ 571.784047179722393, 870.685242415200605 ], [ 550.057502707175558, 866.339933521125545 ], [ 547.402036160402872, 870.20243031951486 ], [ 540.884072819604739, 872.61649081589087 ], [ 539.677042570544813, 875.513363412937906 ], [ 523.502837242377382, 877.203205758307263 ], [ 512.880971055785153, 877.203205760301444 ], [ 511.673940808844009, 865.374309323771627 ], [ 512.639565006322186, 845.820419298439788 ], [ 545.953599863250929, 848.717291897481005 ], [ 546.436411962737793, 840.268080159666511 ], [ 565.266083836306962, 840.026674107336817 ], [ 565.429996218578822, 838.370001926160626 ], [ 568.409598401674657, 845.180106892009462 ] ] ] } },
{ "type": "Feature", "properties": { "feature_type": "building", "subtype": "no-damage", "uid": "bcf3baee-ed77-429e-a94d-8713e41ba5e8" }, "geometry": { "type": "Polygon", "coordinates": [ [ [ 623.444941813662354, 816.368881236271363 ], [ 629.962905153650354, 815.161850990575999 ], [ 627.30743860631685, 854.993849184269834 ], [ 613.78869982317724, 855.959473386609034 ], [ 609.443390931596809, 863.201654874740029 ], [ 591.096531153276942, 866.822745620799537 ], [ 587.475440410708643, 859.097752031000482 ], [ 572.84999621614088, 859.320001925830979 ], [ 568.881938664752511, 845.012295407842203 ], [ 565.529996214909602, 837.360001927050803 ], [ 567.921550384512898, 813.472008642215428 ], [ 604.85667598594182, 817.093099385283836 ], [ 605.822300187345945, 812.989196544535616 ], [ 623.444941810172622, 812.74779049419999 ], [ 623.444941813662354, 816.368881236271363 ] ] ] } },
{ "type": "Feature", "properties": { "feature_type": "building", "subtype": "no-damage", "uid": "48c60673-f441-48a9-a1e0-e1cab697c593" }, "geometry": { "type": "Polygon", "coordinates": [ [ [ 537.595808066735799, 890.319361891628319 ], [ 559.563758584134234, 889.836549790957292 ], [ 559.322352534858169, 904.562318823537112 ], [ 538.078620162296829, 904.320912773201485 ], [ 537.595808066735799, 890.319361891628319 ] ] ] } },
{ "type": "Feature", "properties": { "feature_type": "building", "subtype": "no-damage", "uid": "db571e32-2fec-41ed-aacb-96bf69b062b1" }, "geometry": { "type": "Polygon", "coordinates": [ [ [ 590.94654504311552, 959.120086047816471 ], [ 611.707465316003208, 958.878679997480958 ], [ 611.224653221003109, 1015.850507724118984 ], [ 590.939023551019545, 1016.574725871137048 ], [ 590.94654504311552, 959.120086047816471 ] ] ] } },
{ "type": "Feature", "properties": { "feature_type": "building", "subtype": "no-damage", "uid": "1206db64-ab3c-4659-a179-231e21c93f72" }, "geometry": { "type": "Polygon", "coordinates": [ [ [ 835.363067236810139, 835.829429157650338 ], [ 819.341758542026582, 835.829429157650338 ], [ 819.341758540468732, 813.954180747861869 ], [ 848.919559211044884, 816.418997472773754 ], [ 849.84386547920974, 845.072491869339842 ], [ 887.432320498766785, 848.769716949229746 ], [ 884.04319750164052, 870.028761179036564 ], [ 878.805461965380118, 870.028761179036564 ], [ 876.64874733544525, 886.358171963007749 ], [ 893.902464391437888, 886.666274050505876 ], [ 892.670056029480975, 906.384807831854118 ], [ 878.497359875638722, 904.844297381401475 ], [ 877.264951516548308, 917.476483082491541 ], [ 866.481378354847038, 927.335749969177414 ], [ 867.09758253744576, 945.513773298078945 ], [ 853.849192656379842, 951.367713013388425 ], [ 850.76817174955579, 946.129977478060596 ], [ 836.287373505847427, 943.973262845632121 ], [ 835.36306723699704, 936.886914770359226 ], [ 827.352412891443691, 937.811221041827366 ], [ 824.88759616939933, 925.487137428235428 ], [ 832.28204633360042, 922.098014438834866 ], [ 834.438760967710436, 879.579925979221343 ], [ 826.736208709031985, 878.655619709747384 ], [ 823.347085715083722, 862.94241310376367 ], [ 836.595475597084487, 857.704677569432874 ], [ 837.519781869611506, 839.218552152036182 ], [ 835.363067236810139, 835.829429157650338 ] ] ] } },
{ "type": "Feature", "properties": { "feature_type": "building", "subtype": "no-damage", "uid": "5b7c48d7-dc03-4b21-b7b6-f16e935cea0b" }, "geometry": { "type": "Polygon", "coordinates": [ [ [ 674.344360032707414, 713.741078620825533 ], [ 684.483414118317228, 714.465296766846791 ], [ 682.793571771515303, 756.228543362227924 ], [ 661.067027298283051, 755.987137314883512 ], [ 663.963899895266536, 741.502774332639206 ], [ 661.308433347621417, 735.950435190874714 ], [ 664.446711995563533, 722.914508508649647 ], [ 661.067027299903316, 721.948884308304514 ], [ 660.584215200229437, 703.602024535647502 ], [ 671.688893485560811, 699.49812168891674 ], [ 670.4818632366879, 697.325467242876357 ], [ 678.689668926718241, 693.462970446481222 ], [ 686.897474617745729, 708.67155157574382 ], [ 674.344360032707414, 713.741078620825533 ] ] ] } },
{ "type": "Feature", "properties": { "feature_type": "building", "subtype": "no-damage", "uid": "b11411dc-7abb-43a5-8978-5476b67ac18d" }, "geometry": { "type": "Polygon", "coordinates": [ [ [ 683.37920678415685, 668.500943549583894 ], [ 696.319494573736506, 666.960433100128284 ], [ 696.935698756958345, 681.441231344154517 ], [ 684.303513053069537, 683.289843884099469 ], [ 683.37920678415685, 668.500943549583894 ] ] ] } },
{ "type": "Feature", "properties": { "feature_type": "building", "subtype": "un-classified", "uid": "ea817546-53ce-4897-a721-909907748dd1" }, "geometry": { "type": "Polygon", "coordinates": [ [ [ 526.668200405937796, 521.922662315784578 ], [ 505.183061986281416, 520.232819970415221 ], [ 503.709996213291902, 520.290001926236982 ], [ 503.279996214474977, 491.240001927890887 ], [ 524.736952008738172, 491.022687958582424 ], [ 526.668200405937796, 521.922662315784578 ] ] ] } },
{ "type": "Feature", "properties": { "feature_type": "building", "subtype": "un-classified", "uid": "63ae8bd6-55e9-4cdd-bb98-0df258d33539" }, "geometry": { "type": "Polygon", "coordinates": [ [ [ 501.079159140611921, 487.884409313193828 ], [ 501.319996212708588, 491.240001929885125 ], [ 501.529996210761283, 520.360001929077612 ], [ 478.386990470711623, 521.198444168766287 ], [ 478.628396519800674, 511.300796135917778 ], [ 448.69404635927998, 512.74923243294586 ], [ 450.625294756355004, 486.91878511583991 ], [ 501.079159140611921, 487.884409313193828 ] ] ] } },
{ "type": "Feature", "properties": { "feature_type": "building", "subtype": "no-damage", "uid": "25e0ac54-1b5a-45aa-86dd-57802570ac00" }, "geometry": { "type": "Polygon", "coordinates": [ [ [ 705.739341119835444, 584.931356723701128 ], [ 784.61347623727977, 587.396173443627731 ], [ 783.072965782154029, 606.806605128504316 ], [ 785.229680416326346, 634.535793254599298 ], [ 684.172194798738587, 635.151997441560411 ], [ 685.40460316194185, 620.363097104053622 ], [ 685.169996221772863, 620.370001925516249 ], [ 685.964445362683364, 602.459245345111526 ], [ 684.599996220078992, 598.240001922828469 ], [ 685.71270525118473, 598.179746607764059 ], [ 686.020807343231809, 566.753333397790925 ], [ 695.880074231533627, 564.904720857845859 ], [ 706.047443210137658, 564.904720857845859 ], [ 705.739341119835444, 584.931356723701128 ] ] ] } },
{ "type": "Feature", "properties": { "feature_type": "building", "subtype": "no-damage", "uid": "5d0f45bd-ed1b-4356-a730-a24342ea1618" }, "geometry": { "type": "Polygon", "coordinates": [ [ [ 685.460965139249765, 602.527106395145097 ], [ 684.669996219118275, 620.380001926919135 ], [ 669.075192374612698, 620.671199198531212 ], [ 667.534681922914388, 599.104052875243951 ], [ 684.089996223063281, 598.260001925634242 ], [ 685.460965139249765, 602.527106395145097 ] ] ] } },
{ "type": "Feature", "properties": { "feature_type": "building", "subtype": "no-damage", "uid": "e6fb7635-6187-417b-807b-305f23ab8df7" }, "geometry": { "type": "Polygon", "coordinates": [ [ [ 778.143504691975295, 517.003730540631295 ], [ 782.00600148687306, 496.484216318942572 ], [ 814.59581819260859, 503.243585708396608 ], [ 810.250509300591943, 522.556069679404573 ], [ 778.143504691975295, 517.003730540631295 ] ] ] } },
{ "type": "Feature", "properties": { "feature_type": "building", "subtype": "no-damage", "uid": "25dc0804-6bff-4695-8876-7fda05a24b57" }, "geometry": { "type": "Polygon", "coordinates": [ [ [ 817.734096842981103, 524.245912027765144 ], [ 818.941127089735232, 501.55374335903889 ], [ 831.494241671595432, 501.795149409374517 ], [ 830.045805372200107, 494.794373968587877 ], [ 847.909853049724347, 496.001404215280274 ], [ 849.841101447734104, 506.38186435378509 ], [ 865.049682580978356, 508.313112751484084 ], [ 863.601246282767079, 514.589670042261105 ], [ 866.980930975124579, 521.831851531389134 ], [ 878.568421364117967, 524.245912027765144 ], [ 878.327015313969468, 528.832626974169898 ], [ 881.223887909582004, 531.970905618561346 ], [ 879.0512334601774, 563.353692074440573 ], [ 874.947330615941155, 565.76775257281065 ], [ 872.533270117883717, 577.113836905678113 ], [ 856.841876889577065, 577.355242958007807 ], [ 857.08328293866623, 601.254441873426458 ], [ 843.081732056226656, 600.771629775746533 ], [ 849.84110145141085, 610.669277811586085 ], [ 839.46064131309754, 614.773180654328598 ], [ 829.804399323235543, 604.151314471470641 ], [ 831.011429571360736, 595.460696685314588 ], [ 814.354412143394939, 591.115387790242494 ], [ 817.00987869185019, 567.69900096851552 ], [ 826.424714630317226, 567.940407020845214 ], [ 828.355963025086567, 560.698225531717185 ], [ 839.219235261141876, 560.215413431046159 ], [ 840.426265509080054, 554.18026218661646 ], [ 842.840326006576674, 534.867778214611349 ], [ 845.495792556029073, 528.591220923834271 ], [ 821.837999684226133, 526.418566475799707 ], [ 817.734096842981103, 524.245912027765144 ] ] ] } },
{ "type": "Feature", "properties": { "feature_type": "building", "subtype": "no-damage", "uid": "1608d404-b4ee-4a57-830c-d39694f6d423" }, "geometry": { "type": "Polygon", "coordinates": [ [ [ 877.510317976364263, 677.093391205301714 ], [ 873.165009083225868, 683.611354545417157 ], [ 891.994680958539902, 703.648056670422989 ], [ 906.479043938409859, 703.889462719761468 ], [ 907.879996231677751, 703.230001919952201 ], [ 908.610114238514029, 704.783548149797184 ], [ 908.903002407788449, 720.892397691715701 ], [ 904.022157732811934, 723.998389755118637 ], [ 902.670867925622474, 748.922179513483229 ], [ 907.869580593286059, 750.556060638694589 ], [ 908.016010861326436, 768.566983470250648 ], [ 906.969996229584581, 772.230001920265977 ], [ 906.961856039703889, 772.207374777272662 ], [ 905.513419740620066, 772.207374778269809 ], [ 885.146725435959183, 775.121904755501873 ], [ 869.302512287829472, 794.41673134831899 ], [ 851.67987066475348, 780.897992569411031 ], [ 866.64704574548125, 765.689411437157219 ], [ 865.681421543827923, 759.895666244060067 ], [ 855.300961405639214, 760.861290443408166 ], [ 855.30096140601313, 716.44257730330969 ], [ 866.888451792513933, 713.787110756598167 ], [ 865.922827593664806, 711.37305025922501 ], [ 842.506440772758197, 681.680106153700535 ], [ 858.197834002311197, 667.678555267141974 ], [ 862.543142896446625, 667.678555268139121 ], [ 863.991579194969518, 665.264494773757178 ], [ 877.510317976364263, 677.093391205301714 ] ] ] } },
{ "type": "Feature", "properties": { "feature_type": "building", "subtype": "no-damage", "uid": "43b15544-0b61-4ae3-9e3e-ee49b672ffe7" }, "geometry": { "type": "Polygon", "coordinates": [ [ [ 932.550897305341323, 729.719910036867418 ], [ 940.034484844863982, 731.892564478919553 ], [ 938.58604854777434, 746.376927462160893 ], [ 933.033709405576019, 751.205048456907093 ], [ 933.275115454041952, 781.863616765767915 ], [ 909.375916535580245, 781.139398619746544 ], [ 907.219996229011258, 773.170001919526385 ], [ 908.516580504767148, 768.635017189452583 ], [ 908.366606025705664, 750.188156166410181 ], [ 903.191152556768429, 748.561585077550149 ], [ 904.507505473869855, 724.282186869951488 ], [ 909.408017437301964, 721.163679253123632 ], [ 909.108096121283893, 704.66800664934226 ], [ 908.339996228845507, 703.020001918409775 ], [ 910.100134685340322, 702.199620370403863 ], [ 928.205588412140628, 700.992590123711466 ], [ 931.826679158884076, 700.992590122714432 ], [ 932.550897305341323, 729.719910036867418 ] ] ] } },
{ "type": "Feature", "properties": { "feature_type": "building", "subtype": "no-damage", "uid": "28b6da90-8e5c-410e-b358-3ad9bbb9ed69" }, "geometry": { "type": "Polygon", "coordinates": [ [ [ 912.453166239982238, 670.069100929425531 ], [ 930.533855795311638, 669.179886688680426 ], [ 931.719474779481629, 699.116766106162345 ], [ 910.674737758866627, 698.672158992769255 ], [ 912.453166239982238, 670.069100929425531 ] ] ] } },
{ "type": "Feature", "properties": { "feature_type": "building", "subtype": "no-damage", "uid": "1d38cd5f-4f45-45d9-bff2-8d7935b65d65" }, "geometry": { "type": "Polygon", "coordinates": [ [ [ 945.798700252144954, 671.402922288549121 ], [ 949.355557214251576, 670.661910422258529 ], [ 949.503759585278772, 667.25325583373251 ], [ 961.952758951280998, 667.846065329556723 ], [ 963.13837793688424, 702.377218325219133 ], [ 957.358485376156182, 702.22901595375572 ], [ 957.951294868677337, 716.160039048792555 ], [ 946.687914491020251, 715.71543193041407 ], [ 946.243307372392792, 709.935539368561763 ], [ 944.168474145234654, 703.562837309888096 ], [ 944.761283638129726, 672.440338902751819 ], [ 945.798700252144954, 671.402922288549121 ] ] ] } },
{ "type": "Feature", "properties": { "feature_type": "building", "subtype": "no-damage", "uid": "c2d5c3c1-0477-464c-8ad4-1b7f0dacb91a" }, "geometry": { "type": "Polygon", "coordinates": [ [ [ 879.12404978577365, 253.358229697637711 ], [ 904.096231612572865, 254.398737273212106 ], [ 906.91999622986134, 255.370001919955314 ], [ 907.16137446566222, 258.817282364518178 ], [ 908.393782825375752, 285.622164220142281 ], [ 876.967369615603275, 288.395083033549383 ], [ 876.967369615852476, 252.655240562707604 ], [ 878.289996225950858, 252.360001919449189 ], [ 879.12404978577365, 253.358229697637711 ] ] ] } },
{ "type": "Feature", "properties": { "feature_type": "building", "subtype": "no-damage", "uid": "57d7eeb3-3ec4-4855-8cb6-6b5f9bab2cba" }, "geometry": { "type": "Polygon", "coordinates": [ [ [ 906.853272372992024, 208.288539561154892 ], [ 896.377801305768116, 209.212845830628908 ], [ 896.994005486310357, 213.218173003999397 ], [ 898.534515936388516, 215.991091817406499 ], [ 904.696557742309324, 215.374887636427786 ], [ 906.237068193446817, 230.163787970943389 ], [ 913.015314182776365, 230.163787970943389 ], [ 913.323416272019358, 251.422832194767807 ], [ 906.853272375422307, 254.503853101655494 ], [ 906.879996227054107, 254.830001919977093 ], [ 904.190102358878676, 253.902214717323488 ], [ 879.36628672871052, 252.867889062498392 ], [ 878.839996226334506, 252.240001919564804 ], [ 879.740288429570001, 252.039036380731801 ], [ 879.124084249214775, 240.947361128100312 ], [ 870.497225719940957, 237.558238136705597 ], [ 868.340511088012022, 214.450581367950889 ], [ 880.97269679046758, 212.29386673352829 ], [ 879.124084247719111, 188.570005782797892 ], [ 901.923638931271398, 188.261903694302589 ], [ 906.853272372992024, 208.288539561154892 ] ] ] } },
{ "type": "Feature", "properties": { "feature_type": "building", "subtype": "un-classified", "uid": "a91e7299-b9d1-4613-88fc-55373abcae07" }, "geometry": { "type": "Polygon", "coordinates": [ [ [ 753.303569245450376, 165.784698504449608 ], [ 772.407512867267428, 167.297882154139188 ], [ 769.002849647054518, 214.77401927793801 ], [ 749.142314194909204, 213.8282794930183 ], [ 753.303569245450376, 165.784698504449608 ] ] ] } },
{ "type": "Feature", "properties": { "feature_type": "building", "subtype": "un-classified", "uid": "9efc5697-d5c3-48fd-9054-a85b258493c5" }, "geometry": { "type": "Polygon", "coordinates": [ [ [ 688.741868707431763, 53.840252184148213 ], [ 719.641843066614683, 55.771500579853132 ], [ 720.607467265962214, 48.770725137072411 ], [ 737.023078645337591, 51.909003786449169 ], [ 732.919175801288247, 76.773826903209965 ], [ 723.262933812859615, 75.808202703861909 ], [ 720.607467268828827, 83.533196291666883 ], [ 723.745745913655128, 85.464444690362981 ], [ 729.056679006951299, 88.361317287410074 ], [ 726.642618507647398, 104.776928665359307 ], [ 715.296534173476175, 104.294116564688196 ], [ 712.882473680217117, 130.124563880797012 ], [ 687.776244508831951, 127.469097336079599 ], [ 692.121553404151427, 102.121462118647699 ], [ 677.154378322613525, 98.741777425914847 ], [ 677.395784372076491, 84.01600839433209 ], [ 697.432486496076535, 87.395693090056156 ], [ 696.949674398085335, 76.291014805530054 ], [ 681.982499318105397, 76.5324208508803 ], [ 688.741868707431763, 53.840252184148213 ] ] ] } },
{ "type": "Feature", "properties": { "feature_type": "building", "subtype": "no-damage", "uid": "2fe602ce-01c4-45ea-bff2-842da50e545f" }, "geometry": { "type": "Polygon", "coordinates": [ [ [ 739.742289038775425, 1.295682608655111 ], [ 747.752943385824324, 0.987580517168692 ], [ 755.147393555010694, 0.987580517168692 ], [ 756.379801917590839, 11.15494950132336 ], [ 760.693231176712629, 11.1549495003263 ], [ 759.152720725886752, 38.884137622433087 ], [ 752.682576832031714, 41.348954346347952 ], [ 745.288126666833591, 35.803116721527772 ], [ 745.288126662471427, 35.495014632035478 ], [ 744.363820392624007, 32.722095820622442 ], [ 727.726307517609825, 30.25727909571053 ], [ 729.883022148666441, 11.77115367831383 ], [ 736.045063958575497, 8.690132775414378 ], [ 739.742289038775425, 1.295682608655111 ] ] ] } },
{ "type": "Feature", "properties": { "feature_type": "building", "subtype": "no-damage", "uid": "1e1f041c-66ea-435f-83c8-ffcc07efd1ca" }, "geometry": { "type": "Polygon", "coordinates": [ [ [ 784.842059590175381, 38.509606497960313 ], [ 785.434869082571936, 21.762738307230489 ], [ 796.698249461039154, 21.910940675702701 ], [ 807.072415596518226, 24.13397627557147 ], [ 806.924213223123161, 44.734106180185208 ], [ 800.551511170995468, 42.807475324240308 ], [ 801.885332530741721, 54.811867569314607 ], [ 790.621952154954101, 58.813331650673703 ], [ 787.954309430974945, 50.06939162166497 ], [ 787.95430942935468, 44.734106180185208 ], [ 786.027678577585789, 42.21466582941315 ], [ 785.731273829798511, 40.584439725368611 ], [ 784.842059590175381, 38.509606497960313 ] ] ] } },
{ "type": "Feature", "properties": { "feature_type": "building", "subtype": "no-damage", "uid": "1a7a2486-cf51-4222-80a4-772ecbae92fc" }, "geometry": { "type": "Polygon", "coordinates": [ [ [ 833.882875191318021, 1022.986556911208027 ], [ 831.443804860094929, 1015.582405407923034 ], [ 836.989642485722811, 1012.809486596510055 ], [ 837.913948757876028, 1000.177300897414057 ], [ 849.62182818686972, 998.020586263988093 ], [ 853.935257454466637, 1013.117588689990043 ], [ 868.416055695806904, 1011.268976148051024 ], [ 870.880872417913565, 1013.733792867977968 ], [ 881.356343489001006, 1010.652771965078045 ], [ 880.740139307960249, 1019.895834674774051 ], [ 881.664445578929303, 1022.668753486187029 ], [ 882.17817263171105, 1022.985855429375988 ], [ 833.882875191318021, 1022.986556911208027 ] ] ] } },
{ "type": "Feature", "properties": { "feature_type": "building", "subtype": "un-classified", "uid": "406a21a6-b81c-4a1c-be97-a09e3a1de681" }, "geometry": { "type": "Polygon", "coordinates": [ [ [ 572.673332914721186, 319.857869160653479 ], [ 597.055343933604377, 319.375057060979486 ], [ 598.020968131144855, 342.550037829379789 ], [ 575.570205508588856, 341.101601531354675 ], [ 572.673332914721186, 319.857869160653479 ] ] ] } },
{ "type": "Feature", "properties": { "feature_type": "building", "subtype": "no-damage", "uid": "4186441e-5214-4e2c-939f-ed4984549bd9" }, "geometry": { "type": "Polygon", "coordinates": [ [ [ 486.491373176225693, 273.266501575511711 ], [ 519.08118988582487, 274.714937874533689 ], [ 520.046814079937917, 297.889918638945687 ], [ 500.251518008890685, 297.648512591601389 ], [ 499.527299860439314, 293.303203696529295 ], [ 486.249967128819208, 295.475858142569678 ], [ 486.491373176225693, 273.266501575511711 ] ] ] } },
{ "type": "Feature", "properties": { "feature_type": "building", "subtype": "no-damage", "uid": "4ad72568-232f-4c34-805a-ca9a5f592eba" }, "geometry": { "type": "Polygon", "coordinates": [ [ [ 367.205201149339075, 25.795856359790161 ], [ 387.483309323487617, 26.037262408131578 ], [ 390.380181920533403, 57.420048867999057 ], [ 372.033322142712223, 56.454424668651008 ], [ 368.170825349559209, 58.868485166024072 ], [ 365.998170904392111, 26.520074506808541 ], [ 367.205201149339075, 25.795856359790161 ] ] ] } },
{ "type": "Feature", "properties": { "feature_type": "building", "subtype": "no-damage", "uid": "7c59ddfe-d49d-4261-9617-513c0cba4990" }, "geometry": { "type": "Polygon", "coordinates": [ [ [ 415.486411088054979, 86.871586926179248 ], [ 418.38328368447759, 87.837211125527304 ], [ 419.107501835484015, 104.735634603150501 ], [ 419.831719985181678, 105.459852749171802 ], [ 420.797344181101892, 111.253597943266001 ], [ 409.209853797405287, 112.460628191952495 ], [ 408.968447746259812, 110.770785845586104 ], [ 397.38095736187779, 113.426252391300594 ], [ 395.691115012334024, 94.355174466639866 ], [ 395.208302912971817, 89.768459524223402 ], [ 415.486411088054979, 86.871586926179248 ] ] ] } },
{ "type": "Feature", "properties": { "feature_type": "building", "subtype": "no-damage", "uid": "8592cb66-e693-4789-9a0c-9a4b9fac4d4a" }, "geometry": { "type": "Polygon", "coordinates": [ [ [ -0.000003805660255, 17.278162581912241 ], [ 8.514019108794445, 17.278162585900489 ], [ 10.588852333584549, 41.583351819972947 ], [ 32.226398849151067, 42.027958937354349 ], [ 31.48538698036818, 56.107184410834023 ], [ 39.19191039965763, 59.367636624905472 ], [ 37.858089036110137, 79.967766523536838 ], [ 29.70695849925254, 83.228218739602411 ], [ 28.3731371393194, 86.192266206758816 ], [ 37.858089036484039, 86.044063834298342 ], [ 36.820672423341193, 113.609705280448097 ], [ -0.000003808776073, 111.534872058025101 ], [ -0.000003805660255, 17.278162581912241 ] ] ] } },
{ "type": "Feature", "properties": { "feature_type": "building", "subtype": "no-damage", "uid": "20e9b5c9-3547-413b-ab3a-85626ea3cc5e" }, "geometry": { "type": "Polygon", "coordinates": [ [ [ 437.024917760230096, 586.457104065956514 ], [ 430.215591315006009, 576.243114403381583 ], [ 425.865188311556381, 560.543834000835773 ], [ 420.758193486440575, 559.598094215916149 ], [ 421.136489396245508, 547.870920902654575 ], [ 425.676040357838019, 540.115854680671305 ], [ 427.189224009583427, 541.818186289937216 ], [ 432.674514754350184, 523.659982449790959 ], [ 437.024917756740422, 518.931283536160549 ], [ 448.036226551573179, 518.79959080311562 ], [ 448.400160155385606, 514.068453940776976 ], [ 473.329612091722481, 513.431570131752437 ], [ 474.239446104338185, 530.263499356582884 ], [ 472.78371168672038, 531.628250376348433 ], [ 468.962408835067777, 532.174150783656387 ], [ 465.323072784355475, 561.743756184988456 ], [ 464.546801716845323, 563.714783182749898 ], [ 469.323089379937301, 563.857358936065339 ], [ 469.251801504027412, 566.138570951223755 ], [ 486.004452263333917, 565.639555823593241 ], [ 488.784679411542925, 565.639555823593241 ], [ 488.428240034174621, 591.018039527874862 ], [ 485.861876511701098, 592.728948541736258 ], [ 449.291196342236617, 590.020009271616914 ], [ 449.576347844505108, 586.241751866587947 ], [ 444.301045051041115, 586.170463989930226 ], [ 437.024917760230096, 586.457104065956514 ] ] ] } },
{ "type": "Feature", "properties": { "feature_type": "building", "subtype": "no-damage", "uid": "39f8760d-60cb-4273-a779-60aa6e7b2e28" }, "geometry": { "type": "Polygon", "coordinates": [ [ [ 208.997750041999893, 446.696733711078593 ], [ 208.997750040940502, 457.171990640777608 ], [ 187.174298109166187, 454.989645450995511 ], [ 187.174298104554794, 446.260264673919778 ], [ 208.997750041999893, 446.696733711078593 ] ] ] } }
]
}
