{
"type": "FeatureCollection",
"name": "hurricane-michael_00000376_post_disaster",
"features": [
{ "type": "Feature", "properties": { "feature_type": "building", "subtype": "no-damage", "uid": "8ac70e81-90c5-417a-9abc-c90fbb94db6d" }, "geometry": { "type": "Polygon", "coordinates": [ [ [ 990.267907651510882, 115.508065143950603 ], [ 1013.490840185890988, 131.646035209549211 ], [ 972.94911050824021, 187.932125923490588 ], [ 948.545350896188211, 171.794155857892008 ], [ 990.267907651510882, 115.508065143950603 ] ] ] } },
{ "type": "Feature", "properties": { "feature_type": "building", "subtype": "destroyed", "uid": "9e59a1fb-eb23-4e5f-ab03-b63a4e904424" }, "geometry": { "type": "Polygon", "coordinates": [ [ [ 945.396478687229774, 174.943028067350411 ], [ 965.599998619407984, 191.565252441073596 ], [ 953.662268236433192, 205.250923069011293 ], [ 947.758132844323654, 200.921223783631206 ], [ 933.981816935068537, 189.900171057027308 ], [ 945.396478687229774, 174.943028067350411 ] ] ] } },
{ "type": "Feature", "properties": { "feature_type": "building", "subtype": "no-damage", "uid": "dbea68ce-26c8-41e7-9ef5-472df9597a7c" }, "geometry": { "type": "Polygon", "coordinates": [ [ [ 982.002118105557884, 200.921223782631102 ], [ 994.991215962448337, 210.761449435313409 ], [ 982.395727130615114, 225.324983394682789 ], [ 970.19384732758931, 216.66558482092239 ], [ 974.917155636526559, 207.218968198547714 ], [ 982.002118105557884, 200.921223782631102 ] ] ] } },
{ "type": "Feature", "properties": { "feature_type": "building", "subtype": "minor-damage", "uid": "8dc77ad3-a9c8-421e-a21d-c4851badfdca" }, "geometry": { "type": "Polygon", "coordinates": [ [ [ 1024.043879955778948, 234.078775088765809 ], [ 1012.31001310746899, 249.728743005734401 ], [ 1001.288960378864999, 239.101299303437713 ], [ 1015.458885315928001, 222.176111187224507 ], [ 1005.225050642937958, 214.697539693386091 ], [ 1015.852494342234991, 199.740396704709298 ], [ 1024.043860575120107, 207.142208196328909 ], [ 1024.043879955778948, 234.078775088765809 ] ] ] } },
{ "type": "Feature", "properties": { "feature_type": "building", "subtype": "minor-damage", "uid": "04ac7dbb-194c-4228-93bb-7ff539258f14" }, "geometry": { "type": "Polygon", "coordinates": [ [ [ 899.797810324131206, 519.794629574919099 ], [ 907.816287574010403, 509.925734493683024 ], [ 935.264152014635897, 535.214778136725272 ], [ 928.47928664541098, 540.149225675343246 ], [ 939.581793613051786, 551.251732638483645 ], [ 904.423854890772986, 592.269327813308223 ], [ 868.032304286339922, 553.718956410292776 ], [ 899.797810324131206, 519.794629574919099 ] ] ] } },
{ "type": "Feature", "properties": { "feature_type": "building", "subtype": "major-damage", "uid": "4f56ea07-92af-4b8a-952c-75c124cb955c" }, "geometry": { "type": "Polygon", "coordinates": [ [ [ 930.638107444993921, 591.652521869355837 ], [ 950.992703545418294, 611.390312029827896 ], [ 942.357420351086716, 622.184416019992 ], [ 951.917912458846672, 631.436505160275942 ], [ 943.899435206217277, 640.071788354607406 ], [ 911.825526199449996, 610.773506086875614 ], [ 930.638107444993921, 591.652521869355837 ] ] ] } },
{ "type": "Feature", "properties": { "feature_type": "building", "subtype": "no-damage", "uid": "f115621e-c613-4d2c-b062-3e7ee476a8ba" }, "geometry": { "type": "Polygon", "coordinates": [ [ [ 935.237032435021661, 133.686097915482691 ], [ 957.47088887194127, 112.001225581690505 ], [ 975.312872435589952, 129.843209147089112 ], [ 953.76524613370475, 152.214311614665604 ], [ 935.237032435021661, 133.686097915482691 ] ] ] } }
]
}
