{
"type": "FeatureCollection",
"name": "hurricane-michael_00000432_post_disaster",
"features": [
{ "type": "Feature", "properties": { "feature_type": "building", "subtype": "no-damage", "uid": "6bbb55ea-15d7-4a21-912c-d02ed90d13ee" }, "geometry": { "type": "Polygon", "coordinates": [ [ [ 311.215515155521416, 801.19024009797522 ], [ 315.994404357605902, 834.950049329776448 ], [ 282.001996836772094, 834.312864103632251 ], [ 283.913552517455912, 847.508555862952448 ], [ 266.533159621425511, 847.235161971923162 ], [ 266.535361181198027, 834.041671768373703 ], [ 252.792881635817196, 834.678856995518458 ], [ 249.92554811591711, 812.200982281830761 ], [ 264.621603939991417, 812.200982282831205 ], [ 265.25878916913689, 800.234462255757535 ], [ 311.215515155521416, 801.19024009797522 ] ] ] } },
{ "type": "Feature", "properties": { "feature_type": "building", "subtype": "no-damage", "uid": "107c29ff-0455-4e64-8b3b-1fcb77877960" }, "geometry": { "type": "Polygon", "coordinates": [ [ [ 236.939301916838588, 927.916036316652253 ], [ 238.36773088615999, 950.927734410777475 ], [ 223.634463105688411, 951.782639223900674 ], [ 213.916840982365187, 952.637544037023758 ], [ 180.603233759616387, 954.065973008846299 ], [ 181.885590979050988, 914.903341006276491 ], [ 213.916840978863604, 914.903341006276491 ], [ 213.91684098061441, 924.913106629873369 ], [ 221.924653483193708, 924.913106631874257 ], [ 221.924653481693014, 927.916036317652697 ], [ 236.939301916838588, 927.916036316652253 ] ] ] } },
{ "type": "Feature", "properties": { "feature_type": "building", "subtype": "no-damage", "uid": "c951ba23-b3a4-4a85-b1dd-0d3f3a4fb6b6" }, "geometry": { "type": "Polygon", "coordinates": [ [ [ 291.551175074560376, 911.669529096676456 ], [ 291.551175073309878, 918.676365032493891 ], [ 310.56972976049542, 918.676365032493891 ], [ 310.329581350140415, 951.1071460143379 ], [ 287.921916609893685, 950.848043126314565 ], [ 287.552216753526125, 947.370023995793986 ], [ 248.55064035794291, 946.582560023249471 ], [ 250.791667339102588, 921.358380467988923 ], [ 275.415475869101385, 921.478454675292369 ], [ 275.53555007190289, 911.669529095676012 ], [ 291.551175074560376, 911.669529096676456 ] ] ] } },
{ "type": "Feature", "properties": { "feature_type": "building", "subtype": "no-damage", "uid": "7323a9ea-4290-4cab-9b12-a682d1993812" }, "geometry": { "type": "Polygon", "coordinates": [ [ [ 373.559846144426217, 914.11022525148735 ], [ 374.146610827881204, 928.411627047197499 ], [ 387.205376984926716, 927.801826938406862 ], [ 388.18331812460201, 948.753228485109389 ], [ 365.966245523152622, 947.602734538282675 ], [ 366.553010208858609, 956.277722836378643 ], [ 346.464372686908177, 957.278699397637865 ], [ 346.855549143378596, 949.949793273103069 ], [ 327.100712389171406, 951.514499095983297 ], [ 326.513947705466308, 926.121944000604003 ], [ 341.494255876469879, 926.121944000604003 ], [ 341.298667649485196, 915.306790042482476 ], [ 373.559846144426217, 914.11022525148735 ] ] ] } },
{ "type": "Feature", "properties": { "feature_type": "building", "subtype": "no-damage", "uid": "1bd726a2-36a6-4856-a204-1413086ec8a6" }, "geometry": { "type": "Polygon", "coordinates": [ [ [ 184.92114265402779, 819.804752655756715 ], [ 184.92114265177679, 801.787174533082293 ], [ 207.943603589001498, 801.787174533082293 ], [ 208.58078881664639, 795.507921266494236 ], [ 221.638682850065805, 795.189328651421306 ], [ 221.95727546488871, 803.061544986371246 ], [ 237.518711686344602, 803.380137599443287 ], [ 236.56293384512739, 839.051502512678553 ], [ 218.545355719451209, 839.688687741824083 ], [ 219.819726174740993, 827.812565156835149 ], [ 211.585920066199293, 827.493972543763107 ], [ 210.630142224731912, 819.486160042684673 ], [ 184.92114265402779, 819.804752655756715 ] ] ] } },
{ "type": "Feature", "properties": { "feature_type": "building", "subtype": "no-damage", "uid": "fa9c3066-32dd-4a48-9b09-bc68b2c4f4ad" }, "geometry": { "type": "Polygon", "coordinates": [ [ [ 510.49804697902988, 118.115234410666304 ], [ 510.498046980030324, 159.155273476317404 ], [ 487.475586042305508, 159.155273475316903 ], [ 470.458984479639184, 159.155273476317404 ], [ 469.458007915128576, 129.125976599524108 ], [ 487.475586041054896, 129.125976599524108 ], [ 486.47460947954562, 118.115234413667594 ], [ 510.49804697902988, 118.115234410666304 ] ] ] } },
{ "type": "Feature", "properties": { "feature_type": "building", "subtype": "no-damage", "uid": "cce77270-1d65-4997-ae36-9998ea70e5a3" }, "geometry": { "type": "Polygon", "coordinates": [ [ [ 762.744140729492528, 115.112304724887807 ], [ 788.769531353746288, 129.125976599524108 ], [ 791.335213741137181, 123.580399948188798 ], [ 803.761144368558462, 130.196059433538608 ], [ 790.771484482517508, 156.152343788537991 ], [ 786.767578228476623, 154.150390662017799 ], [ 782.959260210924526, 162.917520651451809 ], [ 762.28385800451872, 153.448448865891095 ], [ 755.840751331072397, 165.529273882760805 ], [ 739.721679792017767, 158.154296911056406 ], [ 762.744140729492528, 115.112304724887807 ] ] ] } },
{ "type": "Feature", "properties": { "feature_type": "building", "subtype": "no-damage", "uid": "a8f97b6b-d098-4777-8ef8-91098af01cc0" }, "geometry": { "type": "Polygon", "coordinates": [ [ [ 1024.042136725447108, 687.528872666915731 ], [ 1017.49597822451301, 685.668945350945137 ], [ 1019.497931350783006, 662.646484412970722 ], [ 1024.042146051097006, 663.77908646526646 ], [ 1024.042136725447108, 687.528872666915731 ] ] ] } },
{ "type": "Feature", "properties": { "feature_type": "building", "subtype": "no-damage", "uid": "d5f37868-ae13-4655-b9d8-3943eb139351" }, "geometry": { "type": "Polygon", "coordinates": [ [ [ 691.303575114106025, 674.547410073212518 ], [ 690.784621322165435, 707.76429178490946 ], [ 674.323904582315322, 709.840106969679027 ], [ 673.285996989430259, 699.719548258207737 ], [ 656.825280253832034, 699.200594458263708 ], [ 655.268418866005049, 674.547410074212962 ], [ 691.303575114106025, 674.547410073212518 ] ] ] } },
{ "type": "Feature", "properties": { "feature_type": "building", "subtype": "no-damage", "uid": "7acd1606-f0e9-4ba5-aa41-75c457a8ba98" }, "geometry": { "type": "Polygon", "coordinates": [ [ [ 601.989211868740313, 661.784340410150094 ], [ 600.988235303729425, 670.793129473488193 ], [ 621.751695569611456, 671.292380770115756 ], [ 621.499595956044914, 690.812660722682836 ], [ 590.978469680632543, 690.812660722682836 ], [ 591.228095327945994, 698.813051322750653 ], [ 578.719599245953532, 698.31380002612309 ], [ 578.719599249455086, 693.558542861137767 ], [ 568.457734005538441, 693.308917212823985 ], [ 568.956985305917783, 669.792152912228971 ], [ 575.963821242735776, 669.792152911228527 ], [ 576.215920861304653, 662.782843007407109 ], [ 601.989211868740313, 661.784340410150094 ] ] ] } },
{ "type": "Feature", "properties": { "feature_type": "building", "subtype": "no-damage", "uid": "298aa184-046a-4aaa-a5c4-bdb819278de8" }, "geometry": { "type": "Polygon", "coordinates": [ [ [ 705.933154383993497, 843.076839245046358 ], [ 706.182780035058499, 863.595621792869451 ], [ 689.168652437895162, 864.594124389126023 ], [ 688.666927172263172, 843.076839245046358 ], [ 705.933154383993497, 843.076839245046358 ] ] ] } },
{ "type": "Feature", "properties": { "feature_type": "building", "subtype": "no-damage", "uid": "5d846b01-dde8-4623-980e-c6c3960de9aa" }, "geometry": { "type": "Polygon", "coordinates": [ [ [ 760.344137414946317, 808.789062536893653 ], [ 735.530024736065911, 810.603266858501456 ], [ 733.528071611546579, 773.723766582954454 ], [ 757.019378965643341, 774.349245536389844 ], [ 760.23285146022863, 791.342570251778739 ], [ 760.344137414946317, 808.789062536893653 ] ] ] } },
{ "type": "Feature", "properties": { "feature_type": "building", "subtype": "minor-damage", "uid": "05802eab-3147-4d57-b527-821b4b46daab" }, "geometry": { "type": "Polygon", "coordinates": [ [ [ 751.108630973541267, 849.955684946646102 ], [ 728.211686305031435, 851.738772997403998 ], [ 724.614393933165729, 832.063623092186276 ], [ 750.295403218945125, 830.437167576491106 ], [ 751.108630973541267, 849.955684946646102 ] ] ] } },
{ "type": "Feature", "properties": { "feature_type": "building", "subtype": "no-damage", "uid": "6675a13a-10f1-4091-8566-104ca73955f3" }, "geometry": { "type": "Polygon", "coordinates": [ [ [ 660.884261137796898, 886.865234414154997 ], [ 675.898909575693665, 886.865234414154997 ], [ 675.898909579945553, 893.872070351973434 ], [ 660.387483807172316, 893.872070351973434 ], [ 660.884261137796898, 886.865234414154997 ] ] ] } },
{ "type": "Feature", "properties": { "feature_type": "building", "subtype": "no-damage", "uid": "870b96bc-94f0-42bc-9f4e-ff97d2dfbe00" }, "geometry": { "type": "Polygon", "coordinates": [ [ [ 710.94051116329581, 810.052034581484236 ], [ 709.180761786830089, 823.062255926857461 ], [ 704.680078205165955, 824.560009820742039 ], [ 705.678580801172416, 830.56092126429462 ], [ 691.168131596911621, 830.32366544399531 ], [ 687.66842457575649, 845.573095734187063 ], [ 657.139876401834613, 843.573616577671714 ], [ 660.132910224601346, 821.566975998975863 ], [ 676.410530706088252, 822.815104243546216 ], [ 676.657682391150274, 793.532210348692615 ], [ 710.42641607064968, 794.293457127651209 ], [ 710.94051116329581, 810.052034581484236 ] ] ] } },
{ "type": "Feature", "properties": { "feature_type": "building", "subtype": "no-damage", "uid": "4f89ac8d-717d-476e-b16f-22503db12d3c" }, "geometry": { "type": "Polygon", "coordinates": [ [ [ 1024.041930443393994, 960.968560262283177 ], [ 985.914908811612463, 976.967968836551563 ], [ 986.666259724057682, 983.715283259042508 ], [ 979.7064291425487, 985.536881786335471 ], [ 990.898258321573962, 1015.264599723748006 ], [ 960.359016975059149, 1023.50224614311503 ], [ 949.906966188795082, 998.467936217609235 ], [ 912.374056046309306, 1013.981835951133007 ], [ 902.309584562904092, 987.854501038536569 ], [ 956.894010396838212, 968.203857488520612 ], [ 953.401725276943694, 954.190185613884296 ], [ 1010.830306599228038, 931.643027051413696 ], [ 1017.788590299069028, 942.080452600925696 ], [ 1024.041958312297083, 934.554927755049562 ], [ 1024.041930443393994, 960.968560262283177 ] ] ] } },
{ "type": "Feature", "properties": { "feature_type": "building", "subtype": "no-damage", "uid": "7ee4eae1-2ca7-4ab1-bef7-13b1bf1116f4" }, "geometry": { "type": "Polygon", "coordinates": [ [ [ 943.88873698372106, 785.2698242692951 ], [ 944.138362633285396, 809.288313837522992 ], [ 922.393717533418453, 809.537939483835885 ], [ 922.144091883103783, 816.549723355661399 ], [ 893.340657561854755, 817.550699919921954 ], [ 892.342154965097961, 777.519059314539618 ], [ 911.365657583039024, 777.017334054910293 ], [ 912.114534533232813, 785.269824268294656 ], [ 943.88873698372106, 785.2698242692951 ] ] ] } },
{ "type": "Feature", "properties": { "feature_type": "building", "subtype": "no-damage", "uid": "5c79c60e-70d0-4714-afb1-efd9f167f830" }, "geometry": { "type": "Polygon", "coordinates": [ [ [ 832.533405728228104, 1014.447388309530993 ], [ 857.33685231831862, 1013.634160552183971 ], [ 858.077007366204953, 1023.978720996413017 ], [ 831.798857894502021, 1023.979033611537943 ], [ 832.533405728228104, 1014.447388309530993 ] ] ] } },
{ "type": "Feature", "properties": { "feature_type": "building", "subtype": "no-damage", "uid": "9a8f558c-ba91-4a90-a92a-426843101855" }, "geometry": { "type": "Polygon", "coordinates": [ [ [ 775.091768959054889, 880.870199718965068 ], [ 782.176147073156699, 880.870199720965957 ], [ 782.056072867353919, 879.069086641427475 ], [ 787.699560519575584, 878.708864026520246 ], [ 788.17985734328704, 892.517397640316403 ], [ 775.091768958804778, 891.436729791592938 ], [ 775.091768959054889, 880.870199718965068 ] ] ] } },
{ "type": "Feature", "properties": { "feature_type": "building", "subtype": "no-damage", "uid": "e33aed51-ad51-4135-8aa3-1f6342b0e9b3" }, "geometry": { "type": "Polygon", "coordinates": [ [ [ 682.597247229776485, 895.243883642799346 ], [ 690.335642352265722, 893.496504100600873 ], [ 690.086016702451275, 897.740140132940496 ], [ 694.579278389357569, 897.740140129939164 ], [ 694.828904035420351, 902.233401816595233 ], [ 683.096498528905272, 901.484524869653001 ], [ 682.597247229776485, 895.243883642799346 ] ] ] } },
{ "type": "Feature", "properties": { "feature_type": "building", "subtype": "no-damage", "uid": "9ba2f40d-4546-4916-851e-06512701e8fd" }, "geometry": { "type": "Polygon", "coordinates": [ [ [ 698.323663121818186, 894.744632345171226 ], [ 704.813929999736956, 894.245381044541887 ], [ 703.56580175666727, 888.004739818688677 ], [ 712.801950773541307, 888.254365467002458 ], [ 713.301202069918872, 895.743134939426909 ], [ 709.556817331955699, 894.994257992484677 ], [ 709.307191683641918, 897.989765782254722 ], [ 704.564304352923841, 898.239391430568617 ], [ 704.564304353173952, 901.734150518967226 ], [ 697.574786174375618, 900.98527357202488 ], [ 698.323663121818186, 894.744632345171226 ] ] ] } },
{ "type": "Feature", "properties": { "feature_type": "building", "subtype": "minor-damage", "uid": "81fdec7b-5258-48f8-80d1-85072786b01e" }, "geometry": { "type": "Polygon", "coordinates": [ [ [ 601.807448484303563, 856.724509342842339 ], [ 640.249798449936407, 858.471888885040698 ], [ 641.497926693256318, 885.930710286598242 ], [ 599.560817641475637, 882.435951201200851 ], [ 601.807448484303563, 856.724509342842339 ] ] ] } },
{ "type": "Feature", "properties": { "feature_type": "building", "subtype": "no-damage", "uid": "1648a032-4b3c-4c53-9eaf-86de4986f6f6" }, "geometry": { "type": "Polygon", "coordinates": [ [ [ 588.078037785025231, 853.479375904758399 ], [ 599.560817642976303, 855.476381098271872 ], [ 598.811940695283738, 866.459909660095491 ], [ 594.56830466019278, 866.459909658094602 ], [ 594.069053365565992, 883.684079445771204 ], [ 562.116970277351697, 883.184828146142308 ], [ 564.363601119929513, 857.473386289784571 ], [ 588.577289082403126, 858.721514535355368 ], [ 588.078037785025231, 853.479375904758399 ] ] ] } },
{ "type": "Feature", "properties": { "feature_type": "building", "subtype": "no-damage", "uid": "e92b7317-5b4e-4c6e-8810-d8470e330544" }, "geometry": { "type": "Polygon", "coordinates": [ [ [ 485.792489893008792, 776.863414891394655 ], [ 509.257300906039006, 777.362666189022661 ], [ 511.004680449738089, 781.606302224363617 ], [ 524.734091150267091, 780.607799626106157 ], [ 523.985214202824523, 799.579348959983122 ], [ 510.006177853731685, 800.328225903924022 ], [ 510.255803505547078, 808.31624667797837 ], [ 502.517408381557175, 808.066621031665363 ], [ 503.016659678685016, 826.289293412597317 ], [ 485.04361294456578, 826.538919061911542 ], [ 485.792489893008792, 776.863414891394655 ] ] ] } },
{ "type": "Feature", "properties": { "feature_type": "building", "subtype": "minor-damage", "uid": "05b1fd2e-8edd-4517-9eae-7e27000026dd" }, "geometry": { "type": "Polygon", "coordinates": [ [ [ 803.964658899530946, 666.96047869223878 ], [ 820.691328034179264, 667.731619241277826 ], [ 819.687623186735323, 658.739020281112971 ], [ 838.372661156590311, 659.63284858257623 ], [ 864.815848077842588, 658.677070741358989 ], [ 863.222885008480148, 703.280036629480833 ], [ 839.009846382484398, 702.642851402336191 ], [ 839.965624223701639, 690.536332089588655 ], [ 803.008881059314149, 690.536332089588655 ], [ 803.964658899530946, 666.96047869223878 ] ] ] } },
{ "type": "Feature", "properties": { "feature_type": "building", "subtype": "no-damage", "uid": "6e9151e4-2622-44c4-b9d6-5df22baadc88" }, "geometry": { "type": "Polygon", "coordinates": [ [ [ 479.13370800665291, 703.016611693992218 ], [ 478.496522778507824, 660.006608876233145 ], [ 506.532672767871873, 659.369423648088059 ], [ 506.532672765870984, 673.706091255341676 ], [ 517.683414236651174, 675.617646935775269 ], [ 518.320599466046929, 685.494017953016169 ], [ 504.302524469363902, 685.81261056608821 ], [ 504.621117085687501, 703.016611690990885 ], [ 479.13370800665291, 703.016611693992218 ] ] ] } },
{ "type": "Feature", "properties": { "feature_type": "building", "subtype": "no-damage", "uid": "409a4ebc-1bb5-4a2c-8865-f30655161138" }, "geometry": { "type": "Polygon", "coordinates": [ [ [ 513.909106109212871, 578.804113560573796 ], [ 535.573403825629384, 578.485520947501641 ], [ 536.847774279418559, 597.282485141766642 ], [ 513.590513493889716, 595.689522075405648 ], [ 513.909106109212871, 578.804113560573796 ] ] ] } },
{ "type": "Feature", "properties": { "feature_type": "building", "subtype": "no-damage", "uid": "b457b0df-b233-4a4a-ba68-ba586452032e" }, "geometry": { "type": "Polygon", "coordinates": [ [ [ 123.930847428065306, 896.628624230733408 ], [ 150.36796079712019, 892.419251969993752 ], [ 152.598109090125803, 912.49058661854815 ], [ 160.881517041756211, 911.853401391403509 ], [ 163.111665337262792, 924.597105931295573 ], [ 149.093590340829991, 925.234291159440772 ], [ 149.412182954652508, 933.836291721391831 ], [ 142.403145458812105, 933.517699108319789 ], [ 142.403145458311911, 948.859592199754729 ], [ 112.405342810322693, 948.833349990035799 ], [ 107.705180233143196, 916.848301810181056 ], [ 118.439083147153397, 916.099424862238379 ], [ 115.942826655011203, 907.612152790556024 ], [ 124.679724371255901, 907.112901492927904 ], [ 123.930847428065306, 896.628624230733408 ] ] ] } },
{ "type": "Feature", "properties": { "feature_type": "building", "subtype": "minor-damage", "uid": "3829e9d2-2845-474b-80eb-37d96923b182" }, "geometry": { "type": "Polygon", "coordinates": [ [ [ 144.398577296876397, 805.256326801533078 ], [ 144.594165524361301, 794.107797809635144 ], [ 167.477988189611807, 792.738680213489488 ], [ 168.064752871065906, 832.247502250968068 ], [ 137.748577550636014, 830.487208199352494 ], [ 137.944165776370113, 845.156325291480243 ], [ 119.167695900557106, 844.178384154806281 ], [ 119.558872357527704, 826.184267183180623 ], [ 102.628790695552098, 825.423364811495503 ], [ 102.560954872942403, 818.646245438739015 ], [ 103.325049438017402, 806.038679712472913 ], [ 144.398577296876397, 805.256326801533078 ] ] ] } },
{ "type": "Feature", "properties": { "feature_type": "building", "subtype": "no-damage", "uid": "a36d0b1d-98b4-4c7d-9c91-6a94842d6517" }, "geometry": { "type": "Polygon", "coordinates": [ [ [ 344.995504035736474, 814.48466137144942 ], [ 372.57344416762669, 815.267014286391031 ], [ 372.964620620595497, 818.983190615356307 ], [ 389.198443536604316, 819.569955298561126 ], [ 389.785208220309414, 839.128778087064347 ], [ 372.964620621095719, 837.955248721655039 ], [ 373.746973531035223, 845.583189608320936 ], [ 343.039621752133996, 844.018483785440708 ], [ 343.235209979368676, 838.542013404859972 ], [ 327.19697529259571, 838.15083694838961 ], [ 326.414622384406982, 805.487602891639199 ], [ 340.105798337860222, 805.68319111837377 ], [ 340.105798336109387, 814.09348491798039 ], [ 344.995504035736474, 814.48466137144942 ] ] ] } },
{ "type": "Feature", "properties": { "feature_type": "building", "subtype": "no-damage", "uid": "70bfb3fc-f3a3-4e1b-88eb-48ec372c1f9b" }, "geometry": { "type": "Polygon", "coordinates": [ [ [ 137.044081500024902, 640.856047523625307 ], [ 169.85912069122341, 643.404788434204875 ], [ 167.310379781644201, 679.724346366444706 ], [ 145.964674677049203, 680.361531595590236 ], [ 146.92045251576539, 692.786643521409815 ], [ 115.379783785109097, 692.149458293264729 ], [ 117.2913394637919, 661.564567401325235 ], [ 125.574747414171696, 661.564567399324346 ], [ 126.530525253638203, 651.369603767010403 ], [ 137.999859340241699, 651.688196383083891 ], [ 137.044081500024902, 640.856047523625307 ] ] ] } },
{ "type": "Feature", "properties": { "feature_type": "building", "subtype": "no-damage", "uid": "5e482ca2-70db-4330-9568-7b0a78d7bf05" }, "geometry": { "type": "Polygon", "coordinates": [ [ [ 107.763682756101801, 494.383331792696424 ], [ 107.568094523864801, 491.449508376671872 ], [ 111.871035539286495, 491.449508378672817 ], [ 111.6754473110513, 485.581861539620718 ], [ 125.757799719224195, 484.995096856415785 ], [ 125.953387946709, 490.080390779525828 ], [ 131.625446555024894, 489.884802553791701 ], [ 131.038681872320211, 486.168626222825594 ], [ 145.121034279992898, 486.168626222825594 ], [ 145.512210735712898, 493.600978881756475 ], [ 167.222504032052512, 493.014214196550711 ], [ 168.787209854682601, 513.159801671260198 ], [ 159.985739599105614, 513.942154584200921 ], [ 159.398974915900709, 526.850977621711763 ], [ 137.688681620061288, 530.762742182413717 ], [ 135.537211112725714, 517.462742686431625 ], [ 109.915153261186504, 518.636272054842379 ], [ 107.763682756101801, 494.383331792696424 ] ] ] } },
{ "type": "Feature", "properties": { "feature_type": "building", "subtype": "minor-damage", "uid": "0852c10e-06e9-4c42-846b-70797486849d" }, "geometry": { "type": "Polygon", "coordinates": [ [ [ 241.981101842569103, 504.681540390701173 ], [ 275.430938822416977, 503.932663441757995 ], [ 273.933184927281786, 483.463360218998673 ], [ 293.154359910723485, 483.71298586631201 ], [ 295.400990749049413, 513.668063759011147 ], [ 306.134893663309583, 513.91768940532404 ], [ 309.62965274920731, 547.11790073910845 ], [ 281.421954400456684, 545.370521193908644 ], [ 281.671580052022023, 553.108916316647765 ], [ 244.976609629838208, 553.857793263590111 ], [ 241.981101842569103, 504.681540390701173 ] ] ] } },
{ "type": "Feature", "properties": { "feature_type": "building", "subtype": "no-damage", "uid": "50ce2c26-8a03-45a6-b01a-51bde6728dba" }, "geometry": { "type": "Polygon", "coordinates": [ [ [ 353.388531218583182, 405.773988911782112 ], [ 382.594732166341487, 406.772491505037408 ], [ 382.59473216784221, 408.519871047235824 ], [ 389.084999041258982, 410.516876241749799 ], [ 388.336122093316192, 408.270245401923319 ], [ 400.817404548024172, 407.770994101293923 ], [ 401.067030199089174, 413.013132733891894 ], [ 403.812912338794888, 413.512384029519012 ], [ 405.560291881243415, 446.462969712988695 ], [ 402.315158443159419, 445.21484146541701 ], [ 402.06553279709658, 455.699118729612508 ], [ 375.605213992295319, 455.199867431984387 ], [ 376.603716585050279, 447.211846661931872 ], [ 351.641151675384322, 448.210349256187612 ], [ 351.391526026320207, 440.721579783763218 ], [ 337.662115330043093, 441.969708029334015 ], [ 339.4094948729919, 417.007143116917177 ], [ 350.393023431564188, 417.256768767231904 ], [ 353.388531218583182, 405.773988911782112 ] ] ] } },
{ "type": "Feature", "properties": { "feature_type": "building", "subtype": "no-damage", "uid": "f8b2dd60-4460-4740-ac71-12fc90276611" }, "geometry": { "type": "Polygon", "coordinates": [ [ [ 281.902272892561314, 336.183550633527773 ], [ 306.752496746201984, 310.696141556744919 ], [ 350.7182774024281, 349.245847788492995 ], [ 308.664052425134912, 394.804591513830417 ], [ 267.565605286057689, 349.245847788492995 ], [ 281.902272892561314, 336.183550633527773 ] ] ] } },
{ "type": "Feature", "properties": { "feature_type": "building", "subtype": "no-damage", "uid": "da7ba2c9-d72e-4755-9896-65e11b3d64a2" }, "geometry": { "type": "Polygon", "coordinates": [ [ [ 183.687258740442587, 343.097825081182918 ], [ 196.204905323484297, 342.315472165240692 ], [ 196.987258239676493, 331.753707863550915 ], [ 223.782845457625513, 333.318413684430084 ], [ 222.218139633494701, 363.830177235095391 ], [ 230.041668753398199, 369.502235844411587 ], [ 232.193139255731609, 388.865470408181181 ], [ 226.716668876901508, 390.038999771589715 ], [ 228.085786470796194, 395.124293700702424 ], [ 220.65343381036439, 395.906646608640926 ], [ 218.89313976250051, 390.430176228060077 ], [ 204.615199124591811, 390.821352684530495 ], [ 202.854905074977012, 372.240471036703013 ], [ 183.882846968677796, 370.284588757352424 ], [ 183.687258740442587, 343.097825081182918 ] ] ] } },
{ "type": "Feature", "properties": { "feature_type": "building", "subtype": "no-damage", "uid": "caed60c6-579b-44f8-8595-e089f75dc8ed" }, "geometry": { "type": "Polygon", "coordinates": [ [ [ 97.898367538085523, 352.848987899310885 ], [ 101.659462311110005, 352.651035463419021 ], [ 104.654970100630095, 348.407399429078509 ], [ 107.900103542215703, 352.401409815105183 ], [ 142.348443113568095, 351.402907218848725 ], [ 146.342453499094603, 362.885687076299291 ], [ 147.590581744915596, 379.860231215662225 ], [ 98.193604877478123, 382.34249165606218 ], [ 97.898367538085523, 352.848987899310885 ] ] ] } },
{ "type": "Feature", "properties": { "feature_type": "building", "subtype": "no-damage", "uid": "bf7a398b-9b67-4b2d-9c77-6f57679ce84a" }, "geometry": { "type": "Polygon", "coordinates": [ [ [ 541.632650990658135, 451.577740575387679 ], [ 576.677838473361476, 449.347592282882374 ], [ 583.049690742557345, 500.322410441450586 ], [ 541.632650989907802, 500.322410441450586 ], [ 541.632650990658135, 451.577740575387679 ] ] ] } },
{ "type": "Feature", "properties": { "feature_type": "building", "subtype": "no-damage", "uid": "3951b041-8d13-4ee4-ae5b-95091ea0f4eb" }, "geometry": { "type": "Polygon", "coordinates": [ [ [ 625.741100947995619, 466.870186022858093 ], [ 633.387323670980663, 466.870186022858093 ], [ 632.750138443585911, 472.286260455088495 ], [ 639.759175939676425, 473.56063090737689 ], [ 639.44058332910538, 483.755594537690001 ], [ 633.068731061410176, 482.162631469328119 ], [ 632.431545833014866, 488.853076355847804 ], [ 624.785323106028045, 486.941520671412491 ], [ 625.741100947995619, 466.870186022858093 ] ] ] } },
{ "type": "Feature", "properties": { "feature_type": "building", "subtype": "minor-damage", "uid": "7691532e-d666-4c69-8971-40eb211b6c96" }, "geometry": { "type": "Polygon", "coordinates": [ [ [ 646.678181193208843, 412.113633780786472 ], [ 703.345530131440341, 380.004547539571888 ], [ 719.818496380008582, 401.629356517591418 ], [ 708.086090869741838, 412.363259430100698 ], [ 701.346198343259061, 403.376736059789778 ], [ 688.864915890051748, 410.615879884900892 ], [ 691.860423676570576, 415.358767216869524 ], [ 693.857428871334719, 413.611387673670606 ], [ 701.845449640887182, 423.596413638237209 ], [ 699.848444452375816, 425.593418831750682 ], [ 704.591331782843781, 433.58143960080281 ], [ 671.141494803996352, 452.053737638051985 ], [ 646.678181193208843, 412.113633780786472 ] ] ] } },
{ "type": "Feature", "properties": { "feature_type": "building", "subtype": "no-damage", "uid": "f6c1a8e2-a210-403a-9fcf-f39068cd3697" }, "geometry": { "type": "Polygon", "coordinates": [ [ [ 665.1528058213745, 320.356931911904724 ], [ 729.056971990299758, 320.356931911904724 ], [ 730.804351532498117, 337.581101701582327 ], [ 702.347027536434325, 338.579604296838397 ], [ 702.34702753768488, 340.82623513966621 ], [ 702.347027539185547, 341.824737735922781 ], [ 711.083925254179576, 341.325486438294718 ], [ 711.832802202622588, 368.534682190537922 ], [ 671.892698346606608, 368.285056540223309 ], [ 671.89269834485583, 345.818748121949511 ], [ 671.643072697042271, 343.322491629807416 ], [ 664.903180170309497, 343.572117279121585 ], [ 665.1528058213745, 320.356931911904724 ] ] ] } },
{ "type": "Feature", "properties": { "feature_type": "building", "subtype": "no-damage", "uid": "ac5b6e23-ab9d-49c6-bdef-db8f248358ec" }, "geometry": { "type": "Polygon", "coordinates": [ [ [ 715.19402945259219, 435.27439886203581 ], [ 729.849289674418969, 441.009065906337923 ], [ 729.849289672918303, 448.018103402928375 ], [ 734.62817887450251, 442.920621587771905 ], [ 741.637216375595244, 447.062325565713024 ], [ 740.681438531876893, 454.0713630593022 ], [ 746.734698190251606, 451.52262214972302 ], [ 755.33669875070234, 455.345733513591483 ], [ 747.371883416145806, 490.709513609616295 ], [ 733.035215808141515, 486.88640224774872 ], [ 727.937733995485928, 480.833142591375008 ], [ 700.857361849340009, 470.000993731916424 ], [ 715.19402945259219, 435.27439886203581 ] ] ] } },
{ "type": "Feature", "properties": { "feature_type": "building", "subtype": "minor-damage", "uid": "635395d9-f7b3-4e5b-9529-5f37f999d9f8" }, "geometry": { "type": "Polygon", "coordinates": [ [ [ 772.931469730873687, 451.209960556166095 ], [ 781.973130897219903, 442.474796376657309 ], [ 790.861543574774601, 444.6202753002745 ], [ 790.401798089391491, 439.103329499688584 ], [ 794.2330104537441, 437.417596060203891 ], [ 805.726647530044602, 440.78906293817289 ], [ 817.986527082817133, 436.191608101850306 ], [ 836.223097919057636, 461.477609682116224 ], [ 807.565629464573703, 478.488192562003576 ], [ 809.55785989164599, 482.779150407237182 ], [ 800.669447218093069, 488.755841689954707 ], [ 797.604477328711937, 484.924629327853097 ], [ 789.022561644497387, 488.142847708777026 ], [ 772.931469730873687, 451.209960556166095 ] ] ] } },
{ "type": "Feature", "properties": { "feature_type": "building", "subtype": "no-damage", "uid": "e1d8c460-bc55-4377-b2af-774908f8c9ff" }, "geometry": { "type": "Polygon", "coordinates": [ [ [ 813.479770438173546, 373.660010417340516 ], [ 855.666505136767228, 384.144287678534624 ], [ 859.910141170107408, 391.133805854331513 ], [ 864.653028506077817, 392.881185400531592 ], [ 862.656023311813897, 405.112842203924174 ], [ 862.406397665250893, 414.598616868861825 ], [ 854.917628191575659, 419.591129853145901 ], [ 849.925115207291469, 421.338509397345206 ], [ 843.434848334374806, 437.06492528813601 ], [ 813.479770437923435, 427.079899324569908 ], [ 821.967042508605459, 396.625570136243709 ], [ 808.237631806575905, 391.633057152960021 ], [ 813.479770438173546, 373.660010417340516 ] ] ] } },
{ "type": "Feature", "properties": { "feature_type": "building", "subtype": "no-damage", "uid": "9ab2bc53-3855-4c9a-9c66-c6ddec5c920e" }, "geometry": { "type": "Polygon", "coordinates": [ [ [ 803.111153266592851, 318.574788896721316 ], [ 823.588927736359551, 319.138370642692621 ], [ 825.999734713670932, 325.388771529943028 ], [ 844.964145868053834, 327.082113652563123 ], [ 843.203851817438704, 351.139465685973619 ], [ 855.525910175996842, 351.921818593912121 ], [ 855.134733722777924, 368.351229741657278 ], [ 805.455323835326453, 366.786523913774886 ], [ 805.455323835076342, 346.054171758861912 ], [ 814.843558772607707, 347.032112898537093 ], [ 814.344307476980589, 339.543343425112198 ], [ 804.359281511663426, 340.042594725741594 ], [ 803.111153266592851, 318.574788896721316 ] ] ] } },
{ "type": "Feature", "properties": { "feature_type": "building", "subtype": "no-damage", "uid": "c1a3ca31-ef52-497c-8445-fdf2d73683a0" }, "geometry": { "type": "Polygon", "coordinates": [ [ [ 887.691844389836774, 459.343370980798682 ], [ 889.767659574856566, 459.343370980798682 ], [ 903.779412073052299, 459.862324778741879 ], [ 904.817319665687251, 473.355123480244572 ], [ 891.843474759626247, 477.50675384978382 ], [ 887.691844389836774, 459.343370980798682 ] ] ] } },
{ "type": "Feature", "properties": { "feature_type": "building", "subtype": "minor-damage", "uid": "60eda97a-ae1b-43a1-8821-b3c25726c619" }, "geometry": { "type": "Polygon", "coordinates": [ [ [ 930.247144422395195, 404.09991589360061 ], [ 956.457837576381507, 393.615638632406501 ], [ 974.680509964317025, 422.322588275533008 ], [ 949.218693753271168, 441.793388909038811 ], [ 940.981047335154813, 429.062480803016001 ], [ 933.242652211665131, 431.808362942471376 ], [ 927.501262282439484, 418.578203540821391 ], [ 933.741903508542919, 415.333070101737121 ], [ 930.247144422395195, 404.09991589360061 ] ] ] } },
{ "type": "Feature", "properties": { "feature_type": "building", "subtype": "no-damage", "uid": "3a156171-4ffb-45de-b682-54e6852d9d07" }, "geometry": { "type": "Polygon", "coordinates": [ [ [ 999.340885427154831, 442.653238447741217 ], [ 1020.029432168096946, 446.48445080684138 ], [ 1020.948923133860944, 433.305080291056413 ], [ 1024.042165332428112, 433.773138319567579 ], [ 1024.042171572705001, 477.419585536776594 ], [ 1014.05274088537999, 475.601664746207518 ], [ 1015.278728842233022, 463.341785195686214 ], [ 997.655151984668692, 461.043057776024227 ], [ 999.340885427154831, 442.653238447741217 ] ] ] } },
{ "type": "Feature", "properties": { "feature_type": "building", "subtype": "minor-damage", "uid": "ad349913-7492-450d-8ad7-2d4687ba0e73" }, "geometry": { "type": "Polygon", "coordinates": [ [ [ 941.041212527060338, 267.317328423245385 ], [ 962.998361966435141, 267.317328423245385 ], [ 968.284342387942502, 306.352260763912625 ], [ 927.622954537331793, 307.978716277606793 ], [ 927.216340659908724, 286.021566836231727 ], [ 941.041212526059894, 286.021566834230782 ], [ 941.041212527060338, 267.317328423245385 ] ] ] } },
{ "type": "Feature", "properties": { "feature_type": "building", "subtype": "no-damage", "uid": "687d4523-264a-4692-a140-e97a976890d4" }, "geometry": { "type": "Polygon", "coordinates": [ [ [ 865.411031120767689, 293.747230527029728 ], [ 880.049130749768779, 293.340616650356878 ], [ 882.895427901484936, 316.110993846078088 ], [ 865.004417241593728, 315.704379971406183 ], [ 865.411031120767689, 293.747230527029728 ] ] ] } },
{ "type": "Feature", "properties": { "feature_type": "building", "subtype": "no-damage", "uid": "914c750a-8213-4d9c-bada-5c5197776e36" }, "geometry": { "type": "Polygon", "coordinates": [ [ [ 803.013716018043169, 270.338678111581828 ], [ 856.018125772737108, 271.316619253258011 ], [ 855.822537544251873, 292.635736090375474 ], [ 860.712243245629679, 292.048971407170598 ], [ 860.907831471363693, 299.090147610631618 ], [ 839.00194994578851, 299.090147612632393 ], [ 839.979891086214138, 310.434264827263121 ], [ 804.578421836171287, 311.60779419667432 ], [ 803.600480698997103, 298.698971156162088 ], [ 810.837245133194529, 298.503382929427573 ], [ 811.424009813148018, 287.746030392999614 ], [ 803.013716015041837, 288.528383305940281 ], [ 803.013716018043169, 270.338678111581828 ] ] ] } },
{ "type": "Feature", "properties": { "feature_type": "building", "subtype": "no-damage", "uid": "16ebf8a3-11f4-46ee-b808-7c76ffe3491b" }, "geometry": { "type": "Polygon", "coordinates": [ [ [ 930.565264536438349, 227.505051127357291 ], [ 923.818865188688164, 224.910282144644498 ], [ 923.299911389494468, 211.417483445142608 ], [ 933.160033522652839, 212.455391037027198 ], [ 931.084218332380715, 205.190037890833707 ], [ 967.929937866044042, 207.265853075603388 ], [ 969.486799253370805, 228.024004925300488 ], [ 952.361323981021883, 225.948189738529891 ], [ 954.95609296023315, 250.339018160823514 ], [ 929.527356945554288, 250.339018161823986 ], [ 930.565264536438349, 227.505051127357291 ] ] ] } },
{ "type": "Feature", "properties": { "feature_type": "building", "subtype": "no-damage", "uid": "3fb78238-8c8e-4e99-a462-5eb6150c4389" }, "geometry": { "type": "Polygon", "coordinates": [ [ [ 819.605324877553471, 213.321216161078098 ], [ 853.694734517538905, 211.409660479644003 ], [ 851.145993612961888, 264.614626928716575 ], [ 814.82643567571904, 263.340256477428625 ], [ 816.100806129007992, 244.224699668090608 ], [ 823.428436237170217, 244.861884897236109 ], [ 825.339991916853478, 240.401588306222891 ], [ 821.198287941913691, 240.082995695151709 ], [ 820.879695328091202, 229.569439447764807 ], [ 824.702806689458612, 229.569439446764392 ], [ 825.021399305031878, 226.064920700970191 ], [ 820.242510105948668, 226.064920700970191 ], [ 819.605324877553471, 213.321216161078098 ] ] ] } },
{ "type": "Feature", "properties": { "feature_type": "building", "subtype": "no-damage", "uid": "0de0f64c-06a1-44bf-aa38-b53ce6b30337" }, "geometry": { "type": "Polygon", "coordinates": [ [ [ 799.154233719311719, 155.759242986665299 ], [ 821.25570347337225, 143.04600817288761 ], [ 846.68217309867714, 181.968065526160899 ], [ 809.520409796018157, 208.568064519125613 ], [ 796.807174984241101, 191.356300464442398 ], [ 809.129233344800127, 184.315124256979601 ], [ 797.002763211225783, 169.254830710382407 ], [ 801.501292456383339, 164.365125013006491 ], [ 799.154233719311719, 155.759242986665299 ] ] ] } },
{ "type": "Feature", "properties": { "feature_type": "building", "subtype": "no-damage", "uid": "ec1d3854-d963-4f69-9317-6dade7a44251" }, "geometry": { "type": "Polygon", "coordinates": [ [ [ 946.412990474275716, 144.613343355926787 ], [ 950.906252160681788, 134.378691743046488 ], [ 975.868817068597082, 146.111097249811507 ], [ 953.402508649822607, 191.043714090360794 ], [ 928.689569387970096, 176.565426440138594 ], [ 933.182831073875946, 167.329277421514007 ], [ 919.703046022161061, 157.344251459948794 ], [ 923.697056406186903, 152.102112829351711 ], [ 921.450425566610534, 149.855481986523898 ], [ 930.187323283855676, 140.619332969900114 ], [ 935.179836266639199, 143.365215111356491 ], [ 936.427964512960443, 141.617835566156714 ], [ 945.664113529834481, 146.3607228961244 ], [ 946.412990474275716, 144.613343355926787 ] ] ] } },
{ "type": "Feature", "properties": { "feature_type": "building", "subtype": "no-damage", "uid": "94e525a2-7d89-4654-90dc-a2c9c3e8f9d8" }, "geometry": { "type": "Polygon", "coordinates": [ [ [ 1024.042001755630054, 138.990949476185989 ], [ 1022.823098747831978, 139.209979195220399 ], [ 1020.671628243248051, 137.058508689135408 ], [ 1018.128981277440971, 138.81880273975051 ], [ 1021.845157607157034, 143.512920209391496 ], [ 1006.393687605088985, 156.617331476638213 ], [ 988.986335323420917, 128.061450205323411 ], [ 1004.046628869268034, 119.455568178982205 ], [ 1006.980452288294032, 123.171744507947494 ], [ 1009.523099250098994, 121.411450457332407 ], [ 1007.371628744263944, 118.086450582836605 ], [ 1015.195157860165978, 113.979097793399205 ], [ 1012.065746214404953, 108.698215645555607 ], [ 1020.280451783526019, 103.612921717443399 ], [ 1024.041974246637892, 110.004230870896293 ], [ 1024.042001755630054, 138.990949476185989 ] ] ] } },
{ "type": "Feature", "properties": { "feature_type": "building", "subtype": "no-damage", "uid": "adcb6bb5-8c39-43fb-beb0-63acb953ad97" }, "geometry": { "type": "Polygon", "coordinates": [ [ [ 684.621841562940972, 241.567388359813009 ], [ 706.136546629794793, 240.198270766668713 ], [ 705.745370174825098, 233.352682789942207 ], [ 727.846839926384405, 233.939447475148 ], [ 728.238016381604211, 246.457094057188897 ], [ 733.910074992171189, 248.217388111805803 ], [ 735.083604359081164, 257.01885836488151 ], [ 730.193898661204912, 258.58356418676118 ], [ 730.780663343909623, 278.92473988720468 ], [ 683.643900422515344, 282.054151536966913 ], [ 684.621841562940972, 241.567388359813009 ] ] ] } },
{ "type": "Feature", "properties": { "feature_type": "building", "subtype": "no-damage", "uid": "fe6a6f83-d4bd-438e-8dbb-04b1436827e8" }, "geometry": { "type": "Polygon", "coordinates": [ [ [ 631.449538548510191, 235.729300814700593 ], [ 644.93540605713531, 233.430573396039108 ], [ 645.701648527104567, 238.028028229360388 ], [ 661.179746463302081, 236.4955432819186 ], [ 661.026497967007231, 233.583821891083403 ], [ 680.335808265306468, 234.350064363303602 ], [ 680.029311277218767, 270.363460547649481 ], [ 633.748265964420511, 272.202442481178082 ], [ 631.449538548510191, 235.729300814700593 ] ] ] } },
{ "type": "Feature", "properties": { "feature_type": "building", "subtype": "minor-damage", "uid": "450ebd76-bfb8-4d86-b729-87c5818482b9" }, "geometry": { "type": "Polygon", "coordinates": [ [ [ 574.064915498224764, 241.13765457895849 ], [ 596.898941164535245, 239.911666627608014 ], [ 597.205438153873502, 232.55573889249311 ], [ 620.345960809522239, 233.321981367714613 ], [ 624.63691865500607, 247.727339840852693 ], [ 624.790167147799366, 256.769001012450985 ], [ 630.613609936973376, 256.462504022362509 ], [ 630.920106924810966, 264.891171214783981 ], [ 626.169403598196027, 266.117159169135789 ], [ 626.169403597445694, 275.465317329822312 ], [ 611.457548136969876, 277.304299263350913 ], [ 609.465317709897477, 269.182129058016699 ], [ 598.124929123889274, 268.415886584795999 ], [ 598.891171593108197, 280.829014632362487 ], [ 573.605170017343653, 281.901754095671777 ], [ 574.064915498224764, 241.13765457895849 ] ] ] } },
{ "type": "Feature", "properties": { "feature_type": "building", "subtype": "minor-damage", "uid": "28bddc49-affb-4b64-bb64-c739263add77" }, "geometry": { "type": "Polygon", "coordinates": [ [ [ 523.246306439524346, 234.121094472538402 ], [ 543.587482140968859, 234.512270928008292 ], [ 543.587482139968415, 231.187271054512991 ], [ 554.149246449662087, 231.774035736717508 ], [ 554.149246447160976, 234.90344738447871 ], [ 567.840422400614216, 235.099035611213196 ], [ 569.796304679214472, 267.957857897699398 ], [ 522.07277707211415, 267.95785789569851 ], [ 523.246306439524346, 234.121094472538402 ] ] ] } },
{ "type": "Feature", "properties": { "feature_type": "building", "subtype": "no-damage", "uid": "807caf0a-5b50-4559-871f-610c090e7355" }, "geometry": { "type": "Polygon", "coordinates": [ [ [ 476.105416247597475, 246.52743365881949 ], [ 491.123768699662605, 247.446924627084513 ], [ 491.583514184545379, 230.283093250151893 ], [ 510.89282447784251, 230.896087227327911 ], [ 511.199321466680487, 288.517521125882922 ], [ 488.212047308327101, 287.751278653662723 ], [ 489.438035262178687, 275.64464759418388 ], [ 472.427452382540991, 273.958914157700519 ], [ 476.105416247597475, 246.52743365881949 ] ] ] } },
{ "type": "Feature", "properties": { "feature_type": "building", "subtype": "no-damage", "uid": "929c9d5b-7ac6-442f-9974-a82d57138fbe" }, "geometry": { "type": "Polygon", "coordinates": [ [ [ 992.528846581987864, 55.765610266870262 ], [ 1005.909736349775017, 54.172647198508351 ], [ 1007.821292028457947, 64.36761082882137 ], [ 993.803217035526927, 68.190722192689861 ], [ 992.528846581987864, 55.765610266870262 ] ] ] } },
{ "type": "Feature", "properties": { "feature_type": "building", "subtype": "no-damage", "uid": "c83aae1b-2b0a-4a7a-a506-40c4165459f1" }, "geometry": { "type": "Polygon", "coordinates": [ [ [ 342.922654159634874, 243.40572271414581 ], [ 363.641583034960377, 243.904974013774705 ], [ 363.391957389647928, 233.420696750579708 ], [ 388.104896645747772, 234.169573699522914 ], [ 389.852276192448301, 276.106682747300681 ], [ 364.140834335589773, 273.860051905473426 ], [ 363.891208685775325, 278.103687939813824 ], [ 356.652064859913708, 278.103687939813824 ], [ 356.152813562285587, 273.860051905473426 ], [ 333.933026147897692, 273.872470483183179 ], [ 335.184259036895583, 253.390748677711798 ], [ 342.673028509820426, 253.390748677711798 ], [ 342.922654159634874, 243.40572271414581 ] ] ] } },
{ "type": "Feature", "properties": { "feature_type": "building", "subtype": "no-damage", "uid": "926518f7-79e2-4c31-bee0-3d11b606f579" }, "geometry": { "type": "Polygon", "coordinates": [ [ [ 239.328009785508613, 237.913958434234388 ], [ 269.283087673456293, 236.416204538348893 ], [ 269.283087674206627, 249.895989592314493 ], [ 271.529718518285108, 249.396738293686013 ], [ 271.529718515533773, 247.150107452859089 ], [ 277.77035974613932, 240.909466224004603 ], [ 284.510252271121317, 245.402727907659312 ], [ 282.7628727256714, 249.895989592314493 ], [ 287.006508760762415, 249.396738291685097 ], [ 291.499770445167485, 256.386256469482817 ], [ 288.75388830496172, 258.882512957623078 ], [ 288.254637005582879, 267.86903632693361 ], [ 290.750893498475307, 268.617913273875786 ], [ 291.250144794602704, 272.861549309216798 ], [ 282.263621430294279, 277.854062290499598 ], [ 283.511749674364523, 284.094703517353196 ], [ 260.046938657332475, 289.336842150951611 ], [ 257.800307817005773, 276.106682747300681 ], [ 248.564158799381403, 276.605934043928414 ], [ 240.576138029078606, 274.608928852415715 ], [ 228.344481222684408, 273.860051904472925 ], [ 227.845229924556094, 249.646363943000296 ], [ 239.827261082136289, 249.895989592314493 ], [ 239.328009785508613, 237.913958434234388 ] ] ] } },
{ "type": "Feature", "properties": { "feature_type": "building", "subtype": "no-damage", "uid": "ab25237a-dac9-4558-9a42-95f53a22c093" }, "geometry": { "type": "Polygon", "coordinates": [ [ [ 134.600179108324198, 283.227821743055301 ], [ 135.874549562863592, 247.864041644029186 ], [ 142.564994445381814, 248.501226873174801 ], [ 144.157957512243087, 240.536411533366106 ], [ 161.999143867041994, 241.173596762511693 ], [ 161.999143868292606, 236.713300173499391 ], [ 186.212182491036913, 235.120337108138813 ], [ 186.849367718181611, 276.218784244463905 ], [ 151.485587622906309, 277.493154696752413 ], [ 152.122772848550312, 282.909229127982314 ], [ 134.600179108324198, 283.227821743055301 ] ] ] } },
{ "type": "Feature", "properties": { "feature_type": "building", "subtype": "no-damage", "uid": "e1e329ef-f618-403f-9d59-b3b2ff74ce7c" }, "geometry": { "type": "Polygon", "coordinates": [ [ [ 686.513441735712149, 108.869737114724899 ], [ 704.991813315654895, 106.639588820218705 ], [ 705.947591156872136, 110.144107565012504 ], [ 733.027963304518835, 107.9139592735077 ], [ 734.302333759058342, 140.09181323280859 ], [ 731.435000236907172, 140.091813234809507 ], [ 731.435000237157283, 137.224479714159088 ], [ 724.744555351887925, 137.5430723272313 ], [ 724.744555351137592, 143.914924594676194 ], [ 718.691295693763323, 147.100850733400904 ], [ 706.584776386017779, 139.773220621737408 ], [ 705.947591158372802, 153.472702998844994 ], [ 698.619961049710469, 162.393296177870013 ], [ 686.83203435003486, 160.481740500437809 ], [ 686.513441735712149, 108.869737114724899 ] ] ] } },
{ "type": "Feature", "properties": { "feature_type": "building", "subtype": "no-damage", "uid": "f8d28c39-e1c9-4485-8064-d01ad9c6a83a" }, "geometry": { "type": "Polygon", "coordinates": [ [ [ 632.465506911405669, 122.442315750142797 ], [ 632.618755408700963, 108.956448244269197 ], [ 642.733156037356025, 109.262945235358302 ], [ 643.346150015032208, 112.787660604369805 ], [ 660.969726872596084, 111.714921142061002 ], [ 660.969726872846195, 115.392885008117801 ], [ 671.390624492090183, 114.779891030941897 ], [ 671.543872985883922, 118.151357907910494 ], [ 675.528333839278162, 118.151357906910107 ], [ 674.302345883925909, 161.520681824370001 ], [ 656.832017524657772, 161.52068182637089 ], [ 656.525520535319401, 146.655577867099396 ], [ 649.476089792293919, 147.881565825453009 ], [ 649.782586780881843, 144.203601958395808 ], [ 642.120162058429287, 145.73608690183579 ], [ 640.127931632607556, 143.590607980219403 ], [ 636.756464758890388, 142.364620025867595 ], [ 637.829204217197457, 137.154171216370798 ], [ 629.8602825066572, 137.000922720326088 ], [ 629.707034013613793, 125.3540371459802 ], [ 633.078500888831741, 125.507285637022704 ], [ 632.465506911405669, 122.442315750142797 ] ] ] } },
{ "type": "Feature", "properties": { "feature_type": "building", "subtype": "no-damage", "uid": "eb5ab8c6-d373-41bb-8f18-712fa3841615" }, "geometry": { "type": "Polygon", "coordinates": [ [ [ 579.441527845920632, 110.7954301797987 ], [ 588.687271745859789, 111.868169636104895 ], [ 587.137593456267723, 102.570099913559204 ], [ 603.833455574695336, 105.822704980784494 ], [ 605.034026411773766, 101.6005205141565 ], [ 615.914669517901416, 101.753769008200393 ], [ 624.190088212777709, 112.940909098413698 ], [ 622.044609291661573, 160.907687849195014 ], [ 602.88854749090774, 159.221954408709792 ], [ 603.195044481246441, 146.042583888922991 ], [ 582.966243218683985, 147.421820338319208 ], [ 582.966243218183763, 137.767165192546287 ], [ 577.14280043051042, 138.073662181634404 ], [ 579.441527845920632, 110.7954301797987 ] ] ] } },
{ "type": "Feature", "properties": { "feature_type": "building", "subtype": "no-damage", "uid": "530adbff-4c97-486c-ab3c-baf520aba455" }, "geometry": { "type": "Polygon", "coordinates": [ [ [ 119.398623058626001, 160.213408826275497 ], [ 119.985387744081905, 121.095763247268195 ], [ 141.50009281043549, 121.878116159208503 ], [ 142.282445720625105, 114.641351727012093 ], [ 152.257445344112597, 115.423704639952803 ], [ 153.235386485538612, 123.247233754353701 ], [ 160.667739146220498, 124.029586664293106 ], [ 162.036856741115599, 144.56635059447251 ], [ 158.818939849365108, 145.651374716893088 ], [ 154.213327623963409, 148.282526922437313 ], [ 145.411857366885698, 150.629585660259096 ], [ 144.433916229211292, 144.451074605547291 ], [ 136.023622431605389, 144.761938821206996 ], [ 137.197151796264393, 161.778114648155196 ], [ 119.398623058626001, 160.213408826275497 ] ] ] } },
{ "type": "Feature", "properties": { "feature_type": "building", "subtype": "no-damage", "uid": "f5a6e015-e022-4971-b611-d59021b077f1" }, "geometry": { "type": "Polygon", "coordinates": [ [ [ 94.492680365021059, 114.953007203514105 ], [ 99.00599701109924, 115.300185349167407 ], [ 99.201585238584087, 121.950185098158897 ], [ 108.785408402349702, 123.123714466569595 ], [ 108.785408402849995, 169.478124476772905 ], [ 95.042130131257451, 169.839790019834595 ], [ 94.492680365021059, 114.953007203514105 ] ] ] } },
{ "type": "Feature", "properties": { "feature_type": "building", "subtype": "no-damage", "uid": "c03e3bd8-a42f-4813-a0bf-c6268653bd6a" }, "geometry": { "type": "Polygon", "coordinates": [ [ [ 473.473670688990012, 87.214594494152905 ], [ 503.156483819162872, 85.994752861133222 ], [ 508.442464241920788, 104.698991272118604 ], [ 474.693512322509889, 105.105605149791799 ], [ 473.473670688990012, 87.214594494152905 ] ] ] } },
{ "type": "Feature", "properties": { "feature_type": "building", "subtype": "no-damage", "uid": "fbb31684-c759-4f01-abde-31029f56d1fa" }, "geometry": { "type": "Polygon", "coordinates": [ [ [ 681.553430117944799, 18.616114878871549 ], [ 723.607655096988765, 24.350781920172292 ], [ 725.200618162349315, 47.289450092378367 ], [ 721.69609941630506, 64.493451219281923 ], [ 705.447876131368616, 63.219080766993457 ], [ 706.722246583156902, 52.068339291461427 ], [ 683.783578412450993, 48.245227933595601 ], [ 681.553430117944799, 18.616114878871549 ] ] ] } },
{ "type": "Feature", "properties": { "feature_type": "building", "subtype": "no-damage", "uid": "9dfc4016-81ef-4437-8545-781e05fb89ea" }, "geometry": { "type": "Polygon", "coordinates": [ [ [ 590.671802927993554, 0.005629007108864 ], [ 591.66334449709484, 6.712922434830181 ], [ 563.639839501703932, 6.712922434830181 ], [ 563.448824324889642, 0.005649282131972 ], [ 590.671802927993554, 0.005629007108864 ] ] ] } },
{ "type": "Feature", "properties": { "feature_type": "building", "subtype": "no-damage", "uid": "f2650094-48ce-40de-959d-f124e2a59895" }, "geometry": { "type": "Polygon", "coordinates": [ [ [ 532.130474494570649, 0.00563369919701 ], [ 533.128742172280113, 23.94522160437166 ], [ 498.930028246490281, 25.94222679788523 ], [ 498.930028244739617, 31.433991077796549 ], [ 522.145213612457269, 28.937734588655811 ], [ 526.888100943925679, 60.640192023553332 ], [ 492.939012667700183, 65.133453705207202 ], [ 492.939012667700183, 43.166396583561053 ], [ 485.699868845590288, 41.918268339991123 ], [ 485.949494491153018, 33.68062191862348 ], [ 478.211099370164391, 33.430996270309677 ], [ 478.95985284915912, 0.005511892988904 ], [ 532.130474494570649, 0.00563369919701 ] ] ] } },
{ "type": "Feature", "properties": { "feature_type": "building", "subtype": "no-damage", "uid": "2e69a9bf-f407-430d-a313-e2b0d8aeb26e" }, "geometry": { "type": "Polygon", "coordinates": [ [ [ 517.839641212975835, 115.290583087115394 ], [ 552.808434766657001, 113.664127574421599 ], [ 567.85314827058005, 112.850899819075195 ], [ 573.545742570761035, 131.96175210973459 ], [ 569.479603783523999, 174.656209352462213 ], [ 550.368751493114246, 174.656209352462213 ], [ 550.368751492614024, 157.171812575497 ], [ 522.719007753558458, 158.391654212518404 ], [ 517.839641212975835, 115.290583087115394 ] ] ] } },
{ "type": "Feature", "properties": { "feature_type": "building", "subtype": "minor-damage", "uid": "80fed9cf-ffc7-4fc0-9bfa-9b05cfe278e7" }, "geometry": { "type": "Polygon", "coordinates": [ [ [ 367.341962143099181, 119.544574142809594 ], [ 376.827736810788224, 120.792702390381294 ], [ 375.579608564717091, 114.052809863898702 ], [ 407.531691650680386, 116.798692004354606 ], [ 411.026450740329722, 132.525107897146313 ], [ 411.026450736577999, 150.498154632765704 ], [ 391.805275756888022, 151.746282877336114 ], [ 391.056398809445398, 161.481683194589209 ], [ 369.338967336612825, 160.233554949018412 ], [ 367.341962143099181, 119.544574142809594 ] ] ] } },
{ "type": "Feature", "properties": { "feature_type": "building", "subtype": "minor-damage", "uid": "e6c666ee-1754-4941-9458-b141ac346f87" }, "geometry": { "type": "Polygon", "coordinates": [ [ [ 264.954696114385285, 116.257815253915894 ], [ 287.256179056445774, 117.2135930901309 ], [ 287.574771669767983, 111.797518662902803 ], [ 311.150625067118426, 111.160333438759395 ], [ 310.513439839973785, 161.179373750107686 ], [ 293.628031325391589, 162.135151590324512 ], [ 292.990846102999114, 149.71003966850671 ], [ 287.893364286341807, 148.754261827289497 ], [ 287.256179056445774, 156.71907716509719 ], [ 266.229066568424514, 155.444706709807406 ], [ 264.954696114385285, 116.257815253915894 ] ] ] } },
{ "type": "Feature", "properties": { "feature_type": "building", "subtype": "no-damage", "uid": "28386e72-9777-4baf-98a9-74da85cc6471" }, "geometry": { "type": "Polygon", "coordinates": [ [ [ 218.355649730022009, 119.172050694592997 ], [ 260.643493096327916, 119.985278452940804 ], [ 258.610423700708509, 162.273121819995993 ], [ 243.565710200286901, 163.899577332689802 ], [ 241.93925468509201, 155.767299762217704 ], [ 217.135808092500298, 156.580527520565511 ], [ 218.355649730022009, 119.172050694592997 ] ] ] } },
{ "type": "Feature", "properties": { "feature_type": "building", "subtype": "minor-damage", "uid": "2f14a4e1-5bf5-4366-b306-c75a7c80a050" }, "geometry": { "type": "Polygon", "coordinates": [ [ [ 169.155370425263101, 122.018347847309599 ], [ 169.15537042501299, 116.732367425552297 ], [ 210.223372157298712, 116.3257535458782 ], [ 211.849827671243105, 146.415180556725005 ], [ 207.377075008833913, 154.954072006871201 ], [ 200.4646390723818, 151.701160977481891 ], [ 186.328895388437587, 150.67280346972521 ], [ 185.826539448132792, 163.086349574341995 ], [ 167.122301034145693, 162.679735698669703 ], [ 169.155370425263101, 122.018347847309599 ] ] ] } },
{ "type": "Feature", "properties": { "feature_type": "building", "subtype": "minor-damage", "uid": "45eef00f-4182-4c72-8e8c-1e971f9aec08" }, "geometry": { "type": "Polygon", "coordinates": [ [ [ 110.540951322136195, 32.146947816965678 ], [ 129.245189731371198, 35.806472723027838 ], [ 127.212120338753095, 53.697483378666739 ], [ 106.068198654224602, 53.290869499993057 ], [ 110.540951322136195, 32.146947816965678 ] ] ] } },
{ "type": "Feature", "properties": { "feature_type": "building", "subtype": "no-damage", "uid": "bf71a653-6ffd-4319-b0de-9f15bc879b55" }, "geometry": { "type": "Polygon", "coordinates": [ [ [ 95.038172416277092, 67.129401621194575 ], [ 115.826931740892306, 67.928969126242592 ], [ 115.013703982294402, 58.576849922750803 ], [ 125.992278705733398, 57.763622164403017 ], [ 128.838575854948488, 80.127385482450975 ], [ 95.164325568177631, 79.731218466003469 ], [ 95.038172416277092, 67.129401621194575 ] ] ] } },
{ "type": "Feature", "properties": { "feature_type": "building", "subtype": "major-damage", "uid": "e0fb4181-2397-42a0-8742-8142073e8352" }, "geometry": { "type": "Polygon", "coordinates": [ [ [ 130.87164524431509, 40.68583926411057 ], [ 144.696517115718791, 41.092453143784688 ], [ 144.69651711471829, 48.411502957909903 ], [ 151.608953053671598, 46.78504744421565 ], [ 152.828794686941393, 69.555424644939066 ], [ 130.0584174879682, 67.11574137189659 ], [ 130.87164524431509, 40.68583926411057 ] ] ] } },
{ "type": "Feature", "properties": { "feature_type": "building", "subtype": "no-damage", "uid": "6f5dcd19-b838-45f7-8f8e-044af3555278" }, "geometry": { "type": "Polygon", "coordinates": [ [ [ 163.46426156065391, 33.022413841561033 ], [ 174.615003029683294, 32.703821226488017 ], [ 176.526558709616694, 64.244489962646099 ], [ 164.420039399370097, 61.695749055067843 ], [ 163.46426156065391, 33.022413841561033 ] ] ] } },
{ "type": "Feature", "properties": { "feature_type": "building", "subtype": "no-damage", "uid": "5be631df-8964-4435-9ad7-88b713f648d6" }, "geometry": { "type": "Polygon", "coordinates": [ [ [ 193.411967223948693, 32.703821228488913 ], [ 195.004930292810911, 71.253527458236192 ], [ 179.393892230517309, 70.934934845164065 ], [ 179.075299618945792, 31.429450773199122 ], [ 193.411967223948693, 32.703821228488913 ] ] ] } },
{ "type": "Feature", "properties": { "feature_type": "building", "subtype": "minor-damage", "uid": "dd9f8605-c521-493a-ae9f-d313ad32dfcc" }, "geometry": { "type": "Polygon", "coordinates": [ [ [ 198.50944904135639, 25.376191117825819 ], [ 209.978783124458289, 22.508857597175449 ], [ 213.801894488326894, 26.969154185187289 ], [ 213.483301875004713, 33.341006452632257 ], [ 233.554636522809204, 34.296784296850817 ], [ 233.554636523309398, 65.200267803863326 ], [ 224.315450732712691, 66.156045644080123 ], [ 222.403895054780207, 76.669601886464804 ], [ 217.625005847693501, 73.483675752742329 ], [ 214.120487102649605, 76.351009273392691 ], [ 213.801894487826701, 79.218342794043068 ], [ 206.474264377663701, 78.899750180970955 ], [ 207.748634831702901, 69.023379161729153 ], [ 203.925523469585102, 68.067601325514147 ], [ 205.518486536696514, 36.845525202428192 ], [ 198.190856426033292, 37.482710428572418 ], [ 198.50944904135639, 25.376191117825819 ] ] ] } },
{ "type": "Feature", "properties": { "feature_type": "building", "subtype": "no-damage", "uid": "0d00bc03-c1f2-4724-93c6-232a06200b53" }, "geometry": { "type": "Polygon", "coordinates": [ [ [ 278.232648690452208, 48.154462797874011 ], [ 320.419383387545281, 47.904837148559757 ], [ 322.666014227371818, 68.873391671948454 ], [ 277.234146091194305, 68.124514724005707 ], [ 278.232648690452208, 48.154462797874011 ] ] ] } },
{ "type": "Feature", "properties": { "feature_type": "building", "subtype": "minor-damage", "uid": "22148cb0-3c1f-4d40-93dc-21add6f9e54a" }, "geometry": { "type": "Polygon", "coordinates": [ [ [ 330.404409350111109, 43.161949815590752 ], [ 361.857241136195285, 42.912324165276047 ], [ 363.105369383516972, 58.638740057067253 ], [ 360.609112895126486, 59.886868303638508 ], [ 359.350586043054989, 69.067382851940238 ], [ 331.402911945867515, 67.375637777063389 ], [ 330.404409350111109, 43.161949815590752 ] ] ] } },
{ "type": "Feature", "properties": { "feature_type": "building", "subtype": "minor-damage", "uid": "bbc9623a-6a4c-408e-967b-5d9778e5b8de" }, "geometry": { "type": "Polygon", "coordinates": [ [ [ 375.253699082627406, 34.025534538036837 ], [ 401.670024255693988, 34.385757150943192 ], [ 406.472992472798694, 60.922156533813741 ], [ 398.067798095366527, 60.922156533813741 ], [ 399.748836972353672, 77.012100050359379 ], [ 376.214292723547203, 76.411729020845257 ], [ 376.21429272529798, 67.646312031757518 ], [ 367.929172556669982, 67.04594100424427 ], [ 368.649617788735384, 47.713993945529957 ], [ 375.253699080376407, 48.554513384648772 ], [ 375.253699082627406, 34.025534538036837 ] ] ] } },
{ "type": "Feature", "properties": { "feature_type": "building", "subtype": "no-damage", "uid": "e8147b41-5564-4594-ad13-e7cc298a078d" }, "geometry": { "type": "Polygon", "coordinates": [ [ [ 843.297345455941354, 784.780553889531348 ], [ 849.325616770612214, 815.424266396186681 ], [ 827.724311232460991, 816.428978281798322 ], [ 826.719599346849236, 824.46667336569169 ], [ 808.132429467283941, 825.973741191608156 ], [ 805.620649751753945, 785.282909833837834 ], [ 843.297345455941354, 784.780553889531348 ] ] ] } },
{ "type": "Feature", "properties": { "feature_type": "building", "subtype": "no-damage", "uid": "c430782d-0cb7-485b-8e9c-331b4ea85157" }, "geometry": { "type": "Polygon", "coordinates": [ [ [ 500.690592527867807, 512.503632940779653 ], [ 502.700016297340483, 529.583734994177917 ], [ 469.544524082157579, 530.588446878789227 ], [ 468.037456249738227, 514.513056711002605 ], [ 500.690592527867807, 512.503632940779653 ] ] ] } },
{ "type": "Feature", "properties": { "feature_type": "building", "subtype": "no-damage", "uid": "fc420d65-621e-4dbe-918d-2246eed6b3bd" }, "geometry": { "type": "Polygon", "coordinates": [ [ [ 925.31212608077692, 39.180505808050533 ], [ 938.8616208903195, 18.698711331237799 ], [ 946.424129619092355, 22.479965696249408 ], [ 931.299112159045535, 42.016446581809241 ], [ 925.31212608077692, 39.180505808050533 ] ] ] } },
{ "type": "Feature", "properties": { "feature_type": "building", "subtype": "no-damage", "uid": "fff39cd1-6172-4df7-830a-593b12aa25dd" }, "geometry": { "type": "Polygon", "coordinates": [ [ [ 457.910814490843677, 106.148080199357906 ], [ 471.615640924497427, 105.683509810971003 ], [ 472.080211313134384, 111.722924850996804 ], [ 457.678529296900422, 111.722924850996804 ], [ 457.910814490843677, 106.148080199357906 ] ] ] } }
]
}
