{
"type": "FeatureCollection",
"name": "hurricane-florence_00000155_post_disaster",
"features": [
{ "type": "Feature", "properties": { "feature_type": "building", "subtype": "no-damage", "uid": "47d3524f-a31b-4c95-b687-a1e21f3349d7" }, "geometry": { "type": "Polygon", "coordinates": [ [ [ 991.543005860086964, 182.949357303048714 ], [ 992.308500778492885, 178.356387795158611 ], [ 995.217381467289329, 175.906804052183389 ], [ 999.351054027827786, 177.743991856358292 ], [ 999.810350978361953, 179.734278647016197 ], [ 997.054569272355138, 185.245842056484292 ], [ 991.543005860086964, 182.949357303048714 ] ] ] } },
{ "type": "Feature", "properties": { "feature_type": "building", "subtype": "un-classified", "uid": "29238f4a-04c8-485e-a45f-0f269011ae13" }, "geometry": { "type": "Polygon", "coordinates": [ [ [ 944.823319595483213, 292.964745096217882 ], [ 985.465980902466185, 316.21703689738581 ], [ 986.052173132955204, 319.538792868544476 ], [ 980.581045647924498, 328.331676324608281 ], [ 938.375205062142186, 303.516205241456873 ], [ 944.823319595483213, 292.964745096217882 ] ] ] } },
{ "type": "Feature", "properties": { "feature_type": "building", "subtype": "no-damage", "uid": "e7c2c24f-4f6f-4844-b451-af9aae3564d8" }, "geometry": { "type": "Polygon", "coordinates": [ [ [ 927.171028259113655, 316.60169638719799 ], [ 932.055963512509265, 309.567389625403507 ], [ 942.607423659400524, 317.383286026152177 ], [ 937.527090994865603, 324.076849599547074 ], [ 927.171028259113655, 316.60169638719799 ] ] ] } },
{ "type": "Feature", "properties": { "feature_type": "building", "subtype": "no-damage", "uid": "f34c03a4-7baf-45d7-8c54-a92a15c9ee0e" }, "geometry": { "type": "Polygon", "coordinates": [ [ [ 1022.361790720505041, 541.041371705757001 ], [ 1012.843983843259025, 552.878002458474157 ], [ 1006.966087914277978, 551.918345978339175 ], [ 999.408793147735537, 544.960836516209042 ], [ 1022.361789629336045, 518.811740403105659 ], [ 1022.361790720505041, 541.041371705757001 ] ] ] } },
{ "type": "Feature", "properties": { "feature_type": "building", "subtype": "un-classified", "uid": "58fcaa0c-73f1-4dc2-b40e-d2928b321bce" }, "geometry": { "type": "Polygon", "coordinates": [ [ [ 707.626971406428993, 575.844508656359494 ], [ 716.14392264877597, 561.929489718854256 ], [ 738.575892828623751, 574.524980993372083 ], [ 730.29885570299939, 586.52068697264508 ], [ 726.820100970407111, 586.52068697264508 ], [ 707.626971406428993, 575.844508656359494 ] ] ] } },
{ "type": "Feature", "properties": { "feature_type": "building", "subtype": "no-damage", "uid": "b5f6f32a-92fd-45b3-9811-bade62397f95" }, "geometry": { "type": "Polygon", "coordinates": [ [ [ 733.847746830680421, 629.181789899763544 ], [ 734.153944797278655, 621.37374172972784 ], [ 762.360409271754293, 583.840323079286691 ], [ 779.459160145317583, 596.877904336654183 ], [ 779.471243972642696, 602.389467748159973 ], [ 752.83202081033221, 638.367728916562555 ], [ 747.320457393606603, 639.59252078703139 ], [ 733.847746830680421, 629.181789899763544 ] ] ] } },
{ "type": "Feature", "properties": { "feature_type": "building", "subtype": "un-classified", "uid": "46f81521-4f78-4dfb-bebb-4ed280779757" }, "geometry": { "type": "Polygon", "coordinates": [ [ [ 834.446501789655144, 772.280211949872523 ], [ 842.123753614558609, 759.804677730532035 ], [ 848.841348961492486, 763.643303643940158 ], [ 849.801005440735707, 766.282358956670123 ], [ 842.363667732681961, 778.398021997233514 ], [ 834.566458848398383, 773.599739605728018 ], [ 834.446501789655144, 772.280211949872523 ] ] ] } },
{ "type": "Feature", "properties": { "feature_type": "building", "subtype": "no-damage", "uid": "b98e9a78-b679-4542-a89b-225f87f72b63" }, "geometry": { "type": "Polygon", "coordinates": [ [ [ 874.432610696081611, 812.013734162894025 ], [ 873.0547198424415, 807.880061602226988 ], [ 892.957587723925712, 777.26026486292244 ], [ 908.639967907755022, 786.061111434210375 ], [ 909.81108656871902, 790.314741053111334 ], [ 890.814201952516441, 821.812069113399275 ], [ 874.432610696081611, 812.013734162894025 ] ] ] } },
{ "type": "Feature", "properties": { "feature_type": "building", "subtype": "no-damage", "uid": "3326ae6e-4f74-4042-bd41-5c225ba088b9" }, "geometry": { "type": "Polygon", "coordinates": [ [ [ 594.2641849699462, 819.004800083396162 ], [ 595.029679890644502, 810.431257000303276 ], [ 600.388144317066576, 802.623208830267686 ], [ 615.851141673324378, 807.981673259365721 ], [ 617.075933543155998, 810.58435598169217 ], [ 611.870568094174814, 822.526076709338213 ], [ 608.502390452042391, 823.903967566290021 ], [ 594.2641849699462, 819.004800083396162 ] ] ] } },
{ "type": "Feature", "properties": { "feature_type": "building", "subtype": "no-damage", "uid": "3af120f0-5223-4389-a703-a9c3b1a23b9f" }, "geometry": { "type": "Polygon", "coordinates": [ [ [ 587.834027655336058, 839.979360850527883 ], [ 593.498690050903406, 822.98537366573089 ], [ 608.196192488118527, 827.578343171583356 ], [ 603.756321962510128, 841.816548653683981 ], [ 598.857154479999849, 843.653736459896436 ], [ 587.834027655336058, 839.979360850527883 ] ] ] } },
{ "type": "Feature", "properties": { "feature_type": "building", "subtype": "no-damage", "uid": "778dba12-b853-44fa-bf71-8147902efa5f" }, "geometry": { "type": "Polygon", "coordinates": [ [ [ 635.436327590689075, 870.051483545418364 ], [ 618.522382161554788, 863.933673499076235 ], [ 621.041480416559352, 857.57594933219093 ], [ 612.764443295774413, 854.696979897899041 ], [ 617.08289744339038, 842.821230978897688 ], [ 624.880106332386049, 845.340329234412479 ], [ 630.398131082080681, 829.386040284516412 ], [ 647.312076509432131, 835.263936212353087 ], [ 635.436327590689075, 870.051483545418364 ] ] ] } },
{ "type": "Feature", "properties": { "feature_type": "building", "subtype": "no-damage", "uid": "df0bd286-35e1-40de-b379-53ba319d727f" }, "geometry": { "type": "Polygon", "coordinates": [ [ [ 674.474747754771784, 834.083726953287282 ], [ 680.623383130131174, 834.400200836898193 ], [ 680.306909250850481, 840.232362328139288 ], [ 674.022642210795311, 839.825467340165005 ], [ 674.474747754771784, 834.083726953287282 ] ] ] } },
{ "type": "Feature", "properties": { "feature_type": "building", "subtype": "no-damage", "uid": "25b130e9-078a-4d7f-b83e-41ea54f1f039" }, "geometry": { "type": "Polygon", "coordinates": [ [ [ 585.564112395083953, 913.560342635225084 ], [ 589.402738307981508, 906.842747291600404 ], [ 604.157456660888101, 909.961630843378998 ], [ 601.27848722557826, 925.076220375449338 ], [ 585.564112394701965, 921.71742270210882 ], [ 585.564112395083953, 913.560342635225084 ] ] ] } },
{ "type": "Feature", "properties": { "feature_type": "building", "subtype": "no-damage", "uid": "9f9f5bb5-d3f5-4d15-b76b-18655c04dd42" }, "geometry": { "type": "Polygon", "coordinates": [ [ [ 645.302728167957866, 912.600686156108964 ], [ 651.180624095283292, 913.920213810945711 ], [ 652.500151754067588, 915.599612649653636 ], [ 650.820752918289259, 920.877723276132429 ], [ 643.383415210999715, 918.958410326050739 ], [ 645.302728167957866, 912.600686156108964 ] ] ] } },
{ "type": "Feature", "properties": { "feature_type": "building", "subtype": "no-damage", "uid": "059e5224-faed-4d8f-9120-126fe6da2608" }, "geometry": { "type": "Polygon", "coordinates": [ [ [ 592.401664804072311, 944.029435818890192 ], [ 600.078916631140828, 945.708834655560509 ], [ 604.037499601635432, 928.674932167295538 ], [ 616.273119698645928, 931.433944543353505 ], [ 624.190285647276369, 933.113343379004959 ], [ 625.749727422401065, 935.632441633501003 ], [ 625.389856244006182, 938.031582827725515 ], [ 630.667966872648321, 939.231153425347088 ], [ 628.148868618789834, 950.747031162514872 ], [ 627.189212139419283, 956.145098854359389 ], [ 622.390929748042709, 955.185442375243156 ], [ 620.351659730685697, 956.504970032117626 ], [ 618.072475596096751, 967.421062470983998 ], [ 615.673334401873035, 968.980504251458001 ], [ 587.963253589053011, 962.622780084572696 ], [ 592.401664804072311, 944.029435818890192 ] ] ] } },
{ "type": "Feature", "properties": { "feature_type": "building", "subtype": "no-damage", "uid": "115e38fa-b8f3-4cfa-acf2-0faca09d9ef6" }, "geometry": { "type": "Polygon", "coordinates": [ [ [ 577.919047068762325, 953.731091988930984 ], [ 579.296937921128915, 956.180675722736737 ], [ 577.919047067616134, 962.917031004711248 ], [ 581.134125725685294, 963.835624908326963 ], [ 577.919047067488805, 977.46143445468374 ], [ 575.622562312398259, 978.53312734274482 ], [ 554.341803581476597, 973.327761898092149 ], [ 560.159564958814826, 949.597419428263947 ], [ 577.919047068762325, 953.731091988930984 ] ] ] } }
]
}
