{
"type": "FeatureCollection",
"name": "hurricane-harvey_00000372_post_disaster",
"features": [
{ "type": "Feature", "properties": { "feature_type": "building", "subtype": "major-damage", "uid": "2d918e12-4a03-40d7-9af0-5c61cddfeccc" }, "geometry": { "type": "Polygon", "coordinates": [ [ [ 466.766598183979113, 0.012743746970725 ], [ 450.547254885559084, 15.875642417501849 ], [ 441.953646517613322, 7.282034051234733 ], [ 449.579083052417275, 0.012706099911312 ], [ 466.766598183979113, 0.012743746970725 ] ] ] } },
{ "type": "Feature", "properties": { "feature_type": "building", "subtype": "major-damage", "uid": "73915c98-9beb-4848-877f-9e88be2eb804" }, "geometry": { "type": "Polygon", "coordinates": [ [ [ 491.594371900660519, 0.012776311009086 ], [ 484.921688360458404, 7.600315839586774 ], [ 486.513097317360803, 10.46485196366994 ], [ 475.691516408268512, 22.559560038700791 ], [ 465.506499083046322, 30.83488661063349 ], [ 455.003199964237695, 18.74017854158501 ], [ 466.779626248481009, 11.7379791300399 ], [ 474.410088934674093, 0.012756518335311 ], [ 491.594371900660519, 0.012776311009086 ] ] ] } },
{ "type": "Feature", "properties": { "feature_type": "building", "subtype": "major-damage", "uid": "3d1915c2-85c2-4b01-86c2-28b368e6d879" }, "geometry": { "type": "Polygon", "coordinates": [ [ [ 500.517496140631806, 2.826088968441316 ], [ 511.339077046857597, 6.327188676207991 ], [ 504.973441219684275, 22.55956003670666 ], [ 493.515296727220289, 37.837086025169782 ], [ 483.011997613085384, 47.385539768457761 ], [ 471.872134913896275, 33.381140945367548 ], [ 481.738870444410281, 28.925195865565321 ], [ 487.467942692947986, 19.695023912623501 ], [ 500.517496140631806, 2.826088968441316 ] ] ] } },
{ "type": "Feature", "properties": { "feature_type": "building", "subtype": "major-damage", "uid": "36c39db1-0b9b-4667-ab31-bfb81d802a46" }, "geometry": { "type": "Polygon", "coordinates": [ [ [ 516.749867501497192, 16.512205999191242 ], [ 528.844575575151794, 22.877841828049888 ], [ 523.115503333032621, 31.1531684049679 ], [ 524.388630499277497, 33.381140943373417 ], [ 507.837977342270619, 55.024302761692262 ], [ 494.470142101374222, 47.385539767460699 ], [ 503.382032262657276, 38.155367817510069 ], [ 507.519695549805817, 30.83488661063349 ], [ 516.749867501497192, 16.512205999191242 ] ] ] } },
{ "type": "Feature", "properties": { "feature_type": "building", "subtype": "major-damage", "uid": "5d65903f-ad9e-451c-b2bd-65e649dc112f" }, "geometry": { "type": "Polygon", "coordinates": [ [ [ 530.524562032311223, 28.17987786484704 ], [ 533.892739671273489, 29.251570749702779 ], [ 537.107818328581288, 25.117898193118439 ], [ 544.456569546148216, 30.78256058606561 ], [ 542.772480726885192, 35.069332128479772 ], [ 545.528262431003441, 36.294123998168267 ], [ 543.078678696675183, 41.193291476922283 ], [ 543.69107462827867, 42.877380297120808 ], [ 533.892739671460504, 58.187278668725597 ], [ 525.01299862195583, 68.291811589916762 ], [ 511.540288054702785, 57.268684765711427 ], [ 530.524562032311223, 28.17987786484704 ] ] ] } },
{ "type": "Feature", "properties": { "feature_type": "building", "subtype": "major-damage", "uid": "7d919c71-b951-473e-8157-e6f4c4d8c706" }, "geometry": { "type": "Polygon", "coordinates": [ [ [ 545.839058032220578, 49.074863389434931 ], [ 563.229427534181696, 58.844733896672928 ], [ 546.816045082968799, 80.338449006414763 ], [ 529.42567558231633, 69.982386271195253 ], [ 545.839058032220578, 49.074863389434931 ] ] ] } },
{ "type": "Feature", "properties": { "feature_type": "building", "subtype": "major-damage", "uid": "fc49b577-25e4-4ec1-910a-7a4a30e16494" }, "geometry": { "type": "Polygon", "coordinates": [ [ [ 574.182523457531147, 51.82621529049829 ], [ 582.910897374116644, 50.828686842482128 ], [ 599.12073464639559, 54.07065429753758 ], [ 595.629385079337681, 90.231060516187981 ], [ 567.947970662355942, 87.737239402129944 ], [ 568.446734884618877, 75.018751697900427 ], [ 571.439320224677886, 75.018751695906303 ], [ 574.182523457531147, 51.82621529049829 ] ] ] } },
{ "type": "Feature", "properties": { "feature_type": "building", "subtype": "major-damage", "uid": "41728209-eb09-439e-b867-fcec4d9df079" }, "geometry": { "type": "Polygon", "coordinates": [ [ [ 664.70364204728503, 46.580067955560317 ], [ 669.172031053086243, 47.392502320795657 ], [ 669.172031050219744, 64.859841148927401 ], [ 642.429996126977926, 64.630001978623866 ], [ 641.719996125772127, 44.290001977784058 ], [ 664.229996130036284, 43.620001975521582 ], [ 664.70364204728503, 46.580067955560317 ] ] ] } },
{ "type": "Feature", "properties": { "feature_type": "building", "subtype": "major-damage", "uid": "72bc72a4-5523-4c62-aced-dd31bb200806" }, "geometry": { "type": "Polygon", "coordinates": [ [ [ 641.929996126566721, 64.620001974229808 ], [ 622.050837930153648, 64.4536239707965 ], [ 621.24999612552358, 44.90000197561757 ], [ 641.21999612791592, 44.310001976601548 ], [ 641.929996126566721, 64.620001974229808 ] ] ] } },
{ "type": "Feature", "properties": { "feature_type": "building", "subtype": "major-damage", "uid": "c24f4c5b-156b-407e-b8b3-916cafc963ba" }, "geometry": { "type": "Polygon", "coordinates": [ [ [ 658.610384319239643, 8.395652842343733 ], [ 664.149996127662348, 43.120001975172507 ], [ 621.238403566601164, 44.400001977262619 ], [ 621.238403560431834, 0.01252746432525 ], [ 653.337332358139406, 0.0123572588967 ], [ 658.610384319239643, 8.395652842343733 ] ] ] } },
{ "type": "Feature", "properties": { "feature_type": "building", "subtype": "major-damage", "uid": "72d92144-1e22-4b51-a29b-90b263fa48d3" }, "geometry": { "type": "Polygon", "coordinates": [ [ [ 641.199996126418796, 67.140001974792682 ], [ 641.709996128544503, 86.820001976767003 ], [ 621.489310183167163, 86.902744109344127 ], [ 620.512323136905593, 66.972208279204963 ], [ 641.199996126418796, 67.140001974792682 ] ] ] } },
{ "type": "Feature", "properties": { "feature_type": "building", "subtype": "major-damage", "uid": "f6d10953-ea6f-4705-9fa8-a10000c04718" }, "geometry": { "type": "Polygon", "coordinates": [ [ [ 668.189291204586084, 67.363003096862244 ], [ 668.58008602292864, 69.121579790777389 ], [ 668.189291202529603, 86.707346698022832 ], [ 642.209996125341263, 86.820001978761127 ], [ 641.699996128263251, 67.150001978189664 ], [ 668.189291204586084, 67.363003096862244 ] ] ] } },
{ "type": "Feature", "properties": { "feature_type": "building", "subtype": "major-damage", "uid": "bf392299-96ce-4d81-8466-821a379c88a3" }, "geometry": { "type": "Polygon", "coordinates": [ [ [ 636.010395397840284, 121.464580529272297 ], [ 636.60999612598323, 130.910001977237897 ], [ 621.79543908798189, 131.668840050205489 ], [ 621.659996124463646, 110.370001977255498 ], [ 634.83999612949674, 109.780001974251206 ], [ 636.010395397840284, 121.464580529272297 ] ] ] } },
{ "type": "Feature", "properties": { "feature_type": "building", "subtype": "major-damage", "uid": "5f79b0a6-3bc6-4d90-bd24-a076a434c6a0" }, "geometry": { "type": "Polygon", "coordinates": [ [ [ 650.789996128348889, 130.19000197693461 ], [ 637.10999612614512, 130.890001974432209 ], [ 636.508807761107278, 121.423766393787005 ], [ 635.339996126044298, 109.750001975027899 ], [ 636.204542524325007, 109.715381545562494 ], [ 637.201449061836001, 105.976982026950196 ], [ 652.204249047792928, 105.493020735781798 ], [ 650.789996128348889, 130.19000197693461 ] ] ] } },
{ "type": "Feature", "properties": { "feature_type": "building", "subtype": "major-damage", "uid": "e79c4f35-63bd-4cd4-bb0b-3e3c0c41e280" }, "geometry": { "type": "Polygon", "coordinates": [ [ [ 670.674333020437075, 129.175018930165095 ], [ 651.299996129290548, 130.160001975717194 ], [ 652.734628659140071, 104.975651644699298 ], [ 636.814046768449657, 105.489218802544201 ], [ 635.815896408558274, 109.232282637073695 ], [ 621.659996125024463, 109.870001977903499 ], [ 621.546056979779337, 92.515848483518397 ], [ 668.928658236409547, 92.515848483518397 ], [ 670.674333020437075, 129.175018930165095 ] ] ] } },
{ "type": "Feature", "properties": { "feature_type": "building", "subtype": "major-damage", "uid": "eecc5469-95b3-4550-99a9-cf74a80acb20" }, "geometry": { "type": "Polygon", "coordinates": [ [ [ 643.257181577652091, 132.828845574139507 ], [ 666.704870790625819, 133.219640395785007 ], [ 665.727883740376114, 166.241802702691814 ], [ 648.142116833013802, 165.65561047371321 ], [ 648.728309060247284, 149.242228023427799 ], [ 643.257181577776691, 148.26524097579491 ], [ 643.257181577652091, 132.828845574139507 ] ] ] } },
{ "type": "Feature", "properties": { "feature_type": "building", "subtype": "major-damage", "uid": "0291f2ec-6edc-43b1-8342-3a524aa03bb6" }, "geometry": { "type": "Polygon", "coordinates": [ [ [ 642.889996124955701, 166.220001974370689 ], [ 636.160591734805394, 168.407446022534714 ], [ 636.353937795480874, 173.047751446342602 ], [ 631.875902104790157, 173.437145855805795 ], [ 631.49999612488557, 186.710001977309389 ], [ 614.924557111622221, 187.930915226746095 ], [ 614.924557108693421, 168.977366447230992 ], [ 621.177274234516972, 168.391174217255411 ], [ 621.372671643158583, 149.43762543674319 ], [ 635.832079990631428, 148.656035796443405 ], [ 643.257181577776691, 148.26524097579491 ], [ 642.889996124955701, 166.220001974370689 ] ] ] } },
{ "type": "Feature", "properties": { "feature_type": "building", "subtype": "major-damage", "uid": "49ea60a4-b3ba-48f2-9d0f-5191f93bdc6c" }, "geometry": { "type": "Polygon", "coordinates": [ [ [ 642.866386757315354, 167.218789754312894 ], [ 652.050065031520148, 167.609584578949608 ], [ 652.050065031333247, 185.195351484201012 ], [ 631.999996128225689, 186.670001975686205 ], [ 632.363156296680813, 173.896662723251609 ], [ 636.873401468562179, 173.504467493411994 ], [ 636.675952709025523, 168.765697230630394 ], [ 642.879996126793344, 166.750001975937209 ], [ 642.866386757315354, 167.218789754312894 ] ] ] } },
{ "type": "Feature", "properties": { "feature_type": "building", "subtype": "major-damage", "uid": "87b45be1-2a6f-4a1e-b52e-f86593e3fac5" }, "geometry": { "type": "Polygon", "coordinates": [ [ [ 681.923819127928368, 167.387370649135192 ], [ 683.051693070236979, 189.192933530371505 ], [ 673.276785568193304, 189.192933532365601 ], [ 672.618859102293186, 186.561227667268497 ], [ 670.279996128898347, 185.660001972588105 ], [ 669.519996127969193, 167.630001974756908 ], [ 669.893163741765989, 167.105402162591986 ], [ 681.923819127928368, 167.387370649135192 ] ] ] } },
{ "type": "Feature", "properties": { "feature_type": "building", "subtype": "major-damage", "uid": "016382e8-175f-4cff-ae44-2ae21263567f" }, "geometry": { "type": "Polygon", "coordinates": [ [ [ 664.629752012384074, 168.421255095140594 ], [ 668.953268793061739, 168.421255096137713 ], [ 669.039996128494295, 168.300001974028191 ], [ 669.779996127988625, 185.630001978350094 ], [ 653.820960067513624, 185.903301202988388 ], [ 653.726970569838954, 167.951307622221606 ], [ 664.441773024450413, 167.199391658771191 ], [ 664.629752012384074, 168.421255095140594 ] ] ] } },
{ "type": "Feature", "properties": { "feature_type": "building", "subtype": "major-damage", "uid": "3409f604-db48-4de7-98a2-0c63f5195466" }, "geometry": { "type": "Polygon", "coordinates": [ [ [ 656.129996127126788, 189.780001976262099 ], [ 658.109996126152737, 210.07000197906109 ], [ 634.553407325130252, 211.426772164223308 ], [ 635.550935770154751, 189.979910544837708 ], [ 643.780545466595981, 188.483617874807607 ], [ 656.129996127126788, 189.780001976262099 ] ] ] } },
{ "type": "Feature", "properties": { "feature_type": "building", "subtype": "major-damage", "uid": "836d7f01-a0ce-424b-9267-e5fce69a5116" }, "geometry": { "type": "Polygon", "coordinates": [ [ [ 673.955781002183812, 192.224349549882902 ], [ 673.457016779484547, 209.182333156187013 ], [ 658.609996127062459, 210.04000197385551 ], [ 656.62999612809881, 189.840001978696989 ], [ 657.995325840974033, 189.979910544837708 ], [ 664.479260751954484, 187.236707313790305 ], [ 673.955781002183812, 192.224349549882902 ] ] ] } },
{ "type": "Feature", "properties": { "feature_type": "building", "subtype": "major-damage", "uid": "64f945c1-0642-47e6-8762-84bc71c14e7c" }, "geometry": { "type": "Polygon", "coordinates": [ [ [ 660.241201012525153, 216.322773849126406 ], [ 658.869996126396359, 225.910001977756309 ], [ 658.066860903210568, 225.677462621520789 ], [ 652.108122296616102, 225.230603228279506 ], [ 648.966544514196585, 225.996841711280013 ], [ 647.309996126344686, 228.120001975709812 ], [ 633.610733741796366, 228.558393944260303 ], [ 632.771034324271795, 223.52019743649339 ], [ 641.52789968738557, 223.280283319639807 ], [ 641.64785674737027, 216.082859731275704 ], [ 660.241201012525153, 216.322773849126406 ] ] ] } },
{ "type": "Feature", "properties": { "feature_type": "building", "subtype": "major-damage", "uid": "eec12afd-9e51-4315-953e-edbccfd0696a" }, "geometry": { "type": "Polygon", "coordinates": [ [ [ 661.986851307094639, 212.95038311113521 ], [ 668.344575476746968, 211.870769569341007 ], [ 673.982557289607144, 212.590511929872406 ], [ 675.062170823112865, 225.186003205271987 ], [ 662.346722486923909, 225.545874383543605 ], [ 661.986851307094639, 212.95038311113521 ] ] ] } },
{ "type": "Feature", "properties": { "feature_type": "building", "subtype": "major-damage", "uid": "2ca3ad2e-7e96-4dca-a843-9897d8b80e7c" }, "geometry": { "type": "Polygon", "coordinates": [ [ [ 657.119996128166463, 226.190001977154111 ], [ 659.889996126347683, 227.320001975151314 ], [ 658.219996126690603, 241.230001975290804 ], [ 647.932024732125228, 241.968139177810997 ], [ 647.932024731065781, 237.889599144437909 ], [ 652.25047888658753, 237.649685027584411 ], [ 652.6103500664791, 234.290887352748513 ], [ 647.092325313665924, 235.130586769712608 ], [ 649.011638272049368, 227.333377882235112 ], [ 648.771724149899001, 227.333377884229208 ], [ 653.8399961264887, 225.880001975541802 ], [ 657.119996128166463, 226.190001977154111 ] ] ] } },
{ "type": "Feature", "properties": { "feature_type": "building", "subtype": "major-damage", "uid": "722b5ac7-5501-47d4-b11b-8547e14174d3" }, "geometry": { "type": "Polygon", "coordinates": [ [ [ 674.082663762603715, 227.813206122921713 ], [ 673.123007284595928, 240.168783281467796 ], [ 658.729996130747963, 241.200001976067512 ], [ 660.399996127600957, 227.250001975301814 ], [ 666.40541193648528, 226.253764348417405 ], [ 674.082663762603715, 227.813206122921713 ] ] ] } },
{ "type": "Feature", "properties": { "feature_type": "building", "subtype": "major-damage", "uid": "5dd81a1b-342f-44bb-af1c-ceb41a900bba" }, "geometry": { "type": "Polygon", "coordinates": [ [ [ 632.662547693296688, 247.518134111626608 ], [ 651.390964653847959, 248.814716823803195 ], [ 654.560389062178842, 245.645292418586706 ], [ 673.721000258938034, 246.797810381310086 ], [ 679.771719585791629, 251.119752757226507 ], [ 680.636108061572713, 267.399069036654225 ], [ 632.230353455593104, 265.958421581006576 ], [ 632.662547693296688, 247.518134111626608 ] ] ] } },
{ "type": "Feature", "properties": { "feature_type": "building", "subtype": "major-damage", "uid": "21b09981-cce1-4ef9-8ea9-0dfc4e1f661c" }, "geometry": { "type": "Polygon", "coordinates": [ [ [ 666.523307027676765, 287.823254614443726 ], [ 670.449996131684088, 292.300001975848886 ], [ 670.077727958175842, 292.324090755604175 ], [ 671.251059410037101, 305.700069303825614 ], [ 674.77999612692804, 305.620001976972389 ], [ 675.039996127072072, 314.770001976381025 ], [ 655.059085373129392, 315.32138721266972 ], [ 654.824419080738153, 307.621946101311892 ], [ 650.713304351287888, 306.891219349236792 ], [ 650.208334595359474, 304.829736170114586 ], [ 636.419996129863762, 304.490001976981091 ], [ 636.522451674726085, 287.599393716013992 ], [ 653.203583401745391, 287.599393716013992 ], [ 666.523307027676765, 287.823254614443726 ] ] ] } },
{ "type": "Feature", "properties": { "feature_type": "building", "subtype": "major-damage", "uid": "2d8028c0-d491-4bc2-8556-26cc1bcae37b" }, "geometry": { "type": "Polygon", "coordinates": [ [ [ 680.872377318191525, 269.796126875469781 ], [ 682.984373929834419, 273.081454937916078 ], [ 682.984373933635766, 291.620091884225417 ], [ 671.089996128242092, 292.270001977622712 ], [ 666.753143687565625, 287.327046808032605 ], [ 653.207784784424234, 287.099393715664974 ], [ 636.025367101398956, 287.099393715664974 ], [ 635.919996126648357, 304.480001974581228 ], [ 628.072461973526401, 304.292071562065018 ], [ 628.307128265356823, 286.926766076030219 ], [ 628.072461975395868, 269.092128002096786 ], [ 680.872377318191525, 269.796126875469781 ] ] ] } },
{ "type": "Feature", "properties": { "feature_type": "building", "subtype": "major-damage", "uid": "ba40f97c-1ba7-41cf-9404-9830b9a3de39" }, "geometry": { "type": "Polygon", "coordinates": [ [ [ 620.754672535077702, 315.715029440410092 ], [ 643.554202721382353, 316.450498155587127 ], [ 644.657405795705245, 325.827724280574387 ], [ 649.805686806366225, 326.19545863616878 ], [ 650.541155522602253, 317.002099690474211 ], [ 669.111740591780404, 317.553701226358385 ], [ 669.663342129658531, 349.546590359489301 ], [ 620.019203820399639, 348.259520110422272 ], [ 620.754672535077702, 315.715029440410092 ] ] ] } },
{ "type": "Feature", "properties": { "feature_type": "building", "subtype": "destroyed", "uid": "d88b591b-09de-4c65-9d99-eef873fdc8fd" }, "geometry": { "type": "Polygon", "coordinates": [ [ [ 648.900034243169898, 387.399092200419091 ], [ 648.4282615258644, 387.399092202413215 ], [ 651.47892330065406, 427.996360443949584 ], [ 618.156310062881744, 430.343023350539795 ], [ 619.98547336393392, 383.51292099019048 ], [ 619.989996126239816, 382.890001975880921 ], [ 647.533376275599267, 382.25620451681732 ], [ 648.900034243169898, 387.399092200419091 ] ] ] } },
{ "type": "Feature", "properties": { "feature_type": "building", "subtype": "destroyed", "uid": "6e16e038-acf3-49cf-a71a-a20a6d0fd6c0" }, "geometry": { "type": "Polygon", "coordinates": [ [ [ 667.583693331498012, 350.980995304936187 ], [ 670.721559113161447, 351.72981606152581 ], [ 671.894890565334435, 387.399092200419091 ], [ 649.423151715082668, 387.399092202413215 ], [ 647.915149035117338, 381.747330532849276 ], [ 619.999996129075953, 382.390001978522889 ], [ 620.330456698523449, 350.116606831148772 ], [ 667.583693331498012, 350.980995304936187 ] ] ] } },
{ "type": "Feature", "properties": { "feature_type": "building", "subtype": "destroyed", "uid": "f0c98d2e-8769-48ee-b6d1-e9c4104d8530" }, "geometry": { "type": "Polygon", "coordinates": [ [ [ 654.867189500391646, 425.175386086469416 ], [ 671.528496118467729, 429.164713021291618 ], [ 669.651165796100258, 461.313994810270174 ], [ 652.989859177588073, 460.140663355978006 ], [ 654.867189500391646, 425.175386086469416 ] ] ] } },
{ "type": "Feature", "properties": { "feature_type": "building", "subtype": "major-damage", "uid": "aedad5c8-33b8-45cc-bb64-6b220b8dec24" }, "geometry": { "type": "Polygon", "coordinates": [ [ [ 690.301799355415369, 437.143366895921417 ], [ 702.50444645395055, 431.276709639416424 ], [ 698.280453227922749, 421.186059150650124 ], [ 713.064429526061758, 416.258067052992374 ], [ 725.736409204394249, 454.039339806022213 ], [ 701.331115002650108, 463.191325129958784 ], [ 690.301799355415369, 437.143366895921417 ] ] ] } },
{ "type": "Feature", "properties": { "feature_type": "building", "subtype": "major-damage", "uid": "ba848f46-d463-4995-9b42-8f96a61d054a" }, "geometry": { "type": "Polygon", "coordinates": [ [ [ 713.060520296635787, 412.309929330357193 ], [ 727.899189117979063, 407.555792720039676 ], [ 741.585339973421355, 434.928094427197379 ], [ 744.898829128712805, 448.758310028733888 ], [ 727.899189120845676, 453.656511388504612 ], [ 713.060520296635787, 412.309929330357193 ] ] ] } },
{ "type": "Feature", "properties": { "feature_type": "building", "subtype": "major-damage", "uid": "aeb0360d-75d3-4a92-8891-6f3f042883a5" }, "geometry": { "type": "Polygon", "coordinates": [ [ [ 731.888516054918341, 407.790459010499376 ], [ 734.704511542114915, 405.678462394368808 ], [ 733.061847508649066, 401.454469167092782 ], [ 745.733827190471402, 397.934474813189809 ], [ 759.813804613804336, 425.155764498528299 ], [ 768.965789944030917, 460.12104176903398 ], [ 751.365818159443165, 466.691697901903126 ], [ 749.019155254536486, 456.131714832217597 ], [ 744.091163158251902, 435.715747567216681 ], [ 731.888516054918341, 407.790459010499376 ] ] ] } },
{ "type": "Feature", "properties": { "feature_type": "building", "subtype": "major-damage", "uid": "017406da-dfa9-4308-a9fb-d4382314fecb" }, "geometry": { "type": "Polygon", "coordinates": [ [ [ 746.145019369910756, 392.028505847759789 ], [ 765.818807513972615, 386.880224839526875 ], [ 774.460564927892051, 406.921747341559808 ], [ 780.895916187557191, 427.698738558769719 ], [ 783.102322338072554, 442.224245694981221 ], [ 767.657479304718436, 447.188659525915511 ], [ 762.876932654886218, 430.456746242179008 ], [ 759.567323431294426, 419.976317045423173 ], [ 753.499706527161038, 403.7960052975709 ], [ 748.167558341257973, 396.073583785221388 ], [ 746.145019369910756, 392.028505847759789 ] ] ] } },
{ "type": "Feature", "properties": { "feature_type": "building", "subtype": "major-damage", "uid": "bdeecf5f-fe74-4b05-bc0c-77ea45449e73" }, "geometry": { "type": "Polygon", "coordinates": [ [ [ 792.235219520509872, 412.092975280416908 ], [ 795.520547587316855, 409.980978664286226 ], [ 800.683205974434941, 407.634315762681297 ], [ 812.416520498905925, 407.164983180764978 ], [ 814.059184528508126, 414.439638185012996 ], [ 827.904495663375769, 411.154310117581417 ], [ 834.709818087075405, 429.692947061896575 ], [ 799.040541941343008, 441.426261583880091 ], [ 792.235219520509872, 412.092975280416908 ] ] ] } },
{ "type": "Feature", "properties": { "feature_type": "building", "subtype": "major-damage", "uid": "f84c9100-9fbb-43be-ab33-3c1ca8be44fe" }, "geometry": { "type": "Polygon", "coordinates": [ [ [ 847.539143084328998, 0.01040825633303 ], [ 844.404701916684985, 7.389591758803919 ], [ 823.398103684053012, 7.389591758803919 ], [ 824.033743287575817, 0.010728077863978 ], [ 847.539143084328998, 0.01040825633303 ] ] ] } },
{ "type": "Feature", "properties": { "feature_type": "building", "subtype": "major-damage", "uid": "71eecabe-65c2-4fff-a830-9e2335e94afa" }, "geometry": { "type": "Polygon", "coordinates": [ [ [ 819.578109752509476, 0.010786095893009 ], [ 818.942158605872919, 11.208973253925571 ], [ 797.298996787439023, 11.527255047262919 ], [ 796.399481217200446, 0.011074518950839 ], [ 819.578109752509476, 0.010786095893009 ] ] ] } },
{ "type": "Feature", "properties": { "feature_type": "building", "subtype": "major-damage", "uid": "3b06486a-93fc-4d46-9414-c1ee60a7338b" }, "geometry": { "type": "Polygon", "coordinates": [ [ [ 899.163962577943948, 0.009624705347539 ], [ 899.359257488819594, 18.343432740638178 ], [ 892.715745542098489, 18.148035330313949 ], [ 893.301937773756435, 24.986944682688488 ], [ 868.486466689012104, 24.596149865031212 ], [ 868.291069279685075, 15.217074178441671 ], [ 860.670570285019835, 15.80326641140848 ], [ 860.280028267957505, 0.010225239657423 ], [ 899.163962577943948, 0.009624705347539 ] ] ] } },
{ "type": "Feature", "properties": { "feature_type": "building", "subtype": "major-damage", "uid": "1e63fee3-97d7-4c1d-a915-eebfc08c3720" }, "geometry": { "type": "Polygon", "coordinates": [ [ [ 967.639812476641282, 0.008413376961857 ], [ 967.889020966161183, 12.081708532852611 ], [ 945.195248783026386, 12.829854869861791 ], [ 944.198408285966025, 0.008850129912363 ], [ 967.639812476641282, 0.008413376961857 ] ] ] } },
{ "type": "Feature", "properties": { "feature_type": "building", "subtype": "un-classified", "uid": "453d9ab2-3687-4e4c-b993-9fe21689074d" }, "geometry": { "type": "Polygon", "coordinates": [ [ [ 953.674240588044199, 15.82244021091909 ], [ 954.921151150120295, 27.543399471120701 ], [ 961.405086055616948, 27.044635246115561 ], [ 960.656939722284733, 57.219870782651377 ], [ 923.499005051334734, 57.469252895652467 ], [ 923.249622939891651, 20.810082450999879 ], [ 931.728614741170531, 20.560700335007589 ], [ 931.22985051797275, 15.32367598990219 ], [ 953.674240588044199, 15.82244021091909 ] ] ] } },
{ "type": "Feature", "properties": { "feature_type": "building", "subtype": "un-classified", "uid": "3a841899-0fb3-48a9-a764-e33d9492862f" }, "geometry": { "type": "Polygon", "coordinates": [ [ [ 1022.472708869384974, 65.364912651273642 ], [ 1006.176215822356994, 65.073903323816594 ], [ 1006.176215825099007, 51.706068085406947 ], [ 995.036353122108494, 52.342631665102218 ], [ 994.081507748141576, 26.56180655932145 ], [ 1004.584806865766041, 26.243524769972339 ], [ 1003.948243281647024, 17.968198195048451 ], [ 1022.472817096891049, 17.380117077359149 ], [ 1022.472708869384974, 65.364912651273642 ] ] ] } },
{ "type": "Feature", "properties": { "feature_type": "building", "subtype": "major-damage", "uid": "c53f0e37-0e26-4ecd-9956-12d75eb30535" }, "geometry": { "type": "Polygon", "coordinates": [ [ [ 1016.558703686060994, 67.937927187459195 ], [ 1016.711802668838004, 70.234411942003447 ], [ 1016.252505717331019, 113.255226355963103 ], [ 995.737241902113738, 113.561424325628593 ], [ 995.890340888192668, 106.671970059004707 ], [ 985.785807963703292, 106.671970057010597 ], [ 985.173412031538874, 79.114152997494344 ], [ 993.746955114930188, 78.961054013658639 ], [ 993.900054099638169, 67.17243227027484 ], [ 1007.372764664522947, 67.32553125411053 ], [ 1016.558703686060994, 67.937927187459195 ] ] ] } },
{ "type": "Feature", "properties": { "feature_type": "building", "subtype": "major-damage", "uid": "fcdd64b5-b882-4606-a268-0c15899144e2" }, "geometry": { "type": "Polygon", "coordinates": [ [ [ 834.840126687713678, 383.995208951426775 ], [ 838.552677482813124, 397.868425071485376 ], [ 829.95519143808508, 397.477630248842786 ], [ 834.058537047289519, 409.396872266656089 ], [ 818.03594941840754, 411.546243777231496 ], [ 815.886577907583842, 405.098129243511323 ], [ 805.530515169128421, 405.879718883811222 ], [ 803.967335892330652, 392.006502765746689 ], [ 811.783232295512789, 390.247926073825681 ], [ 811.197040065973624, 387.903157154920223 ], [ 827.805819923086233, 385.167593413372174 ], [ 834.840126687713678, 383.995208951426775 ] ] ] } },
{ "type": "Feature", "properties": { "feature_type": "building", "subtype": "major-damage", "uid": "cce095b7-71b3-4a99-b948-3da7dd2bac2c" }, "geometry": { "type": "Polygon", "coordinates": [ [ [ 802.633947097563919, 395.172111480266778 ], [ 803.738595530804901, 406.292239036961519 ], [ 790.114598190884863, 407.028671322631794 ], [ 789.525452360566646, 395.024825023731012 ], [ 802.633947097563919, 395.172111480266778 ] ] ] } },
{ "type": "Feature", "properties": { "feature_type": "building", "subtype": "major-damage", "uid": "5f1c8f6b-c2fe-4d07-8e75-86462392d614" }, "geometry": { "type": "Polygon", "coordinates": [ [ [ 789.588936613717351, 376.695937395692511 ], [ 809.702688582914334, 376.038010933406383 ], [ 810.36061504949987, 383.181212566244426 ], [ 804.909224328570076, 383.369191555611508 ], [ 805.379171804916268, 387.03478186870808 ], [ 794.57037985879947, 386.846802878344022 ], [ 794.664369355664007, 392.8621305719887 ], [ 789.400957622169358, 393.238088551719784 ], [ 789.588936613717351, 376.695937395692511 ] ] ] } },
{ "type": "Feature", "properties": { "feature_type": "building", "subtype": "major-damage", "uid": "5f208789-9f51-497e-af11-52f1edeabc55" }, "geometry": { "type": "Polygon", "coordinates": [ [ [ 812.710352430296211, 374.816147498034013 ], [ 817.503816684391154, 374.440189516308806 ], [ 818.819669616253691, 378.199769321596307 ], [ 820.981428006810688, 377.447853361136993 ], [ 819.383606591832518, 370.774599202215086 ], [ 825.210955290561401, 369.740714756209684 ], [ 827.748671660786954, 383.181212566244426 ], [ 814.590142334621646, 385.248981460249297 ], [ 812.710352430296211, 374.816147498034013 ] ] ] } },
{ "type": "Feature", "properties": { "feature_type": "building", "subtype": "major-damage", "uid": "6ab369a2-a218-4ea8-87a8-c6926dee85bb" }, "geometry": { "type": "Polygon", "coordinates": [ [ [ 786.391818544957232, 322.116286516465209 ], [ 832.701004740056987, 313.909595292818096 ], [ 838.367529636154472, 346.540962780073414 ], [ 809.057918118503949, 351.425898030202688 ], [ 806.713149195922824, 334.230925945599779 ], [ 788.736587463861611, 336.575694866499418 ], [ 786.391818544957232, 322.116286516465209 ] ] ] } },
{ "type": "Feature", "properties": { "feature_type": "building", "subtype": "major-damage", "uid": "fae67123-3125-482f-8a62-83a89a3f99fe" }, "geometry": { "type": "Polygon", "coordinates": [ [ [ 843.545062321122032, 294.863654820621775 ], [ 843.951279503864043, 309.081256191800492 ], [ 810.641470576777351, 312.737210832866822 ], [ 784.2373537409145, 315.580731107700785 ], [ 784.06999613199082, 290.540001973224321 ], [ 799.288069958104757, 290.238685020887374 ], [ 815.951732782335171, 287.800100219188721 ], [ 842.429996135842885, 285.390001973617018 ], [ 843.545062321122032, 294.863654820621775 ] ] ] } },
{ "type": "Feature", "properties": { "feature_type": "building", "subtype": "major-damage", "uid": "be3dbc4d-7144-4e83-b159-f71753ef2ed8" }, "geometry": { "type": "Polygon", "coordinates": [ [ [ 842.369996134841358, 284.900001970682581 ], [ 815.89285509951992, 287.3033908707514 ], [ 799.246708996352027, 289.739412249496922 ], [ 784.069996135480551, 290.040001973872222 ], [ 783.939996134131093, 270.610001973069473 ], [ 800.898224275878533, 271.553775214117309 ], [ 824.47266212109173, 269.115040264882111 ], [ 840.409996135256165, 268.230001973202718 ], [ 842.369996134841358, 284.900001970682581 ] ] ] } },
{ "type": "Feature", "properties": { "feature_type": "building", "subtype": "major-damage", "uid": "c8da67d8-eb52-4537-bfa7-690587a33e5f" }, "geometry": { "type": "Polygon", "coordinates": [ [ [ 840.295324863920996, 267.240886439511712 ], [ 840.349996138305187, 267.730001970859519 ], [ 824.433047408887319, 268.616470072091374 ], [ 800.886292134595124, 271.052341309283008 ], [ 783.939996131762996, 270.110001974714578 ], [ 783.831136559231709, 253.023285069330086 ], [ 783.609996136194013, 251.720001973242006 ], [ 803.327442804477755, 252.054633522150112 ], [ 822.450634165041834, 252.054633523147203 ], [ 839.859996134934704, 247.980001973023889 ], [ 840.295324863920996, 267.240886439511712 ] ] ] } },
{ "type": "Feature", "properties": { "feature_type": "building", "subtype": "major-damage", "uid": "91437ede-30ae-469d-9aeb-c6cb170f93a8" }, "geometry": { "type": "Polygon", "coordinates": [ [ [ 839.849996137021549, 247.470001972268989 ], [ 822.39290354574166, 251.554633523795189 ], [ 803.331679791361125, 251.554633523795189 ], [ 783.519996132604092, 251.220001973889993 ], [ 781.800050644711064, 241.242986790866297 ], [ 783.424919374807132, 233.931077512721799 ], [ 799.267389474517586, 233.524860329605588 ], [ 826.89015785779668, 231.49377442200111 ], [ 839.482890500742542, 231.087557237887808 ], [ 839.849996137021549, 247.470001972268989 ] ] ] } },
{ "type": "Feature", "properties": { "feature_type": "building", "subtype": "major-damage", "uid": "0eb7c3ec-0d54-445d-bc24-e81fd7468a5e" }, "geometry": { "type": "Polygon", "coordinates": [ [ [ 840.089996134796024, 209.440001969448303 ], [ 841.421909942891034, 228.798951728317292 ], [ 827.744091233287349, 229.385143959289906 ], [ 810.353721733756515, 231.534515468868193 ], [ 793.354147052879853, 231.729912879192511 ], [ 793.869996133032942, 214.860001973032894 ], [ 797.891093255455644, 213.224214102730997 ], [ 805.648817689807629, 213.612100324610793 ], [ 813.78929761564234, 214.207745196979289 ], [ 817.518118735010262, 209.4976553600182 ], [ 827.356610575766581, 208.533097335802012 ], [ 840.089996134796024, 209.440001969448303 ] ] ] } },
{ "type": "Feature", "properties": { "feature_type": "building", "subtype": "major-damage", "uid": "97f7176f-68e4-4026-8884-608897994f49" }, "geometry": { "type": "Polygon", "coordinates": [ [ [ 818.059996133621098, 208.940001972090414 ], [ 817.25793825907806, 209.020766075640807 ], [ 813.561657797345447, 213.689751923275111 ], [ 805.679550093238731, 213.113012334695298 ], [ 797.805481713125346, 212.719308918269292 ], [ 793.889996133221416, 214.310001975640091 ], [ 793.940339282419018, 212.5809666913473 ], [ 791.400172950884667, 193.432020501507992 ], [ 792.377160000947583, 192.259636038565588 ], [ 815.259996137276062, 190.200001973364692 ], [ 818.059996133621098, 208.940001972090414 ] ] ] } },
{ "type": "Feature", "properties": { "feature_type": "building", "subtype": "major-damage", "uid": "76487e48-a3da-4c14-8397-20c2564beb05" }, "geometry": { "type": "Polygon", "coordinates": [ [ [ 841.812704760672773, 188.156290424747908 ], [ 851.191780447382826, 188.742482653726512 ], [ 851.191780447320525, 208.868415897180995 ], [ 840.054128071307559, 208.868415897180995 ], [ 840.059996137379926, 208.940001973087504 ], [ 827.349982248140577, 208.031349996614694 ], [ 818.559996137646635, 208.890001973052591 ], [ 815.759996133512004, 190.150001974326898 ], [ 816.215644035442097, 190.110264527990211 ], [ 815.434054396264287, 184.639137044894113 ], [ 841.226512533750906, 183.466752582948686 ], [ 841.812704760672773, 188.156290424747908 ] ] ] } },
{ "type": "Feature", "properties": { "feature_type": "building", "subtype": "major-damage", "uid": "268c077a-3f0f-4d48-8c05-0f03de65a4d4" }, "geometry": { "type": "Polygon", "coordinates": [ [ [ 786.919802726237208, 188.6962495741071 ], [ 757.319596123166775, 208.111438850032187 ], [ 755.091623586444712, 208.748002432718607 ], [ 743.019996133261543, 193.750001973849095 ], [ 751.139614434431451, 182.182977699901613 ], [ 768.279996130595578, 167.850001971719905 ], [ 786.919802726237208, 188.6962495741071 ] ] ] } },
{ "type": "Feature", "properties": { "feature_type": "building", "subtype": "major-damage", "uid": "730b8a76-0f0a-4a8d-9275-16b8f8126c9a" }, "geometry": { "type": "Polygon", "coordinates": [ [ [ 767.949996130290515, 167.480001974652197 ], [ 750.768306157181541, 181.841686211897013 ], [ 742.689996130276995, 193.340001972166903 ], [ 734.085025349949206, 182.648895536591709 ], [ 731.17999612907613, 179.740001974636812 ], [ 741.281395366039305, 163.395052728327897 ], [ 753.979996130775817, 151.850001973511297 ], [ 767.949996130290515, 167.480001974652197 ] ] ] } },
{ "type": "Feature", "properties": { "feature_type": "building", "subtype": "major-damage", "uid": "09f325f5-d1ba-48b1-98df-d151a7339e54" }, "geometry": { "type": "Polygon", "coordinates": [ [ [ 743.951760883828229, 140.63569907130929 ], [ 753.649996134334401, 151.480001976443504 ], [ 740.893054154824313, 163.072359794999386 ], [ 730.809996130201398, 179.380001973986708 ], [ 715.624681447127159, 164.188551635693301 ], [ 714.369996130533764, 161.280001974311887 ], [ 725.030781129673755, 151.63524541487331 ], [ 732.950536868755989, 143.081909220182808 ], [ 745.059996131170237, 139.230001976864713 ], [ 743.951760883828229, 140.63569907130929 ] ] ] } },
{ "type": "Feature", "properties": { "feature_type": "building", "subtype": "major-damage", "uid": "65cec0a7-f9c2-4297-b924-1b212bf1d1d1" }, "geometry": { "type": "Polygon", "coordinates": [ [ [ 747.452860588602221, 136.179753991507113 ], [ 745.609996130930881, 138.530001973384799 ], [ 732.673259497281833, 142.645434006226196 ], [ 724.678925664162193, 151.279314541078804 ], [ 714.159996128679722, 160.800001975771494 ], [ 706.394509494376393, 142.86367161470011 ], [ 709.895609201144453, 139.362571905936392 ], [ 709.649996128063094, 137.020001974922991 ], [ 719.598377663226529, 129.374259018657511 ], [ 734.929996129698452, 117.110001973585696 ], [ 747.452860588602221, 136.179753991507113 ] ] ] } },
{ "type": "Feature", "properties": { "feature_type": "building", "subtype": "major-damage", "uid": "15864387-a994-4103-a845-26a4d91a5ab0" }, "geometry": { "type": "Polygon", "coordinates": [ [ [ 726.127980562383755, 103.715011266521401 ], [ 734.649996131983244, 116.690001973491903 ], [ 719.289748227187943, 128.980850144257602 ], [ 709.589996130364398, 136.4400019763128 ], [ 707.031073080801548, 111.6720560560845 ], [ 706.889996128355961, 111.090001974567599 ], [ 726.299996128899352, 102.780001975346494 ], [ 726.127980562383755, 103.715011266521401 ] ] ] } },
{ "type": "Feature", "properties": { "feature_type": "building", "subtype": "major-damage", "uid": "8e07fcef-96fb-491f-ba7d-d0bf20181716" }, "geometry": { "type": "Polygon", "coordinates": [ [ [ 728.03767131150164, 93.211712152194977 ], [ 726.409996129001001, 102.190001975333502 ], [ 706.779996129936762, 110.600001978612596 ], [ 700.028873666766913, 82.071849454184985 ], [ 724.536571604235064, 72.205113921547905 ], [ 728.03767131150164, 93.211712152194977 ] ] ] } },
{ "type": "Feature", "properties": { "feature_type": "building", "subtype": "destroyed", "uid": "44e23e01-f29a-4700-a008-005621ef7598" }, "geometry": { "type": "Polygon", "coordinates": [ [ [ 203.305511613002409, 165.251863416483502 ], [ 221.759787892880496, 173.481473109625711 ], [ 244.453560072525505, 186.199960816846414 ], [ 222.507934230076188, 228.594919833603711 ], [ 204.303040059771689, 218.869017472425497 ], [ 218.019056212073707, 187.9456355988805 ], [ 208.293153848033313, 180.464172245738808 ], [ 199.315397823556793, 198.17030218805499 ], [ 188.841349121136602, 193.182659951962393 ], [ 200.063544158010586, 169.990123542566209 ], [ 203.305511613002409, 165.251863416483502 ] ] ] } },
{ "type": "Feature", "properties": { "feature_type": "building", "subtype": "destroyed", "uid": "634b1d82-cec7-49fc-8652-b9b8930fdea8" }, "geometry": { "type": "Polygon", "coordinates": [ [ [ 270.837880880746525, 244.492472933407612 ], [ 247.277284322769901, 240.024083929099987 ], [ 254.589193598106903, 212.807532730108989 ], [ 285.055482253414482, 219.713224826134308 ], [ 289.117654073108497, 204.276971907601194 ], [ 307.397427267713908, 211.182664001632389 ], [ 287.492785348247025, 270.08415539993382 ], [ 265.150840330831784, 263.990897670140896 ], [ 270.837880880746525, 244.492472933407612 ] ] ] } },
{ "type": "Feature", "properties": { "feature_type": "building", "subtype": "destroyed", "uid": "9d015ce0-1922-4cc4-861c-3a52a9882bc8" }, "geometry": { "type": "Polygon", "coordinates": [ [ [ 189.20727370300429, 150.171181608915305 ], [ 193.197387495939608, 165.383490433185301 ], [ 170.503615313988803, 170.869896896277112 ], [ 156.787599158197196, 121.991002965420705 ], [ 174.49372910056789, 118.250271287354195 ], [ 173.49620065361151, 114.509539610284804 ], [ 181.227046124549389, 112.5144827152495 ], [ 182.473956682325593, 114.758921720294694 ], [ 195.940590723994603, 112.514482714252495 ], [ 198.933176066483895, 122.988531411442693 ], [ 194.194915939530887, 124.734206198462203 ], [ 201.177615074332294, 147.677360488874911 ], [ 189.20727370300429, 150.171181608915305 ] ] ] } },
{ "type": "Feature", "properties": { "feature_type": "building", "subtype": "destroyed", "uid": "43d28760-47c0-4d70-bef3-c3851783d59b" }, "geometry": { "type": "Polygon", "coordinates": [ [ [ 149.953619396951694, 71.82312189530289 ], [ 166.775546914959904, 68.299438653034883 ], [ 164.073728659276696, 52.478778295139357 ], [ 181.571471836997887, 50.345460455654063 ], [ 180.616626461473004, 47.799206127899431 ], [ 179.025217503262013, 35.386216260528293 ], [ 194.621025284930994, 35.386216261525348 ], [ 196.848997827572987, 56.777521314295953 ], [ 190.987075524017996, 56.582123904968782 ], [ 191.182472930852413, 63.616430672652861 ], [ 182.389589474304699, 64.202622899637305 ], [ 185.125153215851611, 101.328130822355803 ], [ 152.102990906342086, 105.040681614527998 ], [ 149.953619396951694, 71.82312189530289 ] ] ] } },
{ "type": "Feature", "properties": { "feature_type": "building", "subtype": "destroyed", "uid": "9dd6b12b-31a4-49d7-8cc9-a074679835b2" }, "geometry": { "type": "Polygon", "coordinates": [ [ [ 178.692338969340511, 47.965858197697713 ], [ 158.519239642394211, 54.317533272933019 ], [ 156.184339103076098, 53.563167350167959 ], [ 153.597143755559898, 49.751658606156482 ], [ 160.270397914790493, 45.146173338248261 ], [ 164.0299777223197, 42.608456969330227 ], [ 176.154622602916305, 35.277276345131099 ], [ 178.692338969340511, 47.965858197697713 ] ] ] } },
{ "type": "Feature", "properties": { "feature_type": "building", "subtype": "destroyed", "uid": "cef63de7-7ad5-4594-a815-8b6eb7a9cb2f" }, "geometry": { "type": "Polygon", "coordinates": [ [ [ 159.026946969398296, 0.010199455639297 ], [ 154.929781007891506, 6.771211582178214 ], [ 156.102165468901688, 9.311377911407911 ], [ 172.7109453295663, 34.126848993670478 ], [ 155.320575828602102, 46.6322832434536 ], [ 141.642757118562201, 28.069529280598751 ], [ 134.022258124457892, 32.759067126386171 ], [ 112.333145601036307, 8.920583091756511 ], [ 122.092473849697697, 0.009627821165661 ], [ 159.026946969398296, 0.010199455639297 ] ] ] } },
{ "type": "Feature", "properties": { "feature_type": "building", "subtype": "major-damage", "uid": "22ca13d9-6187-4850-baef-6bdaebd45302" }, "geometry": { "type": "Polygon", "coordinates": [ [ [ 26.62122000430929, 114.571705372530204 ], [ 25.62369155392555, 94.122372196175419 ], [ 45.32487839637826, 92.626079525148242 ], [ 45.574260508195238, 85.643380393023378 ], [ 35.100211807893807, 86.391526725047257 ], [ 34.352065471071903, 68.186632560717101 ], [ 77.993935053127032, 67.189104112700946 ], [ 80.737138281742858, 111.828502139488705 ], [ 26.62122000430929, 114.571705372530204 ] ] ] } },
{ "type": "Feature", "properties": { "feature_type": "building", "subtype": "major-damage", "uid": "b9f501a3-1014-4c3c-b5cf-f1de5250dfc0" }, "geometry": { "type": "Polygon", "coordinates": [ [ [ 23.94286789980524, 119.570815724698207 ], [ 29.03537656378727, 119.252533932357906 ], [ 47.814002257329193, 117.024561392955306 ], [ 80.597026774204409, 115.751434228579498 ], [ 86.962662600879185, 164.130266523717609 ], [ 66.592627950310259, 165.403393688093388 ], [ 61.181837497727059, 157.764630696853089 ], [ 46.222593299118166, 159.99260323625569 ], [ 45.267747927643882, 164.448548313066709 ], [ 28.398812980353309, 167.313084437149911 ], [ 23.94286789980524, 119.570815724698207 ] ] ] } },
{ "type": "Feature", "properties": { "feature_type": "building", "subtype": "destroyed", "uid": "8e4333ad-f610-4423-a864-91ec46ff711d" }, "geometry": { "type": "Polygon", "coordinates": [ [ [ 87.020737673872731, 171.392296768355806 ], [ 89.566992007608604, 213.723775028969698 ], [ 50.736613452971348, 214.042056821310013 ], [ 50.418331665055668, 219.452847274144801 ], [ 22.40953401614566, 221.044256231857986 ], [ 23.046097602196919, 205.448448452051707 ], [ 57.420531071051528, 200.992503374243597 ], [ 54.555994948278283, 171.07401497701261 ], [ 87.020737673872731, 171.392296768355806 ] ] ] } },
{ "type": "Feature", "properties": { "feature_type": "building", "subtype": "major-damage", "uid": "6ff11d59-dfb6-445c-8c9d-275f326f3fbf" }, "geometry": { "type": "Polygon", "coordinates": [ [ [ 34.678882929068827, 225.703109351216909 ], [ 67.098557479110553, 225.204345129202892 ], [ 86.300980092320827, 224.954963013210687 ], [ 86.799744316515643, 267.599304142969004 ], [ 54.62945188053429, 268.098068372959517 ], [ 29.19247646678955, 269.59436104298959 ], [ 28.69371224384107, 251.638848985678209 ], [ 43.906021073027283, 250.890702651660092 ], [ 49.641809643259933, 252.386995320693188 ], [ 50.389955978648551, 256.875873334771825 ], [ 57.622037226887151, 258.122783894792008 ], [ 54.629451879973438, 242.162328734509998 ], [ 36.424557711351483, 240.666036064479812 ], [ 34.678882929068827, 225.703109351216909 ] ] ] } },
{ "type": "Feature", "properties": { "feature_type": "building", "subtype": "major-damage", "uid": "c9568267-a71f-4216-a875-745aa3d1e75d" }, "geometry": { "type": "Polygon", "coordinates": [ [ [ 36.701776200904838, 273.359281543001089 ], [ 50.106943207839301, 270.921978450286304 ], [ 64.324544582314445, 273.765498724123177 ], [ 62.699675852966173, 293.670140643972672 ], [ 84.635403686829108, 292.85770628073152 ], [ 85.447838050506178, 316.418302838656189 ], [ 35.483124657352199, 318.855605932368121 ], [ 36.701776200904838, 273.359281543001089 ] ] ] } },
{ "type": "Feature", "properties": { "feature_type": "building", "subtype": "major-damage", "uid": "1ba853f9-5df3-4919-bcaf-8bc19dbf11e3" }, "geometry": { "type": "Polygon", "coordinates": [ [ [ 35.446100638115119, 371.630571668791617 ], [ 36.400946007346022, 390.090915568692878 ], [ 19.532011063545159, 391.045760944716676 ], [ 17.622320316795289, 388.181224821630622 ], [ 18.57716568883043, 370.357444501424595 ], [ 35.446100638115119, 371.630571668791617 ] ] ] } },
{ "type": "Feature", "properties": { "feature_type": "building", "subtype": "major-damage", "uid": "a9511e1c-87f5-45dd-9e3c-318c9e9bcb8a" }, "geometry": { "type": "Polygon", "coordinates": [ [ [ 25.579365098939171, 320.391903179538019 ], [ 39.90204571417641, 321.346748553567693 ], [ 78.414142475414138, 324.529566467 ], [ 77.459297101384877, 373.544962341833411 ], [ 39.265482131178658, 369.725580848705818 ], [ 36.082664217436211, 366.861044725619706 ], [ 35.764382424722157, 360.813690690098383 ], [ 32.581564510730452, 346.809291867008199 ], [ 30.035310178926391, 339.807092453469011 ], [ 23.66967435493121, 337.260838124717282 ], [ 25.579365098939171, 320.391903179538019 ] ] ] } },
{ "type": "Feature", "properties": { "feature_type": "building", "subtype": "major-damage", "uid": "8957139c-4bf1-4b68-9c08-8f1d78e130a4" }, "geometry": { "type": "Polygon", "coordinates": [ [ [ 55.789380403566078, 581.849311630944044 ], [ 21.66713710657061, 579.412008537232168 ], [ 22.88578865286517, 549.758154246523418 ], [ 0.950060820809412, 544.071113697852525 ], [ 1.833779566691819, 524.872422793687178 ], [ 16.194209193341209, 526.639860283084772 ], [ 15.899636278400189, 537.391771698938442 ], [ 15.973279507166611, 538.422776899674545 ], [ 23.509495940992529, 539.182459294544287 ], [ 24.274990854749142, 537.192172505677377 ], [ 43.718561783178977, 538.723162342040155 ], [ 58.754737843914477, 539.73563513417696 ], [ 55.789380403566078, 581.849311630944044 ] ] ] } },
{ "type": "Feature", "properties": { "feature_type": "building", "subtype": "major-damage", "uid": "87dda51e-1d9f-4842-af58-e01f9c72e9ce" }, "geometry": { "type": "Polygon", "coordinates": [ [ [ 56.747567706899893, 529.098726636903052 ], [ 13.10569812397234, 524.609848620830348 ], [ 14.35260868368041, 510.644450357577682 ], [ 31.809356515605099, 511.143214582582914 ], [ 35.550088192610552, 483.711182276097418 ], [ 60.238917270281178, 488.200060290175884 ], [ 57.495714040045129, 512.390125142603097 ], [ 56.747567706899893, 529.098726636903052 ] ] ] } },
{ "type": "Feature", "properties": { "feature_type": "building", "subtype": "major-damage", "uid": "e889a934-d1fb-44c1-8d3e-d74c57ae0166" }, "geometry": { "type": "Polygon", "coordinates": [ [ [ 64.697444271522244, 437.807870675777906 ], [ 64.697444270587496, 436.890001990648727 ], [ 70.846266607735302, 437.73881283751092 ], [ 72.959996103063816, 448.550001991211388 ], [ 72.66999610675002, 462.520001988800516 ], [ 67.579996103784438, 463.680001989012112 ], [ 67.453225978507106, 463.222301968573902 ], [ 61.176167650219917, 463.528499934251215 ], [ 61.941662565409807, 476.082616595816376 ], [ 60.104474759880802, 475.776418628144995 ], [ 33.618350582116143, 474.551626759453484 ], [ 14.480977624099481, 473.020636924087682 ], [ 14.940274572552861, 455.261154818091313 ], [ 23.666916644204221, 455.720451769598412 ], [ 27.953688186367231, 455.720451769598412 ], [ 28.10678716976664, 443.472533071716327 ], [ 35.149340419226093, 443.62563205854309 ], [ 35.149340422528859, 438.267167627285005 ], [ 40.814002815909753, 436.276880836423913 ], [ 56.583198135151079, 436.123781857573476 ], [ 64.697444271522244, 437.807870675777906 ] ] ] } },
{ "type": "Feature", "properties": { "feature_type": "building", "subtype": "major-damage", "uid": "94de3c0b-51a2-4ccb-b659-946c5020baec" }, "geometry": { "type": "Polygon", "coordinates": [ [ [ 32.024692585380208, 438.694676190699226 ], [ 14.8708330386703, 440.733946207884173 ], [ 13.671262442375779, 423.340172537582987 ], [ 2.449067404130743, 420.596969308529822 ], [ 4.19474218647571, 410.372302721349513 ], [ 20.155197348433269, 412.616741728388718 ], [ 20.653961573188919, 417.105619741470321 ], [ 32.125538722939353, 417.355001854471425 ], [ 35.367506175313771, 417.853766076485272 ], [ 33.871213503477144, 398.651343462144894 ], [ 44.594644314785448, 398.401961351137913 ], [ 46.589701208261907, 381.69335985484372 ], [ 60.555099475932892, 377.703246064773225 ], [ 76.266172524640183, 383.937798861882982 ], [ 75.51802619012399, 402.641457251218412 ], [ 77.014318862708421, 416.856237629466193 ], [ 75.019261967736355, 427.330286327653482 ], [ 47.836611769714843, 425.335229431621201 ], [ 48.085993880784017, 433.315457013756372 ], [ 32.024692585380208, 438.694676190699226 ] ] ] } },
{ "type": "Feature", "properties": { "feature_type": "building", "subtype": "major-damage", "uid": "f38baf29-e0db-4996-8461-0f4b6c3fbc26" }, "geometry": { "type": "Polygon", "coordinates": [ [ [ 154.926672483837109, 436.327879075788019 ], [ 156.518081438558397, 424.551452796088597 ], [ 174.341861760999905, 422.960043837378407 ], [ 191.210796705735504, 430.598806830612773 ], [ 187.391415207873592, 472.293721506546092 ], [ 166.703098765026908, 471.975439714205777 ], [ 136.784610371236511, 470.702312550827116 ], [ 141.558837241881292, 435.373033701758288 ], [ 150.789009193074207, 436.646160871119378 ], [ 154.926672483837109, 436.327879075788019 ] ] ] } },
{ "type": "Feature", "properties": { "feature_type": "building", "subtype": "major-damage", "uid": "03c6dc0a-ffd5-4edd-a7dd-fcd3a04f9c2b" }, "geometry": { "type": "Polygon", "coordinates": [ [ [ 192.266611219229588, 423.102861455950915 ], [ 177.025613229400705, 421.344284763032817 ], [ 158.853654090442802, 420.953489944378418 ], [ 144.887903796892488, 420.562695124726986 ], [ 145.371232788047394, 410.597427208161889 ], [ 148.302193941476304, 385.781956125899285 ], [ 149.865373223757899, 372.690329651125921 ], [ 166.083358263774187, 374.644303748385823 ], [ 185.427701864614704, 376.654874003730981 ], [ 183.864522582333109, 390.276096560365374 ], [ 178.002600280273612, 389.689904329392675 ], [ 177.070025128345804, 405.636999201563981 ], [ 191.680418985826805, 407.080273827310975 ], [ 192.266611219229588, 423.102861455950915 ] ] ] } },
{ "type": "Feature", "properties": { "feature_type": "building", "subtype": "major-damage", "uid": "703616e2-0333-4d4a-a077-be0d11f8eb17" }, "geometry": { "type": "Polygon", "coordinates": [ [ [ 189.215791799809011, 366.798751312543288 ], [ 152.556621350623487, 366.050604978525428 ], [ 154.052914023270205, 323.655645958776915 ], [ 169.015840735654194, 324.154410180790876 ], [ 168.766458624024096, 318.917385832694322 ], [ 198.193547828959311, 318.917385834688389 ], [ 197.445401491825805, 337.122279999018474 ], [ 186.721970681639192, 337.371662113016725 ], [ 187.968881240973388, 364.30493019549408 ], [ 189.215791799809011, 366.798751312543288 ] ] ] } },
{ "type": "Feature", "properties": { "feature_type": "building", "subtype": "major-damage", "uid": "70d806fd-f133-4c4f-9acc-1582cbb7125f" }, "geometry": { "type": "Polygon", "coordinates": [ [ [ 242.494164014833501, 342.754462126737394 ], [ 243.767291181888396, 352.939479451714817 ], [ 252.679181339993306, 353.894324826741524 ], [ 252.36089954883721, 331.296317638381197 ], [ 265.410453001194696, 327.158654345933996 ], [ 280.369697194008211, 331.29631763738422 ], [ 279.733133612007521, 372.354668726642728 ], [ 216.076775326876401, 367.262160066148226 ], [ 217.349902493058892, 340.844771377681013 ], [ 242.494164014833501, 342.754462126737394 ] ] ] } },
{ "type": "Feature", "properties": { "feature_type": "building", "subtype": "major-damage", "uid": "4ef3c58c-da8b-4511-a06b-9f1fff2ee6ff" }, "geometry": { "type": "Polygon", "coordinates": [ [ [ 245.1128267563669, 396.966801674776889 ], [ 244.115298307416509, 414.174167394082076 ], [ 223.167200907623709, 411.680346277032925 ], [ 226.658550478669895, 378.013761170446287 ], [ 273.542387510980689, 381.754492849509916 ], [ 272.794241174781973, 413.426021059067011 ], [ 256.833786013198278, 414.174167393084986 ], [ 257.332550237206078, 396.966801673779798 ], [ 245.1128267563669, 396.966801674776889 ] ] ] } },
{ "type": "Feature", "properties": { "feature_type": "building", "subtype": "major-damage", "uid": "4bda0e76-1d6f-409c-b0f7-6d755bc27d3a" }, "geometry": { "type": "Polygon", "coordinates": [ [ [ 208.965508706428295, 476.794293622751127 ], [ 211.505675038274205, 446.507695056395278 ], [ 248.044990731125608, 450.024848437246192 ], [ 245.5048243997783, 479.529857362304995 ], [ 208.965508706428295, 476.794293622751127 ] ] ] } },
{ "type": "Feature", "properties": { "feature_type": "building", "subtype": "minor-damage", "uid": "be6d9b89-9852-4484-83f4-22719688d232" }, "geometry": { "type": "Polygon", "coordinates": [ [ [ 236.659902239406392, 535.286173184502331 ], [ 238.569592987651788, 519.690365403698934 ], [ 229.975984617649488, 518.73552002966926 ], [ 225.83832133187201, 535.922736768185928 ], [ 200.057496224856209, 531.466791687386603 ], [ 204.831723098866092, 508.232220918334008 ], [ 211.197358923235214, 481.496550435532413 ], [ 225.201757747129307, 480.541705062499716 ], [ 240.479283736022012, 484.361086557621377 ], [ 238.251311196371091, 496.774076423995382 ], [ 261.485881968716228, 500.275176126776785 ], [ 258.30306405852582, 537.195863932561679 ], [ 236.659902239406392, 535.286173184502331 ] ] ] } },
{ "type": "Feature", "properties": { "feature_type": "building", "subtype": "major-damage", "uid": "01666f7f-0c53-47b1-97b3-473909f1948a" }, "geometry": { "type": "Polygon", "coordinates": [ [ [ 21.369113447611699, 592.883460022142231 ], [ 37.959433442403729, 589.772775020168979 ], [ 54.549753438379767, 595.475697516973241 ], [ 52.99441093490119, 632.28547000559206 ], [ 6.852583451537722, 631.767022507423462 ], [ 7.889478449993161, 616.732045010681873 ], [ 21.369113447300119, 616.732045010681873 ], [ 21.369113447611699, 592.883460022142231 ] ] ] } },
{ "type": "Feature", "properties": { "feature_type": "building", "subtype": "major-damage", "uid": "7df83675-5925-4752-84ae-5528efc3cd73" }, "geometry": { "type": "Polygon", "coordinates": [ [ [ -0.000003898511635, 686.302043301233084 ], [ -0.00000390013186, 667.178405764354352 ], [ 12.98505375526479, 665.623063265860424 ], [ 13.50350125605042, 658.364798267571018 ], [ -0.000003899820278, 659.920140766064947 ], [ -0.000003899944911, 635.800260350975918 ], [ 30.093821250717809, 639.182240774513161 ], [ 30.09382125271194, 665.104615763703578 ], [ 42.018113746851903, 666.141510762034841 ], [ 43.055008747426093, 683.768725757595803 ], [ -0.000003898511635, 686.302043301233084 ] ] ] } },
{ "type": "Feature", "properties": { "feature_type": "building", "subtype": "major-damage", "uid": "1d4176ec-c3be-477f-b5e5-bfb5002c2896" }, "geometry": { "type": "Polygon", "coordinates": [ [ [ -0.000003897078358, 702.23058448451502 ], [ 43.684100720207887, 695.977867356133743 ], [ 48.178241155357533, 742.091656143796286 ], [ -0.000003898449318, 750.102949958116142 ], [ -0.00000389944638, 732.126388230222233 ], [ 10.2711435898632, 729.977016715658692 ], [ 7.926374668590743, 707.506314557286828 ], [ -0.000003895395817, 709.005839380615953 ], [ -0.000003897078358, 702.23058448451502 ] ] ] } },
{ "type": "Feature", "properties": { "feature_type": "building", "subtype": "major-damage", "uid": "cbcb7fab-f38d-4eef-bb66-05de0a74f3ac" }, "geometry": { "type": "Polygon", "coordinates": [ [ [ 32.282593078351468, 815.724617845833563 ], [ 22.097575753690169, 801.083655441053907 ], [ 32.919156658731929, 792.808328863138854 ], [ 21.461012170879361, 777.530802872681647 ], [ 11.91255842952739, 784.214720496871792 ], [ 3.000668267060303, 763.844685841931664 ], [ 18.278194254083409, 755.569359269001893 ], [ 23.688984708723051, 766.390940176665708 ], [ 39.284792489519589, 758.433895391090914 ], [ 65.702181180467832, 793.763174237168528 ], [ 54.244036687256049, 800.765373646719468 ], [ 32.282593078351468, 815.724617845833563 ] ] ] } },
{ "type": "Feature", "properties": { "feature_type": "building", "subtype": "major-damage", "uid": "78f88b0a-0b5b-4769-9449-327c4e0da014" }, "geometry": { "type": "Polygon", "coordinates": [ [ [ 69.277193236379929, 798.574209888019254 ], [ 91.619138251738647, 834.321321908520986 ], [ 64.402587052261069, 853.007312282013004 ], [ 69.68341041725256, 862.350307471750284 ], [ 53.028505954238859, 872.505737022734593 ], [ 38.404687401508383, 856.25704974295445 ], [ 51.403637224142798, 848.132706099574534 ], [ 45.716596676035287, 841.227014006540458 ], [ 35.967384308109139, 846.507837372095082 ], [ 20.93734856895987, 827.415629813492728 ], [ 68.870976054697181, 796.949341159542655 ], [ 69.277193236379929, 798.574209888019254 ] ] ] } },
{ "type": "Feature", "properties": { "feature_type": "building", "subtype": "destroyed", "uid": "c1ce6e94-7e51-4c45-95a7-27ce1d82fcea" }, "geometry": { "type": "Polygon", "coordinates": [ [ [ -0.000003899757962, 914.249482789314357 ], [ 0.587837491932374, 906.292438002742415 ], [ 13.63739093880608, 877.647076772878563 ], [ 28.27835334538641, 884.33099439607156 ], [ 44.192442916217388, 891.969757389306096 ], [ 25.095535435382949, 927.29903623538371 ], [ -0.000003899757962, 914.249482789314357 ] ] ] } },
{ "type": "Feature", "properties": { "feature_type": "building", "subtype": "major-damage", "uid": "52180088-1ad8-4e02-b502-34d5fe30401c" }, "geometry": { "type": "Polygon", "coordinates": [ [ [ 115.334853872225807, 1022.985517157214986 ], [ 119.668819842798499, 990.277235512160814 ], [ 134.292638396401401, 989.87101833103884 ], [ 146.479153861652691, 995.151841696593465 ], [ 142.559772761174798, 1022.985951667773975 ], [ 115.334853872225807, 1022.985517157214986 ] ] ] } },
{ "type": "Feature", "properties": { "feature_type": "building", "subtype": "major-damage", "uid": "ae1e0110-deb5-4ada-875a-e6a154d2f912" }, "geometry": { "type": "Polygon", "coordinates": [ [ [ 142.103060325214187, 955.695613975188849 ], [ 129.69007045753699, 949.329978147327324 ], [ 139.238524198702009, 929.278225290709884 ], [ 123.642716421208206, 920.684616921451607 ], [ 106.4554996860643, 946.147160231900898 ], [ 93.40594623775732, 938.826679033000801 ], [ 98.816736689343458, 928.005098124339952 ], [ 103.272681768021997, 918.774926173392259 ], [ 111.229726553157107, 922.594307670507987 ], [ 129.371788665882292, 887.901592407116937 ], [ 168.520449012361212, 910.181317803136949 ], [ 142.103060325214187, 955.695613975188849 ] ] ] } },
{ "type": "Feature", "properties": { "feature_type": "building", "subtype": "major-damage", "uid": "06701ae8-ec42-4ecc-959c-b679cf21b04d" }, "geometry": { "type": "Polygon", "coordinates": [ [ [ 152.606359438726003, 945.828878441554707 ], [ 165.655912891395104, 950.921387102049266 ], [ 188.253920081365692, 910.181317801142768 ], [ 220.400381014246108, 927.368534536668221 ], [ 219.127253848125889, 930.551352453091681 ], [ 191.755019784145503, 977.338775789519445 ], [ 173.294675885000089, 966.198913091509553 ], [ 160.881686017634507, 984.340975204055781 ], [ 138.601960618820101, 972.882830713705516 ], [ 152.606359438726003, 945.828878441554707 ] ] ] } },
{ "type": "Feature", "properties": { "feature_type": "building", "subtype": "minor-damage", "uid": "dbe0cf17-a50c-4693-b946-414d8652dc61" }, "geometry": { "type": "Polygon", "coordinates": [ [ [ 230.727832665611999, 936.701473975289105 ], [ 256.826939562786777, 950.387591008033155 ], [ 228.181578338730986, 1006.405186293414999 ], [ 193.170581279649895, 986.353433435800071 ], [ 202.400753229097887, 969.166216702268798 ], [ 213.540615931963714, 974.895288945449806 ], [ 230.727832665611999, 936.701473975289105 ] ] ] } },
{ "type": "Feature", "properties": { "feature_type": "building", "subtype": "minor-damage", "uid": "275fe2cc-fd55-4464-9fee-667fa64eabc6" }, "geometry": { "type": "Polygon", "coordinates": [ [ [ 261.700434047053818, 1022.987488472027962 ], [ 241.050042809276192, 1010.154744058245001 ], [ 260.783513875476388, 975.46202879385703 ], [ 269.058840452266224, 980.236255665999579 ], [ 280.516984948718402, 961.457629973758003 ], [ 319.029081708273623, 983.737355371772082 ], [ 306.297810050686508, 1010.791307639934985 ], [ 278.607294200161391, 995.832063444808796 ], [ 265.719954693068075, 1022.987529967746013 ], [ 261.700434047053818, 1022.987488472027962 ] ] ] } },
{ "type": "Feature", "properties": { "feature_type": "building", "subtype": "minor-damage", "uid": "874f585e-df2f-4c29-aaf9-8d65a19f9b3d" }, "geometry": { "type": "Polygon", "coordinates": [ [ [ 350.025393893687124, 877.790379528819471 ], [ 331.072353391421416, 912.703875191437987 ], [ 287.430483807808287, 891.007631458054107 ], [ 308.129199094537796, 853.101550454378412 ], [ 350.025393893687124, 877.790379528819471 ] ] ] } },
{ "type": "Feature", "properties": { "feature_type": "building", "subtype": "minor-damage", "uid": "71740a31-8ed7-449e-ad4a-8db6463a10d2" }, "geometry": { "type": "Polygon", "coordinates": [ [ [ 354.483482291680218, 879.266443389305095 ], [ 380.668604040501975, 887.745435192457194 ], [ 383.661189381558017, 881.012118171339239 ], [ 407.103107901140788, 889.740492085498317 ], [ 388.898213732705813, 936.125564898308426 ], [ 369.446409004500424, 927.895955206163421 ], [ 372.189612237291385, 918.668817067996315 ], [ 345.006962039643781, 907.446622032799837 ], [ 347.251401046619776, 889.241727865478424 ], [ 354.483482291680218, 879.266443389305095 ] ] ] } },
{ "type": "Feature", "properties": { "feature_type": "building", "subtype": "major-damage", "uid": "dd3176f9-2953-4cb0-8f48-7799667ccb8b" }, "geometry": { "type": "Polygon", "coordinates": [ [ [ 352.746999407292776, 830.224417327884794 ], [ 353.701844781945226, 823.540499707682898 ], [ 363.250298521116122, 810.490946259619363 ], [ 379.482669882480081, 796.168265644188864 ], [ 396.669886621487592, 806.353282970163377 ], [ 386.803151086985395, 822.58565433265619 ], [ 405.581776783643079, 832.770671656636409 ], [ 393.168786915342707, 853.458988100925581 ], [ 352.746999407292776, 830.224417327884794 ] ] ] } },
{ "type": "Feature", "properties": { "feature_type": "building", "subtype": "major-damage", "uid": "d8479d55-7e6d-4802-ace6-800581df788c" }, "geometry": { "type": "Polygon", "coordinates": [ [ [ 320.610504147787594, 781.466966214133322 ], [ 331.501541213483904, 764.842763991056017 ], [ 346.53157695101288, 747.37542516292433 ], [ 361.155395505799902, 757.124637533783584 ], [ 353.437269046599113, 765.835173400159647 ], [ 375.712573800806126, 784.788722182665879 ], [ 350.310910484341605, 812.339757008470656 ], [ 338.196271056645628, 802.374489095893637 ], [ 337.414681420022703, 797.489553842773262 ], [ 320.610504147787594, 781.466966214133322 ] ] ] } },
{ "type": "Feature", "properties": { "feature_type": "building", "subtype": "minor-damage", "uid": "58074ec3-d74d-41bd-bd5c-1408d7f17c42" }, "geometry": { "type": "Polygon", "coordinates": [ [ [ 217.613545067361912, 548.150947788819963 ], [ 240.425235061735407, 543.484920287355749 ], [ 262.200030051671206, 545.558710288006523 ], [ 266.347610050602896, 577.702455276158048 ], [ 249.75729005992369, 576.147112780655334 ], [ 252.867975054355298, 588.589852777580518 ], [ 230.574732561826693, 593.774327774222115 ], [ 232.648522560981007, 603.624830273325074 ], [ 200.50477756916689, 611.919990267951562 ], [ 193.764960071043106, 592.737432773896671 ], [ 223.316467564101288, 586.516062777926777 ], [ 217.613545067361912, 548.150947788819963 ] ] ] } },
{ "type": "Feature", "properties": { "feature_type": "building", "subtype": "major-damage", "uid": "f7a5547b-67c3-43c0-81c1-a0b9467e858f" }, "geometry": { "type": "Polygon", "coordinates": [ [ [ 213.239649614044197, 673.985824032523283 ], [ 194.779305709290412, 680.033178069041696 ], [ 190.641642419150713, 653.29750759222236 ], [ 203.372914077984092, 651.069535053816821 ], [ 205.91916840897801, 651.706098639494485 ], [ 215.467622150329987, 648.204998930730767 ], [ 216.104185732330706, 642.794208474904735 ], [ 220.560130812878811, 641.839363100875062 ], [ 214.512776777671689, 610.329465752910323 ], [ 259.708791159731504, 599.189603052906136 ], [ 262.891609072663925, 618.604792328831309 ], [ 244.74954696236901, 623.69730098832872 ], [ 247.932364877482314, 633.564036523957043 ], [ 269.257244901831314, 629.108091441163651 ], [ 274.031471772787711, 652.660944007541843 ], [ 222.788103356144006, 662.527679543170052 ], [ 219.605285438226304, 659.026579836400401 ], [ 211.966522445929911, 660.299706999779232 ], [ 213.876213193988491, 672.39441507580716 ], [ 213.239649614044197, 673.985824032523283 ] ] ] } },
{ "type": "Feature", "properties": { "feature_type": "building", "subtype": "major-damage", "uid": "79dea273-ba45-4a1b-8066-5c6e3e31a117" }, "geometry": { "type": "Polygon", "coordinates": [ [ [ 167.774613098797005, 490.472658451150608 ], [ 167.368395918360591, 497.378350545181775 ], [ 162.900006914553501, 527.438422021000974 ], [ 136.902107262492194, 523.782467381928768 ], [ 142.182930629477795, 486.410486632950381 ], [ 152.744577362825908, 483.566966355125317 ], [ 167.774613098797005, 490.472658451150608 ] ] ] } },
{ "type": "Feature", "properties": { "feature_type": "building", "subtype": "major-damage", "uid": "a2c193d8-7e81-4b7e-93ce-b1bb0bda24f9" }, "geometry": { "type": "Polygon", "coordinates": [ [ [ 199.865770486755594, 483.160749170014924 ], [ 195.803598663509604, 503.877825457093877 ], [ 177.523825469963612, 498.597002092536286 ], [ 170.359996109265495, 497.74000198726651 ], [ 172.369996106392989, 487.270001984144415 ], [ 179.55491137962369, 488.035355355444608 ], [ 182.804648836762311, 478.692360169695576 ], [ 199.865770486755594, 483.160749170014924 ] ] ] } },
{ "type": "Feature", "properties": { "feature_type": "building", "subtype": "major-damage", "uid": "3e7d88b0-32d9-4c0e-b639-d1e691a3e7d6" }, "geometry": { "type": "Polygon", "coordinates": [ [ [ 149.482292563003313, 580.940266209897004 ], [ 138.010715416991786, 578.446445089856638 ], [ 124.544081374201099, 580.19211987587903 ], [ 128.783577276709991, 537.298396631125456 ], [ 141.502064984049809, 535.303339735093118 ], [ 152.474877907548887, 540.290981972182749 ], [ 160.704487602806211, 540.789746195193743 ], [ 163.697072942740505, 531.313225945022623 ], [ 180.405674439214209, 533.058900729050833 ], [ 177.911853323474787, 550.765030668375857 ], [ 161.452633935265993, 549.268738001336942 ], [ 160.953869713127602, 545.278624208275232 ], [ 152.474877906427309, 545.029242098265399 ], [ 152.973642131120613, 548.271209553320773 ], [ 149.482292563003313, 580.940266209897004 ] ] ] } },
{ "type": "Feature", "properties": { "feature_type": "building", "subtype": "major-damage", "uid": "dfb4283f-d7be-4651-9669-d0aba1251478" }, "geometry": { "type": "Polygon", "coordinates": [ [ [ 123.8406073361501, 595.042927510292202 ], [ 188.77009278746371, 602.999972294869849 ], [ 186.542120247251887, 630.053924564029444 ], [ 122.567480173581998, 625.597979487218367 ], [ 123.8406073361501, 595.042927510292202 ] ] ] } },
{ "type": "Feature", "properties": { "feature_type": "building", "subtype": "major-damage", "uid": "b83bcad1-de5f-488e-8e1a-0bb6a4c94e3e" }, "geometry": { "type": "Polygon", "coordinates": [ [ [ 209.639625957799211, 692.340641899795173 ], [ 232.874196733260106, 670.060916499786913 ], [ 254.835640340606801, 696.796586978600317 ], [ 286.345537691486527, 670.697480083470396 ], [ 304.805881595118592, 696.160023396910901 ], [ 248.788286306957588, 738.491501652539455 ], [ 209.639625957799211, 692.340641899795173 ] ] ] } },
{ "type": "Feature", "properties": { "feature_type": "building", "subtype": "major-damage", "uid": "01cd7df9-822a-4c10-9773-7c50bef52f50" }, "geometry": { "type": "Polygon", "coordinates": [ [ [ 266.851763311253023, 731.117171621570947 ], [ 284.059129035162016, 717.899919692336312 ], [ 305.505990657217808, 700.69255396904282 ], [ 317.725714136748422, 715.406098571298799 ], [ 307.501047551005911, 726.378911495488296 ], [ 327.202234390529725, 750.568976344924295 ], [ 310.493632893806591, 764.534374612165152 ], [ 284.557893255742499, 738.349252864702862 ], [ 278.572722568894505, 744.085041439798715 ], [ 266.851763311253023, 731.117171621570947 ] ] ] } },
{ "type": "Feature", "properties": { "feature_type": "building", "subtype": "minor-damage", "uid": "01c11e7e-3469-43be-b03c-ec436529bcaa" }, "geometry": { "type": "Polygon", "coordinates": [ [ [ 144.282280285232787, 771.236771727893824 ], [ 155.753857430932698, 761.76025147473149 ], [ 186.9266214203316, 736.07389395028008 ], [ 216.353710620468405, 769.491096942868467 ], [ 190.4179709855824, 792.184869127259617 ], [ 176.203190606219096, 776.723178185003235 ], [ 184.432800301476306, 770.738007499897435 ], [ 178.447629613319691, 762.508397811740679 ], [ 154.506946875150589, 782.458966764087336 ], [ 144.282280285232787, 771.236771727893824 ] ] ] } },
{ "type": "Feature", "properties": { "feature_type": "building", "subtype": "major-damage", "uid": "c4893006-4f5d-415e-baae-ec531adfa5ab" }, "geometry": { "type": "Polygon", "coordinates": [ [ [ 140.965053606833493, 707.690927606605669 ], [ 132.236679691182786, 707.940309718609683 ], [ 132.236679688939404, 729.885935563997464 ], [ 120.139996104960801, 731.230001988355298 ], [ 118.916906665325996, 710.994213414103911 ], [ 119.019427759211993, 692.47861878233573 ], [ 140.965053607394395, 692.229236671328749 ], [ 140.965053606833493, 707.690927606605669 ] ] ] } },
{ "type": "Feature", "properties": { "feature_type": "building", "subtype": "major-damage", "uid": "63e866c5-bc86-4296-a8ed-eb5e2e969c3a" }, "geometry": { "type": "Polygon", "coordinates": [ [ [ 144.391778948578406, 691.995896726315664 ], [ 152.352926102547201, 692.761391643500019 ], [ 169.3469132920373, 693.067589613165524 ], [ 169.040715323493714, 710.367774766657931 ], [ 144.39177894938851, 710.214675784816336 ], [ 144.391778948578406, 691.995896726315664 ] ] ] } },
{ "type": "Feature", "properties": { "feature_type": "building", "subtype": "major-damage", "uid": "5412d7da-1233-481f-b5c0-ec12597a8dc2" }, "geometry": { "type": "Polygon", "coordinates": [ [ [ 122.752062375491207, 670.722269443713685 ], [ 130.233525734051113, 669.97412310770153 ], [ 131.231054181817598, 651.27046471836627 ], [ 126.492794057295001, 651.270464716372089 ], [ 126.492794057419601, 640.297651792182592 ], [ 154.922354813715913, 642.791472913220105 ], [ 154.922354809852294, 656.008724841457706 ], [ 151.18162313184979, 655.759342726462478 ], [ 150.93224101990819, 671.719797889735673 ], [ 158.413704379652188, 671.22103366871886 ], [ 158.663086489911308, 686.682724600007532 ], [ 122.502680263798794, 687.181488827006774 ], [ 122.752062375491207, 670.722269443713685 ] ] ] } },
{ "type": "Feature", "properties": { "feature_type": "building", "subtype": "minor-damage", "uid": "e0dea4db-7f7c-4292-835f-d04821893e60" }, "geometry": { "type": "Polygon", "coordinates": [ [ [ 287.749169248902376, 821.204470854034867 ], [ 304.618104192391684, 830.434642802988378 ], [ 287.112605664159787, 860.6714129905655 ], [ 257.194117272176584, 841.574505505983666 ], [ 262.923189516476782, 829.798079223293144 ], [ 279.792124464889127, 837.118560426181489 ], [ 286.794323872255916, 820.249625481002226 ], [ 287.749169248902376, 821.204470854034867 ] ] ] } },
{ "type": "Feature", "properties": { "feature_type": "building", "subtype": "minor-damage", "uid": "00dfbe21-4a07-4449-9883-533329923e8b" }, "geometry": { "type": "Polygon", "coordinates": [ [ [ 335.638208003232592, 1022.988143655294948 ], [ 322.321152199853486, 1015.87828202017397 ], [ 334.291493571555293, 988.945013934705798 ], [ 344.017395932043712, 993.932656175783677 ], [ 351.249477181029988, 998.670916297877966 ], [ 347.508745500971088, 1005.902997544998016 ], [ 354.740826743538889, 1009.144964998058981 ], [ 357.2346478628304, 1002.661030086950973 ], [ 370.202517681737902, 1010.14249344707298 ], [ 362.573716370082821, 1022.988325517373028 ], [ 335.638208003232592, 1022.988143655294948 ] ] ] } },
{ "type": "Feature", "properties": { "feature_type": "building", "subtype": "minor-damage", "uid": "fead23a1-0b18-4070-b78e-b9cdbe7d8b4d" }, "geometry": { "type": "Polygon", "coordinates": [ [ [ 498.375559997201492, 968.592606472907732 ], [ 474.185495144785079, 962.358053677791986 ], [ 477.926226823410786, 946.646980627519838 ], [ 455.232454639715172, 941.409956279423341 ], [ 464.210210667245178, 910.486574403884219 ], [ 484.659543842032974, 915.972980864981878 ], [ 484.410161733581219, 920.711240992061562 ], [ 508.849608697565316, 927.44455801417655 ], [ 498.375559997201492, 968.592606472907732 ] ] ] } },
{ "type": "Feature", "properties": { "feature_type": "building", "subtype": "minor-damage", "uid": "419c8edf-20f0-495e-ad2b-23142c80fa09" }, "geometry": { "type": "Polygon", "coordinates": [ [ [ 512.938869207201378, 917.336122509350275 ], [ 530.698351316181288, 919.479508282052848 ], [ 528.70806452631814, 936.779693439533503 ], [ 545.54895273153636, 938.923079209244975 ], [ 542.486973058251237, 962.959619644528516 ], [ 516.766343798543062, 960.20383793947417 ], [ 517.531838717347227, 950.405502985954399 ], [ 507.886602746234189, 948.568315179926117 ], [ 512.938869207201378, 917.336122509350275 ] ] ] } },
{ "type": "Feature", "properties": { "feature_type": "building", "subtype": "minor-damage", "uid": "64111d76-6378-40a8-b633-c3925759c03e" }, "geometry": { "type": "Polygon", "coordinates": [ [ [ 580.311503355181344, 915.010963369185902 ], [ 607.047173836226307, 915.329245162523307 ], [ 608.002019212249706, 962.434950289297262 ], [ 621.369854449905688, 964.344641032371328 ], [ 620.733290868403515, 982.804984937257927 ], [ 576.173840067970445, 984.396393896965151 ], [ 580.311503355181344, 915.010963369185902 ] ] ] } },
{ "type": "Feature", "properties": { "feature_type": "building", "subtype": "major-damage", "uid": "08a5e59a-ef35-4077-9ef2-d0d6821442e8" }, "geometry": { "type": "Polygon", "coordinates": [ [ [ 620.733290867780397, 919.466908446994012 ], [ 640.785043727691686, 919.785190236343169 ], [ 640.785043730745201, 938.563815931575846 ], [ 654.471160758622545, 938.245534142226688 ], [ 653.516315383907795, 921.69488098539955 ], [ 672.294941079381488, 921.376599192062145 ], [ 675.796040785152513, 979.303885228494096 ], [ 635.692535063460355, 982.168421355568512 ], [ 632.191435358624062, 936.972406972865542 ], [ 621.369854451152037, 936.654125181522318 ], [ 620.733290867780397, 919.466908446994012 ] ] ] } },
{ "type": "Feature", "properties": { "feature_type": "building", "subtype": "major-damage", "uid": "56561a2b-0425-4ca4-b50e-bc5e4838d488" }, "geometry": { "type": "Polygon", "coordinates": [ [ [ 687.512802693354729, 974.815316626621325 ], [ 677.786900329937566, 934.664796612915097 ], [ 711.453485438254006, 925.188276361746944 ], [ 714.446070777128966, 924.689512136741769 ], [ 723.922591029165346, 955.61289401228089 ], [ 711.204103325190772, 959.852389915352546 ], [ 707.96213586932663, 949.627723326178057 ], [ 701.727583074649829, 951.872162334214408 ], [ 704.720168414521822, 969.578292276530647 ], [ 687.512802693354729, 974.815316626621325 ] ] ] } },
{ "type": "Feature", "properties": { "feature_type": "building", "subtype": "major-damage", "uid": "75d9cbfa-e12e-4fff-9e69-5dbca835948a" }, "geometry": { "type": "Polygon", "coordinates": [ [ [ 762.232875338242138, 929.415787563048411 ], [ 762.232875338242138, 927.824378604338108 ], [ 750.456449055992948, 888.675718263138947 ], [ 773.054456250076441, 884.538054973682847 ], [ 784.194318947209013, 946.284722507230526 ], [ 746.637067561246909, 954.878330877485951 ], [ 741.544558898137325, 934.508296226534185 ], [ 762.232875338242138, 929.415787563048411 ] ] ] } },
{ "type": "Feature", "properties": { "feature_type": "building", "subtype": "major-damage", "uid": "cd4dcf8a-333e-42e5-99f3-261a0a54f06b" }, "geometry": { "type": "Polygon", "coordinates": [ [ [ 705.046832285991627, 839.103261824408833 ], [ 700.984660466297669, 826.104311994602313 ], [ 738.762858398749358, 816.355099627731192 ], [ 742.418813040686587, 832.197569725392214 ], [ 753.386676953473966, 830.16648381579364 ], [ 765.573192414861751, 868.757116111129335 ], [ 718.858216480840497, 883.380934665424206 ], [ 709.515221290047975, 853.727080374715342 ], [ 725.763908571815136, 848.852474190282805 ], [ 722.514171119163279, 833.822438453868813 ], [ 705.046832285991627, 839.103261824408833 ] ] ] } },
{ "type": "Feature", "properties": { "feature_type": "building", "subtype": "major-damage", "uid": "492afd3a-66c6-4f89-b5ff-b05af7f791b0" }, "geometry": { "type": "Polygon", "coordinates": [ [ [ 698.511328362260997, 878.488660465148428 ], [ 688.536043884160222, 854.298595612721329 ], [ 675.817556179811618, 857.041798845762742 ], [ 679.807669969880408, 868.513375990969166 ], [ 687.289133321897225, 866.019554873920015 ], [ 690.032336553192636, 876.244221459106143 ], [ 686.790369100008093, 876.493603570113123 ], [ 693.274304010926244, 894.449115626427556 ], [ 679.059523630752778, 899.436757865511254 ], [ 674.071881393353806, 883.725684815239106 ], [ 671.079296052609379, 883.975066928240267 ], [ 654.620076666581667, 840.831961573476747 ], [ 695.019978792274173, 831.355441316326164 ], [ 710.23228762096187, 874.249164562076771 ], [ 698.511328362260997, 878.488660465148428 ] ] ] } },
{ "type": "Feature", "properties": { "feature_type": "building", "subtype": "major-damage", "uid": "a43b25f8-c2fe-466a-9750-989f33816399" }, "geometry": { "type": "Polygon", "coordinates": [ [ [ 647.572077434105495, 858.73769526263527 ], [ 651.811573336676702, 878.189499992967967 ], [ 648.320223771238943, 878.937646327983089 ], [ 650.315280667270372, 892.40428036722767 ], [ 632.858532834286279, 895.646247821286011 ], [ 630.364711714371651, 887.167256019131059 ], [ 619.64128090430961, 889.661077136180211 ], [ 615.651167112309054, 861.979662720681858 ], [ 647.572077434105495, 858.73769526263527 ] ] ] } },
{ "type": "Feature", "properties": { "feature_type": "building", "subtype": "major-damage", "uid": "365863e6-20fa-4743-9650-082db170878e" }, "geometry": { "type": "Polygon", "coordinates": [ [ [ 606.922793196222074, 892.653662478234651 ], [ 611.411671209737847, 907.616589194488711 ], [ 598.194419281755358, 912.105467208567347 ], [ 593.954923378124818, 895.147483600269084 ], [ 606.922793196222074, 892.653662478234651 ] ] ] } },
{ "type": "Feature", "properties": { "feature_type": "building", "subtype": "major-damage", "uid": "c817f106-2a28-488a-b8dd-29307131d0e8" }, "geometry": { "type": "Polygon", "coordinates": [ [ [ 572.508061756505185, 910.359792426533204 ], [ 573.754972318020464, 870.209272414821044 ], [ 545.076029447850715, 871.206800862837213 ], [ 545.574793672419446, 865.471012285747292 ], [ 545.076029447414498, 848.762410792444257 ], [ 561.784630943639058, 849.011792904448271 ], [ 562.034013058073242, 845.271061226381903 ], [ 578.243850331785438, 844.273532777368587 ], [ 578.742614552926852, 849.261175014458217 ], [ 589.964809587993727, 849.011792902454204 ], [ 590.962338037006475, 910.858556648547165 ], [ 572.508061756505185, 910.359792426533204 ] ] ] } },
{ "type": "Feature", "properties": { "feature_type": "building", "subtype": "major-damage", "uid": "a372252e-dec7-4db0-8376-7d6e7bc54ad2" }, "geometry": { "type": "Polygon", "coordinates": [ [ [ 914.376107583582666, 1022.985372663019007 ], [ 908.308184995693864, 1002.305408808821994 ], [ 950.639663259030954, 989.574137152101912 ], [ 959.906470763590278, 1022.984560252079973 ], [ 914.376107583582666, 1022.985372663019007 ] ] ] } },
{ "type": "Feature", "properties": { "feature_type": "building", "subtype": "major-damage", "uid": "ad13dbc2-62f8-4f49-a06a-2d597ffbd599" }, "geometry": { "type": "Polygon", "coordinates": [ [ [ 972.519747070062635, 1022.98431985449804 ], [ 964.007498494318952, 1001.350563432798026 ], [ 973.555952238537429, 999.759154477079278 ], [ 971.964543282195905, 993.711800441557898 ], [ 992.652859723484767, 986.073037444335228 ], [ 1003.184464030013032, 1022.98370765755601 ], [ 972.519747070062635, 1022.98431985449804 ] ] ] } },
{ "type": "Feature", "properties": { "feature_type": "building", "subtype": "major-damage", "uid": "9bf8217a-6f2e-4771-b049-ee4fe425b27a" }, "geometry": { "type": "Polygon", "coordinates": [ [ [ 1022.472610660605028, 927.22409042813274 ], [ 1012.386330790743955, 931.646851114672813 ], [ 1003.474440630458048, 904.592898844516185 ], [ 993.607705097451685, 907.139153174264948 ], [ 982.786124192036027, 871.49159253883829 ], [ 1022.472490874161053, 858.925694777516469 ], [ 1022.472610660605028, 927.22409042813274 ] ] ] } },
{ "type": "Feature", "properties": { "feature_type": "building", "subtype": "destroyed", "uid": "4bce06bc-4cac-4608-a2a4-cc1be1c61f2e" }, "geometry": { "type": "Polygon", "coordinates": [ [ [ 971.529017927824384, 863.841282845105525 ], [ 979.509245508647382, 897.009103723695716 ], [ 943.847603504424114, 905.23871341284962 ], [ 937.363668594939213, 874.315331541298747 ], [ 945.343896176759245, 873.068420986263845 ], [ 946.590806738025208, 870.075835641218305 ], [ 966.042611462740865, 864.589429178126466 ], [ 971.529017927824384, 863.841282845105525 ] ] ] } },
{ "type": "Feature", "properties": { "feature_type": "building", "subtype": "major-damage", "uid": "bc6ffaca-3aa8-4c3a-bf57-5aa4e5207e48" }, "geometry": { "type": "Polygon", "coordinates": [ [ [ 998.71166812472427, 856.609201596988441 ], [ 987.489473085544432, 861.347461722073945 ], [ 985.993180416636733, 856.110437373977447 ], [ 972.2771642612189, 859.103022718025841 ], [ 961.803115561789923, 831.920372522547382 ], [ 1007.68942414870196, 817.70559214429943 ], [ 1016.916562288360979, 843.391949664762592 ], [ 1007.938806263447987, 847.382063457824302 ], [ 1000.207960795064992, 835.162339976605722 ], [ 990.232676316466041, 838.404307427672961 ], [ 996.217847004934242, 852.369705693916785 ], [ 998.71166812472427, 856.609201596988441 ] ] ] } },
{ "type": "Feature", "properties": { "feature_type": "building", "subtype": "major-damage", "uid": "080d71f4-3a1f-43c1-976f-a2631c5972e7" }, "geometry": { "type": "Polygon", "coordinates": [ [ [ 981.66131711616606, 735.630855632865973 ], [ 988.026952948075404, 763.32137148371487 ], [ 998.530252065699983, 806.607695117361345 ], [ 974.977399497213469, 813.291612739557422 ], [ 964.792382171430404, 784.327969715359018 ], [ 952.379392308177671, 746.134154749186564 ], [ 951.106265141683593, 744.22446400212425 ], [ 974.022554122561019, 737.222264588585062 ], [ 981.66131711616606, 735.630855632865973 ] ] ] } },
{ "type": "Feature", "properties": { "feature_type": "building", "subtype": "major-damage", "uid": "9b25bece-ee48-4dce-b12f-c6b269d5b124" }, "geometry": { "type": "Polygon", "coordinates": [ [ [ 1022.472388656257976, 787.151753468944207 ], [ 1010.943241927083022, 791.648450921238577 ], [ 1004.895887890568019, 767.140752981827745 ], [ 1013.489496259947032, 765.867625815457814 ], [ 1011.898087301985015, 761.729962526998747 ], [ 1018.582004920564032, 760.456835361625849 ], [ 1015.399187008067997, 750.271818036648483 ], [ 1002.986197141075991, 754.727763117447807 ], [ 995.665715939997881, 738.177109962614736 ], [ 1010.624960135054948, 734.357728463504827 ], [ 1009.670114761898049, 731.49319234241284 ], [ 1022.472322999675953, 728.365336656030649 ], [ 1022.472388656257976, 787.151753468944207 ] ] ] } },
{ "type": "Feature", "properties": { "feature_type": "building", "subtype": "destroyed", "uid": "e655e3b9-8602-4141-a543-37e956431d1a" }, "geometry": { "type": "Polygon", "coordinates": [ [ [ 934.996841124607158, 872.918120127746533 ], [ 934.876884061880673, 871.478635411668961 ], [ 933.677313463778887, 865.120911244257286 ], [ 936.676239958036149, 864.40116888671696 ], [ 935.47666936099381, 860.562542972191636 ], [ 934.157141703592856, 860.802457093033468 ], [ 921.081822186764612, 865.360825364102084 ], [ 915.683754495182257, 848.566836996902452 ], [ 938.835467032400743, 843.648597544571203 ], [ 946.590806738025208, 870.075835641218305 ], [ 934.996841124607158, 872.918120127746533 ] ] ] } },
{ "type": "Feature", "properties": { "feature_type": "building", "subtype": "destroyed", "uid": "65df6578-a64f-4f79-aad3-0ed93622596e" }, "geometry": { "type": "Polygon", "coordinates": [ [ [ 911.794836723934282, 901.073021633409894 ], [ 928.254056110398324, 897.831054179351554 ], [ 931.496023562461119, 914.539655674648657 ], [ 916.533096848768537, 918.280387353712172 ], [ 911.794836723934282, 901.073021633409894 ] ] ] } },
{ "type": "Feature", "properties": { "feature_type": "building", "subtype": "destroyed", "uid": "fbc6229c-d88c-4a66-b131-070480724c86" }, "geometry": { "type": "Polygon", "coordinates": [ [ [ 913.830579896358813, 624.485411103706042 ], [ 939.016045185428538, 617.17350182655855 ], [ 949.577691921830137, 660.232523125204807 ], [ 925.204660995066433, 666.731998035122729 ], [ 913.830579896358813, 624.485411103706042 ] ] ] } },
{ "type": "Feature", "properties": { "feature_type": "building", "subtype": "destroyed", "uid": "92fa7947-279c-481c-ab5e-75e84eeb7063" }, "geometry": { "type": "Polygon", "coordinates": [ [ [ 852.085568220757978, 684.605554050358933 ], [ 842.742573036820204, 661.451174672559318 ], [ 881.739422513821751, 648.046007662627744 ], [ 876.052381964467827, 634.640840653693203 ], [ 896.769458250540652, 626.516497014301649 ], [ 901.23784725609255, 642.358967115951032 ], [ 895.144589523872014, 646.421138935148292 ], [ 901.237847251917401, 664.294694942408 ], [ 897.175675434466825, 665.107129310634491 ], [ 899.612978523316883, 672.419038585787803 ], [ 893.519720792529597, 674.043907314264288 ], [ 898.394326976897787, 692.323680507631366 ], [ 858.178825952168381, 704.916413151330516 ], [ 852.085568220757978, 684.605554050358933 ] ] ] } },
{ "type": "Feature", "properties": { "feature_type": "building", "subtype": "destroyed", "uid": "c4d2d680-b579-4668-bdbb-8be5861dd705" }, "geometry": { "type": "Polygon", "coordinates": [ [ [ 835.689027060941385, 673.053656226890325 ], [ 845.55576259563054, 696.924790581620528 ], [ 828.686827644912569, 702.017299246103335 ], [ 821.048064651058326, 677.509601305695469 ], [ 835.689027060941385, 673.053656226890325 ] ] ] } },
{ "type": "Feature", "properties": { "feature_type": "building", "subtype": "destroyed", "uid": "34f925fe-04b1-42d9-a63e-e737372d1ab2" }, "geometry": { "type": "Polygon", "coordinates": [ [ [ 799.478979531702294, 705.573126460607796 ], [ 801.739996134772468, 718.360001973587146 ], [ 785.718785803438436, 721.750770311377437 ], [ 779.353149975392625, 694.060254458534359 ], [ 795.509996133092955, 691.010001975430896 ], [ 799.478979531702294, 705.573126460607796 ] ] ] } },
{ "type": "Feature", "properties": { "feature_type": "building", "subtype": "destroyed", "uid": "7144b638-a144-44b7-b2d1-59a420539238" }, "geometry": { "type": "Polygon", "coordinates": [ [ [ 818.82009211352613, 714.748570901826497 ], [ 802.229996133656186, 718.260001972520286 ], [ 799.96738971953539, 705.463671438158599 ], [ 795.99999613409534, 690.920001971778674 ], [ 807.998511205181671, 688.649464006696576 ], [ 812.136174495134469, 687.058055046989352 ], [ 818.82009211352613, 714.748570901826497 ] ] ] } },
{ "type": "Feature", "properties": { "feature_type": "building", "subtype": "major-damage", "uid": "2d84e290-e376-42fe-904a-20025abac140" }, "geometry": { "type": "Polygon", "coordinates": [ [ [ 688.426303493588307, 687.716377078588266 ], [ 710.768248506828286, 682.841770894155616 ], [ 716.049071874187803, 700.715326903409391 ], [ 742.453188708243488, 693.809634808381134 ], [ 751.38996671336497, 723.869706281209119 ], [ 718.080157783224649, 735.650004558675846 ], [ 710.36203132402386, 712.49562518486448 ], [ 697.36308150076627, 716.964014187177895 ], [ 688.426303493588307, 687.716377078588266 ] ] ] } },
{ "type": "Feature", "properties": { "feature_type": "building", "subtype": "major-damage", "uid": "a781da95-dd0b-45d7-a559-a5c9fb7a3ff2" }, "geometry": { "type": "Polygon", "coordinates": [ [ [ 581.403523017757607, 742.157704501578905 ], [ 567.399124195359036, 744.703958835315916 ], [ 563.579742698120413, 725.288769559390857 ], [ 608.45747528865013, 715.740315814108726 ], [ 617.051083655411958, 770.166502143771027 ], [ 574.719605396561633, 780.033237679399349 ], [ 571.218505693407906, 759.981484816799593 ], [ 583.313213768682772, 756.798666905361415 ], [ 581.403523017757607, 742.157704501578905 ] ] ] } },
{ "type": "Feature", "properties": { "feature_type": "building", "subtype": "major-damage", "uid": "634bc544-a05c-4764-8bcc-57c741f066b6" }, "geometry": { "type": "Polygon", "coordinates": [ [ [ 682.927266655561766, 711.488136824309208 ], [ 693.112283978976734, 743.316315964614205 ], [ 677.51647619749474, 749.363670003126686 ], [ 675.288503657719161, 741.088343425211633 ], [ 655.873314384108426, 747.453979253073157 ], [ 651.099087509973856, 732.494735058944457 ], [ 670.832558578043518, 726.129099231082932 ], [ 667.649740662306954, 714.989236530081712 ], [ 682.927266655561766, 711.488136824309208 ] ] ] } },
{ "type": "Feature", "properties": { "feature_type": "building", "subtype": "major-damage", "uid": "c830bb15-7ecd-48f7-a99f-2e6cb338a14b" }, "geometry": { "type": "Polygon", "coordinates": [ [ [ 422.941737340985583, 710.933744332977994 ], [ 444.87746517154568, 687.373147776050359 ], [ 469.250496095754386, 708.090224061135245 ], [ 478.187274104178584, 701.590749145234895 ], [ 499.716784753367676, 720.682956703837249 ], [ 470.469147643793804, 762.52332646011439 ], [ 447.314768263449423, 739.368947079323561 ], [ 450.970722904389504, 733.275689350527614 ], [ 422.941737340985583, 710.933744332977994 ] ] ] } },
{ "type": "Feature", "properties": { "feature_type": "building", "subtype": "major-damage", "uid": "1253c020-bc2c-4899-8a0d-1f12096d80bd" }, "geometry": { "type": "Polygon", "coordinates": [ [ [ 394.506534594154118, 673.155546406865824 ], [ 378.257847312760816, 659.344162213818095 ], [ 398.162489234782583, 641.064389022445198 ], [ 411.161439058850306, 653.25090448302808 ], [ 416.442262429637196, 648.37629830058961 ], [ 433.097166891093025, 668.280940222433287 ], [ 446.502333901641805, 656.094424757862043 ], [ 461.126152456179511, 670.312026129040646 ], [ 446.908551081517373, 682.092324408501554 ], [ 417.254696790634682, 706.871572513780734 ], [ 388.007059682867975, 679.248804135661771 ], [ 394.506534594154118, 673.155546406865824 ] ] ] } },
{ "type": "Feature", "properties": { "feature_type": "building", "subtype": "major-damage", "uid": "dd0725a9-41a1-40fd-b906-6ca6d5dedb7f" }, "geometry": { "type": "Polygon", "coordinates": [ [ [ 359.615561593622317, 597.593051744975583 ], [ 385.396386701822109, 579.132707843080198 ], [ 416.269720467896775, 623.69215864010539 ], [ 370.118860708754312, 652.655801660315547 ], [ 358.660716221524922, 637.378275668861193 ], [ 373.61996041639469, 624.965285804481255 ], [ 359.615561593622317, 597.593051744975583 ] ] ] } },
{ "type": "Feature", "properties": { "feature_type": "building", "subtype": "major-damage", "uid": "03bcdcde-6208-41be-a3db-52c143bbd67d" }, "geometry": { "type": "Polygon", "coordinates": [ [ [ 370.810559698839882, 562.676745561566463 ], [ 371.26985664654552, 580.895524617075921 ], [ 357.490948113303716, 581.201722586741425 ], [ 357.337849134141777, 586.866384985670948 ], [ 340.650059909207073, 586.86638498367688 ], [ 341.415554827886695, 561.298854712030447 ], [ 370.963658680432104, 560.992656741367909 ], [ 370.810559698839882, 562.676745561566463 ] ] ] } },
{ "type": "Feature", "properties": { "feature_type": "building", "subtype": "major-damage", "uid": "7516605e-e69c-410c-8a8a-1b0b1b07598b" }, "geometry": { "type": "Polygon", "coordinates": [ [ [ 528.229969496540548, 852.16760757065083 ], [ 517.726670378043423, 888.451731793749218 ], [ 468.711274498620298, 878.266714468771852 ], [ 479.532855409083595, 841.664308458318487 ], [ 492.264127067979302, 846.120253535129564 ], [ 495.128663188758424, 839.43633591393052 ], [ 517.408388586949627, 846.120253536126597 ], [ 528.229969496540548, 852.16760757065083 ] ] ] } },
{ "type": "Feature", "properties": { "feature_type": "building", "subtype": "major-damage", "uid": "25f3fd01-4f39-4849-ba7e-372603edbd05" }, "geometry": { "type": "Polygon", "coordinates": [ [ [ 478.262154025648215, 834.134053496183469 ], [ 462.666346243293674, 879.966631461572774 ], [ 448.025383841511825, 875.828968172116674 ], [ 454.072737876033273, 859.914878600967086 ], [ 421.607995152308376, 848.77501590495126 ], [ 431.156448892102389, 819.811372885738251 ], [ 431.79301247466401, 819.174809300060588 ], [ 478.262154025648215, 834.134053496183469 ] ] ] } },
{ "type": "Feature", "properties": { "feature_type": "building", "subtype": "major-damage", "uid": "b82df9b3-a51b-4068-bfab-432d6c3fa3d2" }, "geometry": { "type": "Polygon", "coordinates": [ [ [ 349.263423246039224, 457.104220298440396 ], [ 373.2302369864463, 458.729089027913972 ], [ 374.042671351494278, 502.600544688804405 ], [ 355.356680975704819, 502.600544688804405 ], [ 356.57533252324572, 479.446165311004677 ], [ 349.263423245540594, 478.633730950754682 ], [ 349.263423246039224, 457.104220298440396 ] ] ] } },
{ "type": "Feature", "properties": { "feature_type": "building", "subtype": "major-damage", "uid": "f5a443d6-2410-4162-8aab-e6e859bd3c20" }, "geometry": { "type": "Polygon", "coordinates": [ [ [ 364.293458982446509, 381.141607254126427 ], [ 363.074807433597016, 376.673218249818774 ], [ 359.825069981194417, 362.049399700509184 ], [ 354.544246609846709, 362.049399699512207 ], [ 353.731812245671108, 346.613146781976127 ], [ 388.666489905284209, 346.613146780979093 ], [ 393.134878907595692, 396.577860172659484 ], [ 351.700726335699414, 399.421380446496414 ], [ 349.263423243297211, 381.547824435248401 ], [ 364.293458982446509, 381.141607254126427 ] ] ] } },
{ "type": "Feature", "properties": { "feature_type": "building", "subtype": "major-damage", "uid": "e5a092f8-71c3-4eb0-a1a5-e852362a226d" }, "geometry": { "type": "Polygon", "coordinates": [ [ [ -0.000003897763838, 932.977595299795325 ], [ 6.675456394926819, 933.353104222833281 ], [ 5.645400477910637, 951.070065973334749 ], [ 26.24651879274689, 952.100121888481908 ], [ 27.27657470471544, 978.675564508251796 ], [ 10.17764650486766, 979.499609242363704 ], [ 9.971635325390354, 963.636748141121188 ], [ -0.000003898324686, 963.026481327556098 ], [ -0.000003897763838, 932.977595299795325 ] ] ] } },
{ "type": "Feature", "properties": { "feature_type": "building", "subtype": "destroyed", "uid": "a0c7fea9-64f2-4e3d-b312-007ee90c7848" }, "geometry": { "type": "Polygon", "coordinates": [ [ [ 333.7497275358362, 283.4307919309515 ], [ 311.5005197596318, 269.422031478967881 ], [ 324.685235477747028, 252.529114467563602 ], [ 345.286353792520913, 265.919841366470621 ], [ 333.7497275358362, 283.4307919309515 ] ] ] } },
{ "type": "Feature", "properties": { "feature_type": "building", "subtype": "minor-damage", "uid": "28409dca-afa9-4394-b90e-94f0ac4dbece" }, "geometry": { "type": "Polygon", "coordinates": [ [ [ 196.069318689168199, 798.677872388216429 ], [ 227.089683022037292, 816.284025116316116 ], [ 204.73266368221681, 839.199969934216028 ], [ 179.581016926188511, 817.401876081802698 ], [ 196.069318689168199, 798.677872388216429 ] ] ] } }
]
}
