{
"type": "FeatureCollection",
"name": "hurricane-florence_00000236_post_disaster",
"features": [
{ "type": "Feature", "properties": { "feature_type": "building", "subtype": "no-damage", "uid": "6ee15bf6-af7c-432a-b0fa-d34cb5e65a17" }, "geometry": { "type": "Polygon", "coordinates": [ [ [ 480.668609438838473, 279.769376358791874 ], [ 533.184442710172789, 326.35865790330439 ], [ 509.569202341579114, 352.477907944228775 ], [ 466.675362330077689, 313.517795856589487 ], [ 476.524771837588276, 303.43009997735129 ], [ 465.925890086934828, 293.717140220512476 ], [ 480.668609438838473, 279.769376358791874 ] ] ] } },
{ "type": "Feature", "properties": { "feature_type": "building", "subtype": "no-damage", "uid": "e17b0d0e-5360-44af-960b-f2786f584242" }, "geometry": { "type": "Polygon", "coordinates": [ [ [ 370.851280177677211, 315.273775656660973 ], [ 378.384591118791889, 308.666898448129416 ], [ 392.112316849023784, 322.614054926914378 ], [ 384.465870237874924, 328.845572623630687 ], [ 370.851280177677211, 315.273775656660973 ] ] ] } },
{ "type": "Feature", "properties": { "feature_type": "building", "subtype": "no-damage", "uid": "2b78615b-76df-4421-8993-2887c7211a19" }, "geometry": { "type": "Polygon", "coordinates": [ [ [ 617.355643625145035, 396.580370698235583 ], [ 623.622900661498761, 400.898164317057876 ], [ 622.360000727976058, 401.910202357922174 ], [ 621.290478580604827, 403.028339146293888 ], [ 620.659624802996177, 404.355319483951575 ], [ 621.290478579840396, 405.410456650625804 ], [ 622.305889171520676, 406.166210285123896 ], [ 616.379337452858977, 413.080520620949812 ], [ 608.638116620635401, 407.239686995812008 ], [ 617.355643625145035, 396.580370698235583 ] ] ] } },
{ "type": "Feature", "properties": { "feature_type": "building", "subtype": "no-damage", "uid": "4a67cb9c-128f-4069-baf7-6b5341c9d137" }, "geometry": { "type": "Polygon", "coordinates": [ [ [ 654.578530489761192, 430.404114804474716 ], [ 660.950979475529834, 435.999940914754518 ], [ 664.189194556091024, 433.104232136877386 ], [ 670.349173164080412, 438.98276687155402 ], [ 667.832722923440656, 441.320106806927186 ], [ 669.80749420943971, 442.933560541248482 ], [ 658.328596897087323, 456.053450419074693 ], [ 656.360474325250834, 454.39650388657401 ], [ 654.711504772758872, 455.718343434870917 ], [ 652.687543314868208, 454.356618968819305 ], [ 644.065069216597749, 463.771669910748813 ], [ 633.296270792701307, 454.73695342801949 ], [ 643.277828269560928, 444.381734810582884 ], [ 642.68470263115546, 443.254057639132498 ], [ 654.578530489761192, 430.404114804474716 ] ] ] } },
{ "type": "Feature", "properties": { "feature_type": "building", "subtype": "no-damage", "uid": "affca00d-a490-4641-9b5f-174c9e90a29e" }, "geometry": { "type": "Polygon", "coordinates": [ [ [ 627.905278294978302, 485.812224698370983 ], [ 634.530990950406249, 490.941698051479989 ], [ 666.947797584016485, 512.859919006300515 ], [ 660.810809643635253, 519.595001529149272 ], [ 671.332300214346219, 527.462713143680844 ], [ 668.444036887226616, 530.983428405742416 ], [ 671.025952232820032, 532.502572595397737 ], [ 659.779246906377693, 544.785995251803797 ], [ 648.333557807044258, 537.579938307518773 ], [ 653.093123092505948, 531.03553603959574 ], [ 623.583473341764829, 511.073938770108214 ], [ 621.556710875579711, 508.250378785134615 ], [ 613.660939769662832, 504.388958212261116 ], [ 627.905278294978302, 485.812224698370983 ] ] ] } },
{ "type": "Feature", "properties": { "feature_type": "building", "subtype": "no-damage", "uid": "72dfbce1-6e5b-4222-881e-47cd629345bb" }, "geometry": { "type": "Polygon", "coordinates": [ [ [ 754.397004649452697, 514.034847856866577 ], [ 770.179509793667421, 531.629152041452016 ], [ 769.216030603514241, 532.492855219623834 ], [ 770.64141695607168, 534.789311015588282 ], [ 768.767644211766196, 538.801134950333562 ], [ 762.960168267698691, 541.124361472417604 ], [ 760.462730828487338, 539.296567576330972 ], [ 757.886505186027421, 540.901432919714239 ], [ 743.261191307301374, 523.27967403062155 ], [ 754.397004649452697, 514.034847856866577 ] ] ] } },
{ "type": "Feature", "properties": { "feature_type": "building", "subtype": "no-damage", "uid": "01fca1e2-61e9-4f0c-aad9-e88cf7f03bfa" }, "geometry": { "type": "Polygon", "coordinates": [ [ [ 455.692601143258685, 533.050915630585109 ], [ 462.385444210930984, 537.613412165145292 ], [ 472.820529022171002, 546.380915193321471 ], [ 472.820529021279128, 547.011244253147879 ], [ 474.695562228382187, 548.692121739563163 ], [ 457.735468553537714, 571.523196108385719 ], [ 454.297983104688512, 571.523196111443553 ], [ 448.267368607462913, 577.843663027820298 ], [ 432.111854337021612, 565.073740075905221 ], [ 436.239506197712785, 559.398218760432201 ], [ 435.594560594388327, 557.721360190947621 ], [ 442.044016633622221, 549.208078222324616 ], [ 449.138418273250409, 541.984687459586326 ], [ 449.752150298266315, 539.735805542462458 ], [ 455.692601143258685, 533.050915630585109 ] ] ] } },
{ "type": "Feature", "properties": { "feature_type": "building", "subtype": "no-damage", "uid": "7612562c-f314-40ab-a500-77a50d8cc1eb" }, "geometry": { "type": "Polygon", "coordinates": [ [ [ 502.046426335068986, 913.087284271414774 ], [ 511.343139977512408, 904.067184332820602 ], [ 544.875550211420887, 928.635401007760265 ], [ 543.99304021371006, 930.650268878588236 ], [ 544.569703416499692, 932.560981017784457 ], [ 531.542902902131004, 945.587781532151439 ], [ 528.391257612936101, 945.167562163350567 ], [ 499.959946026535874, 921.477055151201853 ], [ 502.046426335068986, 913.087284271414774 ] ] ] } },
{ "type": "Feature", "properties": { "feature_type": "building", "subtype": "no-damage", "uid": "9f0befed-71ed-495e-8843-56048e645398" }, "geometry": { "type": "Polygon", "coordinates": [ [ [ 505.473920263152024, 969.869010923316296 ], [ 511.745391534303906, 974.454165814049929 ], [ 505.912575019787198, 981.770301396275158 ], [ 503.92039161109119, 979.500192138395164 ], [ 499.605711722176579, 976.572468668268698 ], [ 505.473920263152024, 969.869010923316296 ] ] ] } },
{ "type": "Feature", "properties": { "feature_type": "building", "subtype": "no-damage", "uid": "f6d0b27a-b370-4f42-a1d2-1f17a171cdae" }, "geometry": { "type": "Polygon", "coordinates": [ [ [ 520.493754217949572, 981.040763161696077 ], [ 522.101946313423696, 977.370483034132917 ], [ 525.875807233281989, 974.621826307189281 ], [ 536.095422186731071, 981.638888600008499 ], [ 535.226127151712603, 983.838290369845481 ], [ 529.28570831534887, 990.834188465149282 ], [ 525.911922125242086, 991.877098972202816 ], [ 516.494136304311041, 985.30571084674375 ], [ 520.493754217949572, 981.040763161696077 ] ] ] } },
{ "type": "Feature", "properties": { "feature_type": "building", "subtype": "no-damage", "uid": "6f5256e3-5298-49d2-a9f1-60cc1fd746c5" }, "geometry": { "type": "Polygon", "coordinates": [ [ [ 408.196425016059322, 859.768727364062102 ], [ 412.425370131620809, 848.736696631649238 ], [ 414.577209698128911, 848.842587155274373 ], [ 416.876734374591308, 849.903906237855381 ], [ 418.374341337589385, 848.054926476795458 ], [ 419.293677231617494, 846.583989047777663 ], [ 420.580747485193399, 846.400121864945959 ], [ 422.971020810023219, 844.009848541135739 ], [ 425.912895672136187, 841.435708035513017 ], [ 429.525017774915113, 840.646540756252762 ], [ 439.08611108085961, 846.530290480478016 ], [ 442.027985939532584, 844.323884332364628 ], [ 453.596473228155617, 851.39995445861075 ], [ 451.494329391628696, 855.613754587746143 ], [ 456.774479463203818, 858.328980171248645 ], [ 455.929814622142374, 862.151650914540369 ], [ 444.460751923934879, 877.5585717538155 ], [ 441.844118762052005, 875.765171928965628 ], [ 441.404307490204417, 876.868375002512721 ], [ 433.202361352046807, 872.639429890136853 ], [ 430.790841696475184, 873.694581683211482 ], [ 429.525017773641082, 873.007164247646188 ], [ 428.789549056201679, 874.267429548051268 ], [ 408.196425016059322, 859.768727364062102 ] ] ] } },
{ "type": "Feature", "properties": { "feature_type": "building", "subtype": "no-damage", "uid": "4f36b692-14e8-4d62-be99-5da91ae4260e" }, "geometry": { "type": "Polygon", "coordinates": [ [ [ 475.344895557527821, 609.864878724024948 ], [ 483.434314108564479, 616.501636689048041 ], [ 489.842293906347777, 620.586996485641635 ], [ 490.477450385798591, 621.704957958003092 ], [ 489.119269047771979, 623.963134212592536 ], [ 489.677682799950503, 625.017915738596002 ], [ 482.975667531116528, 632.678006512816523 ], [ 481.348609954682274, 632.141636181149352 ], [ 480.266895998401878, 633.451941236958874 ], [ 474.204407321239216, 628.937322011266588 ], [ 465.901769867271923, 620.910609385974453 ], [ 475.344895557527821, 609.864878724024948 ] ] ] } },
{ "type": "Feature", "properties": { "feature_type": "building", "subtype": "no-damage", "uid": "e6836c52-c823-4747-93ac-6916429d88e9" }, "geometry": { "type": "Polygon", "coordinates": [ [ [ 410.089111297586385, 607.144476731035184 ], [ 421.006097038322991, 615.14084697840849 ], [ 433.032992845712727, 602.911818470960725 ], [ 448.256505623719704, 616.368244567758666 ], [ 436.873514193348512, 626.763477378924904 ], [ 440.340978550244586, 630.185131950188975 ], [ 424.127701482653379, 644.929366791850384 ], [ 422.622091179636698, 643.006398933892228 ], [ 419.454601172179878, 642.398696670849972 ], [ 410.293063802533879, 634.242387373244128 ], [ 411.606926366999687, 632.625325754420942 ], [ 398.771499752364321, 620.901629006486587 ], [ 401.52853659680261, 613.729534193920699 ], [ 410.089111297586385, 607.144476731035184 ] ] ] } },
{ "type": "Feature", "properties": { "feature_type": "building", "subtype": "no-damage", "uid": "7dbca726-28e4-433d-8c2d-ecefae2db6b9" }, "geometry": { "type": "Polygon", "coordinates": [ [ [ 391.344706251826722, 845.38041585264466 ], [ 404.036399776385508, 853.566716610755861 ], [ 399.413986690654099, 860.710445925217641 ], [ 408.852968582549693, 866.904693162547119 ], [ 397.717155242436888, 881.192151786374438 ], [ 376.722140632581727, 866.383407443270585 ], [ 391.344706251826722, 845.38041585264466 ] ] ] } },
{ "type": "Feature", "properties": { "feature_type": "building", "subtype": "no-damage", "uid": "2c77db1c-8f41-4326-b4db-426b4957ca49" }, "geometry": { "type": "Polygon", "coordinates": [ [ [ 477.636693899775707, 151.265029676643508 ], [ 485.200642585460116, 144.751629419969589 ], [ 507.165223703601725, 160.478455090858205 ], [ 500.931165209005712, 166.8921520134719 ], [ 477.636693899775707, 151.265029676643508 ] ] ] } },
{ "type": "Feature", "properties": { "feature_type": "building", "subtype": "no-damage", "uid": "6f21b329-fae1-4748-b7cf-cbbe9e7dcbe4" }, "geometry": { "type": "Polygon", "coordinates": [ [ [ 275.791313966823679, 827.099400929197714 ], [ 284.003004481243181, 834.446702967240753 ], [ 274.782860748016674, 843.378717211526236 ], [ 267.003364467899019, 835.455156188468436 ], [ 275.791313966823679, 827.099400929197714 ] ] ] } },
{ "type": "Feature", "properties": { "feature_type": "building", "subtype": "no-damage", "uid": "60482d32-2fd4-44a0-b033-2e789ff5447a" }, "geometry": { "type": "Polygon", "coordinates": [ [ [ 708.957608756971126, 434.704570560414709 ], [ 718.465881983087343, 426.204750555399926 ], [ 729.702932162591651, 436.145218016835884 ], [ 719.042140966828015, 445.221297005846225 ], [ 708.957608756971126, 434.704570560414709 ] ] ] } },
{ "type": "Feature", "properties": { "feature_type": "building", "subtype": "no-damage", "uid": "8cbaa17b-6a9e-4a03-ad2a-385cefda8a81" }, "geometry": { "type": "Polygon", "coordinates": [ [ [ 500.464450590102501, 236.756959433097506 ], [ 475.393638905755608, 250.685188148065805 ], [ 472.259787445753716, 249.292365275142004 ], [ 447.953646294521718, 204.441318979481707 ], [ 452.934370105465518, 201.41407908234541 ], [ 473.759990638777083, 190.100007220428694 ], [ 500.464450590102501, 236.756959433097506 ] ] ] } },
{ "type": "Feature", "properties": { "feature_type": "building", "subtype": "no-damage", "uid": "5f93e5b6-7588-4750-9dd4-78c4300935ac" }, "geometry": { "type": "Polygon", "coordinates": [ [ [ 473.759990638777083, 190.100007220428694 ], [ 452.934370105465518, 201.41407908234541 ], [ 447.802711380975325, 192.699285811569496 ], [ 468.777730267138622, 181.392250306234814 ], [ 473.759990638777083, 190.100007220428694 ] ] ] } },
{ "type": "Feature", "properties": { "feature_type": "building", "subtype": "no-damage", "uid": "d24d7a34-3655-4130-a62a-cfb3bc52c6bd" }, "geometry": { "type": "Polygon", "coordinates": [ [ [ 500.931165209005712, 166.8921520134719 ], [ 507.165223703601725, 160.478455090858205 ], [ 522.506990708875151, 175.162944088641495 ], [ 515.688821075135252, 182.096675918482788 ], [ 500.931165209005712, 166.8921520134719 ] ] ] } },
{ "type": "Feature", "properties": { "feature_type": "building", "subtype": "no-damage", "uid": "121e238f-114d-4cbb-a79a-99791e4fce1e" }, "geometry": { "type": "Polygon", "coordinates": [ [ [ 683.522850212195635, 445.627455355468499 ], [ 710.665308518903885, 470.593395777283718 ], [ 700.806962814336771, 481.988107048358302 ], [ 673.152382648388311, 457.790349410179772 ], [ 676.225113777074625, 452.413069935935027 ], [ 683.522850212195635, 445.627455355468499 ] ] ] } },
{ "type": "Feature", "properties": { "feature_type": "building", "subtype": "no-damage", "uid": "76a4b9b9-7453-4982-a2ed-91ab08c96ac9" }, "geometry": { "type": "Polygon", "coordinates": [ [ [ 425.423370451775327, 182.97739032296721 ], [ 434.51353337703739, 189.2508830439387 ], [ 427.471857871536486, 198.725137361527601 ], [ 418.253664483694024, 192.707705563678388 ], [ 425.423370451775327, 182.97739032296721 ] ] ] } },
{ "type": "Feature", "properties": { "feature_type": "building", "subtype": "un-classified", "uid": "cf82acea-0766-4920-a350-e62457be7cf2" }, "geometry": { "type": "Polygon", "coordinates": [ [ [ 290.718983165298425, 813.741363089982997 ], [ 301.928516294499275, 816.977104608876857 ], [ 299.38614795349298, 827.377702354148369 ], [ 288.061052628444486, 824.488647423434031 ], [ 290.718983165298425, 813.741363089982997 ] ] ] } }
]
}
