{
"type": "FeatureCollection",
"name": "hurricane-michael_00000445_post_disaster",
"features": [
{ "type": "Feature", "properties": { "feature_type": "building", "subtype": "major-damage", "uid": "320def61-6618-4f7a-b231-58d3f8b30412" }, "geometry": { "type": "Polygon", "coordinates": [ [ [ 82.324044806809709, 730.460436715410879 ], [ 96.989417867280267, 729.241774459069347 ], [ 100.772376999565296, 727.350294891552494 ], [ 117.2306130867603, 725.867467203287219 ], [ 120.139493778672502, 753.8845812175432 ], [ 125.804156170910701, 753.884581219542838 ], [ 127.028948040860698, 770.878568407501575 ], [ 124.120067351697998, 771.184766375176423 ], [ 128.253739914060105, 793.843415960121206 ], [ 92.122379763659708, 798.89568242075768 ], [ 82.324044806809709, 730.460436715410879 ] ] ] } },
{ "type": "Feature", "properties": { "feature_type": "building", "subtype": "minor-damage", "uid": "c7d0665e-923e-40d2-8b91-a8b19c4b8a68" }, "geometry": { "type": "Polygon", "coordinates": [ [ [ 273.922946821526523, 452.809747421733505 ], [ 277.903520398551279, 447.910579940935122 ], [ 273.616748853101626, 437.806047016662603 ], [ 293.825814701401725, 418.668674058979093 ], [ 302.399357785802124, 428.620107995414799 ], [ 308.064020183039474, 423.261643568103295 ], [ 333.784649441489989, 449.288470794472175 ], [ 296.122299455214375, 484.041940089576826 ], [ 273.922946821526523, 452.809747421733505 ] ] ] } },
{ "type": "Feature", "properties": { "feature_type": "building", "subtype": "no-damage", "uid": "9e347ab0-f217-4a27-bcc0-27305a9f55ce" }, "geometry": { "type": "Polygon", "coordinates": [ [ [ 317.64992987917708, 422.972932406776977 ], [ 343.982955072227583, 396.793006198570424 ], [ 364.038921934190626, 414.705587288553772 ], [ 350.260013404065091, 432.158871428024781 ], [ 363.1203280324155, 444.866087075534097 ], [ 349.341419499540507, 456.195411866506674 ], [ 317.64992987917708, 422.972932406776977 ] ] ] } },
{ "type": "Feature", "properties": { "feature_type": "building", "subtype": "minor-damage", "uid": "91b6978a-6eeb-4d2a-a3ac-78b800519f54" }, "geometry": { "type": "Polygon", "coordinates": [ [ [ 353.665743710635923, 395.333838175622304 ], [ 356.904584325177325, 388.49628576750888 ], [ 349.107375440725491, 378.659806866626184 ], [ 369.140204424527894, 358.746934945839087 ], [ 377.297284488511877, 366.18427265150649 ], [ 381.975609819682916, 361.266033201565108 ], [ 415.20371537667279, 391.135341083745516 ], [ 403.807794698147404, 403.370961182843075 ], [ 397.929898769118608, 397.852936431348326 ], [ 393.611444617229893, 402.171390583735672 ], [ 397.210156408553985, 410.928255947021512 ], [ 384.01487983336682, 422.204219566033316 ], [ 353.665743710635923, 395.333838175622304 ] ] ] } },
{ "type": "Feature", "properties": { "feature_type": "building", "subtype": "no-damage", "uid": "33a7b3c6-ecad-4142-aacf-f24f3b173613" }, "geometry": { "type": "Polygon", "coordinates": [ [ [ 393.8960934182644, 356.895451608934707 ], [ 417.167138936814979, 326.581852845115918 ], [ 441.050580391715414, 344.953730880612625 ], [ 425.128286091114717, 366.081390631182387 ], [ 432.63013628690311, 370.061964204956723 ], [ 420.382217594652388, 383.228476803978424 ], [ 392.977499516989326, 365.162796728157673 ], [ 393.8960934182644, 356.895451608934707 ] ] ] } },
{ "type": "Feature", "properties": { "feature_type": "building", "subtype": "no-damage", "uid": "92df19e8-664d-4cc0-9829-288a509661c4" }, "geometry": { "type": "Polygon", "coordinates": [ [ [ 407.383070597841993, 310.48278053772458 ], [ 416.722108602929609, 304.66501915690111 ], [ 403.861793973329384, 291.957803509391795 ], [ 412.74153502640462, 274.50451937192048 ], [ 422.692968966342221, 282.465666524468475 ], [ 430.654116117642388, 276.80100412648261 ], [ 459.130527082167873, 297.316267936703298 ], [ 451.322478913205487, 306.349107975113611 ], [ 446.423311436155188, 306.042910011438096 ], [ 440.452451072992574, 312.166869355937081 ], [ 450.710082982854772, 320.587313457997709 ], [ 441.677242941692725, 333.906925039856901 ], [ 407.383070597841993, 310.48278053772458 ] ] ] } },
{ "type": "Feature", "properties": { "feature_type": "building", "subtype": "minor-damage", "uid": "16860911-de7a-47ce-85e0-fa4c3b33cb4d" }, "geometry": { "type": "Polygon", "coordinates": [ [ [ 419.88618344051082, 259.343523165086197 ], [ 416.887256944991123, 257.424210208914019 ], [ 435.960429449957076, 227.794816445755089 ], [ 441.358497136693416, 231.75339941761041 ], [ 445.556994227071414, 226.235374668115298 ], [ 471.947547378695788, 245.068633051305397 ], [ 458.392399624476127, 263.901891439494818 ], [ 470.987890900609386, 274.218198576421003 ], [ 460.431669639659674, 289.212831047266604 ], [ 419.88618344051082, 259.343523165086197 ] ] ] } },
{ "type": "Feature", "properties": { "feature_type": "building", "subtype": "minor-damage", "uid": "7baf3c96-f9c9-4059-9b8f-63284cc163ee" }, "geometry": { "type": "Polygon", "coordinates": [ [ [ 445.374032616645479, 142.617145368540207 ], [ 458.693644196008393, 125.623158180581498 ], [ 475.993829351146417, 137.717977892741004 ], [ 482.730184634246314, 128.991335821005805 ], [ 508.757011863371304, 147.97560979585171 ], [ 505.388834222446178, 154.711965080699713 ], [ 498.958676905271489, 153.793371177675112 ], [ 495.131202315083726, 161.448320363547992 ], [ 487.629352114796006, 161.142122394873297 ], [ 473.391146631908327, 180.432594338393898 ], [ 444.914735664133275, 160.223528495848086 ], [ 452.416585864670878, 151.343787440275406 ], [ 445.374032616645479, 142.617145368540207 ] ] ] } },
{ "type": "Feature", "properties": { "feature_type": "building", "subtype": "no-damage", "uid": "7f1966be-7791-4549-8799-cd37d3ad8389" }, "geometry": { "type": "Polygon", "coordinates": [ [ [ 495.987763198901121, 131.102369359727788 ], [ 487.791391915390193, 124.837921664187903 ], [ 497.507913754764786, 108.283847417702106 ], [ 492.46971724456148, 102.405951488674702 ], [ 491.869931946007512, 97.487712034733889 ], [ 500.746754371805821, 82.972907802931346 ], [ 547.290093559744378, 113.2020868706431 ], [ 538.053399957413262, 125.797578141274201 ], [ 530.376148132972276, 122.318823410461604 ], [ 527.017350459170075, 126.517320503338297 ], [ 518.500399216903475, 121.479123991886297 ], [ 509.863490910376811, 138.872897657947192 ], [ 495.987763198901121, 131.102369359727788 ] ] ] } },
{ "type": "Feature", "properties": { "feature_type": "building", "subtype": "no-damage", "uid": "d07fd2fb-7ac3-43a2-b1a0-835c40b480f5" }, "geometry": { "type": "Polygon", "coordinates": [ [ [ 250.169158138608907, 120.903438596605199 ], [ 253.740758958291508, 107.368951288336604 ], [ 274.418447896679879, 112.444384029187304 ], [ 271.69275253663892, 125.978871334456301 ], [ 250.169158138608907, 120.903438596605199 ] ] ] } },
{ "type": "Feature", "properties": { "feature_type": "building", "subtype": "no-damage", "uid": "5d35370e-ece1-4071-b75c-d8c356110277" }, "geometry": { "type": "Polygon", "coordinates": [ [ [ 268.370017746345582, 254.862138331480992 ], [ 280.245766664164194, 243.826088832490711 ], [ 293.800914417384092, 255.461923630034789 ], [ 281.559326599755593, 266.725951807491583 ], [ 268.370017746345582, 254.862138331480992 ] ] ] } },
{ "type": "Feature", "properties": { "feature_type": "building", "subtype": "no-damage", "uid": "51996958-22c6-4824-b9ec-4d8ef2269552" }, "geometry": { "type": "Polygon", "coordinates": [ [ [ 311.770575888074916, 1022.981959120117949 ], [ 326.751525506046789, 1010.756937963040968 ], [ 336.786099326182409, 1022.982158871604952 ], [ 311.770575888074916, 1022.981959120117949 ] ] ] } },
{ "type": "Feature", "properties": { "feature_type": "building", "subtype": "destroyed", "uid": "600206c9-3305-44ae-a031-4b8122c072ff" }, "geometry": { "type": "Polygon", "coordinates": [ [ [ 428.175489309815475, 940.95475085739065 ], [ 440.849722358211181, 939.625515836021805 ], [ 456.039504339490975, 937.892771184641219 ], [ 457.487235237508798, 950.100986904697834 ], [ 459.407681976166828, 960.532379538901409 ], [ 451.941397609576484, 962.425070516434062 ], [ 441.465926540398016, 963.6574788798074 ], [ 426.344013872271205, 964.518665481681182 ], [ 423.596005302975925, 955.3387224425353 ], [ 423.276321829265783, 941.414047807903103 ], [ 428.175489309815475, 940.95475085739065 ] ] ] } },
{ "type": "Feature", "properties": { "feature_type": "building", "subtype": "no-damage", "uid": "3f4e371d-e400-46aa-8a71-d6614c3cf4ce" }, "geometry": { "type": "Polygon", "coordinates": [ [ [ 884.771292082484592, 1012.203659534935014 ], [ 870.226888633421709, 1003.93631441571199 ], [ 864.868424205858901, 995.668969299488481 ], [ 879.259728671334301, 978.828081092367711 ], [ 876.350847980921799, 971.326230892331864 ], [ 887.527073792559122, 961.068598987221549 ], [ 897.631606712834696, 970.101439025631748 ], [ 913.860098984109754, 956.934926428609856 ], [ 935.140857717022527, 976.684695321643062 ], [ 920.902652231385218, 993.066286575251866 ], [ 913.860098981610122, 988.932614016640173 ], [ 899.468794519134349, 1002.711522548011999 ], [ 895.028923993096669, 999.955740842937416 ], [ 884.771292082484592, 1012.203659534935014 ] ] ] } },
{ "type": "Feature", "properties": { "feature_type": "building", "subtype": "minor-damage", "uid": "d152ce70-403c-4633-a16f-76c54112f104" }, "geometry": { "type": "Polygon", "coordinates": [ [ [ 981.430091299211881, 948.049281448333886 ], [ 973.81694218818393, 951.150934791353507 ], [ 975.320774113602738, 956.132378035022157 ], [ 950.789515867484852, 963.463558658251259 ], [ 950.037599910024596, 959.234031374042388 ], [ 942.048492817017063, 959.703978850954286 ], [ 932.348518285050773, 924.230505907390352 ], [ 941.22534070709969, 921.471493535642367 ], [ 940.150202962210301, 910.08601636610581 ], [ 965.936495024072656, 902.518278091941625 ], [ 981.430091299211881, 948.049281448333886 ] ] ] } },
{ "type": "Feature", "properties": { "feature_type": "building", "subtype": "minor-damage", "uid": "877af238-210a-4085-9b13-ce58deb3cc5b" }, "geometry": { "type": "Polygon", "coordinates": [ [ [ 1023.052969100495943, 948.474441447533536 ], [ 1004.244960226720991, 954.528146451014095 ], [ 996.896209012520671, 936.156268408518372 ], [ 982.964201499557589, 937.534159266054871 ], [ 973.778262475057886, 906.455065578049698 ], [ 985.87308218672058, 901.708997081088683 ], [ 984.342092347845778, 892.523058059840878 ], [ 1005.010455148908022, 887.164593634529069 ], [ 1023.052970572778008, 947.145785714575709 ], [ 1023.052969100495943, 948.474441447533536 ] ] ] } },
{ "type": "Feature", "properties": { "feature_type": "building", "subtype": "no-damage", "uid": "25c6fa65-7f5a-4112-b955-a6c9ec0e5804" }, "geometry": { "type": "Polygon", "coordinates": [ [ [ 1023.052979831659968, 938.70539953492937 ], [ 1014.201665178874009, 896.523345993845851 ], [ 1023.05302700269101, 892.789177970993023 ], [ 1023.052979831659968, 938.70539953492937 ] ] ] } }
]
}
