{
"type": "FeatureCollection",
"name": "hurricane-michael_00000407_post_disaster",
"features": [
{ "type": "Feature", "properties": { "feature_type": "building", "subtype": "no-damage", "uid": "f14dbb6b-27f0-4990-8ea3-d7618d6c9d9c" }, "geometry": { "type": "Polygon", "coordinates": [ [ [ 240.942803999136686, 268.551701777465325 ], [ 302.119608977050802, 240.022257236334212 ], [ 389.962413907206724, 418.803720047121715 ], [ 329.289224379808218, 448.565572943627217 ], [ 322.339061471738319, 436.010244222035226 ], [ 316.117691476776315, 437.047139223236684 ], [ 306.267188976858279, 415.272344228001884 ], [ 311.970111477468606, 412.680106730497528 ], [ 273.860301846984783, 333.816178805487198 ], [ 260.964072778193213, 339.873498517899407 ], [ 248.939469202693914, 314.945322758299824 ], [ 260.182483138728401, 309.000707722927814 ], [ 240.942803999136686, 268.551701777465325 ] ] ] } },
{ "type": "Feature", "properties": { "feature_type": "building", "subtype": "no-damage", "uid": "632a4119-0893-422a-9540-8207f2da7ec6" }, "geometry": { "type": "Polygon", "coordinates": [ [ [ 175.053257384762901, 729.010155104507817 ], [ 185.157790308288014, 729.46945205502027 ], [ 184.392295391600186, 750.597111802590462 ], [ 174.593960432750492, 750.444012819752857 ], [ 175.053257384762901, 729.010155104507817 ] ] ] } },
{ "type": "Feature", "properties": { "feature_type": "building", "subtype": "no-damage", "uid": "695728e4-10e9-4eb8-84aa-31fb2dc01105" }, "geometry": { "type": "Polygon", "coordinates": [ [ [ 130.735642729111589, 924.335751115556832 ], [ 153.98793453049791, 924.921943346467515 ], [ 153.792537120944189, 939.185954286631159 ], [ 159.459062014000409, 939.381351696934757 ], [ 159.263664606696409, 957.553310839170763 ], [ 155.551113812676988, 957.748708246474735 ], [ 154.378729351105193, 972.208116590942836 ], [ 117.253221431658801, 970.840334723817023 ], [ 118.034811071123599, 954.426952274313294 ], [ 127.023091934842299, 954.622349685616769 ], [ 128.0000789856106, 928.439096731932182 ], [ 130.735642729111589, 924.335751115556832 ] ] ] } },
{ "type": "Feature", "properties": { "feature_type": "building", "subtype": "no-damage", "uid": "41d28f1d-c417-453a-b463-e015d5da3518" }, "geometry": { "type": "Polygon", "coordinates": [ [ [ 117.848917801346303, 1022.979390802582998 ], [ 118.595626821124299, 1014.783937050509962 ], [ 128.072234543227012, 1014.66397998900004 ], [ 128.312148662748598, 986.59402800348073 ], [ 153.863002397297294, 987.793598601588315 ], [ 153.503131214515406, 1000.029218698686009 ], [ 160.820511859924011, 999.669347520153792 ], [ 161.780168339010203, 1017.90282060079096 ], [ 155.302487110427393, 1017.54294942525803 ], [ 154.89845714929379, 1022.979982689132953 ], [ 117.848917801346303, 1022.979390802582998 ] ] ] } },
{ "type": "Feature", "properties": { "feature_type": "building", "subtype": "no-damage", "uid": "f17b4f1c-7272-4613-becc-61473ab506e2" }, "geometry": { "type": "Polygon", "coordinates": [ [ [ 238.941968579794803, 1022.981108843745005 ], [ 239.448505657894003, 1018.105689171241011 ], [ 230.568764608568188, 1015.503006447004054 ], [ 231.028061557581111, 1004.020582672193996 ], [ 235.62103106795621, 1002.795790804494004 ], [ 236.539624971231007, 998.66211824388256 ], [ 245.266267037969101, 996.212534503483425 ], [ 277.723251580519388, 996.671831454995754 ], [ 276.804657676244688, 1011.36933388939201 ], [ 266.853223738556778, 1012.747224741929017 ], [ 261.647858292081878, 1017.340194251053958 ], [ 262.814998871930015, 1022.981373931577991 ], [ 238.941968579794803, 1022.981108843745005 ] ] ] } },
{ "type": "Feature", "properties": { "feature_type": "building", "subtype": "no-damage", "uid": "ad470c00-b6b0-426a-afe2-cce4596928f6" }, "geometry": { "type": "Polygon", "coordinates": [ [ [ 242.199545590809493, 930.358820090468043 ], [ 279.386234120405675, 931.438433629064775 ], [ 277.586878223743724, 948.592293179103649 ], [ 267.030656965043704, 949.79186377421172 ], [ 267.030656965543585, 972.103876892213748 ], [ 240.520146753408511, 971.863962772192281 ], [ 234.522293762869111, 963.586925647949556 ], [ 235.721864360727011, 947.752593756528881 ], [ 240.880017935440492, 947.632636701017532 ], [ 242.199545590809493, 930.358820090468043 ] ] ] } },
{ "type": "Feature", "properties": { "feature_type": "building", "subtype": "no-damage", "uid": "02d3637c-9c22-4f5b-a567-335789b7e363" }, "geometry": { "type": "Polygon", "coordinates": [ [ [ 237.442672712679695, 866.2162395527954 ], [ 279.391794245654921, 866.522437521470124 ], [ 278.779398305555617, 884.281919627616162 ], [ 267.450073515330075, 885.353612515478062 ], [ 265.00048977693001, 909.083954984285356 ], [ 237.442672713429602, 907.093668196398426 ], [ 237.901969665192013, 901.12280783373717 ], [ 229.787723528554608, 893.314759666026362 ], [ 231.012515399504395, 869.58441719521943 ], [ 237.442672712679695, 866.2162395527954 ] ] ] } },
{ "type": "Feature", "properties": { "feature_type": "building", "subtype": "no-damage", "uid": "b64832ae-3a6a-4005-8641-6d71ca425818" }, "geometry": { "type": "Polygon", "coordinates": [ [ [ 238.533432429944298, 809.186925629844495 ], [ 258.283201324982087, 808.268331727819714 ], [ 258.895597260582122, 827.252605700665868 ], [ 275.124089530107426, 827.252605703665381 ], [ 273.440000710644824, 844.093493907786637 ], [ 238.686531414031691, 844.705889842136571 ], [ 238.074135478431913, 835.51995082388828 ], [ 229.9598893455439, 833.529664034001598 ], [ 230.725384262231586, 821.587943307679211 ], [ 237.308640561744113, 822.200339240029393 ], [ 238.533432429944298, 809.186925629844495 ] ] ] } },
{ "type": "Feature", "properties": { "feature_type": "building", "subtype": "no-damage", "uid": "28d1c09d-501f-4201-9e50-1d5696ac6879" }, "geometry": { "type": "Polygon", "coordinates": [ [ [ 208.066734679030986, 836.897841674425877 ], [ 225.060721866743904, 836.285445742075694 ], [ 223.376633045281608, 852.667036994684508 ], [ 206.229546872981189, 852.054641060334689 ], [ 208.066734679030986, 836.897841674425877 ] ] ] } },
{ "type": "Feature", "properties": { "feature_type": "building", "subtype": "no-damage", "uid": "e8000010-a85f-4f0c-8d31-d3f9b58a953e" }, "geometry": { "type": "Polygon", "coordinates": [ [ [ 243.384963528453397, 760.716129121813651 ], [ 282.119006402341313, 761.17542607332598 ], [ 282.578303354853517, 772.657849851135666 ], [ 276.91364095636618, 772.964047816810762 ], [ 276.760541973028694, 795.469598419917816 ], [ 243.538062515040508, 795.010301466405735 ], [ 243.384963528453397, 760.716129121813651 ] ] ] } },
{ "type": "Feature", "properties": { "feature_type": "building", "subtype": "no-damage", "uid": "fcbbf6fe-6dde-4dff-8b2f-10b0afb5ba8b" }, "geometry": { "type": "Polygon", "coordinates": [ [ [ 356.560448341291874, 864.862560896939613 ], [ 391.145789929290686, 864.862560896939613 ], [ 390.950392519986906, 903.942042918662764 ], [ 368.479690358315395, 903.551248099055442 ], [ 368.479690357565516, 885.574686369122787 ], [ 356.755845751345589, 884.402301910300821 ], [ 356.560448341291874, 864.862560896939613 ] ] ] } },
{ "type": "Feature", "properties": { "feature_type": "building", "subtype": "no-damage", "uid": "03c260a7-134b-4865-b725-12fed0c3316e" }, "geometry": { "type": "Polygon", "coordinates": [ [ [ 352.811968948923209, 931.848380211025756 ], [ 385.052541615778011, 932.434572436937287 ], [ 384.661746796920397, 939.27348179256353 ], [ 396.776386224747512, 939.468879203867004 ], [ 396.580988812444104, 968.583093308106072 ], [ 357.892301614817882, 967.801503665891801 ], [ 357.892301613068184, 950.606531580173055 ], [ 352.225776719262115, 946.11239114719001 ], [ 352.811968948923209, 931.848380211025756 ] ] ] } },
{ "type": "Feature", "properties": { "feature_type": "building", "subtype": "no-damage", "uid": "a832ac90-adb8-4cef-ba65-a41aa1c2dc27" }, "geometry": { "type": "Polygon", "coordinates": [ [ [ 469.385114498100279, 991.394279017049939 ], [ 499.698713269175528, 992.77216986658766 ], [ 500.158010220938024, 1012.368839778783013 ], [ 513.324522815463524, 1012.675037747457964 ], [ 513.045830235655671, 1022.982693467619015 ], [ 464.131582091477014, 1022.982645002779009 ], [ 462.954957185424917, 998.130634296898734 ], [ 468.313421613737489, 997.365139379711195 ], [ 469.385114498100279, 991.394279017049939 ] ] ] } },
{ "type": "Feature", "properties": { "feature_type": "building", "subtype": "no-damage", "uid": "03e99a8f-48a5-4e09-a160-f76c216be86e" }, "geometry": { "type": "Polygon", "coordinates": [ [ [ 475.311995231942205, 926.775420261823569 ], [ 511.460516100120401, 926.970817672127168 ], [ 509.897336822440593, 945.728969042274343 ], [ 500.909055955472411, 947.878340553614066 ], [ 501.299850775829725, 972.498414225869851 ], [ 476.288982281210679, 972.107619406262529 ], [ 477.265969332978784, 952.958673217507908 ], [ 471.208649619815219, 940.648636379380264 ], [ 475.311995231942205, 926.775420261823569 ] ] ] } },
{ "type": "Feature", "properties": { "feature_type": "building", "subtype": "no-damage", "uid": "b14c4693-3627-4484-81fa-ba32b4a3b570" }, "geometry": { "type": "Polygon", "coordinates": [ [ [ 434.108346948578287, 919.117644308601598 ], [ 458.631542159998503, 919.191287536916661 ], [ 458.778828614878989, 926.40832396479243 ], [ 443.461037016842624, 926.334680734477502 ], [ 443.240107327147825, 931.047847381641191 ], [ 434.329276636523389, 931.268777067586484 ], [ 434.108346948578287, 919.117644308601598 ] ] ] } },
{ "type": "Feature", "properties": { "feature_type": "building", "subtype": "no-damage", "uid": "cc47784f-4528-42e6-8ae1-d8fc30ad2fda" }, "geometry": { "type": "Polygon", "coordinates": [ [ [ 464.038298518245483, 877.39100079531795 ], [ 470.162257867745325, 878.156495713505251 ], [ 470.927752786432791, 866.367873970020469 ], [ 496.801481027220973, 868.205061772070394 ], [ 493.433303386795785, 905.561213789411909 ], [ 465.875486326794885, 903.264729035849768 ], [ 468.171971079107891, 891.476107294364624 ], [ 463.425902584645314, 888.720325587290404 ], [ 464.038298518245483, 877.39100079531795 ] ] ] } },
{ "type": "Feature", "properties": { "feature_type": "building", "subtype": "no-damage", "uid": "55c976e6-354c-4ca8-8685-dd1a15706118" }, "geometry": { "type": "Polygon", "coordinates": [ [ [ 597.309742749952193, 793.241172582745094 ], [ 632.097290082832615, 793.960914938809992 ], [ 632.097290083582493, 803.917350902203111 ], [ 638.09514307162226, 803.917350902203111 ], [ 637.855228955600182, 816.75275629785483 ], [ 631.017676545985296, 816.872713357365683 ], [ 630.177977128409566, 828.508548153910056 ], [ 605.826693993468552, 828.26863403488835 ], [ 606.186565174250745, 815.433228640236507 ], [ 602.707810440437811, 811.834516845913754 ], [ 597.069828628930736, 811.114774489848742 ], [ 597.309742749952193, 793.241172582745094 ] ] ] } },
{ "type": "Feature", "properties": { "feature_type": "building", "subtype": "no-damage", "uid": "5b0575fa-51c7-4692-b7b3-c269750dfb45" }, "geometry": { "type": "Polygon", "coordinates": [ [ [ 596.140818800344505, 878.498474924551147 ], [ 597.22043233869158, 860.504915958936408 ], [ 605.857340641468795, 861.70448655604423 ], [ 606.816997123054648, 843.590970530918753 ], [ 631.04832319448542, 845.390326425580497 ], [ 630.688452016202973, 854.027234730355303 ], [ 639.205403258469573, 855.226805330462639 ], [ 639.685231499012502, 870.101480738797818 ], [ 630.328580836420656, 871.181094280394177 ], [ 630.688452018202611, 878.978303164593967 ], [ 596.140818800344505, 878.498474924551147 ] ] ] } },
{ "type": "Feature", "properties": { "feature_type": "building", "subtype": "no-damage", "uid": "b9d056b5-5938-40f3-a671-400a60920cf5" }, "geometry": { "type": "Polygon", "coordinates": [ [ [ 600.431426820960269, 897.077320790837803 ], [ 616.973577975320495, 897.641257762932128 ], [ 614.811819585624335, 923.394379441916158 ], [ 599.303552880770667, 922.83044247182147 ], [ 600.431426820960269, 897.077320790837803 ] ] ] } },
{ "type": "Feature", "properties": { "feature_type": "building", "subtype": "minor-damage", "uid": "7ab1fe75-4139-4dc3-9b33-08e3ce220dba" }, "geometry": { "type": "Polygon", "coordinates": [ [ [ 596.489413948644824, 937.771625189794008 ], [ 624.310304522398951, 938.993488629165199 ], [ 623.276420074142152, 981.852698433349815 ], [ 585.398653516366267, 981.100782471890398 ], [ 586.62051695348805, 963.524746870777676 ], [ 593.669729091171689, 963.618736365960103 ], [ 596.489413948644824, 937.771625189794008 ] ] ] } },
{ "type": "Feature", "properties": { "feature_type": "building", "subtype": "no-damage", "uid": "bb9f2ce0-0fb3-4777-b708-e130d1df3883" }, "geometry": { "type": "Polygon", "coordinates": [ [ [ 634.624262059227817, 943.120363801081339 ], [ 636.903446196432697, 915.170368876072985 ], [ 655.496790461105775, 915.650197113116292 ], [ 653.28679722004199, 943.937130446941978 ], [ 634.624262059227817, 943.120363801081339 ] ] ] } },
{ "type": "Feature", "properties": { "feature_type": "building", "subtype": "no-damage", "uid": "a73840a1-090e-48e0-8d24-840d0b7fa277" }, "geometry": { "type": "Polygon", "coordinates": [ [ [ 672.996773923071032, 904.83717094573808 ], [ 684.512651659607513, 904.597256826716489 ], [ 683.672952239282267, 916.473005742282339 ], [ 671.557289203441883, 915.513349264196222 ], [ 671.917160384224076, 904.71721388422759 ], [ 672.996773923071032, 904.83717094573808 ] ] ] } },
{ "type": "Feature", "properties": { "feature_type": "building", "subtype": "no-damage", "uid": "257c0747-b301-4e1c-a4b0-91f65013e70d" }, "geometry": { "type": "Polygon", "coordinates": [ [ [ 675.16946852795661, 921.148778335365705 ], [ 693.541346569207008, 921.301877320202948 ], [ 693.388247585869522, 936.15247873643716 ], [ 675.16946852795661, 936.305577721274517 ], [ 675.16946852795661, 921.148778335365705 ] ] ] } },
{ "type": "Feature", "properties": { "feature_type": "building", "subtype": "no-damage", "uid": "f25b73f1-10f5-40c5-9f8c-1a624db0ba26" }, "geometry": { "type": "Polygon", "coordinates": [ [ [ 700.575249735519947, 843.156096750916731 ], [ 699.8097548178323, 812.536300013423897 ], [ 707.770901969132524, 812.689398996261502 ], [ 709.30189180550758, 798.144995546702376 ], [ 746.045647890008127, 799.063589447727281 ], [ 746.658043824608171, 816.976170539710438 ], [ 739.615490575083072, 816.823071553873319 ], [ 739.462391592995345, 843.002997766079375 ], [ 700.575249735519947, 843.156096750916731 ] ] ] } },
{ "type": "Feature", "properties": { "feature_type": "building", "subtype": "minor-damage", "uid": "d045bf53-fbe5-4035-9ad0-d5435f5b3cfe" }, "geometry": { "type": "Polygon", "coordinates": [ [ [ 703.052648352310371, 779.23056261293948 ], [ 703.299695771396841, 772.309831254400706 ], [ 698.553627278684075, 771.697435320050772 ], [ 700.084617117808762, 759.296417641216181 ], [ 702.993497805471634, 759.908813578565741 ], [ 703.4527947559842, 738.321856876483594 ], [ 747.698401042522164, 739.852846711858433 ], [ 748.216848538623708, 756.112616079481995 ], [ 733.825544073398305, 755.194022176457338 ], [ 732.753851186035945, 777.852671760402245 ], [ 703.052648352310371, 779.23056261293948 ] ] ] } },
{ "type": "Feature", "properties": { "feature_type": "building", "subtype": "minor-damage", "uid": "fe518705-a350-47e0-82ff-125937853fb0" }, "geometry": { "type": "Polygon", "coordinates": [ [ [ 834.362945847477249, 865.147858624595983 ], [ 857.615237650113386, 863.389281933863458 ], [ 858.592224699631856, 882.733625535921192 ], [ 867.189710745492903, 881.561241075099474 ], [ 867.775902974654173, 900.905584674157694 ], [ 837.098509587978697, 901.882571726675451 ], [ 834.362945847477249, 865.147858624595983 ] ] ] } },
{ "type": "Feature", "properties": { "feature_type": "building", "subtype": "no-damage", "uid": "df3c5945-6126-4313-8ec4-0f4596d666e5" }, "geometry": { "type": "Polygon", "coordinates": [ [ [ 702.728147697582017, 1022.98191869609002 ], [ 702.728147674585443, 1007.870824848252028 ], [ 709.762454438267355, 1005.330658520304041 ], [ 710.348646669928144, 998.2963517543742 ], [ 734.395027020332691, 998.674647668677494 ], [ 733.557615798679308, 1021.238432383775034 ], [ 739.267463367370283, 1021.548643558503954 ], [ 743.333548007504191, 1021.444229548529961 ], [ 743.066165493649805, 1022.981556559594992 ], [ 702.728147697582017, 1022.98191869609002 ] ] ] } },
{ "type": "Feature", "properties": { "feature_type": "building", "subtype": "no-damage", "uid": "52e74d1d-c7f0-426a-a1be-874772f32fb1" }, "geometry": { "type": "Polygon", "coordinates": [ [ [ 881.553519594157592, 827.091939048940844 ], [ 894.645146070753185, 827.287336462243957 ], [ 893.668159021234715, 852.88439718501786 ], [ 881.358122183353998, 853.079794595321459 ], [ 881.553519594157592, 827.091939048940844 ] ] ] } },
{ "type": "Feature", "properties": { "feature_type": "building", "subtype": "no-damage", "uid": "4a100e18-4ec1-46dd-855f-5bbd51f362ec" }, "geometry": { "type": "Polygon", "coordinates": [ [ [ 836.573080002471215, 971.394446904510687 ], [ 828.960175385069761, 964.054773417090473 ], [ 835.917684850195997, 956.737392771933742 ], [ 843.954807853919306, 964.414644596622679 ], [ 848.513176129078943, 960.935889866810044 ], [ 853.671329697293459, 966.693828733327109 ], [ 866.506735092698364, 953.01872391710026 ], [ 882.700938165904972, 970.052626407628395 ], [ 870.585275123815563, 983.967645339877208 ], [ 878.022612832234472, 990.685240690479532 ], [ 858.709526206746887, 1010.59811261226605 ], [ 840.71596724212759, 993.204338943205926 ], [ 832.438930117632822, 1000.881590770894036 ], [ 819.603524722227917, 987.56635713220021 ], [ 836.573080002471215, 971.394446904510687 ] ] ] } },
{ "type": "Feature", "properties": { "feature_type": "building", "subtype": "no-damage", "uid": "b4083b78-f61e-4b68-8b2d-b9858c83df4b" }, "geometry": { "type": "Polygon", "coordinates": [ [ [ 938.979134449459593, 976.676458947555943 ], [ 957.19791350687251, 962.132055493997314 ], [ 960.730981176774549, 938.249219111954289 ], [ 961.512570818489053, 915.192324718127793 ], [ 983.201683339945816, 915.583119535735364 ], [ 981.052311830355279, 943.134154364544656 ], [ 983.592478159053371, 952.708627461421656 ], [ 1011.338910395174025, 953.490217097636673 ], [ 1010.166525938601012, 964.432472064639001 ], [ 985.741849671893419, 964.23707465333564 ], [ 983.787875570856727, 972.443765880087085 ], [ 987.50042636137664, 974.202342570819724 ], [ 985.937247081947135, 981.627444156356887 ], [ 976.753568807174815, 979.868867463624611 ], [ 976.753568809674448, 983.386020848089288 ], [ 978.707542908211508, 985.730789767732972 ], [ 970.696249093761253, 993.155891351270498 ], [ 937.2832919680842, 992.960493942966536 ], [ 938.979134449459593, 976.676458947555943 ] ] ] } },
{ "type": "Feature", "properties": { "feature_type": "building", "subtype": "no-damage", "uid": "625c01f0-191b-41af-9aa8-282444573697" }, "geometry": { "type": "Polygon", "coordinates": [ [ [ 850.985393902331793, 924.611656790875827 ], [ 867.997492530604518, 924.047719817781626 ], [ 867.339566063827533, 934.010606309118202 ], [ 852.019278348338844, 933.822627317753472 ], [ 850.985393902331793, 924.611656790875827 ] ] ] } },
{ "type": "Feature", "properties": { "feature_type": "building", "subtype": "no-damage", "uid": "c4ed0e91-d3a7-4bcd-8604-9461af57ef02" }, "geometry": { "type": "Polygon", "coordinates": [ [ [ 927.502872819448385, 709.629900257286749 ], [ 950.054800057227567, 708.550286717690028 ], [ 950.054800058477326, 717.786980323018497 ], [ 926.903087522144119, 717.786980323018497 ], [ 927.502872819448385, 709.629900257286749 ] ] ] } },
{ "type": "Feature", "properties": { "feature_type": "building", "subtype": "no-damage", "uid": "fad01e33-ce48-4fef-8e03-68e22adb5f59" }, "geometry": { "type": "Polygon", "coordinates": [ [ [ 8.104095903320324, 758.564685917563679 ], [ 47.674129598223871, 759.009293039477939 ], [ 48.266939090193638, 762.714352373099246 ], [ 48.004298772686283, 768.54115401923616 ], [ 41.746034663778417, 768.494244933988398 ], [ 42.042439411638021, 771.161887654475663 ], [ 45.885391231086707, 770.966776191923714 ], [ 46.865588873494538, 771.411383313837973 ], [ 46.784915356894729, 793.540446037507195 ], [ 6.770274543576273, 792.651231795678314 ], [ 8.104095903320324, 758.564685917563679 ] ] ] } },
{ "type": "Feature", "properties": { "feature_type": "building", "subtype": "no-damage", "uid": "783c0a40-ee47-47ab-a516-18a1e6bdcbab" }, "geometry": { "type": "Polygon", "coordinates": [ [ [ 8.035277852091946, 804.359642324258857 ], [ 13.37056329456763, 804.211439951953821 ], [ 36.638335916934103, 804.656047072868319 ], [ 37.82395490087363, 803.174023338819893 ], [ 42.714633223934563, 803.915035204344235 ], [ 50.697686755597417, 803.823329380752511 ], [ 50.272954265233793, 811.769760992501233 ], [ 47.753513917300829, 814.585606087293286 ], [ 47.308906798635959, 825.404379343547134 ], [ 44.937668825507693, 826.44179595968069 ], [ 38.120359649983051, 825.552581716852046 ], [ 38.120359650982898, 828.220224439339063 ], [ 39.750585755337028, 828.664831557253933 ], [ 40.343395251806143, 831.777081399655458 ], [ 39.157776261867497, 832.518093268179427 ], [ 39.157776263117313, 839.187200066898072 ], [ 38.12035964773338, 840.817426175251171 ], [ 8.183480226146729, 840.817426175251171 ], [ 6.997861238957682, 839.038997698592425 ], [ 8.035277852091946, 804.359642324258857 ] ] ] } },
{ "type": "Feature", "properties": { "feature_type": "building", "subtype": "no-damage", "uid": "e2029705-f2cb-4f57-8f76-4ed0d8ff7320" }, "geometry": { "type": "Polygon", "coordinates": [ [ [ 118.418534984947499, 759.95711327835204 ], [ 146.635801292986599, 759.840992842985315 ], [ 151.745100542358898, 759.840992844985067 ], [ 154.415870603036694, 762.39564246604607 ], [ 155.344834106467488, 777.259058461943937 ], [ 156.85439978948159, 785.387489085591028 ], [ 155.344834103218005, 794.21264233343652 ], [ 116.2122466729856, 794.677124083902072 ], [ 115.283283173554196, 788.987222648948773 ], [ 116.560607989334201, 782.832839460530522 ], [ 121.669907235457003, 783.413441649362312 ], [ 122.250509422039201, 780.510430713202481 ], [ 120.508702861292704, 778.420262840607165 ], [ 120.508702861042806, 775.865613212547146 ], [ 116.792848859817695, 775.633372340813935 ], [ 116.096126235369198, 762.976244652878108 ], [ 116.676728424450999, 761.815040280213907 ], [ 118.418534984947499, 759.95711327835204 ] ] ] } },
{ "type": "Feature", "properties": { "feature_type": "building", "subtype": "no-damage", "uid": "99ffd174-0af2-42c6-a57c-f6278a36ef87" }, "geometry": { "type": "Polygon", "coordinates": [ [ [ 116.327388293720801, 809.095425193906976 ], [ 146.054220288523396, 808.5148230050753 ], [ 151.511880851744792, 808.747063879808138 ], [ 153.485928286724089, 808.863184318174376 ], [ 153.834289602822906, 809.676027380739015 ], [ 153.83428959957331, 838.822257186702473 ], [ 153.950410036939786, 843.00259293689237 ], [ 151.976362603210191, 844.279917749922447 ], [ 118.301435733199497, 843.350954246991819 ], [ 117.488592668634894, 841.144665938030016 ], [ 116.327388295720496, 828.023056498628875 ], [ 119.462640107863706, 827.67469519152894 ], [ 120.043242294695901, 823.494359438339529 ], [ 122.481771483140406, 823.262118564606567 ], [ 123.350470458571607, 820.963249531318411 ], [ 123.127046795857893, 819.343427970707694 ], [ 121.5630811508628, 819.287572057341436 ], [ 121.395513405014896, 820.683969951488962 ], [ 115.251362661765498, 820.851537700586391 ], [ 114.581091670374803, 814.428107376509388 ], [ 116.327388293720801, 809.095425193906976 ] ] ] } },
{ "type": "Feature", "properties": { "feature_type": "building", "subtype": "minor-damage", "uid": "1a1d1352-6a3a-47c6-b284-a09d84328147" }, "geometry": { "type": "Polygon", "coordinates": [ [ [ 117.094880511310095, 865.376504559476189 ], [ 152.279373067584288, 865.608745430209638 ], [ 153.324457004882106, 867.118311119972304 ], [ 153.672818316481511, 893.709891302875008 ], [ 152.047132196600899, 896.4967818006686 ], [ 149.02800082157421, 897.890227051065153 ], [ 143.686460694719386, 899.864274489293507 ], [ 118.9528075119226, 900.096515362026594 ], [ 116.746519200210699, 896.845143115767314 ], [ 116.630398761094497, 891.968084739379378 ], [ 118.023844012741193, 889.18119424058591 ], [ 118.372205324590595, 886.626544613525766 ], [ 117.675482699142094, 883.491292803633087 ], [ 117.675482698642199, 880.704402302839981 ], [ 118.720566635940003, 876.291825680916872 ], [ 115.585314827546199, 876.17570524355051 ], [ 114.888592199848105, 869.672960745032697 ], [ 117.094880511310095, 865.376504559476189 ] ] ] } },
{ "type": "Feature", "properties": { "feature_type": "building", "subtype": "no-damage", "uid": "028994a1-578c-4a57-98cc-54d09bc80d22" }, "geometry": { "type": "Polygon", "coordinates": [ [ [ 120.286461440904404, 901.429897782623016 ], [ 135.969794064761288, 901.786337159199434 ], [ 137.03911220198961, 904.067549180286619 ], [ 136.896536448109487, 908.915124718723064 ], [ 135.969794069260587, 910.198306479397274 ], [ 119.217143304425903, 910.269594353712705 ], [ 119.003279677980103, 902.92694316824327 ], [ 120.286461440904404, 901.429897782623016 ] ] ] } },
{ "type": "Feature", "properties": { "feature_type": "building", "subtype": "no-damage", "uid": "e17526f9-8869-4bb9-bb89-a8cf440af46f" }, "geometry": { "type": "Polygon", "coordinates": [ [ [ 186.052242012539296, 805.650080993734946 ], [ 194.654053054388214, 805.873504659198147 ], [ 197.67027251214671, 806.655487481320506 ], [ 196.664866028560198, 817.938382485229795 ], [ 194.877476719101594, 818.608653477620123 ], [ 185.381971023898188, 818.273517981425016 ], [ 185.661250599478308, 814.922163030471665 ], [ 184.655844118891309, 810.453689760200859 ], [ 186.052242012539296, 805.650080993734946 ] ] ] } },
{ "type": "Feature", "properties": { "feature_type": "building", "subtype": "no-damage", "uid": "0abaa052-a89d-4ae4-9efa-cf8bd74ca2fa" }, "geometry": { "type": "Polygon", "coordinates": [ [ [ 182.146382600850103, 854.758939186036628 ], [ 191.697744210919495, 854.814795103402275 ], [ 192.535582952157597, 855.48506609279309 ], [ 192.423871120425787, 864.868859959261954 ], [ 191.641888295053604, 865.594986865018541 ], [ 180.638272869971104, 865.539130949652531 ], [ 180.694128786086992, 856.211192998549677 ], [ 182.146382600850103, 854.758939186036628 ] ] ] } },
{ "type": "Feature", "properties": { "feature_type": "building", "subtype": "no-damage", "uid": "ba715a57-9900-4ca6-9bc5-b5c22b9bc600" }, "geometry": { "type": "Polygon", "coordinates": [ [ [ 182.537374010161614, 868.834629986239747 ], [ 191.586032382687193, 868.16435899584917 ], [ 192.64729477988999, 869.337333228532884 ], [ 192.479727033292107, 878.609415260270339 ], [ 183.151789087186188, 878.497703429538433 ], [ 182.984221338838609, 874.085086074633637 ], [ 181.86710301877099, 873.191391422779134 ], [ 182.034670765618813, 869.281477313166874 ], [ 182.537374010161614, 868.834629986239747 ] ] ] } },
{ "type": "Feature", "properties": { "feature_type": "building", "subtype": "no-damage", "uid": "a9596c18-065c-43c5-adf2-ba58e51e289a" }, "geometry": { "type": "Polygon", "coordinates": [ [ [ 177.162220544880995, 972.415065303557526 ], [ 181.1279905701102, 972.470921218923422 ], [ 185.987455251693291, 972.079929807362305 ], [ 185.484752009650094, 980.123181693049901 ], [ 181.463126067805206, 980.458317186245495 ], [ 175.374831236422295, 980.067325774684377 ], [ 175.821678565849197, 972.526777132289681 ], [ 177.162220544880995, 972.415065303557526 ] ] ] } },
{ "type": "Feature", "properties": { "feature_type": "building", "subtype": "no-damage", "uid": "791f220e-e96e-4ce6-b823-b2d91d920cbd" }, "geometry": { "type": "Polygon", "coordinates": [ [ [ 813.421430518572151, 716.301446119637035 ], [ 833.952338683366293, 715.873718867745424 ], [ 838.300899094846727, 718.867809641985446 ], [ 838.942489977433752, 728.634248594173414 ], [ 811.781809381321068, 729.632278853586627 ], [ 809.286733734537393, 726.281748702770187 ], [ 810.070900369754554, 720.222279276975087 ], [ 813.421430518572151, 716.301446119637035 ] ] ] } },
{ "type": "Feature", "properties": { "feature_type": "building", "subtype": "minor-damage", "uid": "327a3adc-7dff-4328-8488-67a0cb9ab751" }, "geometry": { "type": "Polygon", "coordinates": [ [ [ 823.720101366238282, 730.234460229123442 ], [ 842.371698617613333, 730.416427029780948 ], [ 843.372516030728661, 746.338522247291849 ], [ 886.680615014170371, 747.430323059235889 ], [ 891.229785076603093, 748.886057479493957 ], [ 889.669630316055077, 762.654106411356565 ], [ 889.396680111319256, 766.111475659844473 ], [ 886.12127766548781, 766.930326266802808 ], [ 883.846692633771454, 768.204093888403008 ], [ 885.211443650951537, 770.023761910976077 ], [ 882.754891820077432, 774.936865579722053 ], [ 883.391775628878008, 778.758168429524972 ], [ 883.209808825470873, 779.849969243468763 ], [ 856.642655668002362, 779.849969243468763 ], [ 853.822170229064, 776.574566800637626 ], [ 851.820535401583584, 769.659828307661314 ], [ 852.002502204740836, 761.47132219808384 ], [ 852.275452409476657, 759.560670772182561 ], [ 850.091850781088738, 758.01395295259556 ], [ 842.358261676152779, 758.377886556910198 ], [ 842.813178680046462, 761.744272401069907 ], [ 828.164851086381759, 762.290172807041927 ], [ 827.436983874002863, 760.47050478246922 ], [ 824.070598029342364, 757.922969551266988 ], [ 822.796830411741212, 755.648384519051206 ], [ 823.524697622620351, 733.175484416878021 ], [ 823.720101366238282, 730.234460229123442 ] ] ] } },
{ "type": "Feature", "properties": { "feature_type": "building", "subtype": "no-damage", "uid": "954d8651-fb51-460f-b5aa-f3db252fdfbf" }, "geometry": { "type": "Polygon", "coordinates": [ [ [ 837.778570333196853, 805.190003259582113 ], [ 836.965727272131744, 797.177693072301508 ], [ 841.26218345818927, 795.087525195706917 ], [ 859.609212579083191, 793.229598197844439 ], [ 860.073694327299108, 794.15856169777544 ], [ 862.860584828842775, 813.782915630695129 ], [ 863.557307451791644, 813.782915631695005 ], [ 864.486270954972497, 820.517901001946029 ], [ 862.976705264209613, 822.956430194639324 ], [ 864.48627095197287, 831.897703877851541 ], [ 840.565460831741007, 834.452353501912171 ], [ 838.823654269244798, 826.091682004532117 ], [ 834.411077645320916, 825.162718505600878 ], [ 831.972548461375709, 821.562984943242895 ], [ 831.275825833677686, 813.202313441863453 ], [ 836.036763771450524, 809.950941195604059 ], [ 837.778570333196853, 805.190003259582113 ] ] ] } },
{ "type": "Feature", "properties": { "feature_type": "building", "subtype": "no-damage", "uid": "28364aee-32df-486f-9040-ea07260c5ac4" }, "geometry": { "type": "Polygon", "coordinates": [ [ [ 935.343648086027542, 759.96056605720878 ], [ 932.796112850575241, 757.59499762666394 ], [ 933.251029857968319, 747.131906486870662 ], [ 937.16331611210046, 746.676989481227338 ], [ 938.346100325873408, 730.663910865387379 ], [ 961.728834440088917, 729.390143248786444 ], [ 963.457519066083023, 731.664728278002485 ], [ 963.275552265175406, 737.123732351720719 ], [ 978.196830062076174, 736.941765551063099 ], [ 980.016498089648849, 740.308151394223046 ], [ 979.743547884163149, 762.781051494396593 ], [ 985.839435768432963, 763.144985102710621 ], [ 985.748452366104516, 772.243325223574516 ], [ 980.653381897699546, 773.153159238860439 ], [ 980.471415096292048, 779.885930928179732 ], [ 979.379614280098394, 782.433466161381716 ], [ 947.535423849318022, 782.615432966038611 ], [ 945.169855420022486, 777.24741229064955 ], [ 945.351822221429984, 770.332673796673362 ], [ 941.439535968297719, 766.966287953513415 ], [ 937.163316111850577, 762.053184285767315 ], [ 935.343648086027542, 759.96056605720878 ] ] ] } },
{ "type": "Feature", "properties": { "feature_type": "building", "subtype": "no-damage", "uid": "881b11a1-c63a-415b-b033-9a7d46598b3c" }, "geometry": { "type": "Polygon", "coordinates": [ [ [ 946.552129432704305, 840.639775538886397 ], [ 946.255724685094606, 829.969204653937595 ], [ 950.405391140131314, 830.265609399547543 ], [ 950.849998262295685, 826.560550066925998 ], [ 952.480224366649736, 825.671335826097106 ], [ 953.369438607978964, 821.818074118171012 ], [ 976.044401733126392, 821.521669372561178 ], [ 976.340806479236221, 828.487180920889045 ], [ 981.083282427492577, 829.228192787413377 ], [ 981.527889549156953, 837.37932332317996 ], [ 981.972496669071688, 840.639775538886397 ], [ 992.643067551523359, 841.380787406410491 ], [ 995.458912647065972, 845.530453858946544 ], [ 993.976888913017206, 856.497429490504942 ], [ 975.303389866851944, 855.904619998285398 ], [ 973.673163759748149, 858.275857968163564 ], [ 946.848534180563888, 860.350691197431047 ], [ 945.070105695905909, 849.828322686787033 ], [ 945.070105696905671, 845.382251484641756 ], [ 946.552129432704305, 840.639775538886397 ] ] ] } },
{ "type": "Feature", "properties": { "feature_type": "building", "subtype": "minor-damage", "uid": "f6bc1351-1e9c-492f-83e9-15b831d49ae8" }, "geometry": { "type": "Polygon", "coordinates": [ [ [ 936.436567470204409, 1022.97885922512296 ], [ 936.436567466204906, 1019.137416845906955 ], [ 943.868275462655902, 1018.905175971175026 ], [ 944.10051633888861, 1008.45433659820003 ], [ 952.577308277386578, 1007.293132224535952 ], [ 971.504939582863017, 1007.293132224535952 ], [ 973.24674614585922, 1011.008986225259946 ], [ 973.943468773557242, 1017.163369409679035 ], [ 977.775443206649584, 1017.62785115814404 ], [ 981.839658519224031, 1016.931128532945991 ], [ 982.188019830323469, 1020.414741660937011 ], [ 982.85974677934837, 1022.741559013899973 ], [ 986.665269581882399, 1022.669524632879984 ], [ 986.677193879834022, 1022.977898063133011 ], [ 936.436567470204409, 1022.97885922512296 ] ] ] } },
{ "type": "Feature", "properties": { "feature_type": "building", "subtype": "minor-damage", "uid": "f702e9b7-a602-4dcc-8e28-eabb941c5419" }, "geometry": { "type": "Polygon", "coordinates": [ [ [ 715.270472301767427, 931.224775906697005 ], [ 744.184461231755563, 931.224775908696643 ], [ 746.390749547466839, 932.734341593460044 ], [ 746.622990420700035, 946.9010349691589 ], [ 744.532822548604145, 946.784914530792662 ], [ 744.765063420587353, 948.991202842754092 ], [ 746.158508673733877, 950.036286780051569 ], [ 746.855231294682994, 958.164717402698784 ], [ 743.952220357772489, 960.138764840927251 ], [ 743.719979481789892, 962.22893271452233 ], [ 743.836099921655887, 963.15789621545332 ], [ 747.900315232980574, 963.041775777087082 ], [ 747.551953918881509, 975.46666258429093 ], [ 723.282782486050451, 974.537699085359691 ], [ 722.586059863601577, 970.821845088634973 ], [ 720.96037374122136, 967.454352399010077 ], [ 721.192614615204434, 958.745319592530336 ], [ 712.715822676456355, 957.003513029034707 ], [ 713.296424864288383, 934.360027722588825 ], [ 715.270472301767427, 931.224775906697005 ] ] ] } },
{ "type": "Feature", "properties": { "feature_type": "building", "subtype": "no-damage", "uid": "15be0c05-6e62-4567-af23-c50ea469f042" }, "geometry": { "type": "Polygon", "coordinates": [ [ [ 711.456785659179445, 867.101110528335767 ], [ 739.615236599607556, 865.767289166592377 ], [ 742.134676948040465, 869.0277413792993 ], [ 742.72748644051012, 877.919883784589729 ], [ 737.985010495503388, 880.291121757467408 ], [ 739.022427104888266, 889.776073654977381 ], [ 748.655581375205543, 889.479668906368033 ], [ 753.842664447625907, 892.888323492379754 ], [ 754.139069189736347, 902.225073017584691 ], [ 752.657045456437459, 905.48552523129149 ], [ 751.175021724138333, 906.819346593034879 ], [ 709.974761922631046, 907.115751339644589 ], [ 707.010714454533399, 905.781929979900838 ], [ 708.640940563636832, 875.993252929626806 ], [ 709.826559549826015, 875.40044343540751 ], [ 709.826559551075889, 867.693920019555549 ], [ 711.456785659179445, 867.101110528335767 ] ] ] } },
{ "type": "Feature", "properties": { "feature_type": "building", "subtype": "no-damage", "uid": "9e84eb30-c447-4b95-ac85-0190e1959c3e" }, "geometry": { "type": "Polygon", "coordinates": [ [ [ 371.733638392006526, 995.122129654287733 ], [ 382.593206863826481, 995.122129654287733 ], [ 384.190202226726626, 1010.133886072094015 ], [ 396.32736699021649, 1010.772684218553991 ], [ 402.076550298106724, 1010.772684218553991 ], [ 401.087626160026502, 1022.982432390193026 ], [ 367.314074790898815, 1022.982248933298024 ], [ 367.581450446266615, 1012.050280509473055 ], [ 365.026257865676428, 1012.050280509473055 ], [ 364.706858791696618, 1008.536890708944043 ], [ 370.136643028856383, 1007.898092564484045 ], [ 371.733638392006526, 995.122129654287733 ] ] ] } }
]
}
