{
"type": "FeatureCollection",
"name": "hurricane-florence_00000134_post_disaster",
"features": [
{ "type": "Feature", "properties": { "feature_type": "building", "subtype": "major-damage", "uid": "f1d2c9b5-6287-43e4-adb7-d0432d0005eb" }, "geometry": { "type": "Polygon", "coordinates": [ [ [ 819.606941767051467, 463.014889992754206 ], [ 823.781395892532373, 458.844295374308672 ], [ 836.629405809791251, 445.544438846648688 ], [ 861.69397884534942, 465.783746481062281 ], [ 838.346730501904631, 494.259067188363815 ], [ 808.705258945386731, 473.180644559666916 ], [ 809.389525305877896, 471.641045248721014 ], [ 801.324179811935551, 466.526281114665778 ], [ 808.995691364401409, 456.066003350026392 ], [ 819.606941767051467, 463.014889992754206 ] ] ] } },
{ "type": "Feature", "properties": { "feature_type": "building", "subtype": "major-damage", "uid": "3d432846-fe6e-44d0-8c83-a2e8194a69a5" }, "geometry": { "type": "Polygon", "coordinates": [ [ [ 744.921373327025549, 472.606127824022678 ], [ 752.44830331013236, 472.435061232785472 ], [ 768.699629419336929, 471.921861453979488 ], [ 768.870696007644824, 495.357984364832419 ], [ 751.250837175802076, 496.042250725705628 ], [ 744.408173554460063, 495.186917775632878 ], [ 744.921373327025549, 472.606127824022678 ] ] ] } },
{ "type": "Feature", "properties": { "feature_type": "building", "subtype": "major-damage", "uid": "e1ec4f6d-ff82-4c07-9fd3-bae80a76c4a1" }, "geometry": { "type": "Polygon", "coordinates": [ [ [ 1008.546045696970964, 1022.982106255721988 ], [ 1014.230083908082975, 993.801105132788507 ], [ 1022.422244014987996, 993.846596438296615 ], [ 1022.422325917381954, 1022.98176087194895 ], [ 1008.546045696970964, 1022.982106255721988 ] ] ] } },
{ "type": "Feature", "properties": { "feature_type": "building", "subtype": "major-damage", "uid": "3b27872c-d4be-4dab-a200-682fb80807ad" }, "geometry": { "type": "Polygon", "coordinates": [ [ [ 872.684203572199294, 870.957883277972769 ], [ 902.338057868397641, 877.457358190015952 ], [ 889.339108041826194, 927.015854402750506 ], [ 860.091470928840522, 919.297727947373915 ], [ 872.684203572199294, 870.957883277972769 ] ] ] } },
{ "type": "Feature", "properties": { "feature_type": "building", "subtype": "major-damage", "uid": "40ca736a-78cc-4522-ad59-600ccec77135" }, "geometry": { "type": "Polygon", "coordinates": [ [ [ 366.139310776752723, 631.129312962849781 ], [ 367.176205774548521, 644.090500458921838 ], [ 349.030543278669825, 645.645842962811344 ], [ 350.585885782050013, 631.129312963868642 ], [ 366.139310776752723, 631.129312962849781 ] ] ] } }
]
}
