{
"type": "FeatureCollection",
"name": "hurricane-harvey_00000032_post_disaster",
"features": [
{ "type": "Feature", "properties": { "feature_type": "building", "subtype": "no-damage", "uid": "3bc2ecae-7775-4e6e-8952-7d0d472c83da" }, "geometry": { "type": "Polygon", "coordinates": [ [ [ 600.781771579423662, 512.715041074230953 ], [ 604.771885369813049, 501.742228146910406 ], [ 617.490373081071652, 505.732341938482307 ], [ 612.752112953455253, 516.206390637125764 ], [ 631.705153456513699, 522.939707658536008 ], [ 625.719982769217836, 542.142130273379735 ], [ 616.492844629319507, 539.648309154892218 ], [ 611.006438169269018, 550.870504187588153 ], [ 596.542275677309817, 546.381626176302348 ], [ 602.527446363236436, 530.919935237696109 ], [ 593.050926112298498, 528.176732010845399 ], [ 593.050926111053627, 515.957008526770892 ], [ 600.532389468695214, 519.697740203008266 ], [ 600.532389468695214, 512.715041074230953 ], [ 600.781771579423662, 512.715041074230953 ] ] ] } },
{ "type": "Feature", "properties": { "feature_type": "building", "subtype": "no-damage", "uid": "1f5a3fd9-63b5-4770-ac5d-154b1ffb64ce" }, "geometry": { "type": "Polygon", "coordinates": [ [ [ 778.770265779811893, 605.728199537632918 ], [ 774.974329971972338, 603.656661019553553 ], [ 771.338896666079791, 594.592454750959519 ], [ 775.578392569936454, 584.617170273025863 ], [ 779.817888470307366, 584.617170273025863 ], [ 781.314181142769371, 573.644357348693006 ], [ 785.80305915766553, 572.646828903289816 ], [ 787.548733938801774, 563.669072874742824 ], [ 792.037611954693944, 561.17525175525941 ], [ 815.479530474578155, 585.365316607078171 ], [ 807.000538667985325, 604.567739224909701 ], [ 797.773400528896218, 601.325771769382072 ], [ 793.035140404267509, 611.550438355678807 ], [ 778.770265779811893, 605.728199537632918 ] ] ] } },
{ "type": "Feature", "properties": { "feature_type": "building", "subtype": "no-damage", "uid": "a651b63c-b466-4cfe-98f5-0ccee522f768" }, "geometry": { "type": "Polygon", "coordinates": [ [ [ 806.350872250738348, 616.184241646156011 ], [ 806.212067719576908, 615.811946255755515 ], [ 827.084596118885202, 624.808725740123464 ], [ 816.888246036297915, 654.917947744475441 ], [ 796.093240345304594, 646.3447414284974 ], [ 806.350872250738348, 616.184241646156011 ] ] ] } },
{ "type": "Feature", "properties": { "feature_type": "building", "subtype": "no-damage", "uid": "16e19680-cd20-4ef1-97bc-b6fd5369db59" }, "geometry": { "type": "Polygon", "coordinates": [ [ [ 804.331635778280315, 668.217347719632926 ], [ 889.8697001547946, 710.362924626553763 ], [ 885.131440029294481, 725.575233451817439 ], [ 796.102026084594399, 684.676567104638366 ], [ 803.583489441489064, 668.217347720628823 ], [ 804.331635778280315, 668.217347719632926 ] ] ] } },
{ "type": "Feature", "properties": { "feature_type": "building", "subtype": "no-damage", "uid": "51af477a-d363-4c21-baa9-acb15a815b9f" }, "geometry": { "type": "Polygon", "coordinates": [ [ [ 834.290217722199031, 755.011599387380784 ], [ 885.16416854812428, 782.693013804086149 ], [ 863.966689040045253, 823.591680157240717 ], [ 811.34706342638583, 797.157176298285208 ], [ 833.79145349781686, 755.260981497735656 ], [ 834.290217722199031, 755.011599387380784 ] ] ] } },
{ "type": "Feature", "properties": { "feature_type": "building", "subtype": "no-damage", "uid": "88e93125-e091-4d9a-bb8e-0c1437ba13b1" }, "geometry": { "type": "Polygon", "coordinates": [ [ [ 148.392331061904088, 352.402361412615221 ], [ 141.655975777537208, 366.946764865213993 ], [ 128.642562162757514, 359.291815682151707 ], [ 135.685115415534909, 344.441214263943323 ], [ 148.086133093369114, 352.708559384200214 ], [ 148.392331061904088, 352.402361412615221 ] ] ] } },
{ "type": "Feature", "properties": { "feature_type": "building", "subtype": "no-damage", "uid": "90af5f55-588f-4576-be7c-7608250858d9" }, "geometry": { "type": "Polygon", "coordinates": [ [ [ 188.377396414602202, 386.112229851269376 ], [ 228.203140261932191, 395.828751690323486 ], [ 224.244557289248206, 408.784114150362996 ], [ 209.729753059808303, 405.065445294248093 ], [ 205.411298905548591, 412.742697123046696 ], [ 192.455936446753213, 408.064371789701397 ], [ 193.415592926411307, 403.745917637682794 ], [ 183.819028144147097, 403.745917637682794 ], [ 186.817954639476113, 389.710941646610024 ], [ 188.377396414602202, 386.112229851269376 ] ] ] } },
{ "type": "Feature", "properties": { "feature_type": "building", "subtype": "no-damage", "uid": "d31960b7-8654-4ae7-ba6f-ade639e6ffdb" }, "geometry": { "type": "Polygon", "coordinates": [ [ [ 935.976178993804979, 404.151664012461424 ], [ 919.367399135096548, 439.127800422142286 ], [ 890.839377256005719, 425.645379125223485 ], [ 908.815938985418825, 393.795601279571827 ], [ 936.366973813312711, 402.588484731442691 ], [ 935.389986763422939, 404.737856242718919 ], [ 935.976178993804979, 404.151664012461424 ] ] ] } },
{ "type": "Feature", "properties": { "feature_type": "building", "subtype": "no-damage", "uid": "92a029f2-58d3-479e-857a-038cf1fde903" }, "geometry": { "type": "Polygon", "coordinates": [ [ [ 911.298544412220508, 391.032568851874487 ], [ 914.832722315379783, 383.894915437526322 ], [ 922.039673340559375, 386.112438829755092 ], [ 921.138804461314862, 389.923807155262182 ], [ 925.504553638302809, 391.656247302857821 ], [ 923.079137428457102, 397.407948599926215 ], [ 910.952056384705543, 391.379056883186308 ], [ 911.298544412220508, 391.032568851874487 ] ] ] } },
{ "type": "Feature", "properties": { "feature_type": "building", "subtype": "no-damage", "uid": "8621540d-5f27-41fc-a559-63d1a7a6e72c" }, "geometry": { "type": "Polygon", "coordinates": [ [ [ 964.425017923227983, 401.149286474909388 ], [ 954.052356220769639, 422.903063101367422 ], [ 941.806852826273598, 415.699825807053401 ], [ 952.899838254590577, 393.225725457039914 ], [ 964.857212158755601, 401.005221729401626 ], [ 964.425017923227983, 401.149286474909388 ] ] ] } },
{ "type": "Feature", "properties": { "feature_type": "building", "subtype": "no-damage", "uid": "16829052-553b-4bda-a38d-b366189dfc4f" }, "geometry": { "type": "Polygon", "coordinates": [ [ [ 963.848758938084416, 379.395509855422802 ], [ 971.772319960062532, 385.446229180694615 ], [ 965.001276906130784, 396.251085120671576 ], [ 955.781133172465729, 389.912236302392387 ], [ 963.992823685023836, 379.10738036341121 ], [ 963.848758938084416, 379.395509855422802 ] ] ] } },
{ "type": "Feature", "properties": { "feature_type": "building", "subtype": "no-damage", "uid": "00928d99-aa16-4baf-b71b-afd66dbb0816" }, "geometry": { "type": "Polygon", "coordinates": [ [ [ 866.330847203814869, 349.662722500978703 ], [ 837.936226062756305, 405.982632197943815 ], [ 812.609995259968855, 393.210002421813613 ], [ 814.515225840587505, 391.224970974042321 ], [ 811.289995262920229, 388.720002423185292 ], [ 836.2935620281811, 335.348078786217172 ], [ 866.330847203814869, 349.662722500978703 ] ] ] } },
{ "type": "Feature", "properties": { "feature_type": "building", "subtype": "no-damage", "uid": "5c3e83bb-9c0e-40da-9d71-39d0d159d586" }, "geometry": { "type": "Polygon", "coordinates": [ [ [ 998.710578156282395, 778.3689574814141 ], [ 995.958003035331558, 789.379257963971668 ], [ 984.947702551217276, 813.759209030713578 ], [ 975.117077120904128, 810.613408890563619 ], [ 973.544177052073906, 793.311508136669318 ], [ 971.184826950322417, 791.345383050320493 ], [ 964.500001656736003, 802.355683530886267 ], [ 933.042000281626088, 781.121532601306626 ], [ 945.625200830587005, 750.449981262232086 ], [ 980.622227362681201, 768.538332050665872 ], [ 998.710578156282395, 778.3689574814141 ] ] ] } },
{ "type": "Feature", "properties": { "feature_type": "building", "subtype": "no-damage", "uid": "c7714cea-c402-49fc-9e55-05092b4e08b7" }, "geometry": { "type": "Polygon", "coordinates": [ [ [ 938.066189254738333, 402.258362872179418 ], [ 935.511539632184963, 401.329399368836505 ], [ 924.828459383515224, 395.175016187946824 ], [ 925.504553638302809, 391.656247302857821 ], [ 927.615349883709541, 385.885381187383018 ], [ 942.246525004656178, 393.433209620797186 ], [ 938.066189254738333, 402.258362872179418 ] ] ] } }
]
}
