{
"type": "FeatureCollection",
"name": "hurricane-harvey_00000296_post_disaster",
"features": [
{ "type": "Feature", "properties": { "feature_type": "building", "subtype": "major-damage", "uid": "d179448b-46b6-432b-9384-65f8f3a107e9" }, "geometry": { "type": "Polygon", "coordinates": [ [ [ 339.261236965746775, 0.012440441071973 ], [ 360.23467512599268, 2.235516019164824 ], [ 368.361398819278179, 5.524904183220546 ], [ 365.652490920165178, 33.774943687279318 ], [ 326.953806665180196, 30.485555527214601 ], [ 322.116471131709091, 28.163634474929381 ], [ 322.309964553252485, 10.362239714136081 ], [ 327.528060256571507, 0.012352814618442 ], [ 339.261236965746775, 0.012440441071973 ] ] ] } },
{ "type": "Feature", "properties": { "feature_type": "building", "subtype": "major-damage", "uid": "ed9c5ad8-1c36-44a5-8e9c-0dd20702599b" }, "geometry": { "type": "Polygon", "coordinates": [ [ [ 259.517831968399605, 0.011730614316689 ], [ 259.367101978484015, 2.027051014982689 ], [ 236.0195995528791, 2.027051014982689 ], [ 236.83643636411739, 0.011479768826747 ], [ 259.517831968399605, 0.011730614316689 ] ] ] } },
{ "type": "Feature", "properties": { "feature_type": "building", "subtype": "major-damage", "uid": "26ea0061-d2c4-46a3-bb11-5baac20769fe" }, "geometry": { "type": "Polygon", "coordinates": [ [ [ 31.55876915734618, 233.9825096263977 ], [ 86.082541851183223, 223.291573803991014 ], [ 91.428009759703841, 225.667337320968301 ], [ 98.080147603322416, 258.690450187596014 ], [ 96.892265847577889, 260.947425528524889 ], [ 39.161212406358587, 269.975326892240275 ], [ 36.072719837332023, 267.955927903408281 ], [ 29.301793816355509, 236.833425844575402 ], [ 31.55876915734618, 233.9825096263977 ] ] ] } },
{ "type": "Feature", "properties": { "feature_type": "building", "subtype": "major-damage", "uid": "bd8ee688-e309-4ce4-9db1-e1129fd30eb8" }, "geometry": { "type": "Polygon", "coordinates": [ [ [ 314.72433290602288, 319.512581391567323 ], [ 318.666119028503772, 317.996509803445406 ], [ 340.497549869915815, 323.454367515296383 ], [ 343.37808588263232, 325.122046257840282 ], [ 335.94933511147542, 366.965622036724596 ], [ 332.917191940221073, 370.452586684216612 ], [ 308.660046562516527, 365.449550449600508 ], [ 306.23433202647351, 363.327050228824021 ], [ 314.72433290602288, 319.512581391567323 ] ] ] } },
{ "type": "Feature", "properties": { "feature_type": "building", "subtype": "un-classified", "uid": "c1501b37-4a97-4db1-b0e1-fde6cd09857c" }, "geometry": { "type": "Polygon", "coordinates": [ [ [ 320.924562495664986, 382.688662249036327 ], [ 323.185257195798272, 383.417918603922317 ], [ 322.164298301190684, 397.055012439889822 ], [ 320.049454873506193, 397.346714982043693 ], [ 319.611901058591798, 399.315707139836491 ], [ 310.496196622457717, 398.14889697421421 ], [ 308.964758279018497, 396.690384263444628 ], [ 310.350345353750413, 382.761587884325422 ], [ 311.225452978403609, 381.886480256865923 ], [ 320.924562495664986, 382.688662249036327 ] ] ] } },
{ "type": "Feature", "properties": { "feature_type": "building", "subtype": "major-damage", "uid": "f6490316-74e6-4fd1-8d4e-e4842c12b597" }, "geometry": { "type": "Polygon", "coordinates": [ [ [ -0.000004723039804, 789.017900379165781 ], [ 3.409153064098715, 786.760925036241474 ], [ 9.586138203710835, 795.313673696760929 ], [ 9.467350028098965, 800.421565253872018 ], [ -0.000004722665648, 806.004609517172184 ], [ -0.000004723039804, 789.017900379165781 ] ] ] } },
{ "type": "Feature", "properties": { "feature_type": "building", "subtype": "major-damage", "uid": "7f918651-252e-4c54-b768-f7be8b66db18" }, "geometry": { "type": "Polygon", "coordinates": [ [ [ -0.000004719672396, 823.202988648981204 ], [ 1.244823593036743, 819.293895600463884 ], [ 7.201536807676617, 816.687833572110094 ], [ 9.249156976169798, 816.036318059035125 ], [ 17.532711293566859, 819.852337464252741 ], [ 19.95262603638097, 820.876147547533037 ], [ 20.417994259800938, 822.458399494602077 ], [ 26.00241289899742, 820.131558395149341 ], [ 26.002412898062019, 817.43242271651161 ], [ 24.51323459292102, 814.64021340056081 ], [ 24.234013663022171, 806.542806372629457 ], [ 24.978602815405601, 803.285228831200698 ], [ 27.584664845629611, 799.469209426980797 ], [ 32.703715266270152, 793.977864434387584 ], [ 39.591164924444918, 790.254918671471842 ], [ 50.946149490746642, 789.231108586196115 ], [ 56.437494486206987, 790.62721324666586 ], [ 66.861742617142909, 797.607736547019499 ], [ 69.840099223371553, 802.354492392217821 ], [ 72.632308543063331, 811.754930435323672 ], [ 67.978626343660181, 827.112081693507548 ], [ 61.649618550770739, 833.161868554878197 ], [ 47.50242466596206, 837.72247711247951 ], [ 37.915839330272668, 834.744120503942781 ], [ 30.74916874095187, 826.367492543119397 ], [ 29.72535865823308, 824.692166950755109 ], [ 23.861719084024291, 828.50818635497501 ], [ 23.768645440724669, 832.510353045794204 ], [ 23.396350868835761, 835.209488725429765 ], [ 19.487257816328409, 840.421612786128435 ], [ 15.671238412234141, 842.469232958675548 ], [ 10.36604070811234, 842.841527531874021 ], [ 3.571664692114723, 841.352349230100117 ], [ -0.000004718051051, 837.257108895981332 ], [ -0.000004719672396, 823.202988648981204 ] ] ] } },
{ "type": "Feature", "properties": { "feature_type": "building", "subtype": "major-damage", "uid": "6dd5208a-e41b-4783-b24f-2e98f6dea13e" }, "geometry": { "type": "Polygon", "coordinates": [ [ [ -0.000004724848227, 2.571103286896086 ], [ 3.740775919638733, 4.985163784551592 ], [ 10.017333210523329, 30.815611100685299 ], [ -0.000004724224633, 34.919513944903713 ], [ -0.000004724848227, 2.571103286896086 ] ] ] } },
{ "type": "Feature", "properties": { "feature_type": "building", "subtype": "major-damage", "uid": "6bd299f0-d0b2-441b-948d-e807e256f16a" }, "geometry": { "type": "Polygon", "coordinates": [ [ [ 63.853544074612152, 0.008853581345534 ], [ 64.33369439241865, 1.605479091425787 ], [ 71.575875881267692, 5.226569832920291 ], [ 64.092288342989889, 16.572654170105221 ], [ 33.781026021846927, 0.008268371651567 ], [ 63.853544074612152, 0.008853581345534 ] ] ] } }
]
}
