{
"type": "FeatureCollection",
"name": "hurricane-florence_00000487_post_disaster",
"features": [
{ "type": "Feature", "properties": { "feature_type": "building", "subtype": "major-damage", "uid": "26c80a09-0072-4cef-9bab-b43deba8e01f" }, "geometry": { "type": "Polygon", "coordinates": [ [ [ 247.312084312956813, 0.010052253170835 ], [ 340.398767071496025, 63.53378205738133 ], [ 317.250346867675773, 91.674998773383862 ], [ 182.476490314308705, 0.009096482803424 ], [ 247.312084312956813, 0.010052253170835 ] ] ] } },
{ "type": "Feature", "properties": { "feature_type": "building", "subtype": "minor-damage", "uid": "093eec35-9a51-4cca-874c-a2617d11fd95" }, "geometry": { "type": "Polygon", "coordinates": [ [ [ 126.162407544099594, 65.349344440464264 ], [ 134.332438202584399, 49.917064309171558 ], [ 146.587484193689392, 34.938674765746981 ], [ 349.930469510282592, 172.013633585711887 ], [ 329.505392858271023, 201.516522080614209 ], [ 126.162407544099594, 65.349344440464264 ] ] ] } }
]
}
