{
"type": "FeatureCollection",
"name": "hurricane-michael_00000229_post_disaster",
"features": [
{ "type": "Feature", "properties": { "feature_type": "building", "subtype": "no-damage", "uid": "674032a0-4e35-471c-8f45-9dd690723eaa" }, "geometry": { "type": "Polygon", "coordinates": [ [ [ 882.866637992528808, 87.297668438453215 ], [ 911.434081863238021, 86.48681639590643 ], [ 914.034300219340935, 88.544883941918457 ], [ 913.466856349421619, 112.188378527809505 ], [ 910.866637991569519, 113.297668439460097 ], [ 882.866637992279038, 114.297668439229696 ], [ 880.933407804298099, 99.704613385083732 ], [ 882.866637992528808, 87.297668438453215 ] ] ] } },
{ "type": "Feature", "properties": { "feature_type": "building", "subtype": "no-damage", "uid": "bbf7ebe8-5e8c-49d2-8215-f3bcef5e5a96" }, "geometry": { "type": "Polygon", "coordinates": [ [ [ 915.190673689938194, 88.054260264346183 ], [ 945.190673688267907, 88.054260264346183 ], [ 944.677490036751465, 114.054260264353601 ], [ 915.190673691437382, 114.054260264353601 ], [ 914.034300218841167, 100.461205214974598 ], [ 915.190673689938194, 88.054260264346183 ] ] ] } },
{ "type": "Feature", "properties": { "feature_type": "building", "subtype": "no-damage", "uid": "bfa8ec29-1420-4e95-8d0a-b910f64ce8cc" }, "geometry": { "type": "Polygon", "coordinates": [ [ [ 947.055785948736911, 88.432556177792392 ], [ 976.055785948046719, 88.432556179791348 ], [ 976.055785953044165, 113.432556177030705 ], [ 947.0557859502361, 114.432556177799796 ], [ 945.432861026374781, 100.6503531701985 ], [ 947.055785948736911, 88.432556177792392 ] ] ] } },
{ "type": "Feature", "properties": { "feature_type": "building", "subtype": "minor-damage", "uid": "d17c6bb5-d55f-4520-8027-4357865c0f1a" }, "geometry": { "type": "Polygon", "coordinates": [ [ [ 1023.051627812851052, 105.194146065080304 ], [ 981.955851200409484, 107.592881677384497 ], [ 982.0301517897243, 77.678968653995653 ], [ 980.990227003318637, 74.937415134736369 ], [ 979.541790702809863, 34.627257482137367 ], [ 1023.051546554597962, 33.170544553940587 ], [ 1023.051627812851052, 105.194146065080304 ] ] ] } },
{ "type": "Feature", "properties": { "feature_type": "building", "subtype": "minor-damage", "uid": "13f4cb08-e85c-413f-ad12-ddf09b6e45ab" }, "geometry": { "type": "Polygon", "coordinates": [ [ [ 976.32556143043405, 360.621704135323114 ], [ 1009.325561431070014, 360.621704134323579 ], [ 1009.325561430571042, 369.621704133249807 ], [ 976.325561429684512, 369.62170413524882 ], [ 976.32556143043405, 360.621704135323114 ] ] ] } },
{ "type": "Feature", "properties": { "feature_type": "building", "subtype": "minor-damage", "uid": "a910b3a2-e35d-4372-b9a4-22f28ee44643" }, "geometry": { "type": "Polygon", "coordinates": [ [ [ 941.812377775013715, 353.351928655797622 ], [ 942.001525732736354, 359.108520484536712 ], [ 972.649597128398568, 359.730224568861104 ], [ 972.460449168677087, 369.054260265579217 ], [ 924.434081865237772, 368.432556179255812 ], [ 924.434081861739514, 360.432556177100821 ], [ 927.48834208219921, 360.243408222876326 ], [ 927.110046166254392, 353.730224567244875 ], [ 941.812377775013715, 353.351928655797622 ] ] ] } },
{ "type": "Feature", "properties": { "feature_type": "building", "subtype": "no-damage", "uid": "bc0e97f8-1c12-4da4-81ff-9cb9cfef8ec7" }, "geometry": { "type": "Polygon", "coordinates": [ [ [ 1017.014848887857056, 202.44578189964659 ], [ 1011.860946042329033, 209.275781898692912 ], [ 985.86094604357686, 210.27578190046151 ], [ 984.86094604630614, 181.275781898146789 ], [ 1011.585164191689955, 179.310157703534912 ], [ 1016.53203678743705, 186.387660907812887 ], [ 1017.014848887857056, 202.44578189964659 ] ] ] } },
{ "type": "Feature", "properties": { "feature_type": "building", "subtype": "no-damage", "uid": "61dd27ad-3296-4507-b3f0-d275eef051dd" }, "geometry": { "type": "Polygon", "coordinates": [ [ [ 942.516412591248923, 195.517187947879989 ], [ 976.516412589405832, 195.517187949879002 ], [ 976.516412590405253, 215.517187947270713 ], [ 941.516412588730986, 214.517187949499998 ], [ 942.516412591248923, 195.517187947879989 ] ] ] } },
{ "type": "Feature", "properties": { "feature_type": "building", "subtype": "minor-damage", "uid": "a4ca9f96-71ee-45f8-84a3-51a551ee9703" }, "geometry": { "type": "Polygon", "coordinates": [ [ [ 961.454992970981152, 292.580407725449788 ], [ 961.061767954000629, 303.297668438668325 ], [ 945.24493390592113, 302.675964350345907 ], [ 945.244933909669157, 294.675964352188828 ], [ 930.244933908130633, 294.675964354187784 ], [ 930.244933905132143, 278.67596435087728 ], [ 961.514709389116774, 278.486816394653886 ], [ 961.454992970981152, 292.580407725449788 ] ] ] } },
{ "type": "Feature", "properties": { "feature_type": "building", "subtype": "minor-damage", "uid": "617b1617-eb4e-4c06-8161-9b7e703f7609" }, "geometry": { "type": "Polygon", "coordinates": [ [ [ 874.550788390367416, 160.517187948946514 ], [ 910.55078839056182, 159.517187949176787 ], [ 910.550788392061122, 190.517187950031314 ], [ 875.550788389387208, 191.517187950800491 ], [ 874.550788390367416, 160.517187948946514 ] ] ] } },
{ "type": "Feature", "properties": { "feature_type": "building", "subtype": "no-damage", "uid": "275910a7-e6a3-4931-a5af-8fb739fc8135" }, "geometry": { "type": "Polygon", "coordinates": [ [ [ 971.038688306781296, 446.267230385391599 ], [ 971.038688302783385, 454.267230384548213 ], [ 961.038688302590572, 454.267230384548213 ], [ 961.038688305339065, 446.267230385391599 ], [ 951.038688306895324, 446.267230384392121 ], [ 951.038688304396601, 426.267230384002119 ], [ 970.038688303013942, 425.267230383232913 ], [ 971.038688306781296, 446.267230385391599 ] ] ] } },
{ "type": "Feature", "properties": { "feature_type": "building", "subtype": "no-damage", "uid": "111290c6-be58-4296-8385-f9ad14b6253e" }, "geometry": { "type": "Polygon", "coordinates": [ [ [ 928.741224809784057, 446.16807588283109 ], [ 892.741224805841625, 447.168075884599716 ], [ 891.741224808321022, 428.168075884978691 ], [ 900.741224805995785, 428.168075882979792 ], [ 900.741224809494042, 423.168075884131611 ], [ 928.741224808284869, 422.168075883362519 ], [ 928.741224807785102, 427.168075885209078 ], [ 928.741224809784057, 446.16807588283109 ] ] ] } },
{ "type": "Feature", "properties": { "feature_type": "building", "subtype": "no-damage", "uid": "07a29ef8-97c2-4755-9a1b-5335fce0c7f8" }, "geometry": { "type": "Polygon", "coordinates": [ [ [ 934.305918636534557, 443.000000048869424 ], [ 944.305918637726791, 443.000000049868902 ], [ 944.305918638226558, 464.000000048029676 ], [ 934.305918637533978, 465.000000048798825 ], [ 934.305918636534557, 443.000000048869424 ] ] ] } },
{ "type": "Feature", "properties": { "feature_type": "building", "subtype": "destroyed", "uid": "946b3272-2db6-46bc-bf0d-8d12d6a8ef7e" }, "geometry": { "type": "Polygon", "coordinates": [ [ [ 877.494022315300981, 569.391259768382497 ], [ 974.627384450861655, 570.282739335843871 ], [ 979.056045158041343, 574.88397623430285 ], [ 980.758376764051377, 655.461005776358888 ], [ 968.304874356084838, 668.606775032049086 ], [ 878.304874355348829, 669.606775029819687 ], [ 877.494022315300981, 569.391259768382497 ] ] ] } },
{ "type": "Feature", "properties": { "feature_type": "building", "subtype": "no-damage", "uid": "bd5fae92-347b-4231-a79c-15ae9d0a82f4" }, "geometry": { "type": "Polygon", "coordinates": [ [ [ 795.206254935846005, 61.517187950763571 ], [ 804.206254935519837, 61.517187950763571 ], [ 804.206254936769255, 75.517187948537938 ], [ 795.20625493784496, 75.517187948537938 ], [ 795.206254935846005, 61.517187950763571 ] ] ] } },
{ "type": "Feature", "properties": { "feature_type": "building", "subtype": "major-damage", "uid": "94e53afc-b6f2-4575-8b96-d5cd6e006f9f" }, "geometry": { "type": "Polygon", "coordinates": [ [ [ 209.361640432315596, 561.87960369207849 ], [ 258.037604736967808, 572.17727208430324 ], [ 259.037604735737773, 566.690455735702812 ], [ 281.631415912093303, 571.068751651225966 ], [ 280.442267955101102, 575.933863912503512 ], [ 279.874824087430625, 578.447047563059641 ], [ 320.361640431207604, 586.8796036953147 ], [ 325.361640431304011, 567.879603694694197 ], [ 343.766303652608485, 572.257899608218395 ], [ 337.118232261156891, 590.87960369639211 ], [ 354.361640431863179, 594.879603692472301 ], [ 351.36164043230508, 606.879603692706382 ], [ 362.361640432267279, 609.879603693014701 ], [ 359.605048604836782, 623.960231217702699 ], [ 347.091864951339915, 620.068751650932313 ], [ 203.2267526961285, 587.392787347330909 ], [ 209.361640432315596, 561.87960369207849 ] ] ] } },
{ "type": "Feature", "properties": { "feature_type": "building", "subtype": "destroyed", "uid": "471628a5-c423-4a37-91db-faa9b347bd04" }, "geometry": { "type": "Polygon", "coordinates": [ [ [ 472.033562769239893, 832.606699503749724 ], [ 472.033562768740126, 840.606699501906746 ], [ 442.033562771409891, 840.606699503905702 ], [ 441.033562769641605, 832.606699505748679 ], [ 418.033562769947707, 833.606699503519394 ], [ 417.033562770178321, 794.606699504507787 ], [ 473.03356277250748, 793.606699503738696 ], [ 474.033562768528782, 832.606699503749724 ], [ 472.033562769239893, 832.606699503749724 ] ] ] } },
{ "type": "Feature", "properties": { "feature_type": "building", "subtype": "major-damage", "uid": "215908ec-ee58-4956-89e9-75068e79c214" }, "geometry": { "type": "Polygon", "coordinates": [ [ [ 789.461974775775047, 495.730224568515325 ], [ 789.461974771527366, 512.73022456959643 ], [ 777.461974772795202, 512.73022456959643 ], [ 777.4619747712959, 524.730224567831556 ], [ 749.461974771755536, 524.730224569830511 ], [ 749.461974772255189, 495.730224568515325 ], [ 777.461974773544739, 495.730224569514689 ], [ 789.461974775775047, 495.730224568515325 ] ] ] } },
{ "type": "Feature", "properties": { "feature_type": "building", "subtype": "no-damage", "uid": "40084195-3250-42d9-afb7-78fcdd9977d6" }, "geometry": { "type": "Polygon", "coordinates": [ [ [ 135.202938188476196, 580.605395844627765 ], [ 144.172425409912904, 580.873771276972093 ], [ 143.990458604296691, 579.236070055160667 ], [ 154.908466749869802, 578.872136450424819 ], [ 154.908466750619397, 572.776248566850541 ], [ 166.372375306544598, 572.321331562179921 ], [ 166.736308909031607, 579.78197046276432 ], [ 169.302832271152397, 581.582650358973069 ], [ 170.531662421404008, 603.031322052015412 ], [ 167.124451551524004, 603.757448955643213 ], [ 166.62174830839831, 604.986279105395283 ], [ 159.919038409383887, 605.097990939644205 ], [ 159.807326574885195, 606.550244750897832 ], [ 150.702812288494187, 606.661956582148264 ], [ 150.646956372868999, 604.874567275144386 ], [ 135.435179061947196, 606.151892085856502 ], [ 134.854576874896509, 599.649147587689413 ], [ 132.764408999914991, 599.765268026298941 ], [ 132.648288564553809, 591.752957840200565 ], [ 135.783540374527405, 591.636837402590572 ], [ 135.202938188476196, 580.605395844627765 ] ] ] } },
{ "type": "Feature", "properties": { "feature_type": "building", "subtype": "no-damage", "uid": "be1fa125-848f-4c0e-8a72-79498611171d" }, "geometry": { "type": "Polygon", "coordinates": [ [ [ 135.632353974432903, 608.031404807583044 ], [ 166.111793385051499, 607.212554195178086 ], [ 166.839660596522094, 609.123205620791282 ], [ 169.20522902605569, 609.032222216858713 ], [ 169.569162630041887, 625.409234441968465 ], [ 135.814320778050188, 627.137919062715014 ], [ 135.632353974432903, 608.031404807583044 ] ] ] } },
{ "type": "Feature", "properties": { "feature_type": "building", "subtype": "minor-damage", "uid": "939e6fb8-ac73-4b61-bab5-19b097449be5" }, "geometry": { "type": "Polygon", "coordinates": [ [ [ 934.990546058319751, 46.565280345560581 ], [ 935.879760298515976, 63.460350909292671 ], [ 916.317047012949615, 63.163946163893158 ], [ 913.501201920660719, 53.23438714653404 ], [ 913.352999545712123, 45.824268476564697 ], [ 934.990546058319751, 46.565280345560581 ] ] ] } },
{ "type": "Feature", "properties": { "feature_type": "building", "subtype": "minor-damage", "uid": "3f7d5d94-d94b-4965-bff2-4da3e94c078b" }, "geometry": { "type": "Polygon", "coordinates": [ [ [ 889.861186528704479, 247.548465654085106 ], [ 910.962030829678724, 247.824178128257614 ], [ 911.736434939742139, 259.872549263054282 ], [ 912.660741210539527, 270.656122424775276 ], [ 912.056582956737429, 278.58165384597271 ], [ 888.936880261405236, 278.666776773853485 ], [ 884.623450994768746, 262.645468078695387 ], [ 889.861186528704479, 247.548465654085106 ] ] ] } },
{ "type": "Feature", "properties": { "feature_type": "building", "subtype": "no-damage", "uid": "15bff0f9-4ca9-4c41-86ec-2fa2d1bc9233" }, "geometry": { "type": "Polygon", "coordinates": [ [ [ 1023.051833852844993, 445.706928860374092 ], [ 1015.871569508229982, 446.014654327192204 ], [ 1015.987689944841009, 447.988701766563111 ], [ 1010.181668068586987, 447.988701764564212 ], [ 1010.181668069336979, 446.363015640022411 ], [ 1001.820996570659986, 446.479136078631882 ], [ 1002.053237448878008, 441.137595953566915 ], [ 995.898854260044573, 441.253716392176386 ], [ 996.247215572125015, 427.667625204793524 ], [ 1001.704876134798951, 427.783745643403108 ], [ 1001.588755695689997, 426.041939082250678 ], [ 1023.051829983617949, 426.153147151961491 ], [ 1023.051833852844993, 445.706928860374092 ] ] ] } },
{ "type": "Feature", "properties": { "feature_type": "building", "subtype": "major-damage", "uid": "7d68f711-b7f0-4947-a7b4-dfc9c2995061" }, "geometry": { "type": "Polygon", "coordinates": [ [ [ 991.160287606657562, 494.373929866968581 ], [ 991.012085234207802, 466.95649079207999 ], [ 1014.914274895631024, 469.560863536995328 ], [ 1012.203249614523997, 508.658683750381783 ], [ 990.863882859259206, 510.37978619350281 ], [ 991.160287606657562, 494.373929866968581 ] ] ] } },
{ "type": "Feature", "properties": { "feature_type": "building", "subtype": "destroyed", "uid": "2c91ed3e-9b87-4bdd-84e0-188870ba3409" }, "geometry": { "type": "Polygon", "coordinates": [ [ [ 962.557229542931054, 509.49057195230688 ], [ 963.298241409677985, 526.089237770639443 ], [ 947.440587461843961, 526.237440141840011 ], [ 947.736992204494868, 509.490571950307924 ], [ 962.557229542931054, 509.49057195230688 ] ] ] } },
{ "type": "Feature", "properties": { "feature_type": "building", "subtype": "major-damage", "uid": "78fdc908-22d9-48ed-95e9-2a2f0a9235f1" }, "geometry": { "type": "Polygon", "coordinates": [ [ [ 729.147276082700841, 671.748887770352326 ], [ 728.491761632482394, 661.207233655301025 ], [ 747.071006123186748, 661.922680439484225 ], [ 746.229484461178799, 672.052889039874231 ], [ 729.147276082700841, 671.748887770352326 ] ] ] } },
{ "type": "Feature", "properties": { "feature_type": "building", "subtype": "major-damage", "uid": "58e98212-bc6a-4be1-ba05-159a304733e1" }, "geometry": { "type": "Polygon", "coordinates": [ [ [ 729.511209688935878, 681.484111700286235 ], [ 747.525923128856675, 682.939846121228811 ], [ 748.253790340577211, 688.944750601870055 ], [ 746.525105717082511, 691.94720284169091 ], [ 729.329242888816793, 692.493103250294098 ], [ 727.873508465125951, 687.034099174258017 ], [ 729.511209688935878, 681.484111700286235 ] ] ] } },
{ "type": "Feature", "properties": { "feature_type": "building", "subtype": "destroyed", "uid": "f4b6da6f-405f-4a3a-8453-0d20631b27d7" }, "geometry": { "type": "Polygon", "coordinates": [ [ [ 786.816605481241254, 0.00516547752638 ], [ 785.600389028449626, 14.09753234370042 ], [ 730.758870762124047, 13.33584459190654 ], [ 731.520558515167068, 30.85466292714284 ], [ 666.015411696493743, 33.139726187521873 ], [ 665.253723943950376, 26.284536404385811 ], [ 652.305032131224152, 26.284536407384248 ], [ 651.797174080241916, 0.006354328773547 ], [ 786.816605481241254, 0.00516547752638 ] ] ] } }
]
}
