{
"type": "FeatureCollection",
"name": "hurricane-florence_00000489_post_disaster",
"features": [
{ "type": "Feature", "properties": { "feature_type": "building", "subtype": "minor-damage", "uid": "b83125f0-9651-40c2-9ba4-8e8860a56ad3" }, "geometry": { "type": "Polygon", "coordinates": [ [ [ 207.893417130594997, 461.085342823366091 ], [ 204.572212252427789, 440.721344438951292 ], [ 207.878329280196397, 421.110440983530623 ], [ 317.703889038969407, 418.708037863671507 ], [ 317.703889040371507, 422.330480715985686 ], [ 325.784723095278423, 422.330480714965972 ], [ 326.063372546348603, 432.919159824789688 ], [ 318.818486840700984, 432.919159824789688 ], [ 319.097136290879007, 458.833558693384589 ], [ 207.893417130594997, 461.085342823366091 ] ] ] } },
{ "type": "Feature", "properties": { "feature_type": "building", "subtype": "minor-damage", "uid": "1f11ad4e-fa2c-4095-b15b-4f1dfb9b164b" }, "geometry": { "type": "Polygon", "coordinates": [ [ [ 189.188675639879506, 429.63007945177111 ], [ 194.12494841608671, 429.836411834294722 ], [ 194.892001955144991, 429.913117187359319 ], [ 195.889171556456205, 430.833581431272307 ], [ 196.426109036448196, 432.367688511938297 ], [ 196.426109037212996, 433.288152758910428 ], [ 195.965876913344601, 433.748384882396408 ], [ 195.58235013909939, 433.901795592604287 ], [ 193.689169260672287, 434.207947716902709 ], [ 192.667546690652188, 434.438733070174578 ], [ 190.673207490578989, 434.438733070174578 ], [ 189.369216471018802, 434.208617004862674 ], [ 188.67886828464259, 433.901795592604287 ], [ 188.141930808474513, 433.211447404826117 ], [ 187.579871072068414, 432.138911028664609 ], [ 187.835109390352898, 430.986992139440815 ], [ 188.1921753251263, 430.296643958800416 ], [ 189.188675639879506, 429.63007945177111 ] ] ] } }
]
}
