{
"type": "FeatureCollection",
"name": "hurricane-florence_00000201_post_disaster",
"features": [
{ "type": "Feature", "properties": { "feature_type": "building", "subtype": "no-damage", "uid": "d18bd701-263a-4bac-9e03-0549f2098d0d" }, "geometry": { "type": "Polygon", "coordinates": [ [ [ 335.351417472057392, 444.477987214159214 ], [ 344.463317106801185, 452.982426871417601 ], [ 353.575216742946623, 462.094326507179574 ], [ 321.379838030689882, 496.314571803189324 ], [ 309.02815186142459, 485.785265559752872 ], [ 302.143605470661385, 476.875852586889721 ], [ 335.351417472057392, 444.477987214159214 ] ] ] } },
{ "type": "Feature", "properties": { "feature_type": "building", "subtype": "no-damage", "uid": "6e3cc499-e60f-41fe-989e-0da8cb267d8e" }, "geometry": { "type": "Polygon", "coordinates": [ [ [ 631.018082982615397, 720.389842901937755 ], [ 639.804702606280102, 716.254963079456843 ], [ 648.332892243524157, 714.445953152853349 ], [ 664.872411539437621, 764.581371010243515 ], [ 649.108182209411211, 771.300550723940773 ], [ 631.018082982615397, 720.389842901937755 ] ] ] } },
{ "type": "Feature", "properties": { "feature_type": "building", "subtype": "no-damage", "uid": "e2ae27b4-1d3a-432e-b928-dd8e17ed68f7" }, "geometry": { "type": "Polygon", "coordinates": [ [ [ 747.163319914793078, 627.766075626595125 ], [ 756.466799517924187, 623.889625789260776 ], [ 777.14119863504493, 671.440743757473001 ], [ 767.579289044473853, 675.058763605583749 ], [ 747.163319914793078, 627.766075626595125 ] ] ] } },
{ "type": "Feature", "properties": { "feature_type": "building", "subtype": "no-damage", "uid": "69eea326-adfd-4e7c-8642-2ef1254725ca" }, "geometry": { "type": "Polygon", "coordinates": [ [ [ 768.991716623641196, 676.322020572597694 ], [ 777.562876575885525, 672.718237414378677 ], [ 780.679662011154278, 679.925803735913064 ], [ 772.205901608519866, 683.334787806123927 ], [ 768.991716623641196, 676.322020572597694 ] ] ] } },
{ "type": "Feature", "properties": { "feature_type": "building", "subtype": "no-damage", "uid": "40f433b5-405b-4084-8f16-ab029bd44e33" }, "geometry": { "type": "Polygon", "coordinates": [ [ [ 811.496461601184251, 715.911203097414955 ], [ 830.361850794249335, 710.484173325758434 ], [ 843.283350244727217, 759.327441240088547 ], [ 824.41796104885907, 764.754471009706435 ], [ 811.496461601184251, 715.911203097414955 ] ] ] } },
{ "type": "Feature", "properties": { "feature_type": "building", "subtype": "no-damage", "uid": "c74d2e52-d83e-44f8-b579-b7e7efd601e6" }, "geometry": { "type": "Polygon", "coordinates": [ [ [ 802.310408712255025, 831.352921156432444 ], [ 811.097028335027858, 826.959611346766565 ], [ 823.243237817707495, 824.892171429920268 ], [ 835.389447300769461, 862.881379807053008 ], [ 816.007198126454114, 869.600559522788785 ], [ 802.310408712255025, 831.352921156432444 ] ] ] } },
{ "type": "Feature", "properties": { "feature_type": "building", "subtype": "no-damage", "uid": "7939c773-a365-4ddb-8f40-c18ba260aaac" }, "geometry": { "type": "Polygon", "coordinates": [ [ [ 672.398277153762024, 856.175960911527 ], [ 680.092770181468268, 851.721254420508672 ], [ 690.014616448313518, 850.911307788279942 ], [ 704.188682547610824, 888.168852954383055 ], [ 686.774829913537246, 895.053399346164838 ], [ 672.398277153762024, 856.175960911527 ] ] ] } },
{ "type": "Feature", "properties": { "feature_type": "building", "subtype": "no-damage", "uid": "eeb546a4-607c-415d-8f82-d5e4822bf619" }, "geometry": { "type": "Polygon", "coordinates": [ [ [ 869.06283149357705, 954.601353896815681 ], [ 875.44580968315347, 951.055254904192452 ], [ 889.062829819251647, 949.778659266481213 ], [ 897.998999277370785, 991.480783421523256 ], [ 876.155029480225721, 994.317662617456449 ], [ 869.06283149357705, 954.601353896815681 ] ] ] } },
{ "type": "Feature", "properties": { "feature_type": "building", "subtype": "no-damage", "uid": "079244fa-00b1-48b5-8cf9-b3f8742467bc" }, "geometry": { "type": "Polygon", "coordinates": [ [ [ 960.522438722486868, 0.006819884836931 ], [ 602.316873129161536, 31.295414742375289 ], [ 595.817398216640186, 13.828075918249191 ], [ 597.035025894811042, 0.011624848986949 ], [ 960.522438722486868, 0.006819884836931 ] ] ] } },
{ "type": "Feature", "properties": { "feature_type": "building", "subtype": "no-damage", "uid": "ffb340fa-08eb-4110-9a46-6b4d254eb09e" }, "geometry": { "type": "Polygon", "coordinates": [ [ [ 743.882754774673572, 613.561662709605571 ], [ 754.70433568740259, 609.742281211370596 ], [ 756.614026433080312, 616.426198829459622 ], [ 747.383854481092158, 619.927298540337119 ], [ 743.882754774673572, 613.561662709605571 ] ] ] } }
]
}
