{
"type": "FeatureCollection",
"name": "hurricane-michael_00000495_post_disaster",
"features": [
{ "type": "Feature", "properties": { "feature_type": "building", "subtype": "no-damage", "uid": "75340a85-3087-4214-afa3-4f11ebb6caed" }, "geometry": { "type": "Polygon", "coordinates": [ [ [ 442.967309749768617, 641.797389447515116 ], [ 516.967309751171115, 639.797389450488254 ], [ 518.967309749196488, 731.79738944965618 ], [ 445.514639769813016, 736.53403954903365 ], [ 442.967309749768617, 641.797389447515116 ] ] ] } },
{ "type": "Feature", "properties": { "feature_type": "building", "subtype": "no-damage", "uid": "5de6acc4-99cd-426c-be3d-e839cd4942ba" }, "geometry": { "type": "Polygon", "coordinates": [ [ [ 85.237735639915982, 572.697225122109216 ], [ 124.237735636143896, 631.697225122357736 ], [ 90.237735637228354, 653.697225120637881 ], [ 51.23773563700243, 594.697225120389248 ], [ 85.237735639915982, 572.697225122109216 ] ] ] } },
{ "type": "Feature", "properties": { "feature_type": "building", "subtype": "no-damage", "uid": "d659961b-3bb9-4573-b736-e79b4cb31659" }, "geometry": { "type": "Polygon", "coordinates": [ [ [ 339.509436269366006, 835.511097957958214 ], [ 475.695965067521399, 836.267689786158712 ], [ 475.506817110971213, 855.749929317842657 ], [ 482.505291512576605, 855.939077273393536 ], [ 481.937847642425993, 882.608939165985475 ], [ 391.525124352674993, 881.663199382234097 ], [ 390.957680483773913, 874.286429073771387 ], [ 339.131140356765172, 871.070913810416187 ], [ 337.617956702363983, 871.070913808417231 ], [ 339.509436269366006, 835.511097957958214 ] ] ] } },
{ "type": "Feature", "properties": { "feature_type": "building", "subtype": "minor-damage", "uid": "8e3c4d3c-98a4-49ae-bf54-5c3f4b19a64d" }, "geometry": { "type": "Polygon", "coordinates": [ [ [ 59.510618161148578, 705.683177706697165 ], [ 12.97062091035497, 738.719341559904024 ], [ 0.065734318034964, 717.846492916615148 ], [ 0.065738495959774, 709.212180898505153 ], [ 1.637046448819191, 701.342659830063212 ], [ 36.602329359095947, 676.022972203205086 ], [ 39.978287708559122, 682.051469257694976 ], [ 59.51061816414709, 705.200897943737345 ], [ 59.510618161148578, 705.683177706697165 ] ] ] } },
{ "type": "Feature", "properties": { "feature_type": "building", "subtype": "no-damage", "uid": "b0df8cda-ff42-41e0-b768-99ffcb801858" }, "geometry": { "type": "Polygon", "coordinates": [ [ [ 37.81227659558354, 513.217635931483983 ], [ 30.12563976115861, 507.239140612957499 ], [ 53.185550270930193, 487.168477764187116 ], [ 58.737010204918633, 494.85511459986509 ], [ 37.81227659558354, 513.217635931483983 ] ] ] } },
{ "type": "Feature", "properties": { "feature_type": "building", "subtype": "no-damage", "uid": "81428a7f-e86a-4eb6-b94d-e85f78fb569d" }, "geometry": { "type": "Polygon", "coordinates": [ [ [ 18.168649127859691, 474.784451751094821 ], [ 9.627941532860351, 470.514097950719474 ], [ 33.114887418421361, 450.016399720911977 ], [ 40.37448887480798, 455.140824281362427 ], [ 18.168649127859691, 474.784451751094821 ] ] ] } }
]
}
