{
"type": "FeatureCollection",
"name": "hurricane-harvey_00000087_post_disaster",
"features": [
{ "type": "Feature", "properties": { "feature_type": "building", "subtype": "minor-damage", "uid": "dbd7e7f4-0150-4ad0-9c78-709f70142cf8" }, "geometry": { "type": "Polygon", "coordinates": [ [ [ -0.000004530224198, 459.428474374458915 ], [ -0.000004530971678, 414.869023577380517 ], [ 5.870443319029229, 415.818327334020012 ], [ 8.61364655330679, 432.277546722743125 ], [ 35.79629674834176, 425.294847587378285 ], [ 43.028377992017433, 449.484912437894479 ], [ -0.000004530224198, 459.428474374458915 ] ] ] } },
{ "type": "Feature", "properties": { "feature_type": "building", "subtype": "minor-damage", "uid": "0cf45d30-5858-4963-ab55-256117e803b3" }, "geometry": { "type": "Polygon", "coordinates": [ [ [ 96.894914159236194, 399.85787217188539 ], [ 104.376377516268406, 424.297319138187618 ], [ 101.882556398150498, 428.287432924983875 ], [ 107.368962861784695, 451.978733554891392 ], [ 82.929515897289932, 457.714522130262878 ], [ 81.682605337981798, 453.22564411588138 ], [ 70.959174524007665, 455.470083123072072 ], [ 67.717207068809898, 459.210814799065588 ], [ 63.976475389951183, 460.956489583654275 ], [ 59.238215264268852, 460.70710747285159 ], [ 54.749337253624937, 454.472554675874676 ], [ 48.764166565893738, 427.289904482769714 ], [ 50.011077125388731, 425.294847584388378 ], [ 47.267873893665062, 409.833156649839111 ], [ 51.756751907984068, 408.586246089845702 ], [ 52.754280354620811, 412.077595654039897 ], [ 53.502426691576062, 411.578831432434527 ], [ 54.250573027160932, 410.331920875431081 ], [ 54.250573025790558, 408.835628202641715 ], [ 54.250573025541399, 407.588717639658398 ], [ 66.220914399010525, 404.346750185270309 ], [ 66.719678620865082, 408.087481867243696 ], [ 74.699906203115546, 406.840571304260379 ], [ 76.445580983966778, 403.847985964661518 ], [ 80.186312666874343, 400.855400619082786 ], [ 86.670247573843923, 398.610961612888673 ], [ 91.657889810328939, 398.610961612888673 ], [ 91.657889811387875, 400.606018510273373 ], [ 96.894914159236194, 399.85787217188539 ] ] ] } },
{ "type": "Feature", "properties": { "feature_type": "building", "subtype": "no-damage", "uid": "73faf448-245f-4ac0-91c0-98ffad7a2ac1" }, "geometry": { "type": "Polygon", "coordinates": [ [ [ 159.396509603160212, 440.097054190484982 ], [ 172.488136077507107, 439.901656781626912 ], [ 176.396084280083898, 445.177386853685618 ], [ 176.200686870416007, 454.556462537677817 ], [ 188.706121117316513, 505.164391758832494 ], [ 157.4116907756991, 513.895585766521208 ], [ 152.362202835868288, 494.808329022576515 ], [ 144.546306435137211, 495.980713484695116 ], [ 139.270576358531514, 474.682395783615391 ], [ 147.477267584079897, 472.728421679087774 ], [ 147.477267582460399, 468.625076069147724 ], [ 145.327896072002403, 468.625076067154282 ], [ 143.960114202271512, 462.176961533973724 ], [ 145.523293482106311, 461.199974481709887 ], [ 142.787729740713587, 446.740566136510381 ], [ 159.396509603160212, 440.097054190484982 ] ] ] } },
{ "type": "Feature", "properties": { "feature_type": "building", "subtype": "no-damage", "uid": "5bb423f5-60c1-4dae-9b06-7feea9f419ba" }, "geometry": { "type": "Polygon", "coordinates": [ [ [ 281.983518787800904, 411.871533115729676 ], [ 289.464982144521684, 441.298622320011987 ], [ 278.242787114049975, 443.543061325209521 ], [ 286.223014694556298, 483.942963446669808 ], [ 261.035421390427814, 489.429369912235188 ], [ 250.810754802294809, 435.313451632841179 ], [ 256.297161264870113, 434.315923187637111 ], [ 252.057665363969903, 417.108557463515922 ], [ 281.983518787800904, 411.871533115729676 ] ] ] } },
{ "type": "Feature", "properties": { "feature_type": "building", "subtype": "no-damage", "uid": "b7ec1c35-e420-4055-a25e-1dc8a48e9eb9" }, "geometry": { "type": "Polygon", "coordinates": [ [ [ 307.669876314282305, 565.490914032961314 ], [ 312.906900663750207, 592.174800005457655 ], [ 322.632803028907404, 590.429125221865547 ], [ 326.872298930928821, 608.883401500996911 ], [ 318.393307126948287, 610.629076282595747 ], [ 318.892071349924208, 617.113011194361889 ], [ 315.899486005715914, 624.09571032474355 ], [ 315.151339671003086, 629.83149890011498 ], [ 289.464982146701914, 635.567287473493252 ], [ 277.245258661994001, 570.727938382740831 ], [ 307.669876314282305, 565.490914032961314 ] ] ] } },
{ "type": "Feature", "properties": { "feature_type": "building", "subtype": "no-damage", "uid": "b7779129-f348-49ca-b8f1-81be3af5ece2" }, "geometry": { "type": "Polygon", "coordinates": [ [ [ 559.823466432023224, 708.659194584430338 ], [ 563.564246899243813, 723.749078516827467 ], [ 553.989773801971296, 726.680039667638994 ], [ 556.33454272751635, 743.093422114376153 ], [ 567.276797689287378, 741.725640243399425 ], [ 571.305856860540416, 759.51165867416637 ], [ 518.78936127311033, 770.969803165498661 ], [ 507.967780365841577, 720.999561911577757 ], [ 523.881869937454098, 718.135025792232909 ], [ 522.927024561141593, 713.042517130193801 ], [ 536.93142338473865, 709.54141742323543 ], [ 546.798158920491346, 710.177981007858989 ], [ 559.823466432023224, 708.659194584430338 ] ] ] } },
{ "type": "Feature", "properties": { "feature_type": "building", "subtype": "no-damage", "uid": "14d1062d-6e14-4e2f-8f81-fa7370d82be1" }, "geometry": { "type": "Polygon", "coordinates": [ [ [ 552.527231164599925, 650.022722430856447 ], [ 563.348812077163416, 695.537018600385295 ], [ 506.69465319921062, 710.496262796682572 ], [ 500.965580954852783, 687.579973818004646 ], [ 514.651697986324962, 686.943410236371051 ], [ 515.606543360394994, 682.16918336116214 ], [ 513.060289026821579, 677.713238283746591 ], [ 510.195752905483573, 672.62072962071079 ], [ 511.787161863616575, 662.435712297629152 ], [ 501.920426329545705, 664.663684837333562 ], [ 499.374171997529572, 664.981966625160453 ], [ 495.873072289761581, 651.295849596117023 ], [ 535.97657801340938, 642.383959436302803 ], [ 538.841114134435884, 652.887258553191145 ], [ 552.527231164599925, 650.022722430856447 ] ] ] } },
{ "type": "Feature", "properties": { "feature_type": "building", "subtype": "minor-damage", "uid": "d3407adc-5334-491b-9f21-e4440d8e9664" }, "geometry": { "type": "Polygon", "coordinates": [ [ [ 655.01396800738155, 617.239697913933924 ], [ 670.928057574945228, 674.530420364615111 ], [ 633.370806186677214, 685.033719481503567 ], [ 624.458916030413775, 643.338804808753252 ], [ 637.190187687442176, 640.155986897594971 ], [ 633.052524397355342, 621.377361197542655 ], [ 655.01396800738155, 617.239697913933924 ] ] ] } },
{ "type": "Feature", "properties": { "feature_type": "building", "subtype": "minor-damage", "uid": "4c4b9218-eaf9-4d1e-97b3-09c663f7c3de" }, "geometry": { "type": "Polygon", "coordinates": [ [ [ 669.768282387794102, 685.822766932370314 ], [ 681.250706165047632, 726.547096591344257 ], [ 671.911668159512374, 730.833868134656427 ], [ 673.901954948083812, 740.938401056113548 ], [ 647.415830771792116, 747.368558373573364 ], [ 636.852000893918216, 692.712221199083956 ], [ 651.243305360929298, 689.190944572191597 ], [ 662.725729139304121, 684.904173027882734 ], [ 669.15588645501964, 685.822766934363585 ], [ 669.768282387794102, 685.822766932370314 ] ] ] } },
{ "type": "Feature", "properties": { "feature_type": "building", "subtype": "minor-damage", "uid": "682e3927-063f-45ca-9380-878f1e0c77f7" }, "geometry": { "type": "Polygon", "coordinates": [ [ [ 655.897929721991204, 790.059453330886527 ], [ 655.22599271970364, 783.546832829207119 ], [ 666.713437970487462, 779.968918259033103 ], [ 664.269711096402716, 766.622409943958701 ], [ 666.995406460465233, 765.400546507694912 ], [ 666.807427465402611, 760.513092757656523 ], [ 680.341914772486803, 757.411439418605141 ], [ 685.593113817052313, 777.738024767703905 ], [ 706.599712051388906, 771.372388939407529 ], [ 712.010645170490193, 791.33087497013787 ], [ 655.897929721991204, 790.059453330886527 ] ] ] } },
{ "type": "Feature", "properties": { "feature_type": "building", "subtype": "minor-damage", "uid": "8181c1cd-c425-4ec5-bf86-cad0e5c8fe04" }, "geometry": { "type": "Polygon", "coordinates": [ [ [ 609.834493695108904, 561.713089391513222 ], [ 656.718330733752623, 554.481008148335604 ], [ 661.705972971732649, 571.189609640884896 ], [ 657.4664770652264, 573.18466653727296 ], [ 658.214623401247309, 582.411804676838642 ], [ 653.725745387115126, 589.643885921012952 ], [ 654.97265594729538, 589.893268034805601 ], [ 661.4565908578777, 585.155007907628033 ], [ 665.197322534182604, 589.643885923006223 ], [ 667.940525766965152, 600.616698843174049 ], [ 654.224509611710459, 602.611755740558692 ], [ 653.975127500347185, 606.851251642144234 ], [ 646.244282032263072, 609.84383698373631 ], [ 646.99242836753649, 614.083332886318431 ], [ 623.79989196091708, 618.073446679094559 ], [ 620.807306618702228, 586.90068269122014 ], [ 615.819664378791231, 590.142650146604865 ], [ 609.834493695108904, 561.713089391513222 ] ] ] } },
{ "type": "Feature", "properties": { "feature_type": "building", "subtype": "no-damage", "uid": "1f1c28ba-649d-4719-a3eb-f5c24887dd14" }, "geometry": { "type": "Polygon", "coordinates": [ [ [ 529.284071555145715, 578.671073001841819 ], [ 541.503795035617827, 636.028958732633896 ], [ 518.560640740922395, 640.767218860808043 ], [ 516.565583847275207, 629.545023826847569 ], [ 511.079177384824504, 630.791934388834193 ], [ 504.345860363688587, 598.372259840966422 ], [ 496.864397006158015, 599.369788287167239 ], [ 494.370575886482811, 586.651300581414034 ], [ 529.284071555145715, 578.671073001841819 ] ] ] } },
{ "type": "Feature", "properties": { "feature_type": "building", "subtype": "minor-damage", "uid": "d8877b9e-d75c-4d0b-88dd-c8e7feb5edde" }, "geometry": { "type": "Polygon", "coordinates": [ [ [ 644.99737147121084, 489.891041169382618 ], [ 650.982542159689501, 510.090992233102611 ], [ 642.50355035620737, 512.834195464888694 ], [ 635.022086995811492, 531.039089630227409 ], [ 631.031973204841961, 528.794650621043388 ], [ 628.538152088655011, 529.79217907322402 ], [ 632.777647989866637, 549.493365910355351 ], [ 607.590054686547774, 556.476065045720247 ], [ 595.869095429425215, 502.110764654526974 ], [ 644.99737147121084, 489.891041169382618 ] ] ] } },
{ "type": "Feature", "properties": { "feature_type": "building", "subtype": "minor-damage", "uid": "e0510275-80d8-4b44-a099-7d9282404f5a" }, "geometry": { "type": "Polygon", "coordinates": [ [ [ 630.533208981118719, 445.999789478745015 ], [ 639.760347122926419, 482.160195699616281 ], [ 596.367859654394238, 493.631772850359312 ], [ 592.128363752248333, 473.182439674839884 ], [ 606.09376201818111, 469.691090106659203 ], [ 605.096233568492153, 465.700976316872982 ], [ 591.629599527030109, 468.19479743785638 ], [ 587.390103624510402, 455.975073953708716 ], [ 590.88145319219268, 455.476309733099924 ], [ 587.888867850226916, 441.26152935455741 ], [ 598.612298659342514, 436.772651340176026 ], [ 607.590054690160628, 437.02203345197529 ], [ 610.582640031067513, 449.241756934129683 ], [ 630.533208981118719, 445.999789478745015 ] ] ] } },
{ "type": "Feature", "properties": { "feature_type": "building", "subtype": "no-damage", "uid": "2e3ac5aa-fce8-440a-9aff-77621d8635d7" }, "geometry": { "type": "Polygon", "coordinates": [ [ [ 505.343388811135128, 452.483724390511213 ], [ 510.331031048741295, 480.414520923000794 ], [ 515.318673286658964, 480.165138811201416 ], [ 521.054461863525262, 506.100878441323175 ], [ 500.605128688442676, 509.841610125289776 ], [ 498.610071792802216, 497.372504529342791 ], [ 477.163210168715921, 501.861382541731018 ], [ 471.926185818874274, 469.192325888043683 ], [ 477.412592279518606, 468.194797440846287 ], [ 477.163210167781472, 458.468895075688692 ], [ 505.343388811135128, 452.483724390511213 ] ] ] } },
{ "type": "Feature", "properties": { "feature_type": "building", "subtype": "no-damage", "uid": "35666a02-14e2-48dc-afe3-548cb0285942" }, "geometry": { "type": "Polygon", "coordinates": [ [ [ 521.275352526646998, 514.385677082944426 ], [ 527.633076692743884, 542.335672008934694 ], [ 522.59488018274601, 545.454555565127862 ], [ 529.072561410962862, 570.285666937914812 ], [ 493.325357596546723, 580.12214584176877 ], [ 488.287161085739115, 561.288887455757617 ], [ 474.372142149786782, 552.532022094227614 ], [ 468.734160340650419, 527.341039540001589 ], [ 521.275352526646998, 514.385677082944426 ] ] ] } },
{ "type": "Feature", "properties": { "feature_type": "building", "subtype": "minor-damage", "uid": "fc7d8349-4dfb-466f-b60e-96a0dee63621" }, "geometry": { "type": "Polygon", "coordinates": [ [ [ 652.753492346259122, 328.408735717664683 ], [ 606.602632588557981, 336.684062293852094 ], [ 600.236996759016051, 305.810728529803725 ], [ 609.467168711889258, 302.946192405475585 ], [ 616.151086330877661, 301.991347030035172 ], [ 616.469368123376285, 304.219319570736275 ], [ 651.480365178756074, 295.625711204728702 ], [ 649.665329136456762, 289.187562347539483 ], [ 662.301946088142813, 286.713821042921097 ], [ 666.439609375551186, 299.445092699514021 ], [ 671.264207602517672, 317.419987078340625 ], [ 651.603249560216454, 321.144713868406427 ], [ 652.753492346259122, 328.408735717664683 ] ] ] } },
{ "type": "Feature", "properties": { "feature_type": "building", "subtype": "minor-damage", "uid": "295c7491-fc03-4ef7-8f0d-4df14ead788f" }, "geometry": { "type": "Polygon", "coordinates": [ [ [ 595.050376360694258, 357.921499999742309 ], [ 609.314387302391992, 413.023569648553405 ], [ 580.981762834332699, 419.080889363021186 ], [ 578.636993913957667, 406.966249936079009 ], [ 574.53364829847385, 401.690519865016824 ], [ 573.556661247331363, 396.414789791961482 ], [ 567.108546714462364, 363.392627480659201 ], [ 581.56795506233982, 355.576731077498494 ], [ 595.050376360694258, 357.921499999742309 ] ] ] } },
{ "type": "Feature", "properties": { "feature_type": "building", "subtype": "no-damage", "uid": "9383d88b-46a0-4864-8848-46c5f1139fc1" }, "geometry": { "type": "Polygon", "coordinates": [ [ [ 414.5594769273726, 341.950884900659275 ], [ 436.006338551022793, 338.459535330485323 ], [ 441.742127124338595, 347.936055585836925 ], [ 446.729769364997026, 372.874266774741102 ], [ 430.76931419999778, 378.610055348119317 ], [ 426.031054074128576, 365.642185528573521 ], [ 392.8632331937917, 372.874266777731009 ], [ 393.112615307771193, 376.614998452727889 ], [ 390.120029961631985, 380.106348016922084 ], [ 394.018590669728781, 397.260032626410009 ], [ 385.256961984444274, 399.621476794145906 ], [ 385.991023126073515, 406.310405751154008 ], [ 377.900306482592498, 408.286526665197584 ], [ 370.668225234992576, 377.113762677323223 ], [ 378.648452817990517, 373.871795219945227 ], [ 384.134859276018574, 373.871795217951899 ], [ 380.394127597409124, 363.397746522379521 ], [ 384.134859277825115, 362.649600186981388 ], [ 382.139802380378228, 354.66937260641248 ], [ 395.10767219873992, 352.175551485429082 ], [ 394.608907977570482, 344.195323908846717 ], [ 414.559476929988818, 339.955828006264483 ], [ 414.5594769273726, 341.950884900659275 ] ] ] } },
{ "type": "Feature", "properties": { "feature_type": "building", "subtype": "no-damage", "uid": "0daab74f-f1f3-4297-b5a5-487a8f186acd" }, "geometry": { "type": "Polygon", "coordinates": [ [ [ 313.618107395810284, 357.845151589658428 ], [ 325.837830879023272, 362.33402960105002 ], [ 334.815586906851479, 369.56611084422758 ], [ 333.319294234934318, 373.556224635010381 ], [ 343.045196602645376, 380.040159542789979 ], [ 357.758741200176587, 376.79819208840189 ], [ 358.75626964918041, 382.284598549980728 ], [ 362.995765551450916, 381.785834329371994 ], [ 366.985879340240217, 401.487021166503382 ], [ 366.487115116205473, 405.227752846483497 ], [ 359.005651760481328, 406.973427627085584 ], [ 356.262448530252584, 403.232695949098797 ], [ 343.294578710271423, 405.97589918088488 ], [ 329.079798333847293, 396.499378926530028 ], [ 323.094627646552112, 402.983313837299477 ], [ 316.361310627222622, 400.738874830108728 ], [ 307.882318824051879, 414.7042730978485 ], [ 285.687310867308383, 399.990728492717381 ], [ 313.618107395810284, 357.845151589658428 ] ] ] } },
{ "type": "Feature", "properties": { "feature_type": "building", "subtype": "no-damage", "uid": "81e609ab-7783-4ce5-89c8-78972bd04e27" }, "geometry": { "type": "Polygon", "coordinates": [ [ [ 283.935722014371777, 495.001452983443983 ], [ 299.213248003104809, 493.410044029359824 ], [ 300.804656960116574, 497.547707315958519 ], [ 304.624038458826021, 497.547707312968612 ], [ 306.215447414716493, 502.321934186184194 ], [ 302.714347708754872, 505.504752101329075 ], [ 304.305756664271712, 507.732724641033485 ], [ 294.439021132194227, 510.597260763368183 ], [ 296.348711882950283, 516.644614799851183 ], [ 300.168093377797675, 515.689769426404041 ], [ 303.032629503496025, 520.782278088443149 ], [ 307.488574581098305, 520.782278088443149 ], [ 311.626237867883674, 526.829632124926093 ], [ 308.761701744614811, 529.057604666623774 ], [ 308.761701747542418, 533.83183153684945 ], [ 306.852011000461289, 535.423240494920265 ], [ 307.806856371229912, 537.969494824444837 ], [ 311.307956077253777, 538.28777661326842 ], [ 315.127337578080983, 551.337330064664684 ], [ 287.436821720021896, 556.748120516524068 ], [ 272.795859314230597, 499.139116272036006 ], [ 283.935722014371777, 495.001452983443983 ] ] ] } },
{ "type": "Feature", "properties": { "feature_type": "building", "subtype": "no-damage", "uid": "4df64a73-2060-45bc-a6f0-3d8a63025489" }, "geometry": { "type": "Polygon", "coordinates": [ [ [ 491.152071786130875, 381.865300186503021 ], [ 503.621177380956283, 434.734307900920328 ], [ 493.147128682207381, 435.482454239308311 ], [ 479.929876754164184, 441.218242814679797 ], [ 468.707681715096385, 387.102324532295881 ], [ 479.431112528011624, 382.364064407111812 ], [ 491.152071786130875, 381.865300186503021 ] ] ] } },
{ "type": "Feature", "properties": { "feature_type": "building", "subtype": "minor-damage", "uid": "e6a644e3-7607-44f1-a24a-33e311aeb644" }, "geometry": { "type": "Polygon", "coordinates": [ [ [ 820.667179484139865, 421.494050073876224 ], [ 817.512982379717187, 423.435094338498288 ], [ 815.921573420649793, 426.617912252646477 ], [ 815.285009837272014, 427.891039416910473 ], [ 811.465628338998727, 431.710420915682278 ], [ 812.42047371381625, 439.03090211742591 ], [ 800.325765640352529, 442.213720032570677 ], [ 796.506384144383901, 434.574957038016976 ], [ 783.775112484178749, 437.121211369534876 ], [ 776.136349490497309, 399.563959981389985 ], [ 797.461229516460548, 392.880042361280175 ], [ 820.695800290190164, 390.652069822572287 ], [ 821.33668675137028, 390.972513076988378 ], [ 820.667179484139865, 421.494050073876224 ] ] ] } },
{ "type": "Feature", "properties": { "feature_type": "building", "subtype": "minor-damage", "uid": "4de9158b-565f-4026-9ef8-caf88357c480" }, "geometry": { "type": "Polygon", "coordinates": [ [ [ 821.840887449501224, 367.987065769453693 ], [ 791.687942988179771, 382.140487762925488 ], [ 786.913716115836337, 366.544679981008017 ], [ 793.597633732582381, 363.680143858673205 ], [ 791.369661191819091, 357.951071615000387 ], [ 782.457771031942798, 359.860762364884579 ], [ 779.274953119414249, 342.67354562688962 ], [ 787.231997904286231, 340.445573088181789 ], [ 785.004025366450492, 329.942273968303482 ], [ 782.457771035804853, 320.393820228848824 ], [ 793.59763373189719, 317.211002314700579 ], [ 801.872960308644792, 317.211002312707308 ], [ 811.103132262141003, 349.357463246002908 ], [ 822.33715940303432, 345.363143373023377 ], [ 821.840887449501224, 367.987065769453693 ] ] ] } },
{ "type": "Feature", "properties": { "feature_type": "building", "subtype": "minor-damage", "uid": "b0df0f9a-6fbf-4895-b6cf-1d54a107e5e7" }, "geometry": { "type": "Polygon", "coordinates": [ [ [ 746.81021039262464, 281.881723467256791 ], [ 761.132891007599142, 277.744060181654675 ], [ 766.861963252953501, 298.750658414434895 ], [ 691.429178688092406, 322.303510980726287 ], [ 684.426979272556423, 281.881723469250119 ], [ 742.672547103222996, 267.877324646399927 ], [ 746.81021039206405, 282.200005259070224 ], [ 746.81021039262464, 281.881723467256791 ] ] ] } },
{ "type": "Feature", "properties": { "feature_type": "building", "subtype": "no-damage", "uid": "243db3f4-8394-43e3-b46a-75d27df1fda0" }, "geometry": { "type": "Polygon", "coordinates": [ [ [ 335.272856145743617, 707.084254112040639 ], [ 350.302891881501978, 758.267619046461618 ], [ 318.617951683660522, 769.641700142445984 ], [ 302.369264397676886, 713.989946204215812 ], [ 321.055254774206617, 708.302905656721919 ], [ 335.272856145743617, 707.084254112040639 ] ] ] } },
{ "type": "Feature", "properties": { "feature_type": "building", "subtype": "minor-damage", "uid": "34d2fc46-28bc-412d-900d-19546044ad1f" }, "geometry": { "type": "Polygon", "coordinates": [ [ [ 205.320635641503088, 779.845354941428241 ], [ 193.909276781326298, 743.643800496332688 ], [ 211.78283279456889, 739.987845859298773 ], [ 217.469873344491788, 735.925674035389079 ], [ 232.499909079814188, 735.925674035389079 ], [ 242.655338635975397, 766.798179874180619 ], [ 234.124777809564904, 770.047917328325184 ], [ 238.363355186828613, 780.59468516976915 ], [ 219.153152566221991, 780.159049037835075 ], [ 217.202158459903103, 776.419643517079521 ], [ 208.443888306919803, 779.916184822851847 ], [ 205.320635641503088, 779.845354941428241 ] ] ] } },
{ "type": "Feature", "properties": { "feature_type": "building", "subtype": "no-damage", "uid": "d76dc617-e451-4880-967b-bbc4fe83ab28" }, "geometry": { "type": "Polygon", "coordinates": [ [ [ 207.472004044676595, 646.675308290039425 ], [ 174.688979529748593, 654.632353074413345 ], [ 170.233034450402187, 634.898882005897121 ], [ 175.643824900953291, 633.625754843626396 ], [ 171.824443405171593, 618.029947060712288 ], [ 159.093171746585909, 621.8493285584874 ], [ 154.318944876173589, 598.614757785006077 ], [ 194.422450595274199, 590.02114941700529 ], [ 207.472004044676595, 646.675308290039425 ] ] ] } },
{ "type": "Feature", "properties": { "feature_type": "building", "subtype": "no-damage", "uid": "63637d7a-28c9-4c83-9515-1a065ce8c648" }, "geometry": { "type": "Polygon", "coordinates": [ [ [ 202.47752771545521, 574.811519641575273 ], [ 168.312178385678493, 584.038657780144263 ], [ 164.072682483657189, 564.836235166611573 ], [ 147.862845212153189, 567.579438397400963 ], [ 140.880146077909899, 537.653584968523319 ], [ 156.341837014638713, 533.912853292529803 ], [ 155.593690680486503, 527.179536272950827 ], [ 160.331950806542608, 525.683243601158097 ], [ 160.331950808598208, 522.940040368375435 ], [ 186.517072555875188, 515.458577014395019 ], [ 202.47752771545521, 574.811519641575273 ] ] ] } },
{ "type": "Feature", "properties": { "feature_type": "building", "subtype": "minor-damage", "uid": "ea8c07cf-4488-4be7-be4a-d41bea142685" }, "geometry": { "type": "Polygon", "coordinates": [ [ [ 524.494261942908906, 787.081549125871561 ], [ 523.85778801814206, 780.504651403362004 ], [ 540.317007404684318, 778.26021239816464 ], [ 540.317007406303901, 774.270098604391933 ], [ 557.025608901967075, 771.526895373602429 ], [ 558.77128368499848, 775.517009165381864 ], [ 569.245332383248979, 771.776277484405114 ], [ 573.230576765928163, 788.186108201485354 ], [ 524.494261942908906, 787.081549125871561 ] ] ] } },
{ "type": "Feature", "properties": { "feature_type": "building", "subtype": "minor-damage", "uid": "00441b39-5366-45a0-8ec0-a68afe080673" }, "geometry": { "type": "Polygon", "coordinates": [ [ [ -0.000004528417789, 746.924130623753513 ], [ -0.000004529850458, 696.471089472926337 ], [ 9.903852472875446, 747.616036458702638 ], [ -0.000004528417789, 746.924130623753513 ] ] ] } }
]
}
