{
"type": "FeatureCollection",
"name": "hurricane-harvey_00000349_post_disaster",
"features": [
{ "type": "Feature", "properties": { "feature_type": "building", "subtype": "major-damage", "uid": "10ca1c0d-1a71-4c4c-8150-c036f5bf8ed0" }, "geometry": { "type": "Polygon", "coordinates": [ [ [ 163.612406382805005, 12.64289036196063 ], [ 174.362885901503404, 12.99536509850531 ], [ 174.362885901752691, 10.35180456245552 ], [ 181.412380663551886, 10.351804564449649 ], [ 181.412380665172208, 12.46665299169417 ], [ 193.748996502433812, 16.167637746351531 ], [ 194.277708610303989, 31.147814116303248 ], [ 203.089577067850001, 31.147814116303248 ], [ 203.089577066977597, 59.522030546740957 ], [ 198.50740547064899, 65.337863730636968 ], [ 211.548970784738486, 66.219050570004526 ], [ 211.372733416092387, 75.735868504569652 ], [ 198.859880208813706, 76.088343247096702 ], [ 198.859880212303409, 82.78536326836614 ], [ 177.887633282465401, 82.961600641623789 ], [ 178.416345392828305, 60.755692132623807 ], [ 167.313391134781199, 61.108166870165547 ], [ 166.255966919726092, 54.41114684291373 ], [ 162.907456909404402, 49.124025766825923 ], [ 163.612406382805005, 12.64289036196063 ] ] ] } },
{ "type": "Feature", "properties": { "feature_type": "building", "subtype": "major-damage", "uid": "d0df4bbd-6c84-457c-bebe-d1ad4e155770" }, "geometry": { "type": "Polygon", "coordinates": [ [ [ 371.641364390993601, 0.012507813234251 ], [ 372.345944311041023, 23.855167091009822 ], [ 361.066752688647512, 24.031404460279219 ], [ 362.300414269295175, 81.661024161519265 ], [ 326.347990966583211, 83.423397857204435 ], [ 325.114329382321102, 55.930368271119583 ], [ 330.753925197381477, 55.049181426766722 ], [ 329.696500979958387, 18.215571275386139 ], [ 347.848950001861226, 17.334384433027399 ], [ 347.144502798279575, 0.012352847895301 ], [ 371.641364390993601, 0.012507813234251 ] ] ] } },
{ "type": "Feature", "properties": { "feature_type": "building", "subtype": "major-damage", "uid": "7327e969-ceed-42ec-a5bc-595c632b3d5d" }, "geometry": { "type": "Polygon", "coordinates": [ [ [ 324.981793165404611, 132.4594266188235 ], [ 353.929749396798911, 132.06702589953241 ], [ 354.20592257966149, 162.031815976228586 ], [ 363.595810711679007, 162.722248929459511 ], [ 364.562416842537573, 188.682527888982492 ], [ 362.214944810576981, 189.649134019716911 ], [ 362.491117988329677, 194.344078090121087 ], [ 340.044788814274909, 193.729946695931289 ], [ 339.706830602200228, 183.159064282079612 ], [ 327.555210663491891, 183.02097769083511 ], [ 327.002864301131808, 172.802570016519212 ], [ 324.103045907371893, 171.559790706287203 ], [ 323.964959318246315, 166.174413687637497 ], [ 321.203227511306409, 166.174413687637497 ], [ 321.203227513674392, 162.169902572458312 ], [ 318.303409121534685, 161.203296436738611 ], [ 318.353636832599818, 146.958518590807387 ], [ 325.119879753907014, 146.682345410312593 ], [ 324.981793165404611, 132.4594266188235 ] ] ] } },
{ "type": "Feature", "properties": { "feature_type": "building", "subtype": "major-damage", "uid": "c9841b00-a958-4f54-ab83-10f46a9a4bce" }, "geometry": { "type": "Polygon", "coordinates": [ [ [ 403.355066070878479, 109.114562144801098 ], [ 426.972559076965297, 107.764991116735899 ], [ 428.097201601681888, 135.656125716359298 ], [ 409.428135702279178, 137.005696746418607 ], [ 408.97827869153258, 127.783628049322004 ], [ 404.254780089131202, 128.008556553667091 ], [ 403.355066070878479, 109.114562144801098 ] ] ] } },
{ "type": "Feature", "properties": { "feature_type": "building", "subtype": "major-damage", "uid": "1f76f3dd-ee52-4839-a97a-39e78855ed08" }, "geometry": { "type": "Polygon", "coordinates": [ [ [ 166.56565430937431, 131.759697128180306 ], [ 194.182972350607002, 131.483523945691502 ], [ 194.321058944094688, 162.829179926855403 ], [ 201.501561632342487, 163.2434396985945 ], [ 201.363475042095189, 175.809319408112486 ], [ 161.318363879914813, 175.947406000353993 ], [ 160.62793093042319, 155.234417467239211 ], [ 164.90861522646901, 154.267811335507702 ], [ 164.908615223166294, 143.773230477705994 ], [ 167.118000667122999, 143.49705729820829 ], [ 166.56565430937431, 131.759697128180306 ] ] ] } },
{ "type": "Feature", "properties": { "feature_type": "building", "subtype": "destroyed", "uid": "5595309f-c2c7-47a1-9c48-3f70db702e4f" }, "geometry": { "type": "Polygon", "coordinates": [ [ [ 211.443796129960589, 132.450130077423012 ], [ 234.780429877204, 131.62161053693589 ], [ 234.918516466454207, 177.052098717347491 ], [ 212.686575442435498, 177.604445078336909 ], [ 211.443796129960589, 132.450130077423012 ] ] ] } },
{ "type": "Feature", "properties": { "feature_type": "building", "subtype": "destroyed", "uid": "eea70d5d-c5d6-4345-9e21-6ab6c297904c" }, "geometry": { "type": "Polygon", "coordinates": [ [ [ 15.37267244199489, 114.986684624063599 ], [ 44.481735113502829, 114.305523242814601 ], [ 45.262986148686487, 177.602091942696489 ], [ 15.5219260614533, 178.192675734357806 ], [ 15.22253539032442, 148.019475887929588 ], [ 15.114340933166719, 142.609753058957494 ], [ 6.458784400059992, 142.717947515118198 ], [ 6.458784398003552, 130.16739053666771 ], [ 14.96957970090034, 129.448109384021507 ], [ 15.37267244199489, 114.986684624063599 ] ] ] } },
{ "type": "Feature", "properties": { "feature_type": "building", "subtype": "major-damage", "uid": "2ba8a66c-fe7e-45a8-aea8-6d3b9709ed7e" }, "geometry": { "type": "Polygon", "coordinates": [ [ [ 31.35130445464344, 9.609998663068769 ], [ 31.213217861903491, 30.875333554181751 ], [ 31.213217865580159, 33.49897876688734 ], [ 18.509251562455351, 33.77515195137029 ], [ 18.233078381586871, 29.908727423447331 ], [ 21.685243137208332, 29.632554241955571 ], [ 21.54715654677409, 9.886171838578166 ], [ 31.35130445464344, 9.609998663068769 ] ] ] } },
{ "type": "Feature", "properties": { "feature_type": "building", "subtype": "major-damage", "uid": "bbce9bf0-12da-4ce6-a256-0b0cdcd9d5e5" }, "geometry": { "type": "Polygon", "coordinates": [ [ [ 27.68475154935966, 38.860721531358777 ], [ 34.835035113302467, 36.871406870766549 ], [ 34.482560374452241, 34.40408370398616 ], [ 50.167686229887352, 34.051608962456179 ], [ 50.167686226148369, 60.134739591394663 ], [ 60.036978897503083, 60.487214328936403 ], [ 60.213216266523133, 67.712946463996403 ], [ 56.864706254331978, 68.417895942071056 ], [ 57.745893099432251, 80.049562303880705 ], [ 48.229075167114708, 80.40203704341657 ], [ 48.405312535636241, 83.750547054549813 ], [ 31.31028773115651, 84.279259162358017 ], [ 27.256828239457739, 86.570344958871942 ], [ 23.9564136158609, 79.596265647348574 ], [ 19.537642724395511, 69.792117741780615 ], [ 19.261469544773359, 63.302048004143252 ], [ 17.742517053548731, 63.440134592396483 ], [ 13.32374616713096, 52.255120784354993 ], [ 13.714371682261291, 38.631816861214752 ], [ 27.68475154935966, 38.860721531358777 ] ] ] } },
{ "type": "Feature", "properties": { "feature_type": "building", "subtype": "major-damage", "uid": "772c5c50-1ebc-4e1c-95fa-24727df8b2c4" }, "geometry": { "type": "Polygon", "coordinates": [ [ [ 759.629868243408168, 91.381042081318185 ], [ 763.832315359290988, 90.87994039647829 ], [ 765.411546143243072, 93.837395804505434 ], [ 768.366360268943822, 93.953628779282766 ], [ 769.1948798116116, 90.66932806438777 ], [ 797.09750607272565, 90.097769370440403 ], [ 799.839066589432264, 123.166277527647196 ], [ 799.015732241911451, 126.603044109085403 ], [ 797.828907612732678, 129.231012935709089 ], [ 797.998453987234711, 140.929712861038809 ], [ 779.399101022933337, 141.119243540792496 ], [ 779.399101025675236, 144.295235116481592 ], [ 767.38556767254056, 144.295235115484587 ], [ 766.557048131742363, 129.10571019326099 ], [ 731.206881036910431, 128.967623604010697 ], [ 729.411755364692681, 92.236590605194181 ], [ 754.543514782969737, 91.960417426693596 ], [ 755.372034325076697, 98.312400573086535 ], [ 759.652718621558734, 98.174313982839195 ], [ 759.629868243408168, 91.381042081318185 ] ] ] } },
{ "type": "Feature", "properties": { "feature_type": "building", "subtype": "major-damage", "uid": "70da1186-c744-4ebd-bb59-df2e674b11e0" }, "geometry": { "type": "Polygon", "coordinates": [ [ [ 181.772678844195013, 251.774500516702403 ], [ 199.447762394664409, 251.22215415371889 ], [ 199.862022164035295, 252.741106644445694 ], [ 206.214005314663012, 252.741106644445694 ], [ 206.49017849434739, 248.046162579026799 ], [ 249.711281234583595, 247.908075985788287 ], [ 250.815973955689486, 271.52088291609158 ], [ 233.831323359260807, 271.797056097583322 ], [ 234.521756309687106, 302.038019352780225 ], [ 192.2672597014936, 302.038019352780225 ], [ 181.496505665756814, 298.171594829842491 ], [ 179.701379990485606, 281.325030822656572 ], [ 175.006435927873014, 280.082251512424477 ], [ 174.730262746506014, 266.687852259428325 ], [ 179.42520681154889, 265.445072945207983 ], [ 179.287120221800109, 260.059695929549491 ], [ 181.496505664074306, 259.369262976318623 ], [ 181.772678844195013, 251.774500516702403 ] ] ] } },
{ "type": "Feature", "properties": { "feature_type": "building", "subtype": "major-damage", "uid": "35e5062e-9029-42be-a63b-45fcf7acf56c" }, "geometry": { "type": "Polygon", "coordinates": [ [ [ 294.89716933773758, 253.128860233176709 ], [ 306.077177495221974, 252.727071803148192 ], [ 306.443562325988523, 259.321998796207311 ], [ 313.771258983631185, 263.718616791580018 ], [ 312.672104486097112, 246.86491447698171 ], [ 318.9006466461434, 246.132144810089187 ], [ 319.883832842693721, 239.460753741900987 ], [ 344.299712797525501, 238.843952378734201 ], [ 350.687566181622117, 244.221837220774205 ], [ 359.318946572480911, 251.345004648595591 ], [ 359.569363103198384, 268.115234783961625 ], [ 346.379509116275983, 268.848004448860024 ], [ 346.379509118893282, 269.214389286294477 ], [ 346.435755925032026, 277.667579269778685 ], [ 313.709234042904598, 277.39140609227519 ], [ 312.052194963613772, 288.852593075826121 ], [ 294.929457774195782, 288.162160126583387 ], [ 294.929457772762476, 288.024073536336118 ], [ 294.89716933773758, 253.128860233176709 ] ] ] } },
{ "type": "Feature", "properties": { "feature_type": "building", "subtype": "major-damage", "uid": "54c3ba24-b8c4-49f6-98a4-0d06cd8a25bd" }, "geometry": { "type": "Polygon", "coordinates": [ [ [ 365.419312111121087, 348.174420351438528 ], [ 369.917882206435479, 357.171560546184025 ], [ 372.39209576270639, 363.019701675111776 ], [ 378.567413444738179, 365.074663784907784 ], [ 379.364879412173025, 376.065554951061927 ], [ 372.392095762581789, 378.314840000496076 ], [ 373.966595293869773, 423.075612463896505 ], [ 313.113218535308818, 424.455789064645217 ], [ 312.888290029343409, 428.279573644495713 ], [ 304.341006848152574, 427.829716637799493 ], [ 302.99143581491569, 421.981575508871686 ], [ 293.094581606158897, 421.981575508871686 ], [ 293.094581603853214, 409.160650735272725 ], [ 282.972798883647215, 409.610507744960216 ], [ 283.422655895889307, 397.239439979054509 ], [ 276.000015238168828, 396.564654464024784 ], [ 276.00001523704708, 370.922804915829715 ], [ 286.121797951395422, 370.248019396811685 ], [ 285.222083932519524, 358.326808642587594 ], [ 299.392579738228108, 357.427094625206792 ], [ 299.842436747354384, 366.424234816961302 ], [ 323.010072748116215, 363.725092758836695 ], [ 323.684858263519516, 354.727952562097016 ], [ 330.207784901990181, 353.828238545713305 ], [ 330.207784902550998, 346.855454895059722 ], [ 343.478566688573608, 345.730812371339709 ], [ 345.277994726512304, 350.904167979255419 ], [ 365.419312111121087, 348.174420351438528 ] ] ] } },
{ "type": "Feature", "properties": { "feature_type": "building", "subtype": "major-damage", "uid": "4b155644-2ffa-42a7-9e6f-4cd225a1802c" }, "geometry": { "type": "Polygon", "coordinates": [ [ [ 172.214353047339102, 338.337841629922082 ], [ 172.214353047027487, 380.624400537548979 ], [ 183.910635298957686, 381.074257550227628 ], [ 183.910635301076496, 401.992608499197388 ], [ 208.427842326974002, 401.767679991860973 ], [ 208.427842328345008, 397.044181390641484 ], [ 237.218690947891389, 396.819252885299306 ], [ 237.443619451862588, 399.518394944420891 ], [ 238.318261976529413, 399.440002155938714 ], [ 238.318261976030897, 420.620002152977918 ], [ 152.870501632346105, 422.236173934134513 ], [ 152.645573124698302, 391.42096877303851 ], [ 146.797432002752601, 391.196040267696219 ], [ 147.022360504542689, 376.800615957698483 ], [ 153.095430134634796, 377.250472969380098 ], [ 153.320358639976888, 337.66305611588939 ], [ 172.214353047339102, 338.337841629922082 ] ] ] } },
{ "type": "Feature", "properties": { "feature_type": "building", "subtype": "major-damage", "uid": "5c46c55c-333a-4725-8a05-48ccc80d0488" }, "geometry": { "type": "Polygon", "coordinates": [ [ [ 271.857680693060217, 419.986888886694487 ], [ 238.818261978436198, 420.610002154566189 ], [ 238.818261976753604, 399.390002155903801 ], [ 244.86626011145259, 398.843609430388312 ], [ 245.765974131263306, 394.7948963402103 ], [ 271.632752188278914, 394.5699678358651 ], [ 271.857680693060217, 419.986888886694487 ] ] ] } },
{ "type": "Feature", "properties": { "feature_type": "building", "subtype": "major-damage", "uid": "28176ee3-bbd4-4604-9883-db813f5282a8" }, "geometry": { "type": "Polygon", "coordinates": [ [ [ -0.00000421021808, 631.892747114695339 ], [ 8.303286560215042, 630.505360288466591 ], [ 43.617061820288598, 599.915083627727427 ], [ 66.109912303466032, 623.982433645506262 ], [ 26.97235246254662, 662.895064983967245 ], [ 17.0754982471842, 659.296208905470735 ], [ 9.877786093933393, 663.794779005336181 ], [ -0.0000042095326, 666.827511111525268 ], [ -0.00000421021808, 631.892747114695339 ] ] ] } },
{ "type": "Feature", "properties": { "feature_type": "building", "subtype": "major-damage", "uid": "490e72db-7352-402f-be98-6d8610d1deba" }, "geometry": { "type": "Polygon", "coordinates": [ [ [ 3.899908734425902, 517.477055180513503 ], [ 6.367231901329834, 516.419630964897124 ], [ 4.252383471780532, 511.484984631336317 ], [ 6.895944007829152, 510.603797782995173 ], [ 3.371196625309298, 495.094909301247014 ], [ 26.81076671930936, 488.221651902731708 ], [ 30.159276732497581, 493.861247714367209 ], [ 37.385008868613781, 491.570161918850317 ], [ 41.262230991354819, 499.853318264541372 ], [ 47.959251019663057, 499.148368787463824 ], [ 51.131523661650149, 508.31271198648119 ], [ 56.242407367469262, 506.902813030332027 ], [ 64.878038454001043, 523.469125728693598 ], [ 68.57267849501018, 522.807083051314294 ], [ 69.73744622408266, 527.254459536559011 ], [ 64.802799887595185, 529.545545335067118 ], [ 62.404370573388213, 548.185264205169233 ], [ 23.45591199633817, 556.997132663653815 ], [ 23.6321493641119, 556.468420555845682 ], [ 22.750962521068072, 552.59119843291603 ], [ 13.939094062151151, 552.591198434910098 ], [ 12.35295774240393, 540.607057334561659 ], [ 5.655937711353766, 526.684305173246912 ], [ 3.899908734425902, 517.477055180513503 ] ] ] } },
{ "type": "Feature", "properties": { "feature_type": "building", "subtype": "major-damage", "uid": "f538967b-c606-4695-b351-f12c0c751174" }, "geometry": { "type": "Polygon", "coordinates": [ [ [ 2.969316959016487, 242.629652538013602 ], [ 55.098864236243223, 242.039155398002094 ], [ 56.770428935575559, 314.240133861164111 ], [ 33.50186357736694, 314.62892666946118 ], [ 32.066503059670197, 262.910515920148214 ], [ 24.491793631345619, 263.680868031863724 ], [ 24.602628367348039, 275.254616375922524 ], [ 2.498076388299949, 275.254616375922524 ], [ 2.969316959016487, 242.629652538013602 ] ] ] } },
{ "type": "Feature", "properties": { "feature_type": "building", "subtype": "major-damage", "uid": "e5b8b005-5200-41fe-973c-7b869b2d5ab1" }, "geometry": { "type": "Polygon", "coordinates": [ [ [ 39.940172720253962, 342.924689166601922 ], [ 61.561648513353333, 342.973917124735578 ], [ 61.802557778769028, 365.371694194084228 ], [ 48.95286102502795, 366.156946760256915 ], [ 48.900449308980818, 370.390014634824126 ], [ 38.026144138618157, 370.386643615743026 ], [ 37.235311306890758, 355.691635052388392 ], [ 41.238506201908741, 355.691635052388392 ], [ 41.130311745374208, 347.793439715767704 ], [ 40.156561633634603, 347.252467430976083 ], [ 39.940172720253962, 342.924689166601922 ] ] ] } },
{ "type": "Feature", "properties": { "feature_type": "building", "subtype": "major-damage", "uid": "83b1317f-57fb-41ad-887f-11c7b6411ea7" }, "geometry": { "type": "Polygon", "coordinates": [ [ [ 67.603983657214528, 348.371680432733399 ], [ 86.105235752536501, 347.830708149935901 ], [ 86.646208035520715, 363.086126541376927 ], [ 67.928567027939806, 363.951682194650573 ], [ 67.603983657214528, 348.371680432733399 ] ] ] } },
{ "type": "Feature", "properties": { "feature_type": "building", "subtype": "major-damage", "uid": "a7f875db-7b4b-4cad-ac0a-0744e8bf2013" }, "geometry": { "type": "Polygon", "coordinates": [ [ [ 63.908304286401581, 340.113897156177586 ], [ 77.556787534233649, 339.94435077750029 ], [ 77.811107097513371, 347.0652985593062 ], [ 63.993077476986493, 347.404391312672374 ], [ 63.908304286401581, 340.113897156177586 ] ] ] } },
{ "type": "Feature", "properties": { "feature_type": "building", "subtype": "major-damage", "uid": "9957253d-971b-4934-b33a-14051800bc20" }, "geometry": { "type": "Polygon", "coordinates": [ [ [ 517.598214939896025, 147.137067180236102 ], [ 541.037785035703337, 147.137067180236102 ], [ 541.214022404598722, 152.424188258318111 ], [ 574.170410429794629, 153.305375100676798 ], [ 573.641698322360526, 196.836005274323895 ], [ 548.792229276387047, 195.954818426979813 ], [ 548.615991905123565, 205.471636361544995 ], [ 530.463542884529375, 205.295398993272613 ], [ 532.049679208077919, 165.994465678102813 ], [ 517.774452306984244, 164.937041462486491 ], [ 517.598214939896025, 147.137067180236102 ] ] ] } },
{ "type": "Feature", "properties": { "feature_type": "building", "subtype": "major-damage", "uid": "2a8cb952-9e48-4ccb-a33e-25daa0311ad0" }, "geometry": { "type": "Polygon", "coordinates": [ [ [ 950.520276641968849, 156.0781747632048 ], [ 950.295348135754239, 97.146906496146016 ], [ 1005.17790331853098, 97.371834998497079 ], [ 1005.177903318779954, 141.907678957552292 ], [ 1002.92861827121601, 145.506535037045893 ], [ 1002.253832755999952, 156.752960276240401 ], [ 950.520276641968849, 156.0781747632048 ] ] ] } },
{ "type": "Feature", "properties": { "feature_type": "building", "subtype": "major-damage", "uid": "d2ba6ecc-0882-4944-853f-3aad2259ac02" }, "geometry": { "type": "Polygon", "coordinates": [ [ [ 879.442869113816982, 96.921977993794968 ], [ 892.488722390696125, 91.973550885239149 ], [ 902.385576607927987, 95.572406964732679 ], [ 922.179285030551682, 96.022263973423051 ], [ 925.328284098611562, 93.772978921994735 ], [ 940.62342242853822, 93.548050418646611 ], [ 941.298207942819772, 103.894761640460402 ], [ 932.75092476013333, 114.916258380295005 ], [ 935.45006681769587, 134.709966807538791 ], [ 936.349780835886349, 146.406249056420705 ], [ 925.77814111035525, 147.530891581137809 ], [ 925.328284098299946, 140.783036435826403 ], [ 910.707931283278072, 141.907678959546502 ], [ 910.033145771177601, 150.454962142610498 ], [ 876.068941538358558, 151.804533175660993 ], [ 874.044584995015271, 111.317402301798495 ], [ 880.56751163417141, 110.642616788762993 ], [ 879.442869113816982, 96.921977993794968 ] ] ] } },
{ "type": "Feature", "properties": { "feature_type": "building", "subtype": "major-damage", "uid": "0ef5fcfa-1846-4ec4-93ef-2be3f4c66197" }, "geometry": { "type": "Polygon", "coordinates": [ [ [ 1022.451747686915951, 212.061226421794089 ], [ 1012.273981903358049, 215.798752652861907 ], [ 1017.441279768461982, 231.874790454362795 ], [ 982.992627337197177, 242.209386185821899 ], [ 977.538257367070514, 226.420420489218998 ], [ 984.427987855392416, 223.262627349300203 ], [ 981.270194713917135, 207.760733753607013 ], [ 990.456502028646923, 205.464156923396814 ], [ 987.011636787134421, 187.378614397580805 ], [ 978.973617884455734, 186.804470190775987 ], [ 972.945103710017293, 168.718927660971701 ], [ 997.059160413815789, 162.403341385122303 ], [ 1000.791097758979959, 173.025009216494198 ], [ 1022.45181938868302, 166.717673687853591 ], [ 1022.451747686915951, 212.061226421794089 ] ] ] } },
{ "type": "Feature", "properties": { "feature_type": "building", "subtype": "major-damage", "uid": "0355e772-99b6-45a3-b9b8-4b0632392da0" }, "geometry": { "type": "Polygon", "coordinates": [ [ [ 748.605410679211218, 167.555891895732486 ], [ 756.06208655219109, 165.898852811767199 ], [ 759.238078127193376, 170.179537108438097 ], [ 768.075619901275218, 170.041450516196591 ], [ 770.285005345294167, 165.760766220522811 ], [ 791.415972583527832, 164.041942107345392 ], [ 796.007261905327368, 180.868590790190098 ], [ 801.492574734078289, 185.783321801403702 ], [ 805.911345623736452, 200.558586955876393 ], [ 807.797289378031905, 220.264779510084594 ], [ 758.138408297395927, 228.111294198304591 ], [ 753.908711440353841, 203.43806252352141 ], [ 760.077019357364406, 199.560840401588706 ], [ 760.077019358610642, 195.859855648925503 ], [ 752.146337746227346, 195.859855646931408 ], [ 748.605410679211218, 167.555891895732486 ] ] ] } },
{ "type": "Feature", "properties": { "feature_type": "building", "subtype": "major-damage", "uid": "1a860be9-9425-4593-b02f-046be456e963" }, "geometry": { "type": "Polygon", "coordinates": [ [ [ 96.064645642502427, 892.965569560947188 ], [ 133.852634455419491, 891.615998529890817 ], [ 134.97727697994921, 925.580202757801885 ], [ 95.61478863225436, 925.580202760792986 ], [ 96.064645642502427, 892.965569560947188 ] ] ] } },
{ "type": "Feature", "properties": { "feature_type": "building", "subtype": "destroyed", "uid": "a9f71ed4-0af6-4bbc-ad9a-c1c7cbcb7960" }, "geometry": { "type": "Polygon", "coordinates": [ [ [ 142.1749891360042, 856.977008785953103 ], [ 168.941481215447908, 872.04721860798918 ], [ 162.868411580121091, 885.767857407942529 ], [ 144.874131192881293, 878.12028824026504 ], [ 142.1749891360042, 856.977008785953103 ] ] ] } },
{ "type": "Feature", "properties": { "feature_type": "building", "subtype": "major-damage", "uid": "488db8df-c8d6-4ac4-b52a-8ecd1db71ed9" }, "geometry": { "type": "Polygon", "coordinates": [ [ [ 143.074703157933612, 890.491356008164871 ], [ 187.835475621002786, 888.691927968418099 ], [ 188.96011814254129, 919.507133129514273 ], [ 143.974417174441612, 921.981346681299556 ], [ 143.074703157933612, 890.491356008164871 ] ] ] } },
{ "type": "Feature", "properties": { "feature_type": "building", "subtype": "major-damage", "uid": "583b1730-91e0-4a36-b944-8b0a9d175668" }, "geometry": { "type": "Polygon", "coordinates": [ [ [ 244.067601829600704, 835.383872316968336 ], [ 274.657878489640893, 834.934015307280902 ], [ 275.33266400541811, 930.303701358024227 ], [ 256.663598104270477, 929.853844349333826 ], [ 254.864170062966593, 923.555846213709856 ], [ 252.389956512054908, 911.859563963830965 ], [ 246.541815383254288, 911.184778446807172 ], [ 245.417172861653597, 901.062995732329796 ], [ 241.143531267817707, 901.287924235677906 ], [ 240.693674257756612, 882.618858333151138 ], [ 246.99167239468639, 882.618858333151138 ], [ 247.66645791127371, 862.37529289921099 ], [ 244.067601830909297, 862.375292901205171 ], [ 244.067601829600704, 835.383872316968336 ] ] ] } },
{ "type": "Feature", "properties": { "feature_type": "building", "subtype": "major-damage", "uid": "079b5e3d-d316-4e48-a9b3-78ef68e32fdf" }, "geometry": { "type": "Polygon", "coordinates": [ [ [ 291.094192770852317, 897.845901168363866 ], [ 323.958801245532698, 899.226767065852073 ], [ 324.096887834533675, 931.953288949489547 ], [ 313.188047207116313, 932.09137553873984 ], [ 311.254834946770018, 935.543540295920707 ], [ 300.207907724743222, 928.915383962053625 ], [ 299.517474773070489, 908.754741793916537 ], [ 291.232279360351811, 908.064308843676827 ], [ 291.094192770852317, 897.845901168363866 ] ] ] } },
{ "type": "Feature", "properties": { "feature_type": "building", "subtype": "major-damage", "uid": "0fff588d-2c9a-4ff5-8edc-f9c08be21591" }, "geometry": { "type": "Polygon", "coordinates": [ [ [ 273.495516080117625, 760.786184358471701 ], [ 287.065793506688919, 759.728760142855208 ], [ 287.065793504258579, 744.748583770909477 ], [ 306.275666740655709, 744.57234639964588 ], [ 306.628141479568228, 749.15451799666198 ], [ 309.271702013311085, 749.330755363937328 ], [ 309.447939387129509, 743.691159552301883 ], [ 322.489504700284272, 743.691159552301883 ], [ 322.313267333071508, 751.974315901981186 ], [ 328.481575250393576, 758.318861187702964 ], [ 327.77662577312941, 800.087117672644354 ], [ 318.788519946314125, 800.615829779455453 ], [ 318.436045209769588, 807.31284980471321 ], [ 298.168747759065184, 806.784137699896178 ], [ 297.816273020900496, 797.972269242408629 ], [ 285.832131919186395, 798.148506612675078 ], [ 285.479657180710092, 792.156436064494983 ], [ 274.552940297727673, 791.451486586420401 ], [ 273.495516080117625, 760.786184358471701 ] ] ] } },
{ "type": "Feature", "properties": { "feature_type": "building", "subtype": "major-damage", "uid": "03b607ac-ee73-4cf9-b81a-127c6299c8d6" }, "geometry": { "type": "Polygon", "coordinates": [ [ [ 345.770659623005201, 747.719105978915536 ], [ 349.016493324337887, 745.987994670374064 ], [ 353.127882675765818, 746.312578040850212 ], [ 353.885243874124797, 748.368272715879584 ], [ 356.843530313717508, 749.245202448342184 ], [ 356.970242826582989, 753.561606638512785 ], [ 373.576634986403576, 752.804245441399758 ], [ 374.333996186756679, 756.482856966815802 ], [ 381.571650705912475, 756.542641234989105 ], [ 382.123997064969899, 763.299107736844462 ], [ 380.392885757675515, 763.948274478793792 ], [ 380.825663586493192, 778.121748302645642 ], [ 375.95691303539769, 779.203692872228885 ], [ 375.307746293947218, 784.072443421394723 ], [ 380.933858042155407, 789.914944081989006 ], [ 380.933858041220617, 799.111472896526152 ], [ 367.47554418320351, 799.776477009970108 ], [ 361.289203253257313, 794.149249695114918 ], [ 357.069619442553005, 799.342583614756904 ], [ 344.735451384468092, 799.126194701438408 ], [ 338.029387011570918, 798.895290162625997 ], [ 337.433096965189577, 767.677576258163526 ], [ 337.629245785339776, 748.203894659882621 ], [ 345.770659623005201, 747.719105978915536 ] ] ] } },
{ "type": "Feature", "properties": { "feature_type": "building", "subtype": "major-damage", "uid": "4917998d-daaa-4c40-90aa-a2a9298c16d5" }, "geometry": { "type": "Polygon", "coordinates": [ [ [ 383.320369090003908, 752.093744332200913 ], [ 394.725851404185221, 751.987575271484843 ], [ 395.149717343836414, 747.833689066677721 ], [ 403.711809318284622, 747.494596314308524 ], [ 403.711809317910593, 749.613926010882892 ], [ 406.848417272962081, 749.613926010882892 ], [ 406.763644083062673, 747.155503563933507 ], [ 411.934808542170913, 747.070730377586074 ], [ 412.514015556531319, 765.732592297236693 ], [ 412.768335121119719, 770.39511762910206 ], [ 423.513171298451027, 770.52341895913446 ], [ 424.735863991492181, 801.983183547288604 ], [ 384.425061808617215, 802.909609533256344 ], [ 384.148888629805128, 781.09192827517154 ], [ 383.320369090003908, 752.093744332200913 ] ] ] } },
{ "type": "Feature", "properties": { "feature_type": "building", "subtype": "major-damage", "uid": "ffdda381-4174-4a21-8957-0127efbce1ae" }, "geometry": { "type": "Polygon", "coordinates": [ [ [ 368.113443623181183, 611.405636857083778 ], [ 385.510002995216212, 612.264048528666308 ], [ 385.857334519147116, 635.9657785172285 ], [ 389.970607874742313, 636.56594446562201 ], [ 389.556348104623623, 644.022620336984915 ], [ 385.13757721826812, 643.746447157487296 ], [ 385.275663808328488, 671.91611156096792 ], [ 364.562675277902486, 672.05419815420646 ], [ 364.700761866155574, 667.221167494552105 ], [ 337.635790181612322, 667.083080904304779 ], [ 337.359617004482686, 619.305120690685271 ], [ 368.15292662003219, 619.167034097446731 ], [ 368.113443623181183, 611.405636857083778 ] ] ] } },
{ "type": "Feature", "properties": { "feature_type": "building", "subtype": "major-damage", "uid": "c2b36eb8-e524-4431-a1c9-e1329611b03b" }, "geometry": { "type": "Polygon", "coordinates": [ [ [ 340.176578746886321, 591.95027555945444 ], [ 354.891024851908924, 591.950275557460373 ], [ 354.674635938528183, 608.179444057338628 ], [ 339.960189830389822, 608.071249602175044 ], [ 340.176578746886321, 591.95027555945444 ] ] ] } },
{ "type": "Feature", "properties": { "feature_type": "building", "subtype": "major-damage", "uid": "eec35454-2c91-4c69-af04-e2116ba94df4" }, "geometry": { "type": "Polygon", "coordinates": [ [ [ 245.488094650807113, 619.686034479344698 ], [ 252.530510751985787, 619.547947887103192 ], [ 252.944770522665294, 623.276285826772892 ], [ 265.234477053241108, 623.552459004276443 ], [ 268.272382038307626, 617.890908804134938 ], [ 289.537716936639924, 618.02899539338523 ], [ 290.090063294139384, 628.523576252184171 ], [ 318.121641109105212, 628.937836020932082 ], [ 317.293121566936009, 651.998296585260618 ], [ 303.760635726814087, 651.86020999700736 ], [ 303.760635726253327, 640.53710959871853 ], [ 294.92309395067582, 640.53710959871853 ], [ 285.395119226790825, 649.926997734541487 ], [ 281.252521519185109, 661.940531084067175 ], [ 255.706502329231398, 661.802444493819735 ], [ 241.207410354948195, 644.541620719880029 ], [ 247.559393506448288, 634.323213039581788 ], [ 244.797661699695311, 628.247403070692371 ], [ 245.488094650807113, 619.686034479344698 ] ] ] } },
{ "type": "Feature", "properties": { "feature_type": "building", "subtype": "major-damage", "uid": "38be941d-d270-4de9-b70f-f5902f0ef6a1" }, "geometry": { "type": "Polygon", "coordinates": [ [ [ 240.811126441072787, 508.990827464578274 ], [ 273.591277100613809, 510.576963785011685 ], [ 277.116024486249387, 515.511610120566615 ], [ 286.809079784969811, 516.392796966913579 ], [ 284.870468726621596, 529.081887544339679 ], [ 288.218978738251906, 538.951180215449426 ], [ 301.436781423106424, 541.418503381232767 ], [ 298.264508777317985, 557.103629233247375 ], [ 302.317968269328389, 557.456103972783239 ], [ 301.084306687122819, 565.210548209669014 ], [ 284.694231356978378, 563.800649259502165 ], [ 285.575418202203309, 549.525422363636835 ], [ 263.017034953116479, 548.820472884565106 ], [ 263.898221799026885, 541.066028642693936 ], [ 241.33983854844459, 539.127417586712909 ], [ 240.811126441072787, 508.990827464578274 ] ] ] } },
{ "type": "Feature", "properties": { "feature_type": "building", "subtype": "major-damage", "uid": "55bdcd16-aae8-4f9c-8ff5-72f317136136" }, "geometry": { "type": "Polygon", "coordinates": [ [ [ 121.526608059688698, 820.467270887611676 ], [ 106.370194314429597, 803.724720820977723 ], [ 118.706810154869302, 783.633660742213465 ], [ 116.591961723575096, 777.465352819778673 ], [ 124.698880707720505, 766.009923828235515 ], [ 128.047390716671202, 767.243585415115376 ], [ 129.104814931352394, 765.128736980891404 ], [ 128.223628085691189, 761.60398959849465 ], [ 132.80579968388929, 755.083206943503455 ], [ 142.322617615957597, 743.980252689501981 ], [ 145.494890261496693, 745.566389008938359 ], [ 153.954283979631612, 745.213914271396561 ], [ 154.482996089495998, 740.807980045644058 ], [ 169.1106977252646, 738.869368981686534 ], [ 170.344359310336813, 745.390151640665977 ], [ 180.213651984433511, 745.390151639668943 ], [ 180.566126718298392, 751.029747451304388 ], [ 184.972060946977905, 751.382222190840253 ], [ 184.972060947850309, 743.980252687507914 ], [ 207.177969456528899, 743.804015318238498 ], [ 221.629433725458512, 749.972323235688009 ], [ 220.043297403530289, 780.990100202175427 ], [ 190.787894131743712, 782.047524417791806 ], [ 190.787894127630892, 783.986135476764048 ], [ 171.578020892604798, 784.16237284802753 ], [ 171.049308785918498, 778.875251770942668 ], [ 152.015672918666212, 778.346539666125636 ], [ 142.322617618574895, 788.39206970849898 ], [ 148.667162906288013, 794.207902884418559 ], [ 145.318652891728902, 798.437599744889894 ], [ 141.617668140936786, 795.970276577112486 ], [ 121.526608059688698, 820.467270887611676 ] ] ] } },
{ "type": "Feature", "properties": { "feature_type": "building", "subtype": "major-damage", "uid": "b0fac0f8-2091-4462-b783-5cb6c186b36c" }, "geometry": { "type": "Polygon", "coordinates": [ [ [ -0.000004208971752, 732.485069257700729 ], [ 17.157648957723818, 733.384783276078565 ], [ 17.38257746107184, 729.336070192880015 ], [ 27.50436017909681, 729.336070192880015 ], [ 28.629002707988601, 736.308853841539531 ], [ 35.601786355274101, 736.308853843533598 ], [ 35.601786356769693, 750.704278146551815 ], [ 22.33100457155729, 754.136189875557193 ], [ 3.886867174443227, 755.202848248411442 ], [ 3.817154500135854, 765.221134468495848 ], [ 6.381848329210897, 778.410988454613971 ], [ 14.07592982322851, 781.342067117198667 ], [ 13.709544989408521, 795.631075600664417 ], [ -0.000004209719549, 796.363845268553973 ], [ -0.000004208971752, 732.485069257700729 ] ] ] } },
{ "type": "Feature", "properties": { "feature_type": "building", "subtype": "major-damage", "uid": "f7f72a84-d715-4c5c-9e90-c18f8fccb0b4" }, "geometry": { "type": "Polygon", "coordinates": [ [ [ 44.65833970275154, 1022.984370296851012 ], [ 44.925591726764083, 1009.28970779141298 ], [ 67.030143700577582, 1008.715563581616948 ], [ 66.762139256092325, 1022.984790944262045 ], [ 44.65833970275154, 1022.984370296851012 ] ] ] } },
{ "type": "Feature", "properties": { "feature_type": "building", "subtype": "major-damage", "uid": "289a1a38-0584-4a31-9601-7e76689f21e5" }, "geometry": { "type": "Polygon", "coordinates": [ [ [ 381.678664530353672, 889.676222630539314 ], [ 415.340002033187773, 891.26235895396394 ], [ 416.749900985971408, 925.804883300854044 ], [ 379.916290838470616, 925.804883302848225 ], [ 379.035103994990493, 906.947484807972614 ], [ 377.579995805279793, 906.980002151935196 ], [ 381.369995806715224, 888.250002149627107 ], [ 381.678664530353672, 889.676222630539314 ] ] ] } },
{ "type": "Feature", "properties": { "feature_type": "building", "subtype": "destroyed", "uid": "352a2fcc-e1fb-40c4-bc26-3fc228a61204" }, "geometry": { "type": "Polygon", "coordinates": [ [ [ 379.035103992996426, 877.515844161918608 ], [ 381.109995807132009, 887.040002150377632 ], [ 377.069995807827922, 906.990002151343901 ], [ 361.763841816567776, 907.299959543520231 ], [ 361.763841817440209, 912.410843250338644 ], [ 352.423261254828219, 912.587080617613992 ], [ 351.894549146397082, 907.476196912789646 ], [ 335.328236446858796, 906.242535328900999 ], [ 337.090610139178125, 876.458419948296296 ], [ 379.035103992996426, 877.515844161918608 ] ] ] } },
{ "type": "Feature", "properties": { "feature_type": "building", "subtype": "major-damage", "uid": "72f68360-a309-4c0e-b266-418a1854abbe" }, "geometry": { "type": "Polygon", "coordinates": [ [ [ 528.944475517390401, 924.446930346147383 ], [ 559.786015114470274, 921.45089507554701 ], [ 564.720661450085345, 952.292434668776878 ], [ 540.109214804088765, 956.760153930721003 ], [ 542.162278201123172, 966.391424198364007 ], [ 534.76030870059833, 967.272611046705038 ], [ 533.702884485294021, 961.280540495533728 ], [ 528.944475516954185, 960.575591016462113 ], [ 528.239526040624696, 954.407283098015455 ], [ 524.009829182460862, 931.143950376390308 ], [ 528.944475517390401, 924.446930346147383 ] ] ] } },
{ "type": "Feature", "properties": { "feature_type": "building", "subtype": "major-damage", "uid": "987243b0-028d-438b-ba40-78b609b36b9e" }, "geometry": { "type": "Polygon", "coordinates": [ [ [ 511.298687729119195, 864.214405731457987 ], [ 529.249944460083157, 862.557366647492699 ], [ 531.045070132674823, 869.599782747116478 ], [ 555.900656371392074, 871.394908420332058 ], [ 561.009860211165005, 890.865117638229435 ], [ 561.976466341587411, 896.388581250117682 ], [ 562.943072473567781, 909.921067090370116 ], [ 555.348310012023148, 910.611500040609826 ], [ 549.686759814065226, 915.168357518772495 ], [ 541.677737580220764, 916.273050240751331 ], [ 525.383519936461767, 915.168357518772495 ], [ 520.964749044871724, 903.983343712725059 ], [ 514.750852487108659, 892.384070133941577 ], [ 511.298687729119195, 864.214405731457987 ] ] ] } },
{ "type": "Feature", "properties": { "feature_type": "building", "subtype": "major-damage", "uid": "44fd3ef7-78a1-4c34-9894-a069ba2f4722" }, "geometry": { "type": "Polygon", "coordinates": [ [ [ 612.198315129163007, 829.984947832793409 ], [ 637.919573866825658, 825.141204564688792 ], [ 637.919573866701057, 823.34177652494202 ], [ 652.539926683093881, 820.867562974153884 ], [ 656.363711268177326, 835.487915789493741 ], [ 662.661709403486952, 833.238630738065467 ], [ 669.409564545617172, 860.45497982166205 ], [ 665.360851459491528, 862.704264871096257 ], [ 667.610136506432013, 865.628335437554256 ], [ 674.026636073258601, 868.065136683141986 ], [ 675.337709393214936, 893.396268243529107 ], [ 669.489568269150482, 894.295982259912762 ], [ 672.422432903850336, 908.460420316898194 ], [ 673.377119215987591, 913.394348706139908 ], [ 635.774181527568317, 915.323775559673322 ], [ 630.376225717349826, 915.323775559673322 ], [ 629.011758865494585, 911.733625542638606 ], [ 612.550789867327694, 917.574920286898646 ], [ 606.194607794458079, 915.246780139343741 ], [ 605.148820364185553, 896.426435993515042 ], [ 610.435941439523276, 895.89772388570691 ], [ 610.788416180242962, 891.491789658957259 ], [ 624.887405706521122, 892.020501764771325 ], [ 625.76859255417628, 894.311587561285251 ], [ 627.530966245747891, 893.959112827731815 ], [ 627.530966244065326, 890.786840180882564 ], [ 625.944829922137046, 891.139314917427328 ], [ 625.944829925377462, 889.729415963272118 ], [ 624.887405708203573, 878.978936449803541 ], [ 608.64340378839654, 880.680982217404676 ], [ 606.558719317592363, 856.420553199273627 ], [ 618.719097788949625, 855.18689161837608 ], [ 618.366623052280488, 849.018583698932503 ], [ 612.198315129848424, 840.206715244436054 ], [ 612.198315129163007, 829.984947832793409 ] ] ] } },
{ "type": "Feature", "properties": { "feature_type": "building", "subtype": "major-damage", "uid": "253bbae1-d982-4222-a1e1-20b82d641137" }, "geometry": { "type": "Polygon", "coordinates": [ [ [ 631.350047720298676, 793.021904704185431 ], [ 625.48789039195367, 803.280680029712926 ], [ 626.953429726174249, 808.410067687989908 ], [ 624.022351061659037, 813.905840182704424 ], [ 621.824042062976559, 820.134382341320133 ], [ 599.474567257101057, 830.759542498299766 ], [ 590.31122470519631, 820.615562592821107 ], [ 579.989259508707278, 794.126817245387997 ], [ 610.466112242661438, 777.633741721377987 ], [ 627.686199390199931, 772.137969227660619 ], [ 631.350047720298676, 793.021904704185431 ] ] ] } },
{ "type": "Feature", "properties": { "feature_type": "building", "subtype": "major-damage", "uid": "f3784394-5b0a-4b4f-a190-43c27787ee76" }, "geometry": { "type": "Polygon", "coordinates": [ [ [ 586.284713266813469, 746.857415758754314 ], [ 595.810718923512468, 745.758261254427339 ], [ 607.990424786453673, 776.754501679073428 ], [ 576.984402962354238, 793.055314700626695 ], [ 566.166705134305971, 782.019578757720069 ], [ 561.584533537416519, 766.863165012516674 ], [ 566.695417242113876, 764.572079212014501 ], [ 565.461755661715415, 756.993872342403961 ], [ 568.281553565662421, 754.702786541901787 ], [ 565.461755659721348, 745.538443346872441 ], [ 579.913219928401645, 738.841423321614798 ], [ 586.284713266813469, 746.857415758754314 ] ] ] } },
{ "type": "Feature", "properties": { "feature_type": "building", "subtype": "major-damage", "uid": "5b61b5b2-9d39-413f-807b-c61ba41dced7" }, "geometry": { "type": "Polygon", "coordinates": [ [ [ 598.29094543127394, 735.684503669649871 ], [ 615.137509439137943, 733.198945045197547 ], [ 616.242202158935129, 747.283777247436319 ], [ 601.052677236219779, 751.150201772368177 ], [ 598.29094543127394, 735.684503669649871 ] ] ] } },
{ "type": "Feature", "properties": { "feature_type": "building", "subtype": "major-damage", "uid": "eb549055-e340-4570-bdce-ab5c96e27590" }, "geometry": { "type": "Polygon", "coordinates": [ [ [ 551.879995813475261, 638.690002144497726 ], [ 554.181537821379379, 640.915769446424861 ], [ 554.322666531801474, 641.480284278641648 ], [ 579.739995813246423, 639.990002146402389 ], [ 593.685164152171069, 640.581105993533356 ], [ 595.271300471918266, 670.365221373140912 ], [ 607.784153680630311, 671.070170848224393 ], [ 607.784153682749093, 686.755296700239001 ], [ 591.401157015157082, 687.91805552458402 ], [ 595.083967757694495, 695.696465982388872 ], [ 606.130894977540152, 715.442848384769263 ], [ 612.759051307976961, 731.737066027974606 ], [ 569.952208336613126, 739.331828493573084 ], [ 564.152571550152857, 718.756926550705771 ], [ 565.395350859262635, 698.320111198085669 ], [ 561.528926334519497, 699.700977100559271 ], [ 560.562320202165324, 692.934734184421245 ], [ 563.205217017667451, 689.337072208073778 ], [ 562.314912444354377, 684.464210903725075 ], [ 557.02779137076152, 683.583024058375145 ], [ 555.970367155644112, 668.250372946893435 ], [ 551.669938950557821, 667.795903126510098 ], [ 550.657141964089078, 643.14274442649446 ], [ 548.444138360340276, 642.26824857373083 ], [ 548.040345402498474, 638.507044883802905 ], [ 551.879995813475261, 638.690002144497726 ] ] ] } },
{ "type": "Feature", "properties": { "feature_type": "building", "subtype": "major-damage", "uid": "6467816a-c8fb-44b8-9018-4ed3f64f74bf" }, "geometry": { "type": "Polygon", "coordinates": [ [ [ 590.220468574182519, 600.963769480070937 ], [ 581.27315310074755, 608.722199192321568 ], [ 578.881225143955021, 609.915803762593441 ], [ 579.729995813152186, 639.490002147050404 ], [ 554.707207417042582, 640.956895011171923 ], [ 552.709995813194382, 638.790002147558766 ], [ 550.892015826612919, 629.401124196862384 ], [ 547.43985107124081, 619.596976292291401 ], [ 544.934768146094029, 614.624884952894377 ], [ 545.50663880921195, 609.792828385726352 ], [ 543.159166775194876, 610.345174747712917 ], [ 540.628769730633962, 604.760991079287919 ], [ 544.125772906988232, 603.440845236342284 ], [ 543.795643573996017, 598.787155984791525 ], [ 540.566984697184353, 598.887091795019842 ], [ 541.50995657536032, 591.955768298126486 ], [ 543.877343931662153, 591.52699200154359 ], [ 544.576894612170804, 588.489087015104701 ], [ 550.7887521043981, 588.312849649823534 ], [ 551.493701582472454, 592.542546507303882 ], [ 558.895671083994444, 593.247495983384397 ], [ 558.366958976684941, 589.546511231718227 ], [ 563.830317420107917, 588.665324388362365 ], [ 563.830317420731149, 584.788102265432713 ], [ 573.875847463162359, 578.972269085524886 ], [ 590.220468574182519, 600.963769480070937 ] ] ] } },
{ "type": "Feature", "properties": { "feature_type": "building", "subtype": "major-damage", "uid": "1abb27c4-1a5b-4189-afb6-a2ad63472edd" }, "geometry": { "type": "Polygon", "coordinates": [ [ [ 673.366081721742717, 621.216441937893023 ], [ 718.431416177284291, 597.035042962345983 ], [ 730.888500496192933, 610.591281779916244 ], [ 737.117042657423212, 624.51390543292689 ], [ 741.147275819908714, 636.238220083265901 ], [ 747.742202814647385, 633.67352625612159 ], [ 751.406051141568128, 636.970989750158424 ], [ 751.406051142565161, 662.984312890942533 ], [ 731.987654996531205, 675.441397212162315 ], [ 733.086809495623129, 680.204400037990126 ], [ 702.676868362470827, 695.592563022791637 ], [ 691.685323371115032, 675.807782045608633 ], [ 706.707101522775361, 667.747315720758593 ], [ 695.349171701213891, 643.199531911765348 ], [ 679.961008715297453, 643.199531912762495 ], [ 673.366081721742717, 621.216441937893023 ] ] ] } },
{ "type": "Feature", "properties": { "feature_type": "building", "subtype": "major-damage", "uid": "3dc6065b-db2d-4d8f-af3b-0482defe9e4e" }, "geometry": { "type": "Polygon", "coordinates": [ [ [ 723.87541936909804, 689.278549321785476 ], [ 736.916984684994873, 693.332008808999262 ], [ 740.265494697186, 700.557740941068118 ], [ 751.720923692338488, 698.61912988309291 ], [ 759.651605303787051, 691.745872487568818 ], [ 763.881302160704649, 693.860720915810361 ], [ 774.455544310632263, 691.39339774703592 ], [ 785.734735936390734, 713.9517809965688 ], [ 785.029786457194746, 718.710189961857168 ], [ 793.489180178943911, 717.124053640426723 ], [ 796.308978085071999, 730.165618955394507 ], [ 791.550569118103112, 735.628977394769322 ], [ 790.316907532220853, 741.797285318201261 ], [ 750.311024742421409, 761.359633291151454 ], [ 745.200141035169054, 757.482411171212902 ], [ 741.499156281323394, 744.969557961062151 ], [ 743.437767343784458, 740.916098473848365 ], [ 737.445696792491162, 731.927992645097333 ], [ 723.170469892020719, 726.112159465189507 ], [ 710.833854053824439, 730.870568430477988 ], [ 704.489308765924306, 715.185442580457561 ], [ 707.30910667379726, 713.775543627299385 ], [ 701.140798751926013, 700.205266205520502 ], [ 713.829889328287095, 694.389433027606856 ], [ 723.87541936909804, 689.278549321785476 ] ] ] } },
{ "type": "Feature", "properties": { "feature_type": "building", "subtype": "major-damage", "uid": "7df83240-85fa-40bd-aee4-474b46c1142e" }, "geometry": { "type": "Polygon", "coordinates": [ [ [ 748.700156747316782, 783.315700335794077 ], [ 776.125968019988932, 769.198183632182122 ], [ 776.830917500742885, 774.309067338003501 ], [ 785.691477089064847, 765.386809957141395 ], [ 806.558966551856429, 752.127206519842048 ], [ 824.591244531662255, 783.297173161769138 ], [ 816.052995715780526, 791.471310449285738 ], [ 812.783340800775363, 784.7070721119361 ], [ 801.151674437973725, 785.412021590010795 ], [ 792.868518090416842, 803.564470611796992 ], [ 793.831705209123243, 809.247624097096718 ], [ 787.758635578657163, 818.919549804877875 ], [ 777.411924353295944, 815.995479242408123 ], [ 780.560923420545691, 792.602914742650114 ], [ 776.287281829264884, 789.45391566985279 ], [ 765.715642104793119, 797.551341848214747 ], [ 757.393287423460606, 799.800626895654887 ], [ 748.700156747316782, 783.315700335794077 ] ] ] } },
{ "type": "Feature", "properties": { "feature_type": "building", "subtype": "major-damage", "uid": "51346708-4bfa-4a6e-9eeb-ba1099ce67ad" }, "geometry": { "type": "Polygon", "coordinates": [ [ [ 843.159045532784717, 810.167106814898716 ], [ 852.852100836490308, 820.741348963086125 ], [ 852.852100835555575, 826.028470036182739 ], [ 860.254070339819464, 833.077964799979213 ], [ 860.077832971671796, 842.066070627733211 ], [ 851.970913989458268, 848.410615914452137 ], [ 844.568944485630709, 849.996752236879615 ], [ 836.990737613281567, 856.870009633400855 ], [ 820.424424914553356, 837.483899031714145 ], [ 817.428389643206515, 841.008646413113865 ], [ 820.248187545595556, 845.590818011127112 ], [ 814.961066472750531, 849.291802760799101 ], [ 812.846218045569231, 847.000716961293961 ], [ 805.091773801645104, 857.046247003667304 ], [ 791.169021641333529, 840.832409044841597 ], [ 782.357153183413629, 838.188848508791807 ], [ 779.008643168667504, 830.081929528381806 ], [ 786.939324779742265, 822.856197394318883 ], [ 792.755157961205327, 826.557182144988019 ], [ 800.333364836171768, 819.860162117736195 ], [ 800.333364834177701, 817.392838948961639 ], [ 804.739299062171654, 813.515616828026054 ], [ 815.313541211164534, 824.089858978207644 ], [ 826.240258096265734, 817.040364210422922 ], [ 830.46995495661065, 820.212636857272059 ], [ 843.159045532784717, 810.167106814898716 ] ] ] } },
{ "type": "Feature", "properties": { "feature_type": "building", "subtype": "major-damage", "uid": "e977b9bc-40a4-4408-a720-d1d323a95747" }, "geometry": { "type": "Polygon", "coordinates": [ [ [ 529.141550216979113, 363.172971653051889 ], [ 556.413400062253004, 345.661573334040611 ], [ 571.628221555721098, 369.775630036790517 ], [ 545.217588021588654, 388.435316771405382 ], [ 529.141550216979113, 363.172971653051889 ] ] ] } },
{ "type": "Feature", "properties": { "feature_type": "building", "subtype": "major-damage", "uid": "33976988-1a71-4487-8723-6123102cd5da" }, "geometry": { "type": "Polygon", "coordinates": [ [ [ 579.426460130476698, 358.633167521077382 ], [ 609.117022773697386, 341.763529658297387 ], [ 626.211589137886108, 374.153234355792222 ], [ 617.43937745091705, 381.350946508796881 ], [ 621.713019043818122, 390.123158196206077 ], [ 600.794668092738789, 402.944082972796423 ], [ 579.426460130476698, 358.633167521077382 ] ] ] } },
{ "type": "Feature", "properties": { "feature_type": "building", "subtype": "major-damage", "uid": "373e4c52-9fff-4b07-9ba2-b4f551dc6f7c" }, "geometry": { "type": "Polygon", "coordinates": [ [ [ 608.020883020635551, 403.102217548451392 ], [ 623.091092844596915, 395.454648384762322 ], [ 632.538090049960488, 407.375859140980481 ], [ 631.863304535554221, 412.099357740205903 ], [ 637.03666014440239, 414.123714284297819 ], [ 639.510873698679234, 421.996211952332203 ], [ 651.035487040920088, 442.950069297946811 ], [ 622.262391615770184, 463.850667050089726 ], [ 611.169882089256248, 446.513418982789574 ], [ 617.242951718164363, 442.239777388266418 ], [ 612.069596106636595, 432.792780186824587 ], [ 617.467880223755742, 429.418852615664491 ], [ 614.993666673217945, 422.221140459668618 ], [ 624.215735373239454, 415.248356809014922 ], [ 621.966450322123706, 412.099357740205903 ], [ 612.294524613100407, 416.822856343419517 ], [ 608.020883020635551, 403.102217548451392 ] ] ] } },
{ "type": "Feature", "properties": { "feature_type": "building", "subtype": "major-damage", "uid": "05ace3b3-8b32-4e1e-8dfa-beb10955bd09" }, "geometry": { "type": "Polygon", "coordinates": [ [ [ 753.348158497382087, 452.466685688433984 ], [ 772.692009913932907, 443.244616988346081 ], [ 791.58600432235437, 480.807677294753603 ], [ 770.217796361712544, 490.929460011225217 ], [ 753.348158497382087, 452.466685688433984 ] ] ] } },
{ "type": "Feature", "properties": { "feature_type": "building", "subtype": "major-damage", "uid": "b444eef7-9e79-46bf-a787-a2c2025eda3b" }, "geometry": { "type": "Polygon", "coordinates": [ [ [ 721.39767357190658, 395.821505721806886 ], [ 761.013623871890104, 376.874746882294005 ], [ 765.319705426787436, 378.597179501711196 ], [ 772.209435916355687, 376.874746882294005 ], [ 771.922363810086949, 371.99452112295802 ], [ 774.218940638675917, 369.123800084945913 ], [ 788.859617921662789, 384.338621573746991 ], [ 769.051642771951492, 390.080063650768125 ], [ 770.19993119060814, 395.53443361591178 ], [ 764.745561220232275, 399.553443066536374 ], [ 769.051642774257175, 408.452678281482179 ], [ 774.793084845168778, 405.294885141563327 ], [ 785.701824785359804, 425.677004493601373 ], [ 747.521235001515151, 444.049619126309494 ], [ 721.39767357190658, 395.821505721806886 ] ] ] } },
{ "type": "Feature", "properties": { "feature_type": "building", "subtype": "major-damage", "uid": "8f574007-f60c-41c5-9040-c7c39ac201a7" }, "geometry": { "type": "Polygon", "coordinates": [ [ [ 707.106211993560123, 328.646633477791283 ], [ 721.391189748821034, 328.755699097754928 ], [ 730.933196590030548, 343.574382865682708 ], [ 765.381849023850577, 327.498345062187809 ], [ 772.271579511860864, 329.220777687587315 ], [ 764.807704817544618, 351.899473870832594 ], [ 770.836218994101841, 367.114295361627796 ], [ 758.492118537148826, 374.865242155984674 ], [ 749.592883328189373, 359.363348565276794 ], [ 718.876168241839082, 375.726458469681518 ], [ 713.134726166253813, 363.956502220711911 ], [ 705.09670726457216, 365.678934844117407 ], [ 698.20697677843134, 352.473618078634388 ], [ 701.938914125901078, 348.167536523111892 ], [ 699.929409401649082, 341.277806038463723 ], [ 708.254500404302576, 332.952715032316689 ], [ 707.106211993560123, 328.646633477791283 ] ] ] } },
{ "type": "Feature", "properties": { "feature_type": "building", "subtype": "major-damage", "uid": "a0774fb8-6a48-4423-b60b-5063cd0f021e" }, "geometry": { "type": "Polygon", "coordinates": [ [ [ 813.233567840162095, 317.90020807443068 ], [ 845.031061921005971, 302.469071244504278 ], [ 867.943962067987513, 352.035753189853892 ], [ 814.168788253688717, 377.754314578050014 ], [ 806.687024940365745, 359.517516503055617 ], [ 828.664704675565531, 350.165312363796886 ], [ 813.233567840162095, 317.90020807443068 ] ] ] } },
{ "type": "Feature", "properties": { "feature_type": "building", "subtype": "major-damage", "uid": "6cee012e-e6be-4e14-82ac-3694a21662f6" }, "geometry": { "type": "Polygon", "coordinates": [ [ [ 847.396785457849546, 452.784494819640088 ], [ 887.578905621529771, 429.344924726751401 ], [ 893.923450908868972, 440.271641613477584 ], [ 895.685824600938986, 438.156793184238893 ], [ 915.776884682249374, 438.861742657328307 ], [ 933.224384226638676, 462.830024860019307 ], [ 903.440268843367562, 478.867625449575712 ], [ 918.244207850586577, 503.188382387814272 ], [ 892.337314586940693, 516.758659811587336 ], [ 880.000698749305229, 495.081463410395486 ], [ 885.81653192995816, 490.499291815373624 ], [ 883.349208762555804, 485.035933370016323 ], [ 892.689789324482263, 475.871590174987091 ], [ 887.05019351347255, 466.178534875140826 ], [ 873.832390828555617, 467.940908567834811 ], [ 858.323502346689679, 476.929014391600617 ], [ 847.396785457849546, 452.784494819640088 ] ] ] } },
{ "type": "Feature", "properties": { "feature_type": "building", "subtype": "major-damage", "uid": "de8a51cf-1f25-4904-9e5c-b1652734bbe3" }, "geometry": { "type": "Polygon", "coordinates": [ [ [ 853.95690764944618, 445.145089356673509 ], [ 849.206300153764005, 434.824641771617621 ], [ 874.398292696622775, 421.10400297664961 ], [ 861.577367921783093, 397.036652959867808 ], [ 846.507158094269698, 403.559579598839889 ], [ 843.583087531925912, 397.261581466207076 ], [ 844.707730055770071, 391.638368842621617 ], [ 842.872736529134841, 387.428997509680414 ], [ 876.443425390698053, 370.168173730755313 ], [ 901.171622586002513, 421.808455609856082 ], [ 901.458694686725153, 421.80845561185032 ], [ 853.95690764944618, 445.145089356673509 ] ] ] } },
{ "type": "Feature", "properties": { "feature_type": "building", "subtype": "major-damage", "uid": "9e899e4d-820a-4456-bc8e-2da576e1ba6b" }, "geometry": { "type": "Polygon", "coordinates": [ [ [ 905.333649359634364, 249.172693896736689 ], [ 915.592424681169064, 243.310536569573088 ], [ 911.562191517811129, 238.547533746736491 ], [ 929.881433165750195, 229.754297753997008 ], [ 935.010820828075566, 236.715609578508207 ], [ 946.735135484765578, 230.853452252341611 ], [ 960.657759134841285, 260.164238886165492 ], [ 974.94676761842527, 252.470157396756008 ], [ 980.076155282744708, 264.560856881538314 ], [ 963.955222632553387, 278.117095700105608 ], [ 966.886301296570082, 281.780944027588816 ], [ 944.536826485584584, 293.505258685904209 ], [ 940.872978156046656, 283.246483361373805 ], [ 924.752045504733587, 292.039719354113288 ], [ 916.325194348684477, 278.483480535545993 ], [ 921.088197176254994, 273.720477703735924 ], [ 905.333649359634364, 249.172693896736689 ] ] ] } },
{ "type": "Feature", "properties": { "feature_type": "building", "subtype": "major-damage", "uid": "e6de7dd4-7511-4e50-b0ad-a48967122e1b" }, "geometry": { "type": "Polygon", "coordinates": [ [ [ 831.013103365233746, 887.315552090474057 ], [ 853.978871654862473, 860.043702248802447 ], [ 867.184188421648287, 870.091225873369581 ], [ 876.083423633349753, 858.034197523490207 ], [ 880.102433084097129, 859.756630145898612 ], [ 886.99216357042485, 851.144467032859552 ], [ 918.570094967667274, 874.971451634699747 ], [ 914.264013414888723, 885.880191567978386 ], [ 921.440816004992598, 891.047489436200635 ], [ 901.632840858771033, 916.309834552559892 ], [ 892.446533539055849, 911.429608790232692 ], [ 890.149956711464029, 915.735690345755188 ], [ 879.241216772706366, 906.549383029899673 ], [ 879.815360980009359, 901.095013061764689 ], [ 861.442746348929518, 889.612128917693099 ], [ 854.840087968621333, 897.363075719029439 ], [ 860.294457933638, 905.688166721188054 ], [ 856.562520589346377, 908.558887756208946 ], [ 831.013103365233746, 887.315552090474057 ] ] ] } },
{ "type": "Feature", "properties": { "feature_type": "building", "subtype": "major-damage", "uid": "be737859-c514-4479-8d13-96226cfffb7e" }, "geometry": { "type": "Polygon", "coordinates": [ [ [ 515.538771793335741, 1022.988910731828014 ], [ 515.538771820630359, 1012.314215416988986 ], [ 502.715302668836614, 1011.581445751093952 ], [ 497.585915005202594, 981.171504617927894 ], [ 512.241308321235692, 980.072350116592133 ], [ 515.172386986311835, 993.994973770599813 ], [ 523.232853314523368, 991.430279938470107 ], [ 523.232853311095937, 985.568122614297749 ], [ 534.957167968035264, 983.369813614617215 ], [ 538.621016297822507, 979.339580449699611 ], [ 549.612561285252355, 985.934507443755706 ], [ 549.612561282323554, 989.598355771238857 ], [ 560.237721438052176, 990.33112543813138 ], [ 559.171576604869188, 1022.988861827941037 ], [ 515.538771793335741, 1022.988910731828014 ] ] ] } },
{ "type": "Feature", "properties": { "feature_type": "building", "subtype": "major-damage", "uid": "6db0324e-fb28-49e8-b6f9-cdcb47bd3907" }, "geometry": { "type": "Polygon", "coordinates": [ [ [ 626.180738293608556, 976.240124739583166 ], [ 632.349995816451838, 973.950002146643897 ], [ 634.082057102293106, 985.885104313828606 ], [ 636.665706036776896, 985.885104314825639 ], [ 637.81399444963813, 1001.386997907527984 ], [ 630.924263963808926, 1002.535286323131004 ], [ 630.924263914205085, 1022.988608212310965 ], [ 604.187171441631563, 1022.988727894624049 ], [ 603.471131727921261, 979.705965283145815 ], [ 603.447497475176192, 979.191769701178487 ], [ 612.146952656393523, 978.777509931433428 ], [ 612.146952660381771, 976.420002145177705 ], [ 615.382010596191776, 974.223187746119493 ], [ 622.507889613524753, 973.332452867480242 ], [ 626.180738293608556, 976.240124739583166 ] ] ] } },
{ "type": "Feature", "properties": { "feature_type": "building", "subtype": "major-damage", "uid": "dd0edebb-6acd-4736-bd0d-c4e6142c67ae" }, "geometry": { "type": "Polygon", "coordinates": [ [ [ 631.785480273579424, 921.293881006915399 ], [ 629.488903447607754, 928.470683594467459 ], [ 637.813994453875694, 939.092351429827545 ], [ 629.775975549327427, 951.149379776715705 ], [ 636.378633932066009, 961.483975508174922 ], [ 631.785480276695239, 970.09613861722562 ], [ 632.269995820371832, 973.450002146294764 ], [ 626.270553424554578, 975.673510558851149 ], [ 622.653882396895824, 972.810312660205909 ], [ 615.200721999180018, 973.741957709328744 ], [ 612.14695265838759, 975.810002144353007 ], [ 612.146952657078941, 975.73960494698872 ], [ 604.966449969890618, 974.634912225009884 ], [ 604.414103607094262, 950.193585755216645 ], [ 604.226558327520593, 924.451674143842979 ], [ 618.580163509037106, 918.423159969900325 ], [ 627.479398723667373, 915.552438933882513 ], [ 631.785480273579424, 921.293881006915399 ] ] ] } },
{ "type": "Feature", "properties": { "feature_type": "building", "subtype": "major-damage", "uid": "e0e3ffe5-935d-45b7-8768-3289239d4828" }, "geometry": { "type": "Polygon", "coordinates": [ [ [ 376.79462815306232, 1022.988536900457007 ], [ 376.634486236633109, 1022.393968436065052 ], [ 385.448492112819622, 1008.677624725089004 ], [ 388.032141044935372, 992.888659027488984 ], [ 396.644304155104123, 983.415279606735567 ], [ 403.534034640808727, 986.573072746654361 ], [ 403.246962536284684, 992.3145148186901 ], [ 415.016918784439099, 995.185235855705173 ], [ 409.849620917901575, 1005.519831584172948 ], [ 412.291884325141382, 1022.988709210683055 ], [ 376.79462815306232, 1022.988536900457007 ] ] ] } },
{ "type": "Feature", "properties": { "feature_type": "building", "subtype": "major-damage", "uid": "28cc94ca-8825-49c1-b417-11b62ca2ac8e" }, "geometry": { "type": "Polygon", "coordinates": [ [ [ 1022.451995738068945, 967.102742165397672 ], [ 1000.03962408017901, 971.523337229721733 ], [ 998.030119357422677, 945.112703696761741 ], [ 995.159398318975718, 937.935901109209567 ], [ 998.891335664762892, 935.639324278002391 ], [ 996.307686733332503, 927.314233270858381 ], [ 1003.771561426838957, 924.730584342729571 ], [ 998.030119355241709, 904.3484649857063 ], [ 1007.79057088051502, 896.597518185366994 ], [ 1022.451857174022962, 896.465471179314818 ], [ 1022.451995738068945, 967.102742165397672 ] ] ] } },
{ "type": "Feature", "properties": { "feature_type": "building", "subtype": "major-damage", "uid": "ab7e790b-09b4-49ee-9c01-becc59ecb23b" }, "geometry": { "type": "Polygon", "coordinates": [ [ [ 943.909788072376728, 905.405889202319713 ], [ 984.956607409817252, 911.227344341105663 ], [ 981.292759079967709, 948.598597300776646 ], [ 978.361680417882781, 950.064136630573444 ], [ 975.064216920544595, 956.659063621638438 ], [ 959.947388662923004, 956.338488878302087 ], [ 954.13155547946576, 950.698893067663676 ], [ 940.385040688797403, 937.657327751698858 ], [ 943.909788072376728, 905.405889202319713 ] ] ] } },
{ "type": "Feature", "properties": { "feature_type": "building", "subtype": "major-damage", "uid": "6715d4d7-0023-4fb5-a6f1-30a68287f69b" }, "geometry": { "type": "Polygon", "coordinates": [ [ [ 938.669090199081779, 927.8554683402607 ], [ 938.254830429461663, 936.278750339366866 ], [ 931.764760690144612, 939.316655327799822 ], [ 920.579746879677714, 969.695705177232298 ], [ 910.085166022441399, 965.829280646318125 ], [ 912.432638055959842, 960.443903630659634 ], [ 898.071632675538353, 953.125314351538123 ], [ 914.089677138740399, 922.055831547877688 ], [ 938.669090199081779, 927.8554683402607 ] ] ] } },
{ "type": "Feature", "properties": { "feature_type": "building", "subtype": "major-damage", "uid": "f27fa308-cae7-4768-b046-a3c7498cc9ca" }, "geometry": { "type": "Polygon", "coordinates": [ [ [ 998.527592447346024, 1000.736873428894 ], [ 1013.566621925524032, 998.24840092423608 ], [ 1018.651761391869968, 1017.723403126881976 ], [ 1001.016064952439024, 1018.264375411672972 ], [ 998.527592447346024, 1000.736873428894 ] ] ] } },
{ "type": "Feature", "properties": { "feature_type": "building", "subtype": "major-damage", "uid": "bd2d6386-8293-4b1c-906a-4d765186fbaf" }, "geometry": { "type": "Polygon", "coordinates": [ [ [ 969.878721696434582, 754.077471247093513 ], [ 992.965817050462647, 769.762597098111087 ], [ 987.678695976495987, 778.398228184335153 ], [ 991.732155468444034, 780.336839246298496 ], [ 983.448999117958238, 787.210096640825554 ], [ 972.874756970460908, 780.16060187702908 ], [ 963.181701668936398, 779.279415032676184 ], [ 961.066853241194281, 770.643783945455198 ], [ 962.829226929961578, 769.410122361566437 ], [ 963.357939037457982, 762.360627597769962 ], [ 969.878721696434582, 754.077471247093513 ] ] ] } },
{ "type": "Feature", "properties": { "feature_type": "building", "subtype": "major-damage", "uid": "e79de206-a25a-4eb6-b342-7c2eb8cc5dde" }, "geometry": { "type": "Polygon", "coordinates": [ [ [ 1022.451654393713056, 757.783322289485682 ], [ 1017.992604028064989, 762.458077852580232 ], [ 1012.701684180550046, 772.207976770282585 ], [ 1004.190592032788004, 773.697703117342712 ], [ 999.773395134610837, 770.105647018263653 ], [ 992.800611485081959, 765.832005425734565 ], [ 988.751898397585364, 762.683006359916703 ], [ 990.307206839874993, 756.528563526016796 ], [ 995.499753543766246, 753.23600915448651 ], [ 997.973967095674993, 754.36065167920367 ], [ 1008.545606826378048, 743.564083447702501 ], [ 1018.667389541473995, 748.512510554264168 ], [ 1022.451648487928992, 752.502997329200753 ], [ 1022.451654393713056, 757.783322289485682 ] ] ] } },
{ "type": "Feature", "properties": { "feature_type": "building", "subtype": "major-damage", "uid": "0f3d9fbf-5dfd-4270-9b25-ef1a40498ee4" }, "geometry": { "type": "Polygon", "coordinates": [ [ [ 945.120707468168348, 702.604539130787884 ], [ 972.437499685657258, 724.810447643776115 ], [ 968.560277562978513, 730.978755561225626 ], [ 960.982070691688818, 729.392619239795181 ], [ 958.690984895549718, 744.020320876193409 ], [ 953.051389080987974, 746.663881416231447 ], [ 946.178131683472657, 734.327265576347145 ], [ 940.362298502819726, 739.085674541635626 ], [ 926.087071607085363, 718.994614461874221 ], [ 945.120707468168348, 702.604539130787884 ] ] ] } },
{ "type": "Feature", "properties": { "feature_type": "building", "subtype": "major-damage", "uid": "ff45589b-4552-4cf9-8756-412c6008137c" }, "geometry": { "type": "Polygon", "coordinates": [ [ [ 871.52959852796323, 666.644123100192019 ], [ 889.074021902711593, 656.522340383720461 ], [ 902.794660702347301, 672.267335721783411 ], [ 898.970876115830606, 683.288832461617972 ], [ 887.04966535818437, 686.437831525441766 ], [ 871.52959852796323, 666.644123100192019 ] ] ] } },
{ "type": "Feature", "properties": { "feature_type": "building", "subtype": "major-damage", "uid": "a54b72db-bb80-4db7-b0e7-dfa965870480" }, "geometry": { "type": "Polygon", "coordinates": [ [ [ 856.630110929311968, 550.350993653204455 ], [ 867.393220347660531, 570.390409520194567 ], [ 887.488267598219181, 561.204102204338938 ], [ 894.090925982578028, 573.261130555215345 ], [ 880.311465010109373, 580.725005249659603 ], [ 879.163176594693141, 584.456942597380248 ], [ 844.714524163802139, 605.12613405631032 ], [ 837.537721569834616, 594.791538326845284 ], [ 812.84952065929383, 585.031086807176166 ], [ 801.65370862000043, 591.920817292821425 ], [ 809.978799626829186, 605.700278266106238 ], [ 801.079564411014871, 609.145143506934801 ], [ 778.97501243171746, 576.131851592230305 ], [ 791.606184995624744, 567.806760592065757 ], [ 794.189833925746484, 572.112842144597039 ], [ 810.840015933421569, 570.103337418287765 ], [ 804.524429656702523, 557.185092753714457 ], [ 829.499702667841348, 548.572929649649041 ], [ 836.963577364027174, 561.491174310233987 ], [ 856.630110929311968, 550.350993653204455 ] ] ] } },
{ "type": "Feature", "properties": { "feature_type": "building", "subtype": "major-damage", "uid": "908a7a57-01db-4f1c-b5f1-fedc389bf59a" }, "geometry": { "type": "Polygon", "coordinates": [ [ [ 839.044170976889063, 611.68065649690061 ], [ 857.549094735772655, 603.749974882768811 ], [ 865.656013715555787, 620.844999690932809 ], [ 870.766897420627174, 618.37767652116122 ], [ 872.529271111949356, 625.074696546418863 ], [ 876.230255865981917, 625.603408657218324 ], [ 877.11144270952434, 630.714292360048489 ], [ 880.988664831891469, 630.714292360048489 ], [ 882.751038521468786, 636.706362910222651 ], [ 877.992629559547595, 638.468736602916692 ], [ 884.337174847385313, 650.981589808082163 ], [ 867.242150039042031, 662.789493540158219 ], [ 839.044170976889063, 611.68065649690061 ] ] ] } },
{ "type": "Feature", "properties": { "feature_type": "building", "subtype": "major-damage", "uid": "f7b7726c-3d72-4be9-93f4-8c1e214d73fd" }, "geometry": { "type": "Polygon", "coordinates": [ [ [ 920.942901061586781, 536.153036596993616 ], [ 930.839755272836328, 527.605753409941372 ], [ 943.660680051539657, 524.006897333438928 ], [ 962.104817451457961, 553.9223884771543 ], [ 949.958678186163752, 560.895172126810962 ], [ 955.356962302410579, 568.542741290500089 ], [ 942.536037525763618, 577.764809992582059 ], [ 925.216542652992302, 554.147316982496591 ], [ 919.593330032151243, 555.271959506216604 ], [ 911.720832362001602, 541.101463703555282 ], [ 920.942901061586781, 536.153036596993616 ] ] ] } },
{ "type": "Feature", "properties": { "feature_type": "building", "subtype": "major-damage", "uid": "b52e7c6d-af5c-4f86-acfb-a03354ade817" }, "geometry": { "type": "Polygon", "coordinates": [ [ [ 642.858099065539477, 531.429730181430045 ], [ 669.624591143425164, 518.608805402845746 ], [ 681.545801896709349, 537.277871304375481 ], [ 678.171874326983925, 545.150368972409865 ], [ 697.515725743098642, 578.214859182940131 ], [ 681.095944888766894, 586.537213864650198 ], [ 670.074448153922503, 564.494220388969211 ], [ 663.326593005996756, 570.11743301255467 ], [ 642.858099065539477, 531.429730181430045 ] ] ] } },
{ "type": "Feature", "properties": { "feature_type": "building", "subtype": "destroyed", "uid": "2389f0f5-f782-417c-8dc8-00507d861c71" }, "geometry": { "type": "Polygon", "coordinates": [ [ [ 509.830371460553295, 453.188314251208908 ], [ 523.896904538979015, 452.327097938509098 ], [ 529.6383466092052, 470.412640464325079 ], [ 534.231500266881767, 470.412640464325079 ], [ 535.953932889725593, 479.311875677276817 ], [ 543.704879687880293, 479.024803571381824 ], [ 545.714384415372706, 490.507687717447482 ], [ 551.742898587879381, 490.507687718444572 ], [ 552.891187004167932, 498.832778722597425 ], [ 558.345556971365795, 498.832778720603301 ], [ 556.910196452422724, 517.779537560116182 ], [ 527.054697676403975, 521.511474907836828 ], [ 526.480553470035602, 526.965844875971811 ], [ 518.155462468316728, 526.67877277406501 ], [ 517.581318259206682, 524.669268047755736 ], [ 507.820866735615823, 519.789042283434355 ], [ 509.830371460553295, 453.188314251208908 ] ] ] } },
{ "type": "Feature", "properties": { "feature_type": "building", "subtype": "major-damage", "uid": "dfd8d815-9734-440e-8186-63b129d6326a" }, "geometry": { "type": "Polygon", "coordinates": [ [ [ 627.524786889254528, 475.595379490012817 ], [ 629.639995816467945, 481.030002143704905 ], [ 630.79999581829918, 488.060002144824125 ], [ 628.098931095435773, 490.523128876907094 ], [ 615.235181053196129, 512.689474983739842 ], [ 597.400414444544367, 505.799744496100288 ], [ 607.7168117387954, 490.236056774003316 ], [ 612.884109604958894, 490.810200982802087 ], [ 613.458253814692284, 489.948984670102277 ], [ 609.152172261477403, 485.92997521947791 ], [ 607.142667533424174, 476.169523696817578 ], [ 617.190191160043241, 470.715153728682708 ], [ 621.470780247405628, 476.012599103514674 ], [ 627.524786889254528, 475.595379490012817 ] ] ] } },
{ "type": "Feature", "properties": { "feature_type": "building", "subtype": "major-damage", "uid": "829a3c94-9644-4d2e-8c73-2c6b494989f2" }, "geometry": { "type": "Polygon", "coordinates": [ [ [ 673.743395570293956, 490.81020098080802 ], [ 667.71488139622943, 495.977498844044874 ], [ 659.08268604357329, 490.462456648427917 ], [ 653.074204114426493, 490.523128876907094 ], [ 636.711094208221766, 491.671417291513706 ], [ 634.414517378573464, 484.781686805868276 ], [ 631.239995815901693, 487.660002146538886 ], [ 630.059995815689149, 480.490002145720894 ], [ 635.849877895397753, 473.011730556898726 ], [ 642.452536280878235, 473.872946868601389 ], [ 671.890157679046865, 458.652634346104094 ], [ 673.743395570293956, 490.81020098080802 ] ] ] } },
{ "type": "Feature", "properties": { "feature_type": "building", "subtype": "major-damage", "uid": "b5ba108e-58b0-41b7-aa0b-9fb33eb9a258" }, "geometry": { "type": "Polygon", "coordinates": [ [ [ 670.782276158384548, 276.572285980992774 ], [ 688.5516280412171, 268.924716815309523 ], [ 700.022981791107895, 291.867424305379984 ], [ 706.320979924984272, 289.168282252240772 ], [ 709.24505049137872, 293.66685234612379 ], [ 733.537329012121063, 282.195498599593009 ], [ 750.406966876077604, 284.894640654726288 ], [ 759.179178563109076, 297.490636924977309 ], [ 745.008682759830776, 313.910417780063881 ], [ 735.561685555464237, 299.065136461375914 ], [ 722.740760779627522, 304.913277588309484 ], [ 723.640474797942602, 324.706986013559174 ], [ 709.020121982546812, 325.606700030939976 ], [ 707.445622449015445, 315.259988809126185 ], [ 689.67627056668141, 324.706986011565107 ], [ 682.928415425174308, 312.110989743308323 ], [ 692.150484123014735, 303.78863506259529 ], [ 687.651914022154187, 295.466280384873528 ], [ 681.803772896781084, 297.490636926971376 ], [ 680.229273364246751, 293.441923840781612 ], [ 674.606060742907061, 293.891780851466081 ], [ 671.681990179067725, 285.794354679086496 ], [ 670.782276158384548, 276.572285980992774 ] ] ] } },
{ "type": "Feature", "properties": { "feature_type": "building", "subtype": "major-damage", "uid": "e9d2a209-4fad-4133-8f1c-a29d23b3ef8d" }, "geometry": { "type": "Polygon", "coordinates": [ [ [ 657.681964313430854, 153.378464248242608 ], [ 669.828103576107651, 151.129179198808401 ], [ 683.098885362566421, 155.627749292691504 ], [ 683.323813869466449, 187.117739968817204 ], [ 673.202031149322806, 189.142096512909205 ], [ 674.101745170940603, 198.81402222467861 ], [ 659.706320860326059, 199.938664747401589 ], [ 657.681964313430854, 153.378464248242608 ] ] ] } },
{ "type": "Feature", "properties": { "feature_type": "building", "subtype": "major-damage", "uid": "87f3903a-6522-4011-aa57-4b53789390be" }, "geometry": { "type": "Polygon", "coordinates": [ [ [ 658.195515987341878, 217.781108127196887 ], [ 671.175655465789077, 209.081652943607708 ], [ 687.193699933540188, 212.533817695803293 ], [ 693.545683084167877, 222.061792421873605 ], [ 685.950920623682578, 225.652043770298889 ], [ 695.616981936319348, 242.498607773496587 ], [ 699.207233282935931, 240.979655280775688 ], [ 703.764090759850205, 240.979655279778711 ], [ 704.454523711896854, 256.445353386485181 ], [ 702.659398039679104, 262.38307676313309 ], [ 693.821856264039297, 264.316289031581277 ], [ 692.855250130563377, 260.173691323163723 ], [ 678.908504519263488, 258.516652241192503 ], [ 675.456339763268147, 261.83073040712901 ], [ 666.894971170553276, 263.487769488103083 ], [ 665.928365040380186, 260.17369132515779 ], [ 668.966270022455546, 232.832546461167198 ], [ 661.509594150285693, 223.856918095089213 ], [ 661.509594152279874, 223.166485145846593 ], [ 658.195515987341878, 217.781108127196887 ] ] ] } },
{ "type": "Feature", "properties": { "feature_type": "building", "subtype": "major-damage", "uid": "c428f594-fced-4428-bb35-50b7d14d6d5c" }, "geometry": { "type": "Polygon", "coordinates": [ [ [ 794.479903452600979, 250.83914282222301 ], [ 814.287878601876173, 243.088196023877913 ], [ 829.50270009160522, 275.814415833684393 ], [ 804.527427079905578, 288.158516289458817 ], [ 799.148079640997594, 277.549866483796791 ], [ 793.044542933034791, 278.685136871696386 ], [ 789.316944931124226, 267.648048580968577 ], [ 792.121322117942441, 265.929955304119289 ], [ 791.919204939329916, 262.606302544164294 ], [ 795.879443605310939, 259.46837419350652 ], [ 794.479903452600979, 250.83914282222301 ] ] ] } },
{ "type": "Feature", "properties": { "feature_type": "building", "subtype": "major-damage", "uid": "ede4db14-4af3-4f61-88ef-0c2ebc16f9bc" }, "geometry": { "type": "Polygon", "coordinates": [ [ [ 507.02306942032169, 106.789770137747198 ], [ 523.004616328433485, 107.789073038700195 ], [ 523.386179327648051, 122.578735836344194 ], [ 526.969131164455462, 122.971197761270901 ], [ 526.256900363290811, 127.458961597674303 ], [ 507.310141527899077, 126.884817391866605 ], [ 507.02306942032169, 106.789770137747198 ] ] ] } },
{ "type": "Feature", "properties": { "feature_type": "building", "subtype": "major-damage", "uid": "0398569d-30c9-4328-9e1d-3905a26faf93" }, "geometry": { "type": "Polygon", "coordinates": [ [ [ 565.764076375047239, 101.305550577161398 ], [ 570.487574974395102, 101.080622075807398 ], [ 570.487574974457402, 122.448830034464606 ], [ 550.468938046304629, 122.898687044151998 ], [ 549.569224023565084, 86.460269261464518 ], [ 565.08929085708894, 86.910126268160766 ], [ 565.764076375047239, 101.305550577161398 ] ] ] } },
{ "type": "Feature", "properties": { "feature_type": "building", "subtype": "major-damage", "uid": "88192209-fcfd-403c-9e3c-e1387eb9c91e" }, "geometry": { "type": "Polygon", "coordinates": [ [ [ 577.03489101821981, 0.012819194637068 ], [ 577.03489101834441, 35.771503493263417 ], [ 553.642326517412698, 36.671217514632389 ], [ 553.19246950423576, 30.37321938000548 ], [ 539.696759214740609, 34.421932468189382 ], [ 540.821401739955718, 45.443429205032807 ], [ 518.553479759752463, 45.44342920303869 ], [ 517.203908731313959, 24.750006761405292 ], [ 536.772688651275075, 24.075221243384441 ], [ 553.642326514733099, 22.500721709976968 ], [ 553.867255018579726, 15.30300955098989 ], [ 541.496187256293751, 15.52793805932332 ], [ 541.046703682082239, 0.012892194516694 ], [ 577.03489101821981, 0.012819194637068 ] ] ] } },
{ "type": "Feature", "properties": { "feature_type": "building", "subtype": "major-damage", "uid": "0557b084-c4f2-4d29-be30-aeac880a9252" }, "geometry": { "type": "Polygon", "coordinates": [ [ [ 802.280575541258486, 0.011131155052217 ], [ 802.984799900967118, 10.819475290620989 ], [ 807.743208868995453, 10.99571265889332 ], [ 806.157072544886091, 45.00952490196353 ], [ 755.102979644115521, 45.559186226377953 ], [ 755.455454384648306, 49.083933610768838 ], [ 767.087120744894946, 49.260170977047053 ], [ 767.087120745268862, 61.420549444670783 ], [ 751.578232263215909, 61.420549445667838 ], [ 751.225757522683125, 55.25224152722128 ], [ 743.471313281812513, 55.780953635029469 ], [ 742.590126434219542, 45.73542359564734 ], [ 732.544596394654945, 46.264135703455537 ], [ 731.487172178291189, 30.755247219713251 ], [ 739.417853789615265, 30.75524722071032 ], [ 739.241616422153015, 24.5869393012667 ], [ 751.401994892326343, 23.52951508565031 ], [ 750.873282786325603, 17.537444536473149 ], [ 756.512878596649898, 13.307747674007601 ], [ 754.045555427689578, 7.139439759549283 ], [ 757.564559576585793, 0.011635169791695 ], [ 802.280575541258486, 0.011131155052217 ] ] ] } },
{ "type": "Feature", "properties": { "feature_type": "building", "subtype": "major-damage", "uid": "106fe227-8afd-42cf-b670-d94cdd93f8fa" }, "geometry": { "type": "Polygon", "coordinates": [ [ [ 1022.451534813723015, 598.686789560522243 ], [ 1012.413690333085015, 620.215228601723766 ], [ 982.277100213954895, 592.193486914810137 ], [ 987.740458658188004, 568.577679447666696 ], [ 1022.451529047776944, 581.231016133779917 ], [ 1022.451534813723015, 598.686789560522243 ] ] ] } },
{ "type": "Feature", "properties": { "feature_type": "building", "subtype": "major-damage", "uid": "0b6b4789-61c0-449a-a003-b53d253936d6" }, "geometry": { "type": "Polygon", "coordinates": [ [ [ 1022.451598203484991, 340.076398652990406 ], [ 970.637677802512371, 369.77904414987961 ], [ 949.044541333350139, 329.066984774663013 ], [ 1008.200738108218047, 303.20020672112571 ], [ 1022.451605679828049, 331.604057558136788 ], [ 1022.451598203484991, 340.076398652990406 ] ] ] } },
{ "type": "Feature", "properties": { "feature_type": "building", "subtype": "major-damage", "uid": "537ae7bd-9a2e-469d-8ee7-f86fc50c048e" }, "geometry": { "type": "Polygon", "coordinates": [ [ [ 1022.451545584856945, 417.836953561601092 ], [ 1003.104571720782019, 423.20611898653658 ], [ 1001.814941557797056, 408.441408463051403 ], [ 992.817801364301545, 414.064621083645704 ], [ 985.845017710659818, 403.717909864823127 ], [ 988.769088274062938, 393.371198643009393 ], [ 983.145875652723362, 382.124773401820789 ], [ 1008.337868198198976, 371.328205167328406 ], [ 1000.015513516493002, 357.157709364667085 ], [ 1022.45159264710901, 346.637337951004724 ], [ 1022.451545584856945, 417.836953561601092 ] ] ] } },
{ "type": "Feature", "properties": { "feature_type": "building", "subtype": "major-damage", "uid": "6c1e0c0f-8e87-4fcc-9830-f68e73b88651" }, "geometry": { "type": "Polygon", "coordinates": [ [ [ 809.687556351969874, 390.099911385287101 ], [ 826.05066625748907, 380.052387760720023 ], [ 833.801613053649703, 390.674055591094827 ], [ 832.940396742009625, 401.29572342844898 ], [ 821.744584703837972, 407.324237602391577 ], [ 809.687556351969874, 390.099911385287101 ] ] ] } },
{ "type": "Feature", "properties": { "feature_type": "building", "subtype": "major-damage", "uid": "3147bfa2-f873-49db-b99c-d73f078610f0" }, "geometry": { "type": "Polygon", "coordinates": [ [ [ 711.018697539330105, 219.356720885088407 ], [ 734.833711680610236, 218.25756638674369 ], [ 737.032020675553667, 236.210423202677902 ], [ 713.583391367221111, 241.339810862949008 ], [ 711.018697539330105, 219.356720885088407 ] ] ] } },
{ "type": "Feature", "properties": { "feature_type": "building", "subtype": "major-damage", "uid": "d76cadf5-ec97-4ea1-afde-61dc85905703" }, "geometry": { "type": "Polygon", "coordinates": [ [ [ 931.494347908253303, 643.369593976787542 ], [ 953.762269886649392, 660.689088848257825 ], [ 942.74077314825297, 672.610299604476154 ], [ 923.621850236919613, 659.789374828883069 ], [ 923.39692173163985, 650.792234637128558 ], [ 931.494347908253303, 643.369593976787542 ] ] ] } },
{ "type": "Feature", "properties": { "feature_type": "building", "subtype": "major-damage", "uid": "b7a320ce-bed6-461a-9578-a437b88f2d4f" }, "geometry": { "type": "Polygon", "coordinates": [ [ [ 878.265698740467201, 167.401470591588691 ], [ 902.581429505308392, 161.790148108432305 ], [ 913.336464269090357, 195.925693221861394 ], [ 955.421382904958818, 179.559335972924089 ], [ 966.644027875192592, 212.292050466810394 ], [ 946.069178766888285, 221.176644403543094 ], [ 939.055025658272143, 202.939846327551692 ], [ 915.674515306521357, 213.694881092335606 ], [ 890.423564120800165, 220.241423989517614 ], [ 878.265698740467201, 167.401470591588691 ] ] ] } },
{ "type": "Feature", "properties": { "feature_type": "building", "subtype": "major-damage", "uid": "9dc8d352-0a09-455d-adfa-abb1ef506736" }, "geometry": { "type": "Polygon", "coordinates": [ [ [ 1019.714329550072989, 0.00748775862885 ], [ 1014.831013851729949, 22.578234610365609 ], [ 990.406337584829771, 16.325517490957889 ], [ 994.507670080583807, 0.008011511203704 ], [ 1019.714329550072989, 0.00748775862885 ] ] ] } },
{ "type": "Feature", "properties": { "feature_type": "building", "subtype": "un-classified", "uid": "1a51b5da-17b0-4a5a-8223-05dedf4b7529" }, "geometry": { "type": "Polygon", "coordinates": [ [ [ 882.415227648051768, 9.780633747483391 ], [ 903.944738293439514, 9.780633746486329 ], [ 899.882566474493274, 42.684225493151182 ], [ 879.165490186488682, 40.246922397445168 ], [ 882.415227648051768, 9.780633747483391 ] ] ] } },
{ "type": "Feature", "properties": { "feature_type": "building", "subtype": "un-classified", "uid": "abe978f1-9201-43ce-90b4-221c70fcead6" }, "geometry": { "type": "Polygon", "coordinates": [ [ [ 916.131253758628418, 23.99823511666791 ], [ 939.285633134797649, 24.810669480906181 ], [ 938.87941595436132, 43.496659853401212 ], [ 914.912602211586091, 43.496659854398267 ], [ 916.131253758628418, 23.99823511666791 ] ] ] } },
{ "type": "Feature", "properties": { "feature_type": "building", "subtype": "major-damage", "uid": "0820754b-b1f4-4004-8748-c723ffed2c5b" }, "geometry": { "type": "Polygon", "coordinates": [ [ [ 988.434054189682911, 0.008133734030231 ], [ 984.375740345889312, 8.561982197137731 ], [ 955.534320419929941, 7.343330650780317 ], [ 955.940053059490197, 0.008761417335845 ], [ 988.434054189682911, 0.008133734030231 ] ] ] } },
{ "type": "Feature", "properties": { "feature_type": "building", "subtype": "un-classified", "uid": "131ae888-7d22-4d0b-bba2-3c8a83e93a09" }, "geometry": { "type": "Polygon", "coordinates": [ [ [ 672.160857991999592, 0.012365281255936 ], [ 670.888401607243622, 23.46480334504492 ], [ 649.881803374798665, 23.146521555695809 ], [ 648.92747401969666, 0.012511089579323 ], [ 672.160857991999592, 0.012365281255936 ] ] ] } },
{ "type": "Feature", "properties": { "feature_type": "building", "subtype": "major-damage", "uid": "39d0a0c3-47c2-4f38-9b8a-07e1f827070b" }, "geometry": { "type": "Polygon", "coordinates": [ [ [ 720.360613925956727, 112.848224007618398 ], [ 687.259307617551372, 111.575096840251405 ], [ 686.622744032995797, 138.94733090075411 ], [ 654.158001308523012, 137.355921946032112 ], [ 657.340819222639311, 95.979289062439136 ], [ 694.898070607604382, 95.024443688409463 ], [ 700.308861062057076, 95.024443688409463 ], [ 699.990579269280715, 88.658807857556681 ], [ 719.087486759026433, 88.340526066213457 ], [ 720.360613925520511, 108.073997133481697 ], [ 720.360613925956727, 112.848224007618398 ] ] ] } },
{ "type": "Feature", "properties": { "feature_type": "building", "subtype": "destroyed", "uid": "e49ad20c-ef5c-447e-99e8-00e9acb9a2f4" }, "geometry": { "type": "Polygon", "coordinates": [ [ [ 161.474559083065287, 1022.986361919818023 ], [ 161.556711131287898, 1016.675966542122978 ], [ 189.780243219019809, 1015.645910624980957 ], [ 189.96126793658479, 1022.98676100676505 ], [ 161.474559083065287, 1022.986361919818023 ] ] ] } },
{ "type": "Feature", "properties": { "feature_type": "building", "subtype": "major-damage", "uid": "2970d939-6adc-489b-bed7-884d8e885fce" }, "geometry": { "type": "Polygon", "coordinates": [ [ [ 708.973978668089671, 184.829509836064005 ], [ 712.888191146145687, 202.958493951627304 ], [ 700.52752015958697, 205.018605781921593 ], [ 695.995274129638801, 188.125688763537795 ], [ 708.973978668089671, 184.829509836064005 ] ] ] } },
{ "type": "Feature", "properties": { "feature_type": "building", "subtype": "major-damage", "uid": "0c57e92f-f886-4242-8c76-c23151c38757" }, "geometry": { "type": "Polygon", "coordinates": [ [ [ 529.509424699638544, 288.759348245222327 ], [ 541.664084507841608, 307.506365909873921 ], [ 523.329089206888852, 318.63096979545719 ], [ 512.410496503529771, 301.326030415002776 ], [ 529.509424699638544, 288.759348245222327 ] ] ] } },
{ "type": "Feature", "properties": { "feature_type": "building", "subtype": "un-classified", "uid": "751cf7d0-16bd-41a3-b0e2-a2443f00c0b0" }, "geometry": { "type": "Polygon", "coordinates": [ [ [ 579.364131014798431, 268.776263485385414 ], [ 541.870095686882678, 277.428733174615502 ], [ 539.191950306254967, 267.952218751273506 ], [ 576.685985637909653, 256.415592496640215 ], [ 579.364131014798431, 268.776263485385414 ] ] ] } },
{ "type": "Feature", "properties": { "feature_type": "building", "subtype": "un-classified", "uid": "6f6b722d-78cd-423c-9fad-585fecee7ea6" }, "geometry": { "type": "Polygon", "coordinates": [ [ [ 558.145197874326868, 298.266824633011424 ], [ 581.620068178948031, 286.808852222565918 ], [ 590.283413172744417, 304.135542208047582 ], [ 596.990518973637336, 328.448800738040291 ], [ 593.636966076244448, 333.758592832825912 ], [ 564.852303675282201, 345.496027979907012 ], [ 558.424660620185136, 331.522890895870319 ], [ 569.323707546387027, 326.213098804076026 ], [ 570.44155851031519, 309.445334301836112 ], [ 558.145197874326868, 298.266824633011424 ] ] ] } },
{ "type": "Feature", "properties": { "feature_type": "building", "subtype": "major-damage", "uid": "4723f710-36e0-4a44-987d-a3fa1e6c93d9" }, "geometry": { "type": "Polygon", "coordinates": [ [ [ 806.223925142250209, 552.216367104103142 ], [ 785.416795645070124, 515.54637651090593 ], [ 795.305332435152081, 505.863850903537411 ], [ 804.98785804201782, 506.069862086566786 ], [ 826.619032270193543, 542.121819130675817 ], [ 806.223925142250209, 552.216367104103142 ] ] ] } },
{ "type": "Feature", "properties": { "feature_type": "building", "subtype": "major-damage", "uid": "19263b4e-7400-46e3-b8c6-af3138a17ff4" }, "geometry": { "type": "Polygon", "coordinates": [ [ [ 152.580762234585109, 608.259004562723476 ], [ 165.559466769608605, 602.284680253872921 ], [ 174.005925277425803, 605.786870365373261 ], [ 178.538171306875512, 641.220793856405635 ], [ 152.786773414186996, 641.426805041429247 ], [ 152.580762234585109, 608.259004562723476 ] ] ] } }
]
}
