{
"type": "FeatureCollection",
"name": "hurricane-harvey_00000102_post_disaster",
"features": [
{ "type": "Feature", "properties": { "feature_type": "building", "subtype": "major-damage", "uid": "7bf4a87f-43a4-4518-bd8c-0b35668a9a23" }, "geometry": { "type": "Polygon", "coordinates": [ [ [ 686.886137336324168, 55.798012353611 ], [ 708.612681810957724, 56.763636549043127 ], [ 709.260747328678121, 121.219051813810907 ], [ 687.72654390537798, 121.084804975743396 ], [ 686.886137336324168, 55.798012353611 ] ] ] } },
{ "type": "Feature", "properties": { "feature_type": "building", "subtype": "major-damage", "uid": "7ac0fb8c-9246-45c4-89a9-7eb39e373084" }, "geometry": { "type": "Polygon", "coordinates": [ [ [ 731.420970916530678, 64.247224087828627 ], [ 757.548069348371769, 64.247224086831253 ], [ 757.199708036736865, 75.51090652576913 ], [ 732.582175290122564, 75.975388273535486 ], [ 731.420970916530678, 64.247224087828627 ] ] ] } },
{ "type": "Feature", "properties": { "feature_type": "building", "subtype": "major-damage", "uid": "bf23af4d-913c-4b1d-a6a5-2efc913f0c2a" }, "geometry": { "type": "Polygon", "coordinates": [ [ [ 712.00059998174811, 125.180423046345894 ], [ 718.559084537105036, 122.685347401723405 ], [ 722.479917691949936, 130.883453091482295 ], [ 715.636281637403272, 133.948831741216793 ], [ 712.00059998174811, 125.180423046345894 ] ] ] } },
{ "type": "Feature", "properties": { "feature_type": "building", "subtype": "major-damage", "uid": "c4d2eb79-076d-439d-8704-0e855600f393" }, "geometry": { "type": "Polygon", "coordinates": [ [ [ 720.660807052586506, 148.03879171250091 ], [ 717.365308016487461, 138.543286016711193 ], [ 723.565314679165454, 135.750490223773198 ], [ 727.475228787830474, 144.966716339072292 ], [ 720.660807052586506, 148.03879171250091 ] ] ] } },
{ "type": "Feature", "properties": { "feature_type": "building", "subtype": "major-damage", "uid": "4360d200-b5d3-42ce-8b35-178121fac9d9" }, "geometry": { "type": "Polygon", "coordinates": [ [ [ 755.19077939073793, 115.038852032750498 ], [ 778.723223303699115, 114.532391930543696 ], [ 778.579158556191373, 126.890507309922299 ], [ 755.04969263276007, 127.248435685157602 ], [ 755.19077939073793, 115.038852032750498 ] ] ] } },
{ "type": "Feature", "properties": { "feature_type": "building", "subtype": "major-damage", "uid": "21bce2f9-be85-4121-835e-e58ebaec77c4" }, "geometry": { "type": "Polygon", "coordinates": [ [ [ 6.033737822317778, 0.00770412848763 ], [ 12.14448134183977, 2.35924703704747 ], [ 10.86129957896688, 6.422655946226824 ], [ -0.000004639745416, 17.115837280608169 ], [ -0.000004638623364, 0.007575636133226 ], [ 6.033737822317778, 0.00770412848763 ] ] ] } },
{ "type": "Feature", "properties": { "feature_type": "building", "subtype": "destroyed", "uid": "2bfa1700-25fb-4dd2-986b-5045ef1391a2" }, "geometry": { "type": "Polygon", "coordinates": [ [ [ 24.544388330683901, 9.421055447321296 ], [ 34.552562464355383, 6.418603209799047 ], [ 35.51818666602064, 9.434354297287738 ], [ 45.657240750343057, 6.778887751620988 ], [ 45.294734763233407, 0.449859410591484 ], [ 61.980558391516823, 0.008822808876872 ], [ 62.317198160044541, 0.008829141237022 ], [ 70.763469922077974, 25.36715357428038 ], [ 60.799084511278977, 29.198106215079129 ], [ 61.526951721406277, 31.017774240086659 ], [ 47.15157432902803, 36.02186130860801 ], [ 32.503246728784603, 39.388247153126521 ], [ 35.596682371732172, 51.216089313182003 ], [ 20.766387970858158, 55.310342368700908 ], [ 16.308201310464689, 39.024313548125022 ], [ 33.867997748474593, 34.748093691601433 ], [ 24.544388330683901, 9.421055447321296 ] ] ] } },
{ "type": "Feature", "properties": { "feature_type": "building", "subtype": "destroyed", "uid": "ff2c1587-5290-42a7-8b6c-046f9d6066a9" }, "geometry": { "type": "Polygon", "coordinates": [ [ [ 123.100578032477799, 0.009894838851673 ], [ 130.797899477611907, 2.761588195656134 ], [ 130.797899477300206, 6.14127288914371 ], [ 129.349463181472288, 9.279551534022596 ], [ 126.935402682981703, 12.659236229504931 ], [ 124.762748234969806, 13.38345437932051 ], [ 121.865875636955707, 12.90064228110576 ], [ 123.072905887728197, 8.79673943481046 ], [ 123.555717986566094, 4.451430539906474 ], [ 122.831499836813194, 3.485806344474338 ], [ 117.761972796646802, 3.968618441691716 ], [ 116.072130449467494, 6.865491037961914 ], [ 116.072130445540296, 9.038145485413906 ], [ 115.347912298343203, 10.96939388325983 ], [ 112.933851801598095, 12.417830181893621 ], [ 112.209633651658194, 17.970169321835812 ], [ 113.416663898752802, 19.90141772067911 ], [ 115.474703409561002, 24.724921170540402 ], [ 100.654466068762105, 37.618527656945403 ], [ 85.241419237797075, 22.50188557108693 ], [ 102.284692178484704, 9.311874339816924 ], [ 88.467144437617421, 4.94842950659833 ], [ 87.615343201757597, 0.009291519223943 ], [ 123.100578032477799, 0.009894838851673 ] ] ] } },
{ "type": "Feature", "properties": { "feature_type": "building", "subtype": "major-damage", "uid": "ce6472a0-e20f-46b6-9b18-acf7e09aebf9" }, "geometry": { "type": "Polygon", "coordinates": [ [ [ 205.161316535739189, 0.011087702306474 ], [ 200.961787526954708, 20.658864984738319 ], [ 179.29620602009669, 17.75088750830075 ], [ 175.591146681608706, 14.44634550870914 ], [ 178.555194149082809, 3.331167504460113 ], [ 176.339298154668796, 0.010700922666108 ], [ 205.161316535739189, 0.011087702306474 ] ] ] } },
{ "type": "Feature", "properties": { "feature_type": "building", "subtype": "major-damage", "uid": "665995f1-cb63-4c18-85be-da8667b5bd63" }, "geometry": { "type": "Polygon", "coordinates": [ [ [ 164.114990186255312, 16.791519004484119 ], [ 173.896346829194101, 19.60736410064926 ], [ 185.011524830008995, 26.424673273436941 ], [ 174.044549199694103, 64.660885603385879 ], [ 163.373978314992087, 62.882457124222043 ], [ 162.040156954123802, 57.695374056170927 ], [ 153.444419300930008, 55.175933711852437 ], [ 164.114990186255312, 16.791519004484119 ] ] ] } },
{ "type": "Feature", "properties": { "feature_type": "building", "subtype": "major-damage", "uid": "9131ad07-52fc-4a7f-bb5d-f0b50ca00c83" }, "geometry": { "type": "Polygon", "coordinates": [ [ [ -0.000004640680459, 90.967720172306343 ], [ 4.327416320213766, 89.454536514451092 ], [ 3.003380624764998, 82.266914161580985 ], [ 17.189477375011499, 79.997138682777148 ], [ 18.324365113789479, 76.970771374048297 ], [ 20.78328855200575, 77.727363204970686 ], [ 24.377099730932422, 93.426643605848639 ], [ 29.484094557054089, 115.178658619197407 ], [ -0.000004640119433, 123.312020757728305 ], [ -0.000004640680459, 90.967720172306343 ] ] ] } },
{ "type": "Feature", "properties": { "feature_type": "building", "subtype": "major-damage", "uid": "41003909-a217-42c9-9bf4-bea40440d531" }, "geometry": { "type": "Polygon", "coordinates": [ [ [ 20.90299656875219, 75.436044259978615 ], [ 24.724299421203721, 62.152467680914498 ], [ 35.915257771191818, 65.518853527427765 ], [ 40.373444432021643, 69.431139775957703 ], [ 37.098041988318812, 81.077015136005883 ], [ 37.280008791255831, 83.351600167514633 ], [ 41.192295042214887, 87.354869819539061 ], [ 52.474236796258452, 85.535201793534156 ], [ 49.10785094943521, 67.247538149938194 ], [ 64.029128752307585, 63.972135704924654 ], [ 72.854518673651953, 106.643350876639801 ], [ 35.187390560939832, 114.831856990669806 ], [ 29.364452883474481, 85.080284790025061 ], [ 31.730021315297371, 83.351600167514633 ], [ 31.730021317541471, 81.531932144501866 ], [ 20.146163915774991, 77.247513097389373 ], [ 20.90299656875219, 75.436044259978615 ] ] ] } },
{ "type": "Feature", "properties": { "feature_type": "building", "subtype": "major-damage", "uid": "2e7c1581-d07c-479e-864a-dc2ec41c09c6" }, "geometry": { "type": "Polygon", "coordinates": [ [ [ 67.436485525401693, 52.68284890181728 ], [ 78.668779139335371, 50.737097250873482 ], [ 81.05674707907157, 59.935195959439092 ], [ 104.936426422138794, 55.601476377734294 ], [ 109.004816236624393, 77.712290586023087 ], [ 116.964709352372296, 76.297198477243157 ], [ 122.359748020272207, 96.992920577749402 ], [ 85.125136891437791, 105.218143466328698 ], [ 85.744239686846925, 98.496455943889103 ], [ 83.002498725588509, 83.63798879521687 ], [ 72.123978133551063, 85.583740446160675 ], [ 67.436485525401693, 52.68284890181728 ] ] ] } },
{ "type": "Feature", "properties": { "feature_type": "building", "subtype": "destroyed", "uid": "550bada0-5ac8-432a-9400-eb65fee8612b" }, "geometry": { "type": "Polygon", "coordinates": [ [ [ 148.311400786704212, 63.853294357102648 ], [ 169.056724188203702, 66.158330290299006 ], [ 183.751328267808589, 69.183689951871202 ], [ 174.531184529666888, 105.776135394854293 ], [ 151.913019435002099, 97.132250643373155 ], [ 155.946832319527402, 82.581711314821774 ], [ 143.557264174676106, 78.980092666958356 ], [ 148.311400786704212, 63.853294357102648 ] ] ] } },
{ "type": "Feature", "properties": { "feature_type": "building", "subtype": "destroyed", "uid": "b9bb3302-26bc-49b9-ae4b-b3ab72d9c897" }, "geometry": { "type": "Polygon", "coordinates": [ [ [ 126.861942285184696, 95.662262445710525 ], [ 147.1750714509555, 93.645356004662403 ], [ 150.200431113523592, 111.797513983071994 ], [ 128.878848727727899, 113.814420423122698 ], [ 126.861942285184696, 95.662262445710525 ] ] ] } },
{ "type": "Feature", "properties": { "feature_type": "building", "subtype": "major-damage", "uid": "316ab8e9-3765-4186-9cd2-45e3051edfc4" }, "geometry": { "type": "Polygon", "coordinates": [ [ [ -0.000004640368778, 212.075216730277702 ], [ 12.14771343782925, 207.729907836371098 ], [ 11.906307387101259, 188.900235962110912 ], [ 15.52739813530463, 188.176017811297896 ], [ 28.321918769032621, 187.934611764684007 ], [ 37.01253655441031, 228.249422058871204 ], [ 37.736754707404671, 239.836912443952002 ], [ 25.42504616840036, 242.733785039224813 ], [ 23.493797771677471, 239.836912443952002 ], [ -0.000004639433735, 243.216597137439493 ], [ -0.000004640368778, 212.075216730277702 ] ] ] } },
{ "type": "Feature", "properties": { "feature_type": "building", "subtype": "major-damage", "uid": "c13cb85f-03e9-488c-84d2-847b529a73a1" }, "geometry": { "type": "Polygon", "coordinates": [ [ [ 33.150039759780142, 194.693981152656505 ], [ 51.014087436729064, 191.07289040756811 ], [ 53.669553981833431, 199.03929004656311 ], [ 72.016413760113664, 194.93538720425741 ], [ 76.120316604100438, 196.866635601105912 ], [ 77.810158950718701, 209.178344134007489 ], [ 76.120316604973141, 226.559579709633908 ], [ 44.737530146538113, 234.525979351621089 ], [ 33.150039759780142, 194.693981152656505 ] ] ] } },
{ "type": "Feature", "properties": { "feature_type": "building", "subtype": "major-damage", "uid": "90c4f795-6fc8-435e-83eb-4180ee6327a6" }, "geometry": { "type": "Polygon", "coordinates": [ [ [ 86.492813730310701, 179.418728348880194 ], [ 99.045928313186025, 176.039043651403091 ], [ 100.252958561215706, 177.246073900430787 ], [ 105.322485606119798, 176.763261800221301 ], [ 105.322485606244399, 173.624983151352893 ], [ 119.806848587899694, 171.93514080610521 ], [ 124.393563530038705, 176.280449698017009 ], [ 125.117781683718704, 182.074194892552214 ], [ 129.221684525336713, 206.939018009956186 ], [ 113.530291297397099, 212.732763203493988 ], [ 114.254509443846203, 224.320253587577412 ], [ 95.424837567725447, 233.493683475600108 ], [ 84.320159282922148, 220.940568894089807 ], [ 93.010777075032138, 212.008545052681086 ], [ 86.492813730310701, 179.418728348880194 ] ] ] } },
{ "type": "Feature", "properties": { "feature_type": "building", "subtype": "major-damage", "uid": "16e93136-af7c-4219-8de6-c2fca58a7da1" }, "geometry": { "type": "Polygon", "coordinates": [ [ [ 127.857910996795795, 172.928706743665288 ], [ 138.773232118482809, 169.4450936199583 ], [ 146.901662743474503, 171.419141053700201 ], [ 149.107951055025694, 189.185567990290991 ], [ 150.849757615943304, 188.837206677222099 ], [ 150.965878055191212, 187.559881860641497 ], [ 171.054713738582592, 185.005232237454095 ], [ 174.770567739848701, 207.764837981732711 ], [ 174.654447301785211, 210.319487605917487 ], [ 135.405739431345012, 219.841363480508392 ], [ 133.315571561098892, 201.378213923764207 ], [ 130.993162806933697, 201.726575234838293 ], [ 127.857910996795795, 172.928706743665288 ] ] ] } },
{ "type": "Feature", "properties": { "feature_type": "building", "subtype": "major-damage", "uid": "94393997-04df-45d4-8df8-7a29035b67a0" }, "geometry": { "type": "Polygon", "coordinates": [ [ [ 175.494531247237688, 183.855349722551608 ], [ 190.043856880505189, 180.709549583268597 ], [ 194.369332073450806, 185.035024773162007 ], [ 197.515132209428288, 185.0350247751567 ], [ 193.805861199466392, 170.262719975497788 ], [ 210.043644648239308, 166.75464284604621 ], [ 213.832497066771111, 184.743518216091104 ], [ 215.681109609613287, 189.056947481644499 ], [ 223.999866050345901, 186.900232851361295 ], [ 229.545703675132188, 210.007889615082291 ], [ 183.330390131007391, 219.559054416738007 ], [ 175.494531247237688, 183.855349722551608 ] ] ] } },
{ "type": "Feature", "properties": { "feature_type": "building", "subtype": "major-damage", "uid": "efb2c90c-b909-4b4a-af38-242591f2eea3" }, "geometry": { "type": "Polygon", "coordinates": [ [ [ 221.278647400925109, 168.651914582015593 ], [ 227.799551829156087, 165.539664737993405 ], [ 227.503147082545809, 162.279212524530692 ], [ 230.318992174595309, 159.759772176222697 ], [ 227.651349453544498, 150.12661790926461 ], [ 238.025515591947908, 143.902118226206994 ], [ 244.991027140842391, 154.720891482598887 ], [ 250.178110208516898, 153.38707012571939 ], [ 256.847217012671194, 164.650450499408805 ], [ 265.2947522951157, 158.42595081635119 ], [ 269.592621127135885, 163.020224394672312 ], [ 270.630037737903081, 168.948319324885887 ], [ 272.556668590308789, 170.578545433611993 ], [ 274.186894697787295, 173.690795274642113 ], [ 259.366657361788327, 185.991592268325007 ], [ 255.513395650930192, 180.211699706554299 ], [ 236.543491860268006, 189.252044479792886 ], [ 235.357872869276292, 187.029008879342001 ], [ 231.801015910327209, 187.325413625204391 ], [ 221.278647400925109, 168.651914582015593 ] ] ] } },
{ "type": "Feature", "properties": { "feature_type": "building", "subtype": "major-damage", "uid": "030ba633-fd3d-4aa0-8455-3df92e705dbd" }, "geometry": { "type": "Polygon", "coordinates": [ [ [ -0.000004640805131, 275.265485628560384 ], [ 27.815783333371499, 266.816273889356012 ], [ 34.092340621941688, 295.302187749853715 ], [ 4.882208608277097, 305.682647885906704 ], [ -0.000004636628606, 291.922503059358178 ], [ -0.000004640805131, 275.265485628560384 ] ] ] } },
{ "type": "Feature", "properties": { "feature_type": "building", "subtype": "major-damage", "uid": "451f1ba4-f434-4381-a60d-d457402c55ab" }, "geometry": { "type": "Polygon", "coordinates": [ [ [ 36.989213218833783, 258.125656100545427 ], [ 54.129042749458307, 258.125656100545427 ], [ 53.404824597773008, 272.368613032290284 ], [ 67.406375478034661, 269.954552531242712 ], [ 67.406375480777456, 274.058455378535427 ], [ 77.786835613646105, 273.334237229717189 ], [ 85.029017106936038, 305.441241834305913 ], [ 52.922012498062429, 310.993580979234991 ], [ 47.852485455153193, 277.438140077009791 ], [ 35.782182968559951, 276.231109825987289 ], [ 36.989213218833783, 258.125656100545427 ] ] ] } },
{ "type": "Feature", "properties": { "feature_type": "building", "subtype": "major-damage", "uid": "3b6637ee-4078-44f9-a5e8-3bf739af14c9" }, "geometry": { "type": "Polygon", "coordinates": [ [ [ 83.464459009066232, 259.170578006534527 ], [ 95.191632320473104, 257.468246396932898 ], [ 95.380780276458182, 254.063583174737687 ], [ 119.024274863049001, 250.280624041070695 ], [ 123.185529907749199, 254.252731132468199 ], [ 129.238264522211693, 294.541245900685283 ], [ 103.324994456631103, 299.459092774751582 ], [ 99.542035324462162, 278.463669585343609 ], [ 86.301678358068273, 279.976853235219778 ], [ 83.464459009066232, 259.170578006534527 ] ] ] } },
{ "type": "Feature", "properties": { "feature_type": "building", "subtype": "major-damage", "uid": "2a883c01-feea-4721-9d7a-3a966b6d5468" }, "geometry": { "type": "Polygon", "coordinates": [ [ [ 124.107059075762194, 244.901275551200712 ], [ 140.015559011492712, 241.998264612949612 ], [ 145.240978696863607, 246.062479923110004 ], [ 145.1248582621038, 256.861680609294581 ], [ 171.832558881457686, 253.4941879202851 ], [ 176.361255941127496, 275.905432354486891 ], [ 145.705460445751697, 282.640417729513899 ], [ 138.854354636155506, 260.113052859617085 ], [ 127.706792636783007, 261.158136793836775 ], [ 124.107059075762194, 244.901275551200712 ] ] ] } },
{ "type": "Feature", "properties": { "feature_type": "building", "subtype": "major-damage", "uid": "3478dea5-3d7b-4377-9a26-6ff981da1d2e" }, "geometry": { "type": "Polygon", "coordinates": [ [ [ -0.000004639059718, 410.218452155063176 ], [ 7.011320723964144, 408.588226045339809 ], [ 11.16098718068444, 413.478904368525889 ], [ 13.68042753135993, 435.412855628169382 ], [ -0.000004637002623, 439.710724455641184 ], [ -0.000004639059718, 410.218452155063176 ] ] ] } },
{ "type": "Feature", "properties": { "feature_type": "building", "subtype": "major-damage", "uid": "403bdbae-76cf-4b13-abdf-f15672a1f08d" }, "geometry": { "type": "Polygon", "coordinates": [ [ [ 10.234831850250471, 404.708326333136426 ], [ 29.74306534563037, 396.696016147513092 ], [ 32.529955845878682, 403.663242395924499 ], [ 40.310025159547202, 401.805315395882701 ], [ 33.69116022227562, 380.206914026505615 ], [ 33.807280657658737, 378.465107465150822 ], [ 48.554576218987073, 380.090793590810677 ], [ 54.941200277513367, 397.74110008572228 ], [ 55.289561593324848, 406.682373770867798 ], [ 61.327824343395342, 426.771209455266728 ], [ 21.730755160011221, 443.260311578269125 ], [ 10.234831850250471, 404.708326333136426 ] ] ] } },
{ "type": "Feature", "properties": { "feature_type": "building", "subtype": "major-damage", "uid": "84ae246f-f9e2-4cd4-a032-42ef55672cb8" }, "geometry": { "type": "Polygon", "coordinates": [ [ [ 60.71022285056555, 378.204016013830312 ], [ 70.167620681923012, 376.690832354977715 ], [ 74.70717164314388, 369.692357959838091 ], [ 83.597125606172071, 373.286169138766581 ], [ 97.215778488587972, 372.15128139637261 ], [ 106.105732448125295, 416.601051212720392 ], [ 91.730487743078129, 419.249122609977576 ], [ 89.839008175622254, 410.359168644513773 ], [ 78.111834860724557, 410.54831660024962 ], [ 86.434344955548141, 426.436744960852877 ], [ 73.193987986536129, 433.624367313722985 ], [ 62.412554460914293, 417.735938956111909 ], [ 72.059100247633467, 413.763831864714291 ], [ 69.411028853681458, 407.143653384038714 ], [ 64.493181980552748, 406.954505426308117 ], [ 60.71022285056555, 378.204016013830312 ] ] ] } },
{ "type": "Feature", "properties": { "feature_type": "building", "subtype": "major-damage", "uid": "128fbac6-20c9-45ce-90b0-7354c84d146a" }, "geometry": { "type": "Polygon", "coordinates": [ [ [ 112.068427515002398, 372.824482448292486 ], [ 128.242632847265497, 370.893234051443983 ], [ 129.691069141784311, 366.06511306131739 ], [ 144.175432122130587, 364.133864659482015 ], [ 150.693395465792292, 399.620553963542477 ], [ 116.896548510051105, 404.448674959653374 ], [ 112.068427515002398, 372.824482448292486 ] ] ] } },
{ "type": "Feature", "properties": { "feature_type": "building", "subtype": "major-damage", "uid": "76b42a8c-4cae-41fb-9990-d6c565ee472e" }, "geometry": { "type": "Polygon", "coordinates": [ [ [ 153.037161400657197, 383.232438107026098 ], [ 156.869135838366191, 382.187354173803783 ], [ 156.985256272253309, 377.078054923439481 ], [ 189.731219645355509, 372.781598735905106 ], [ 193.563194078887904, 398.328094979747675 ], [ 168.481179582761996, 402.972912479353624 ], [ 170.222986144427608, 411.681945293109322 ], [ 158.494821960721509, 413.075390540397791 ], [ 153.037161400657197, 383.232438107026098 ] ] ] } },
{ "type": "Feature", "properties": { "feature_type": "building", "subtype": "major-damage", "uid": "10fe50af-4423-43af-a7c7-84c4fccfbb66" }, "geometry": { "type": "Polygon", "coordinates": [ [ [ 194.360432804367093, 365.795477784023092 ], [ 211.107300995452306, 356.755133004800314 ], [ 215.108765079116807, 358.829966231821288 ], [ 219.110229160474887, 358.088954366666712 ], [ 214.812360329950792, 350.234228575880309 ], [ 225.482931214154092, 346.232764496265588 ], [ 244.601037382297989, 373.353798825954982 ], [ 256.012620131717881, 365.499073034171204 ], [ 265.497572029791797, 380.022905626310092 ], [ 253.789584533262911, 389.656059892270889 ], [ 246.379465861647901, 379.578298506020474 ], [ 236.301704471974205, 380.171108000737377 ], [ 226.668550204210703, 383.283357842764985 ], [ 232.893049884335397, 393.657523976872426 ], [ 218.072812544596189, 403.142475874390072 ], [ 194.360432804367093, 365.795477784023092 ] ] ] } },
{ "type": "Feature", "properties": { "feature_type": "building", "subtype": "major-damage", "uid": "a07dff51-3efd-43b3-9a65-eccf39456864" }, "geometry": { "type": "Polygon", "coordinates": [ [ [ 222.089804287414495, 297.122243093086297 ], [ 253.231184692815106, 300.743333837177317 ], [ 254.92102704329821, 276.844134918197483 ], [ 270.371014222566885, 279.982413565071226 ], [ 269.646796071255721, 304.123018532659614 ], [ 258.059305687926212, 303.640206433447474 ], [ 254.921027042176092, 307.744109277748009 ], [ 252.024154447902191, 324.401126707548428 ], [ 262.163208533097304, 324.159720655947581 ], [ 261.438990384092392, 342.265174377400115 ], [ 217.985901439251194, 337.678459437876882 ], [ 222.089804287414495, 297.122243093086297 ] ] ] } },
{ "type": "Feature", "properties": { "feature_type": "building", "subtype": "major-damage", "uid": "29fdbc01-5bd2-4ca9-b92b-06e9dc050bef" }, "geometry": { "type": "Polygon", "coordinates": [ [ [ -0.000004637189632, 458.222538002656222 ], [ 4.81391769923852, 452.676700377368377 ], [ 20.219022214861049, 512.756607979998648 ], [ 2.965305155461317, 515.83762888282547 ], [ -0.000004640867467, 508.135076624262297 ], [ -0.000004637189632, 458.222538002656222 ] ] ] } },
{ "type": "Feature", "properties": { "feature_type": "building", "subtype": "major-damage", "uid": "5211e0ca-bea6-4968-86b8-e5138db070ec" }, "geometry": { "type": "Polygon", "coordinates": [ [ [ 17.23941430886903, 465.675474883662787 ], [ 28.799199431781091, 463.156034538347001 ], [ 28.354592311741019, 456.783332480861986 ], [ 32.652461139834017, 453.819285013261776 ], [ 40.210782187434631, 452.33726128195508 ], [ 45.842472372531063, 471.307165073000988 ], [ 20.796271270374032, 476.49424814404432 ], [ 17.23941430886903, 465.675474883662787 ] ] ] } },
{ "type": "Feature", "properties": { "feature_type": "building", "subtype": "major-damage", "uid": "e0cabd73-2449-4adc-b7b4-972a2f132fd3" }, "geometry": { "type": "Polygon", "coordinates": [ [ [ 65.997995153997906, 448.928606696059887 ], [ 87.190934549660412, 441.370285647146375 ], [ 96.231279323704726, 444.186130743311594 ], [ 102.011171886469796, 473.08559355515689 ], [ 75.631149423195183, 477.828069500923675 ], [ 72.963506705074153, 464.786260644080926 ], [ 71.777887716139631, 465.082665389943315 ], [ 65.997995153997906, 448.928606696059887 ] ] ] } },
{ "type": "Feature", "properties": { "feature_type": "building", "subtype": "major-damage", "uid": "30b442b6-ab4b-4502-9ed1-5d1df3505913" }, "geometry": { "type": "Polygon", "coordinates": [ [ [ 108.578112968077207, 410.389608766527715 ], [ 120.770758902978002, 408.067200015727394 ], [ 123.325408526351097, 418.169678074776925 ], [ 115.777580092238196, 419.098641574299108 ], [ 117.171025340149399, 426.065867824705322 ], [ 111.016642154882803, 427.110951760919704 ], [ 108.578112968077207, 410.389608766527715 ] ] ] } },
{ "type": "Feature", "properties": { "feature_type": "building", "subtype": "major-damage", "uid": "28431d6a-bfe0-4fe5-80c6-b5dafeb96182" }, "geometry": { "type": "Polygon", "coordinates": [ [ [ 160.381535268584088, 436.318295050052313 ], [ 171.1807359523944, 429.931670986099505 ], [ 181.631575327187988, 433.183043234427316 ], [ 182.908900137783604, 458.265057731500917 ], [ 194.172582574097703, 457.68445554305282 ], [ 194.288703011039189, 485.088878787934618 ], [ 181.39933445374129, 485.901721850764488 ], [ 180.238130078528712, 471.386667166491122 ], [ 161.426619208413513, 472.083389791631419 ], [ 160.381535268584088, 436.318295050052313 ] ] ] } },
{ "type": "Feature", "properties": { "feature_type": "building", "subtype": "major-damage", "uid": "7620cade-e53f-4197-bcdf-2535c8e37011" }, "geometry": { "type": "Polygon", "coordinates": [ [ [ 202.960089074919892, 442.292280887501477 ], [ 207.702565022117994, 441.403066646922184 ], [ 207.850767396233493, 438.58722155175451 ], [ 237.343039700599007, 436.215983579868521 ], [ 241.196301409212992, 462.447803667981191 ], [ 240.899896663163702, 463.781625026855409 ], [ 223.115611857384209, 465.263648761154172 ], [ 222.967409481772592, 458.742744333231485 ], [ 218.66954065355489, 458.594541959801575 ], [ 220.447969134650293, 471.93275556450152 ], [ 202.811886700679793, 472.525565059218422 ], [ 202.960089074919892, 442.292280887501477 ] ] ] } },
{ "type": "Feature", "properties": { "feature_type": "building", "subtype": "major-damage", "uid": "8b5f9739-0303-43ae-9ec1-f369d07850ab" }, "geometry": { "type": "Polygon", "coordinates": [ [ [ 252.0402973924283, 433.623134252896818 ], [ 265.974749887124574, 433.739254689589075 ], [ 265.974749888371321, 439.080794817327387 ], [ 286.760308199146777, 438.616313061581991 ], [ 287.108669510906395, 463.698327558655706 ], [ 251.459695201424694, 463.930568432040218 ], [ 252.0402973924283, 433.623134252896818 ] ] ] } },
{ "type": "Feature", "properties": { "feature_type": "building", "subtype": "major-damage", "uid": "65f404c1-11b7-4ec3-bb82-e72dd3f2af5f" }, "geometry": { "type": "Polygon", "coordinates": [ [ [ -0.000004640618123, 591.146460034862571 ], [ 2.08529441814024, 590.56585784641436 ], [ 3.362619232351415, 593.93335053342912 ], [ 8.588038916974222, 593.236627907291449 ], [ 9.633122853936186, 593.817230094742172 ], [ 14.51018122873179, 593.004387032909563 ], [ 15.55526516644178, 590.681978280114549 ], [ 16.716469543150399, 589.404653470515541 ], [ 17.41319216386453, 589.056292157446705 ], [ 16.832589981213989, 585.340438160355234 ], [ 26.354465850563841, 583.250270284934118 ], [ 32.2766081616357, 601.82954028036545 ], [ 33.786173849355919, 601.829540279368075 ], [ 40.985640973953259, 625.866470836237681 ], [ 26.354465850439169, 629.814565713695288 ], [ 22.986973164797512, 619.015365025515962 ], [ 11.607170290232879, 622.034496401456636 ], [ 14.626301667169381, 630.279047463456436 ], [ 8.588038915789834, 635.272226274136415 ], [ 9.865363729190639, 642.703934271311482 ], [ -0.000004636503934, 644.910222584422172 ], [ -0.000004639371399, 627.027675213133875 ], [ 2.433655730959584, 626.795434338752102 ], [ 2.433655730211549, 622.382857711533347 ], [ -0.000004639807752, 622.150616843135708 ], [ -0.000004640618123, 591.146460034862571 ] ] ] } },
{ "type": "Feature", "properties": { "feature_type": "building", "subtype": "major-damage", "uid": "379129d2-6200-44c3-8ee8-208db9c5417e" }, "geometry": { "type": "Polygon", "coordinates": [ [ [ 38.184008932393581, 607.036331052525838 ], [ 47.589764368729092, 604.24944055495655 ], [ 42.828826429939973, 587.528097557572437 ], [ 45.964078245002391, 585.670170552543709 ], [ 43.873910368148657, 575.916053804568264 ], [ 55.021472368269201, 570.690634122498636 ], [ 58.272844613790177, 571.96795893409228 ], [ 63.382143865149303, 586.36689317868138 ], [ 75.458669361550108, 582.418798306210647 ], [ 79.522884673578474, 586.715254493745078 ], [ 80.800209487103956, 602.623754425307084 ], [ 62.220939491058793, 606.804090176149202 ], [ 59.782410305188243, 605.178404053481472 ], [ 56.647158488692092, 605.062283613797035 ], [ 60.479132926276378, 621.435265296117564 ], [ 43.061067305194427, 626.312323674094841 ], [ 41.899862932038971, 623.293192297156793 ], [ 41.899862929109169, 622.944830985085332 ], [ 38.184008932393581, 607.036331052525838 ] ] ] } },
{ "type": "Feature", "properties": { "feature_type": "building", "subtype": "major-damage", "uid": "2722c02e-83b8-40ea-a829-e52960d90ee4" }, "geometry": { "type": "Polygon", "coordinates": [ [ [ 88.471902344285127, 571.415203947201007 ], [ 92.202221796234355, 570.778320138697723 ], [ 93.112055805059825, 571.415203944208884 ], [ 107.851366804932894, 569.140618915692244 ], [ 109.580051429686506, 571.051270341202098 ], [ 109.307101225000494, 568.139801502187424 ], [ 121.771827192555506, 568.048818101685129 ], [ 126.775914261573007, 588.429099974787732 ], [ 117.768557538039701, 590.521718200304917 ], [ 116.494789922031103, 589.247950585293097 ], [ 117.040690328224102, 595.980722274330105 ], [ 117.040690330156494, 596.435639281828799 ], [ 95.022707231129743, 598.346290707338653 ], [ 93.203039206933511, 596.253672476834595 ], [ 88.471902344285127, 571.415203947201007 ] ] ] } },
{ "type": "Feature", "properties": { "feature_type": "building", "subtype": "major-damage", "uid": "fa04a84f-dc4c-48e5-9c7e-ec12c6442f5f" }, "geometry": { "type": "Polygon", "coordinates": [ [ [ 90.605389542168822, 613.536616116950881 ], [ 92.152107363112748, 609.442363061431934 ], [ 103.343065714409903, 605.621060208417475 ], [ 108.529119582811305, 616.630051755972772 ], [ 107.619285573113103, 619.45053719448515 ], [ 94.517675794561626, 627.093142896524569 ], [ 90.605389542168822, 613.536616116950881 ] ] ] } },
{ "type": "Feature", "properties": { "feature_type": "building", "subtype": "major-damage", "uid": "7a5d5590-df35-4bd9-a3b1-84da0ff634c6" }, "geometry": { "type": "Polygon", "coordinates": [ [ [ 132.229056575701492, 581.937475921403689 ], [ 145.863674928500899, 577.343202345077316 ], [ 151.347162743346701, 591.422427814931893 ], [ 151.347162744157004, 593.052653923657999 ], [ 136.82333015158909, 598.536141736574109 ], [ 132.229056575701492, 581.937475921403689 ] ] ] } },
{ "type": "Feature", "properties": { "feature_type": "building", "subtype": "major-damage", "uid": "b7621505-d018-423c-b5ea-a999883125a2" }, "geometry": { "type": "Polygon", "coordinates": [ [ [ 134.945479132859191, 553.133886993100987 ], [ 155.256822403638012, 552.619095812872274 ], [ 157.924465127556289, 553.063702935156698 ], [ 158.072667502045789, 555.138536161180241 ], [ 164.59357192903019, 556.175952774192069 ], [ 166.668405154117607, 577.813499286975798 ], [ 139.695573199118513, 577.368892169678361 ], [ 135.545906744517708, 570.551582993898478 ], [ 134.945479132859191, 553.133886993100987 ] ] ] } },
{ "type": "Feature", "properties": { "feature_type": "building", "subtype": "major-damage", "uid": "3c4515a2-6d87-4b77-ac22-60dc2adf6e5c" }, "geometry": { "type": "Polygon", "coordinates": [ [ [ 174.216953822635588, 551.290313394928376 ], [ 191.807713794140597, 551.479461349666849 ], [ 194.26663722917769, 570.394257018001667 ], [ 195.590672927494012, 570.394257016006918 ], [ 196.536412710037496, 567.557037667003442 ], [ 215.640356335594504, 567.746185623736665 ], [ 219.423315469882908, 589.687348598805443 ], [ 216.775244073936108, 598.766450516015652 ], [ 176.865025215590208, 597.253266865141995 ], [ 174.216953822635588, 551.290313394928376 ] ] ] } },
{ "type": "Feature", "properties": { "feature_type": "building", "subtype": "major-damage", "uid": "8a4583bb-e59c-4cb4-999d-c9951d85411b" }, "geometry": { "type": "Polygon", "coordinates": [ [ [ 237.770667267198291, 564.341522401541397 ], [ 256.307167018254688, 564.908966271740951 ], [ 255.361427238578699, 600.847078039083613 ], [ 243.823401878169989, 601.414521907288531 ], [ 243.823401878045303, 596.685822993944953 ], [ 221.882238904546, 597.253266864144621 ], [ 219.76999537090461, 568.740002395168403 ], [ 237.916987924679489, 569.521448229020962 ], [ 237.349995374399896, 562.10000239446299 ], [ 237.770667267198291, 564.341522401541397 ] ] ] } },
{ "type": "Feature", "properties": { "feature_type": "building", "subtype": "major-damage", "uid": "319da8e8-8e80-4629-986b-e34e5e4c0aa5" }, "geometry": { "type": "Polygon", "coordinates": [ [ [ 234.36600404637619, 546.37246652086219 ], [ 237.219995372963609, 561.460002394527123 ], [ 236.797843797898111, 561.491776970930459 ], [ 237.375227949101088, 568.997770969174894 ], [ 219.739995370486895, 568.240002395436704 ], [ 218.288427727863393, 548.642242002658122 ], [ 231.150488781975497, 545.6158746939293 ], [ 234.36600404637619, 546.37246652086219 ] ] ] } },
{ "type": "Feature", "properties": { "feature_type": "building", "subtype": "major-damage", "uid": "d1feb844-809c-4c75-a60f-b6eccd6ce0b2" }, "geometry": { "type": "Polygon", "coordinates": [ [ [ 269.177921348061773, 568.802355339310566 ], [ 279.959354879231626, 567.667467599908605 ], [ 280.526798748807607, 551.589891284566875 ], [ 293.57800776320579, 551.589891282572125 ], [ 295.658635284153377, 552.535631065240864 ], [ 297.171818937956004, 550.833299455639235 ], [ 309.088140208714208, 552.157335150777044 ], [ 312.114507514075285, 595.093921315253965 ], [ 297.171818937519674, 594.715625400790145 ], [ 296.793523023928685, 591.689258095053447 ], [ 282.79657423234778, 591.500110139317599 ], [ 282.98572218540312, 587.338855091186815 ], [ 268.7996254352189, 588.473742830588662 ], [ 269.177921348061773, 568.802355339310566 ] ] ] } },
{ "type": "Feature", "properties": { "feature_type": "building", "subtype": "major-damage", "uid": "d234125b-5137-415c-9c49-2b306ff24c58" }, "geometry": { "type": "Polygon", "coordinates": [ [ [ 320.43701760677942, 556.50773815564105 ], [ 329.326971570493299, 554.805406545042047 ], [ 335.379706187075215, 551.779039236313224 ], [ 345.593695848606728, 553.103074935440532 ], [ 359.212348725100583, 553.292222892173754 ], [ 363.751899684700675, 595.09392131425659 ], [ 348.998359065439274, 595.472217224730798 ], [ 349.187507021362023, 583.366748001784003 ], [ 330.083563399669913, 583.934191869988922 ], [ 330.840155223547924, 599.82262022859743 ], [ 317.221502343750103, 599.066028405654038 ], [ 314.951726864510988, 586.203967349790105 ], [ 324.78742061132948, 582.799304129589586 ], [ 320.43701760677942, 556.50773815564105 ] ] ] } },
{ "type": "Feature", "properties": { "feature_type": "building", "subtype": "major-damage", "uid": "6b0fa814-22b1-4da4-a146-ee682eb9dc13" }, "geometry": { "type": "Polygon", "coordinates": [ [ [ 369.290112932869079, 553.189813130275866 ], [ 384.498694059913817, 549.810128436788204 ], [ 387.636972705601409, 567.915582161232919 ], [ 394.396342097622323, 566.225739811995595 ], [ 405.018208284086484, 564.535897464753134 ], [ 411.294765574589121, 597.125714171546178 ], [ 402.362741740353499, 597.608526269760887 ], [ 400.914305438852978, 594.22884157427859 ], [ 374.601046021332422, 600.022586770808516 ], [ 369.290112932869079, 553.189813130275866 ] ] ] } },
{ "type": "Feature", "properties": { "feature_type": "building", "subtype": "destroyed", "uid": "d07b2a80-318b-403f-8e2a-3ea1568a8e90" }, "geometry": { "type": "Polygon", "coordinates": [ [ [ 410.649792614779074, 547.649458543940455 ], [ 418.949125527471722, 542.165970728032107 ], [ 431.990934384619493, 541.424958859885351 ], [ 435.992398462237418, 554.763172461593058 ], [ 429.471494033881584, 558.912838915635007 ], [ 413.762042456056975, 562.766100625809372 ], [ 410.649792614779074, 547.649458543940455 ] ] ] } },
{ "type": "Feature", "properties": { "feature_type": "building", "subtype": "destroyed", "uid": "d99a6187-0576-4a17-955e-7c96c2afabcc" }, "geometry": { "type": "Polygon", "coordinates": [ [ [ 418.098196643104018, 565.663304995263047 ], [ 439.843229540935511, 559.021516704733585 ], [ 438.153387190826379, 545.859413402444034 ], [ 459.397119563692286, 541.514104508537457 ], [ 464.949458704130393, 579.656260356269968 ], [ 425.841678656746694, 591.485156796941169 ], [ 418.098196643104018, 565.663304995263047 ] ] ] } },
{ "type": "Feature", "properties": { "feature_type": "building", "subtype": "destroyed", "uid": "fb577541-43cd-49ee-a244-01f0bf70aa4f" }, "geometry": { "type": "Polygon", "coordinates": [ [ [ 454.855713336955205, 521.507070828042288 ], [ 466.926015821865292, 512.816453035242262 ], [ 471.271324712902299, 517.644574029358296 ], [ 479.96194250089809, 510.643798587790172 ], [ 519.552534653914336, 514.506295384479472 ], [ 517.862692303992276, 527.542222066199315 ], [ 516.172849956563596, 527.542222066199315 ], [ 514.483007607514196, 536.232839855009843 ], [ 491.066620788070225, 533.8187793589492 ], [ 490.100996587714008, 537.681276152646319 ], [ 472.961167060829609, 549.268766536729686 ], [ 462.09789482457262, 535.276380828817651 ], [ 463.607460512666819, 533.99905602021613 ], [ 454.855713336955205, 521.507070828042288 ] ] ] } },
{ "type": "Feature", "properties": { "feature_type": "building", "subtype": "destroyed", "uid": "2296b564-0b49-472d-8f60-2b30c19b9108" }, "geometry": { "type": "Polygon", "coordinates": [ [ [ 524.147237041243329, 585.730967098508927 ], [ 502.773517937569409, 559.817697035034598 ], [ 525.660420691243417, 541.848641152360642 ], [ 533.793782829583279, 544.875008462086953 ], [ 533.037191001341739, 552.819222638897713 ], [ 540.224813357948392, 547.712227810093054 ], [ 544.764364318670573, 550.738595113835004 ], [ 548.169027537497982, 549.792855331166265 ], [ 556.49153762889307, 562.465768430297089 ], [ 556.113241719977282, 563.411508210970965 ], [ 524.147237041243329, 585.730967098508927 ] ] ] } },
{ "type": "Feature", "properties": { "feature_type": "building", "subtype": "destroyed", "uid": "c8d3932f-680f-4263-b537-e1e95342e733" }, "geometry": { "type": "Polygon", "coordinates": [ [ [ 567.457062475876683, 558.902880826987939 ], [ 577.53482386561268, 556.679845230526553 ], [ 578.572240480805817, 561.422321176293281 ], [ 591.021239843860258, 557.569059467116404 ], [ 590.132025604465866, 555.049619118808323 ], [ 599.616977501916381, 553.122988267212008 ], [ 610.139346012752299, 582.022451076065295 ], [ 587.019775763873668, 587.209534143118958 ], [ 587.612585256034436, 590.321783983151818 ], [ 576.942014371332448, 593.434033827174062 ], [ 567.457062475876683, 558.902880826987939 ] ] ] } },
{ "type": "Feature", "properties": { "feature_type": "building", "subtype": "destroyed", "uid": "f388eadc-003c-406c-bb7a-2c60676e6597" }, "geometry": { "type": "Polygon", "coordinates": [ [ [ 616.062532902995258, 573.934831737957438 ], [ 626.654818477743561, 565.801469600423843 ], [ 635.923068356108047, 576.961199043694137 ], [ 635.733920399374938, 579.420122479231168 ], [ 640.840915231044505, 584.716265267761287 ], [ 638.192843834100358, 593.038775359035867 ], [ 634.409884701993747, 595.497698795570273 ], [ 616.062532902995258, 573.934831737957438 ] ] ] } },
{ "type": "Feature", "properties": { "feature_type": "building", "subtype": "major-damage", "uid": "00344860-565a-4cd3-9758-36c0b9ec14a5" }, "geometry": { "type": "Polygon", "coordinates": [ [ [ 619.114981127633882, 504.364249603453516 ], [ 638.975516579188252, 508.71465260732009 ], [ 635.949149271582996, 512.119315824528485 ], [ 645.217399150508527, 513.065055610189347 ], [ 648.811210327004119, 515.523979046723753 ], [ 648.811210328126208, 520.820121830266999 ], [ 659.592643856553082, 526.494560533260824 ], [ 649.567802153375624, 560.541192732273885 ], [ 624.97856778555024, 552.029534684266082 ], [ 628.004935091846392, 534.060478797602627 ], [ 632.16619013804268, 533.303886971667112 ], [ 633.301077878067417, 523.657341182262599 ], [ 616.845205650202615, 521.57671365819715 ], [ 616.088613821088302, 519.685234091862412 ], [ 619.114981127633882, 504.364249603453516 ] ] ] } },
{ "type": "Feature", "properties": { "feature_type": "building", "subtype": "major-damage", "uid": "4c1f2822-c6ef-4409-8907-6562c6a0ebd5" }, "geometry": { "type": "Polygon", "coordinates": [ [ [ 616.400868914161379, 461.10689981212812 ], [ 627.56059835511951, 453.540981547786316 ], [ 651.582388851997393, 447.677394889056586 ], [ 657.067679596447533, 457.702236590930227 ], [ 665.957633558416092, 481.156583216872718 ], [ 666.335929473378314, 481.156583216872718 ], [ 619.238088262290717, 498.369047275605908 ], [ 614.887685256182181, 480.210843437196104 ], [ 621.129567829060875, 476.238736344801225 ], [ 616.400868914161379, 461.10689981212812 ] ] ] } },
{ "type": "Feature", "properties": { "feature_type": "building", "subtype": "major-damage", "uid": "9dcb8103-3101-4050-bd5c-f5136bf1d1f5" }, "geometry": { "type": "Polygon", "coordinates": [ [ [ 569.187165165188276, 438.559582900180715 ], [ 560.255141328521518, 430.593183261185686 ], [ 573.532474061461471, 414.418977935584394 ], [ 580.533249500033889, 416.591632380044189 ], [ 597.190266930137454, 395.347900004736516 ], [ 620.848059800247142, 412.729135583355003 ], [ 596.707454832047574, 441.939267594665694 ], [ 604.673854469978892, 447.49160674059209 ], [ 596.94886087922248, 458.354878973862583 ], [ 579.809031352712054, 447.491606742586896 ], [ 575.946534556087158, 453.526757979746378 ], [ 564.359044172134304, 445.56035834075152 ], [ 569.187165165188276, 438.559582900180715 ] ] ] } },
{ "type": "Feature", "properties": { "feature_type": "building", "subtype": "major-damage", "uid": "54f5b07c-1c13-4329-99db-c5f4eafa842c" }, "geometry": { "type": "Polygon", "coordinates": [ [ [ 319.759947212705526, 0.012280797153234 ], [ 316.547439614227528, 13.12692496212153 ], [ 301.415603079131017, 7.830782177580975 ], [ 284.770582892912387, 7.45248626511192 ], [ 286.092489283389227, 0.011987441019386 ], [ 319.759947212705526, 0.012280797153234 ] ] ] } },
{ "type": "Feature", "properties": { "feature_type": "building", "subtype": "destroyed", "uid": "67e262b1-d5e8-4237-8649-77acd815f19d" }, "geometry": { "type": "Polygon", "coordinates": [ [ [ 386.029047218450387, 1.771222297197954 ], [ 378.966265320698028, 25.043246231327291 ], [ 350.05303183691791, 17.030381942747301 ], [ 355.240154702139421, 0.012538491995988 ], [ 386.128329211151708, 0.01271983148142 ], [ 386.029047218450387, 1.771222297197954 ] ] ] } },
{ "type": "Feature", "properties": { "feature_type": "building", "subtype": "destroyed", "uid": "4066ff9c-84ba-4462-b71a-b73cf09e38cb" }, "geometry": { "type": "Polygon", "coordinates": [ [ [ 404.227599065617426, 11.44043568684908 ], [ 386.91047949719308, 8.965669914988139 ], [ 387.479995380974287, 1.040002390239467 ], [ 387.903560757238324, 0.012729036293489 ], [ 407.712844711651883, 0.01282279092988 ], [ 404.227599065617426, 11.44043568684908 ] ] ] } },
{ "type": "Feature", "properties": { "feature_type": "building", "subtype": "major-damage", "uid": "17720a42-1eed-41ee-89cd-cf1e45b8c6aa" }, "geometry": { "type": "Polygon", "coordinates": [ [ [ 274.245402452931728, 7.128137167977737 ], [ 289.92166151658688, 11.889075102281071 ], [ 303.739993576024688, 10.611750292682119 ], [ 309.89437676054331, 14.675965603839851 ], [ 317.209964324326279, 16.650013039576528 ], [ 309.197654136961717, 53.692432592749377 ], [ 286.438048390014217, 50.441060345418997 ], [ 281.677110453905584, 45.912363284500159 ], [ 285.39296445136921, 28.37817722528338 ], [ 274.361522891930292, 24.662323227194509 ], [ 269.832825829517674, 16.76613347826353 ], [ 274.245402452931728, 7.128137167977737 ] ] ] } },
{ "type": "Feature", "properties": { "feature_type": "building", "subtype": "major-damage", "uid": "9fe9d203-84e8-47ba-8a13-4dea1f0ff232" }, "geometry": { "type": "Polygon", "coordinates": [ [ [ 264.391403742330112, 51.63309962793705 ], [ 316.052298373274823, 61.289341614174532 ], [ 306.878868485069688, 100.155715612720101 ], [ 277.668736470657109, 95.086188574982145 ], [ 281.53123326703269, 77.946359042977519 ], [ 262.46015534143072, 73.601050149070915 ], [ 264.391403742330112, 51.63309962793705 ] ] ] } },
{ "type": "Feature", "properties": { "feature_type": "building", "subtype": "major-damage", "uid": "dcb1b4d6-f1b3-4cc4-b278-ffbc34b6a544" }, "geometry": { "type": "Polygon", "coordinates": [ [ [ 344.43523520493261, 30.299379377137519 ], [ 381.337626182097495, 38.005902792499263 ], [ 376.298745482429581, 57.420413703834797 ], [ 387.56212586265849, 60.384461173429827 ], [ 383.26425703624858, 79.057960219610706 ], [ 338.062533150068987, 68.239186964216202 ], [ 344.43523520493261, 30.299379377137519 ] ] ] } },
{ "type": "Feature", "properties": { "feature_type": "building", "subtype": "major-damage", "uid": "f0d4c860-340f-47af-889a-e7a2a27bbca7" }, "geometry": { "type": "Polygon", "coordinates": [ [ [ 336.763162217824686, 73.464281731081329 ], [ 347.330122029622089, 72.186956921482391 ], [ 380.540567149742401, 82.05719410615005 ], [ 379.147121898527416, 91.114588229982488 ], [ 378.334278837567922, 94.598201352692115 ], [ 353.136143902505808, 89.140540794245808 ], [ 351.974939528664606, 92.856394792334683 ], [ 331.421622093330598, 87.28261379619876 ], [ 332.931187783731275, 79.850905797028886 ], [ 335.485837404174617, 79.50254447997051 ], [ 336.763162217824686, 73.464281731081329 ] ] ] } },
{ "type": "Feature", "properties": { "feature_type": "building", "subtype": "major-damage", "uid": "f9c9e6d6-070b-4c4b-a6f5-feb60b66d62c" }, "geometry": { "type": "Polygon", "coordinates": [ [ [ 265.653408630454692, 105.131222207539395 ], [ 284.326907680054489, 116.542804960642997 ], [ 273.65633679217342, 137.883946723574809 ], [ 255.872051987141901, 125.731352110303504 ], [ 265.653408630454692, 105.131222207539395 ] ] ] } },
{ "type": "Feature", "properties": { "feature_type": "building", "subtype": "major-damage", "uid": "57aece34-e9d1-4517-8969-f940f5443292" }, "geometry": { "type": "Polygon", "coordinates": [ [ [ 294.84927618665148, 108.243472046574794 ], [ 303.593216217638712, 110.021900531722906 ], [ 308.039287419286211, 118.914042929536805 ], [ 300.925573497522976, 134.771696881547314 ], [ 288.031967011311508, 127.806185332337606 ], [ 289.217585999186326, 122.4708998908566 ], [ 294.84927618665148, 108.243472046574794 ] ] ] } },
{ "type": "Feature", "properties": { "feature_type": "building", "subtype": "major-damage", "uid": "1a486abf-3f76-4070-89c3-7454e55b0970" }, "geometry": { "type": "Polygon", "coordinates": [ [ [ 325.376505842349616, 124.759958710888696 ], [ 338.412432526556188, 124.759958710888696 ], [ 352.172577357398893, 128.622455504585787 ], [ 350.669065340217287, 150.348999975116186 ], [ 359.029736841772717, 150.465120412805788 ], [ 361.574846110299291, 165.975252857947993 ], [ 356.656999240224991, 169.190768125404787 ], [ 322.799514995656011, 165.4078089887457 ], [ 320.529739512053425, 146.68216127913891 ], [ 325.376505842349616, 124.759958710888696 ] ] ] } },
{ "type": "Feature", "properties": { "feature_type": "building", "subtype": "major-damage", "uid": "c0e98090-fa58-4733-970b-1d512b030e8d" }, "geometry": { "type": "Polygon", "coordinates": [ [ [ 317.157612671991728, 170.080984395901396 ], [ 333.608076117401708, 169.784579646049508 ], [ 347.24269447119849, 175.712674580252695 ], [ 348.428313460008383, 178.528519676417801 ], [ 349.317527698654828, 178.528519675420398 ], [ 349.317527698093784, 173.7860437256642 ], [ 357.765062981473307, 173.7860437256642 ], [ 358.209670101201709, 190.236507170396891 ], [ 348.280111082900703, 190.681114291683912 ], [ 348.576515834435611, 185.345828850202906 ], [ 343.685837507574092, 184.901221730910606 ], [ 341.018194789390691, 207.427982482278907 ], [ 314.341767580191515, 203.722923149524007 ], [ 317.157612671991728, 170.080984395901396 ] ] ] } },
{ "type": "Feature", "properties": { "feature_type": "building", "subtype": "major-damage", "uid": "4ac5f5da-878d-470f-952a-62709c74ad75" }, "geometry": { "type": "Polygon", "coordinates": [ [ [ 311.300096393145623, 212.445714130276514 ], [ 345.534844646704016, 216.447178211886012 ], [ 339.310344964771502, 258.240247506146773 ], [ 313.374929622347281, 253.942378678674999 ], [ 313.671334366713381, 246.532260011170393 ], [ 307.595037061140602, 240.752367448402396 ], [ 311.300096393145623, 212.445714130276514 ] ] ] } },
{ "type": "Feature", "properties": { "feature_type": "building", "subtype": "major-damage", "uid": "ccebef1c-28de-4f3b-99b5-372870647639" }, "geometry": { "type": "Polygon", "coordinates": [ [ [ 189.271920313004813, 236.694696226024888 ], [ 207.758045728460502, 243.472942210049808 ], [ 200.671697653196588, 261.034761359454194 ], [ 206.833739457288686, 261.959067629005574 ], [ 210.222862450733203, 254.872719551805687 ], [ 222.855048156954695, 257.645638366444416 ], [ 229.63329414072669, 242.856738031678589 ], [ 250.584236282694008, 253.024107008713287 ], [ 240.724969391982398, 270.585926158117672 ], [ 224.703660694934598, 262.883373898557124 ], [ 217.925414708170393, 280.137090953789084 ], [ 178.796449241117301, 261.650965540817481 ], [ 189.271920313004813, 236.694696226024888 ] ] ] } },
{ "type": "Feature", "properties": { "feature_type": "building", "subtype": "major-damage", "uid": "7350ae15-18c3-4f5e-bc68-8c42e9541a6f" }, "geometry": { "type": "Polygon", "coordinates": [ [ [ 298.526592372106791, 258.186292067471925 ], [ 311.766949340682515, 257.051404326075215 ], [ 341.274030584815705, 267.643689899145784 ], [ 343.354658104952819, 270.102613336677678 ], [ 344.310730848261414, 282.502815251225115 ], [ 332.899148098030992, 282.354612877795091 ], [ 332.602743350984383, 294.803612244907924 ], [ 330.676112495399479, 296.730243095506808 ], [ 314.966660916078922, 295.692826481497718 ], [ 314.966660917574927, 283.095624745942018 ], [ 311.261601582702497, 282.799219998084823 ], [ 311.70620870585941, 295.692826482494979 ], [ 296.885971363502108, 294.951814617340403 ], [ 296.737768991506016, 275.240898954158183 ], [ 298.526592372106791, 258.186292067471925 ] ] ] } },
{ "type": "Feature", "properties": { "feature_type": "building", "subtype": "major-damage", "uid": "de2916a2-420b-44db-a7de-b4e48b3f0362" }, "geometry": { "type": "Polygon", "coordinates": [ [ [ 291.254281174977109, 310.95767094278068 ], [ 330.824314868953991, 308.141825847613006 ], [ 333.047350471460788, 312.439694678076989 ], [ 337.493421672422585, 315.848349261977376 ], [ 349.053206795584117, 342.672978843809574 ], [ 349.497813918242173, 345.192419190122791 ], [ 335.122183697982109, 353.491752103193676 ], [ 330.231505377416624, 346.378038178559279 ], [ 326.971053163269914, 348.601073779010221 ], [ 319.709136864648315, 338.671514762200218 ], [ 315.855875158777224, 340.598145617785974 ], [ 307.260137501718418, 329.038360495242102 ], [ 293.032709656508814, 329.779372361394223 ], [ 291.254281174977109, 310.95767094278068 ] ] ] } },
{ "type": "Feature", "properties": { "feature_type": "building", "subtype": "major-damage", "uid": "488de989-dc3d-407f-9fb3-c7d159152794" }, "geometry": { "type": "Polygon", "coordinates": [ [ [ 351.999367594288287, 357.023573403933881 ], [ 362.969949082440621, 355.699537703809312 ], [ 362.402505212926883, 353.051466316525875 ], [ 366.942056175519213, 353.051466313533808 ], [ 369.211831656129618, 359.293348881740428 ], [ 374.318826484994077, 359.860792751939982 ], [ 373.940530568099291, 357.401869318397814 ], [ 375.832010137861687, 355.888685660542478 ], [ 375.832010136427925, 351.538282660665402 ], [ 387.748139467991507, 351.349134701937373 ], [ 391.51522430425581, 392.000071088277423 ], [ 382.945284064259624, 393.74934450760702 ], [ 384.374649013665191, 410.662989382014985 ], [ 381.007280183998716, 412.915446005415788 ], [ 365.449439164875116, 412.4135801656426 ], [ 363.943841644309373, 390.331483235567873 ], [ 351.982790686047281, 389.32775155402669 ], [ 351.999367594288287, 357.023573403933881 ] ] ] } },
{ "type": "Feature", "properties": { "feature_type": "building", "subtype": "major-damage", "uid": "dcf6dd84-9be1-48e2-9e59-0cc14392dca5" }, "geometry": { "type": "Polygon", "coordinates": [ [ [ 295.682287554746381, 429.898435866636078 ], [ 303.165875099200719, 426.760157217767585 ], [ 303.890093245961509, 422.897660427062704 ], [ 321.995546973887713, 422.173442277247091 ], [ 321.995546971269619, 429.657029816032605 ], [ 323.443983269279272, 429.657029816032605 ], [ 325.375231666500781, 441.727332297333419 ], [ 330.444758711217787, 443.417174648565378 ], [ 332.858819206653891, 462.729658621040414 ], [ 303.648687198786604, 465.143719118098375 ], [ 298.096348052114877, 454.280446884827995 ], [ 295.682287554746381, 429.898435866636078 ] ] ] } },
{ "type": "Feature", "properties": { "feature_type": "building", "subtype": "destroyed", "uid": "44f52d2f-f371-4b35-a849-2930e9a3acb1" }, "geometry": { "type": "Polygon", "coordinates": [ [ [ 343.963497493327282, 432.553902414297625 ], [ 360.861920970107008, 429.898435866636078 ], [ 371.483787156321796, 429.657029815035173 ], [ 371.725193207236828, 434.485150809151378 ], [ 379.450186796434821, 434.00233870894192 ], [ 382.829871493598489, 480.110894195669403 ], [ 367.621290365244818, 480.352300248267625 ], [ 363.758793566251086, 462.971064669649081 ], [ 351.929897133814279, 467.557779614159074 ], [ 351.447085033106418, 454.039040832229773 ], [ 348.067400338186815, 452.590604536588103 ], [ 343.963497493327282, 432.553902414297625 ] ] ] } },
{ "type": "Feature", "properties": { "feature_type": "building", "subtype": "destroyed", "uid": "e6875cc0-f88e-43fa-b5d0-726c2835094d" }, "geometry": { "type": "Polygon", "coordinates": [ [ [ 389.830646934290428, 430.381247963853411 ], [ 401.418137319926302, 427.967187466795394 ], [ 400.935325218906712, 410.827357941772391 ], [ 413.729845853632014, 407.930485343507428 ], [ 422.179057590837488, 451.624980334174325 ], [ 414.454064002886184, 452.832010581207328 ], [ 414.454064002075825, 450.417950085146572 ], [ 407.936100659037493, 452.59060453459341 ], [ 407.45328856019961, 447.279671442262497 ], [ 405.039228064202518, 447.279671442262497 ], [ 406.729070413438876, 462.246846517838719 ], [ 391.761895332010624, 463.695282820462012 ], [ 385.968150140532885, 440.520302050300415 ], [ 390.313459034063328, 439.31327180127272 ], [ 389.830646934290428, 430.381247963853411 ] ] ] } },
{ "type": "Feature", "properties": { "feature_type": "building", "subtype": "destroyed", "uid": "fa0dc09d-4aa4-4707-b4d4-1b9855d6a06e" }, "geometry": { "type": "Polygon", "coordinates": [ [ [ 414.098315574611206, 340.734372252446008 ], [ 425.355969545154778, 332.159529437118124 ], [ 434.793369959819813, 345.909717841639974 ], [ 424.480724751382581, 353.380993164831978 ], [ 414.098315574611206, 340.734372252446008 ] ] ] } },
{ "type": "Feature", "properties": { "feature_type": "building", "subtype": "destroyed", "uid": "daf28aaf-9260-4c2d-a9a0-0a56ee140a4b" }, "geometry": { "type": "Polygon", "coordinates": [ [ [ 410.496237975632823, 367.280183272346676 ], [ 425.464677687804397, 357.498826625974516 ], [ 440.284915025735927, 376.691259566373503 ], [ 425.761082435100377, 386.991098932536772 ], [ 410.496237975632823, 367.280183272346676 ] ] ] } },
{ "type": "Feature", "properties": { "feature_type": "building", "subtype": "destroyed", "uid": "850a3ace-1efd-49e0-b029-7115746beb3e" }, "geometry": { "type": "Polygon", "coordinates": [ [ [ 429.010281403384909, 353.998235889165528 ], [ 437.493538597627889, 347.22588770819732 ], [ 441.343083880947972, 351.645735996319672 ], [ 431.719220676606085, 360.057705312247492 ], [ 427.299372390979386, 356.422023657400985 ], [ 429.010281403384909, 353.998235889165528 ] ] ] } },
{ "type": "Feature", "properties": { "feature_type": "building", "subtype": "destroyed", "uid": "b4c41797-a408-4f2b-a7f6-e7f119002da3" }, "geometry": { "type": "Polygon", "coordinates": [ [ [ 437.929385402261516, 317.378689219391504 ], [ 443.475223027359505, 301.049278431716289 ], [ 467.507186069783188, 312.44905577147739 ], [ 465.350471437755687, 329.086568646343608 ], [ 470.588206972982618, 331.859487462976972 ], [ 464.118063076899773, 343.875468980111918 ], [ 453.026387825332392, 338.637733445007086 ], [ 453.026387824709104, 342.334958529197195 ], [ 441.3185083940852, 339.253937626370316 ], [ 442.550916757559207, 334.940508363808988 ], [ 431.151139415123282, 331.551385368804517 ], [ 437.929385402261516, 317.378689219391504 ] ] ] } },
{ "type": "Feature", "properties": { "feature_type": "building", "subtype": "major-damage", "uid": "69d289fe-9a16-4e8e-8107-e6f128f27d25" }, "geometry": { "type": "Polygon", "coordinates": [ [ [ 469.479335265304428, 373.037273625587488 ], [ 477.045253532447418, 363.390727836182975 ], [ 503.3368195076294, 384.764446939057393 ], [ 496.716641025336287, 396.113324337066217 ], [ 491.420498238429673, 393.086957033324211 ], [ 491.420498237120626, 394.600140686192617 ], [ 505.03915112184302, 407.840497653528189 ], [ 491.79879415183359, 422.594038273732224 ], [ 472.316554613932396, 404.435834434325102 ], [ 474.964626007822119, 396.491620254522104 ], [ 463.994044520978889, 389.114849943921399 ], [ 469.857631179082318, 381.927227588059225 ], [ 469.479335265304428, 373.037273625587488 ] ] ] } },
{ "type": "Feature", "properties": { "feature_type": "building", "subtype": "major-damage", "uid": "74a7c276-588d-4b1c-bace-d1941d2f756c" }, "geometry": { "type": "Polygon", "coordinates": [ [ [ 454.154346755776373, 418.271933755561179 ], [ 462.291712909819807, 409.731977218865723 ], [ 474.586330093233812, 419.189375050539581 ], [ 466.86970758599989, 430.030476162940488 ], [ 456.333085569604918, 422.303708427560991 ], [ 454.154346755776373, 418.271933755561179 ] ] ] } },
{ "type": "Feature", "properties": { "feature_type": "building", "subtype": "destroyed", "uid": "67b3a4ec-dbbe-4b24-825e-8248ad85b3cd" }, "geometry": { "type": "Polygon", "coordinates": [ [ [ 482.457747860075472, 341.329119049419717 ], [ 491.148365647198489, 344.225991642697693 ], [ 493.079614044731784, 339.880682748791173 ], [ 487.28586885475022, 336.25959200270529 ], [ 492.838207995250627, 329.017410510533807 ], [ 540.395199786384978, 347.122864240962713 ], [ 534.118642493139646, 363.297069564569313 ], [ 509.97803752612441, 355.089263876965617 ], [ 505.632728630412316, 364.986911913806523 ], [ 486.078838605536077, 358.468948576437413 ], [ 485.837432554060001, 355.813482026781173 ], [ 480.52649946385128, 351.709579181483321 ], [ 482.457747860075472, 341.329119049419717 ] ] ] } },
{ "type": "Feature", "properties": { "feature_type": "building", "subtype": "major-damage", "uid": "f5607c59-edd7-4524-9bae-3f7cadd98caa" }, "geometry": { "type": "Polygon", "coordinates": [ [ [ 627.306472554508218, 304.762012150115481 ], [ 648.02735703565736, 304.838164780153193 ], [ 651.465135941100243, 292.092709148556082 ], [ 668.546871259269096, 295.423328840529678 ], [ 664.221333793710301, 311.383098640769276 ], [ 660.926830935032513, 314.378101237075384 ], [ 658.231328596675326, 323.363109033972592 ], [ 654.038324959604893, 321.865607730832721 ], [ 651.941823143313741, 332.048616566252292 ], [ 640.560813268006086, 330.251615008468718 ], [ 640.178337117651154, 343.297879308527115 ], [ 613.023479829891699, 340.807666181431216 ], [ 617.368788726538924, 322.219400355779726 ], [ 628.967952774413448, 324.236306798822625 ], [ 629.270874590553831, 321.152899533755601 ], [ 623.364220013860518, 320.144446313231526 ], [ 627.306472554508218, 304.762012150115481 ] ] ] } },
{ "type": "Feature", "properties": { "feature_type": "building", "subtype": "major-damage", "uid": "5c797bae-5fa6-42ed-a583-cf992ac8b217" }, "geometry": { "type": "Polygon", "coordinates": [ [ [ 428.799523101205523, 247.276096860975713 ], [ 482.139246878938195, 253.51797942918239 ], [ 478.545435703626993, 279.809545407120481 ], [ 426.151451704760007, 269.973851658987996 ], [ 428.799523101205523, 247.276096860975713 ] ] ] } },
{ "type": "Feature", "properties": { "feature_type": "building", "subtype": "major-damage", "uid": "42bd1717-9cfd-4da1-8d52-e82dd9bbae0f" }, "geometry": { "type": "Polygon", "coordinates": [ [ [ 503.891261900628876, 287.564611628195507 ], [ 524.697537131610147, 286.240575933057698 ], [ 547.773587848313241, 290.023535064729913 ], [ 549.097623543201053, 308.181738903139717 ], [ 536.613858405921405, 309.127478688800522 ], [ 536.046414533103871, 316.693396953142326 ], [ 528.858792178928411, 320.665504044539887 ], [ 500.108302763099118, 320.476356087806721 ], [ 499.351710939470422, 293.239050330192015 ], [ 503.891261900628876, 287.564611628195507 ] ] ] } },
{ "type": "Feature", "properties": { "feature_type": "building", "subtype": "destroyed", "uid": "0b73f349-d966-4b8f-a59e-be9f1fccad03" }, "geometry": { "type": "Polygon", "coordinates": [ [ [ 507.674221031426498, 242.925693856111792 ], [ 527.723904438155614, 245.006321377185003 ], [ 536.803006357916956, 246.141209116586907 ], [ 534.722378837281099, 267.51492821946141 ], [ 551.934842891579706, 266.758336394523326 ], [ 550.610807197439954, 284.538244319466628 ], [ 509.187404682985118, 283.781652494528487 ], [ 507.674221031426498, 242.925693856111792 ] ] ] } },
{ "type": "Feature", "properties": { "feature_type": "building", "subtype": "major-damage", "uid": "1273f72e-859b-4464-9bc7-badbb7db7be3" }, "geometry": { "type": "Polygon", "coordinates": [ [ [ 625.702545996551862, 260.705601779060373 ], [ 638.18631113601316, 259.570714038660981 ], [ 637.997163178282676, 243.682285677060293 ], [ 667.315096467241233, 242.547397935663696 ], [ 665.565237855401165, 278.674657658742092 ], [ 661.451509806332751, 281.133581098268678 ], [ 624.945954168372623, 280.187841315599997 ], [ 625.702545996551862, 260.705601779060373 ] ] ] } },
{ "type": "Feature", "properties": { "feature_type": "building", "subtype": "major-damage", "uid": "a8e001aa-f136-4790-aa7a-27384e39ea79" }, "geometry": { "type": "Polygon", "coordinates": [ [ [ 626.212698754512644, 218.946256708021195 ], [ 638.283001241791567, 218.222038560200389 ], [ 639.490031488200543, 207.600172374541302 ], [ 646.490806926959976, 203.254863480634697 ], [ 666.768915100965728, 203.737675578849405 ], [ 672.56266029269284, 203.737675577852002 ], [ 671.215681920890802, 216.001718788235195 ], [ 666.287689822986636, 216.705717663220696 ], [ 663.74521236522321, 236.83052366068199 ], [ 625.488480605507789, 235.603274136824211 ], [ 626.212698754512644, 218.946256708021195 ] ] ] } },
{ "type": "Feature", "properties": { "feature_type": "building", "subtype": "major-damage", "uid": "95662f0b-6f7e-4bd8-be8e-0df72af82619" }, "geometry": { "type": "Polygon", "coordinates": [ [ [ 508.371730098183207, 203.303512013523488 ], [ 516.505092235276265, 204.249251795194795 ], [ 527.286525766508362, 203.303512012526113 ], [ 534.095852206095628, 203.492659971254113 ], [ 551.308316266752513, 203.114364057787611 ], [ 550.930020349546112, 222.596603591335196 ], [ 542.040066387390539, 222.596603592332514 ], [ 542.985806169996522, 234.702072820266295 ], [ 538.44625521133139, 235.647812602935005 ], [ 538.257107256281301, 239.241623779868689 ], [ 513.667872888456031, 238.674179909669107 ], [ 514.424464713643033, 224.109787248192987 ], [ 504.399623009530387, 223.542343376996001 ], [ 508.371730098183207, 203.303512013523488 ] ] ] } },
{ "type": "Feature", "properties": { "feature_type": "building", "subtype": "major-damage", "uid": "b29aa9f9-ac3d-4e24-b5a4-68d489a5cb38" }, "geometry": { "type": "Polygon", "coordinates": [ [ [ 445.660051723321715, 202.102098833251489 ], [ 486.894306277864416, 205.50676205444941 ], [ 485.948566497440197, 223.475817936125992 ], [ 483.111347145819991, 231.798328032387587 ], [ 466.655474916459184, 229.906848461065891 ], [ 466.655474913778676, 242.768909518924602 ], [ 431.095659062975074, 239.7425422121905 ], [ 430.528215190531625, 222.719226114180003 ], [ 443.011980332361816, 221.773486328519198 ], [ 445.660051723321715, 202.102098833251489 ] ] ] } },
{ "type": "Feature", "properties": { "feature_type": "building", "subtype": "major-damage", "uid": "8624ed2e-c958-4380-8140-477a900a84dc" }, "geometry": { "type": "Polygon", "coordinates": [ [ [ 441.6637464936112, 163.040775945364999 ], [ 460.767690117859104, 162.284184117434705 ], [ 467.198720644790512, 167.76947486269799 ], [ 468.901052254266517, 171.552433993372802 ], [ 477.223562346409608, 171.174138083895912 ], [ 481.195669440485574, 161.338444337758204 ], [ 497.651541668724406, 168.336918732897686 ], [ 489.518179531195017, 184.036199135770403 ], [ 476.466970522095323, 177.605168606841005 ], [ 472.116567516672376, 177.416020653099906 ], [ 471.17082773531331, 186.684270526045907 ], [ 487.815847920596923, 188.386602138639603 ], [ 489.304315904278099, 204.371034043071006 ], [ 467.205074476892378, 202.588837155337302 ], [ 461.003029299293985, 200.664064514829505 ], [ 434.448363835969985, 200.318964527815808 ], [ 435.655394082565977, 182.696322903580693 ], [ 443.863199773531676, 182.21351080436861 ], [ 444.587417922536588, 177.143983761643796 ], [ 442.173357426477082, 176.902577710042891 ], [ 441.6637464936112, 163.040775945364999 ] ] ] } },
{ "type": "Feature", "properties": { "feature_type": "building", "subtype": "major-damage", "uid": "32757569-b14b-43d4-aa21-9c912e357c5e" }, "geometry": { "type": "Polygon", "coordinates": [ [ [ 514.61617444679689, 148.895833237885512 ], [ 526.692699943634125, 147.386267550912606 ], [ 535.866214504091772, 150.753760234935214 ], [ 535.053371442072603, 168.984668920289693 ], [ 537.608021067378104, 170.029752859496313 ], [ 550.381269190601984, 171.0748367927186 ], [ 556.187291063111616, 174.442329481728194 ], [ 555.722809313787138, 191.976515539947599 ], [ 522.860725505987489, 188.841263728311986 ], [ 518.215908006633299, 183.84808491663469 ], [ 512.758247446506743, 182.454639669346108 ], [ 510.900320446528212, 176.300256479775186 ], [ 511.132561320224227, 169.100789356982006 ], [ 514.61617444679689, 148.895833237885512 ] ] ] } },
{ "type": "Feature", "properties": { "feature_type": "building", "subtype": "major-damage", "uid": "156cdfcf-44d2-4f1e-b7b9-c4fc9c6dad9c" }, "geometry": { "type": "Polygon", "coordinates": [ [ [ 455.378807678376518, 85.004120039836025 ], [ 479.589746133047299, 91.813446480237076 ], [ 479.968042044768083, 88.976227129238822 ], [ 473.347863561540009, 88.219635305298084 ], [ 475.428491087038083, 70.250579421626767 ], [ 486.777368485601983, 73.276946726366106 ], [ 513.258082419948209, 80.653717036966796 ], [ 510.420863069699521, 88.976227129238822 ], [ 495.099878579927008, 88.597931216769766 ], [ 492.830103100002191, 111.673981930243201 ], [ 452.352440371269893, 102.784027967771493 ], [ 455.378807678376518, 85.004120039836025 ] ] ] } },
{ "type": "Feature", "properties": { "feature_type": "building", "subtype": "major-damage", "uid": "a4e5eee9-5c04-4ae4-a297-663c35c7d3b0" }, "geometry": { "type": "Polygon", "coordinates": [ [ [ 526.498439389957639, 96.352997439839513 ], [ 568.881730925502779, 105.5757289845061 ], [ 567.074213406334707, 121.712972874465905 ], [ 555.816372672121474, 120.753083850445407 ], [ 552.261005209899395, 136.337033115546802 ], [ 540.435720605673851, 134.476922639131914 ], [ 542.145126834890675, 122.613194324865603 ], [ 535.251838350070102, 121.849527878254307 ], [ 533.451395450642849, 132.599592317140889 ], [ 520.637923332961691, 129.205074324832708 ], [ 526.498439389957639, 96.352997439839513 ] ] ] } },
{ "type": "Feature", "properties": { "feature_type": "building", "subtype": "destroyed", "uid": "9b8fe8c9-8176-48ea-b3cc-1064c2d6a133" }, "geometry": { "type": "Polygon", "coordinates": [ [ [ 479.871763490972228, 18.513907103674491 ], [ 500.632683765498882, 25.031870442040951 ], [ 500.149871665912883, 30.1013974877579 ], [ 507.392053155026417, 31.067021685184798 ], [ 509.323301552559599, 29.377179337942319 ], [ 524.531882682347032, 33.481082180248102 ], [ 520.186573790624379, 50.62091170726584 ], [ 504.253774510211372, 46.999820965169583 ], [ 506.909241057248209, 37.826391074154706 ], [ 497.735811168856117, 36.619360828119127 ], [ 495.321750674604402, 45.309978615932337 ], [ 495.321750674230373, 46.517008862965298 ], [ 505.46080475805411, 50.62091170726584 ], [ 504.495180559630285, 64.622462590402066 ], [ 467.090722377766326, 54.939261567733148 ], [ 466.594430759964723, 45.068572570315787 ], [ 479.871763490972228, 18.513907103674491 ] ] ] } },
{ "type": "Feature", "properties": { "feature_type": "building", "subtype": "destroyed", "uid": "1f732875-59ef-4bb9-ac3a-74b9c679a68e" }, "geometry": { "type": "Polygon", "coordinates": [ [ [ 737.881177413412161, 0.011961559030744 ], [ 732.380633482812186, 14.260053609973699 ], [ 711.700590320758806, 9.901265196853997 ], [ 710.702498941546878, 0.012205189830267 ], [ 737.881177413412161, 0.011961559030744 ] ] ] } },
{ "type": "Feature", "properties": { "feature_type": "building", "subtype": "major-damage", "uid": "ff8405d3-b833-482b-89a1-f251350fe384" }, "geometry": { "type": "Polygon", "coordinates": [ [ [ 549.468314263951356, 74.486441627906785 ], [ 531.884967921044563, 66.45926178101422 ], [ 538.38316113463668, 49.640408762445652 ], [ 542.205627729939692, 48.87591543865959 ], [ 573.167607153695144, 59.961068567730479 ], [ 572.020867177491709, 69.517235052221366 ], [ 572.785360495978807, 78.308908222900001 ], [ 578.519060386470983, 82.513621475796725 ], [ 575.843333768493494, 94.745514583565054 ], [ 548.3215742809532, 92.452034625172786 ], [ 549.086067601435161, 76.397674928395531 ], [ 549.468314263951356, 74.486441627906785 ] ] ] } },
{ "type": "Feature", "properties": { "feature_type": "building", "subtype": "major-damage", "uid": "b723cb2d-6f77-4b61-b5e9-c25c42a4f983" }, "geometry": { "type": "Polygon", "coordinates": [ [ [ 113.874884825631895, 470.0313604387635 ], [ 110.879882229202707, 445.472339133095716 ], [ 121.961391837274903, 444.274338098562794 ], [ 121.661891577831497, 440.380834718378026 ], [ 141.728408988406613, 437.984832641333185 ], [ 143.5254105443816, 445.771839391728918 ], [ 152.510418337596406, 444.57383835520119 ], [ 151.012917038633702, 471.528861737913928 ], [ 114.773385601655804, 471.528861737913928 ], [ 113.874884825631895, 470.0313604387635 ] ] ] } }
]
}
