{
"type": "FeatureCollection",
"name": "hurricane-michael_00000434_post_disaster",
"features": [
{ "type": "Feature", "properties": { "feature_type": "building", "subtype": "no-damage", "uid": "9f91e7d2-9bae-4ad0-b4e8-3be5b6eae534" }, "geometry": { "type": "Polygon", "coordinates": [ [ [ 35.377607178570322, 1019.707303017116033 ], [ 34.981279867536003, 995.531336821174477 ], [ 63.754642914996033, 995.293540432302962 ], [ 65.181421249976367, 998.464158949590342 ], [ 70.09587994882061, 998.622689876505092 ], [ 70.095879979834407, 1023.97750034417902 ], [ 35.505491214025753, 1023.976826128129005 ], [ 35.377607178570322, 1019.707303017116033 ] ] ] } },
{ "type": "Feature", "properties": { "feature_type": "building", "subtype": "no-damage", "uid": "24d539f9-efeb-4184-b4b8-81d4639f1ee7" }, "geometry": { "type": "Polygon", "coordinates": [ [ [ 209.033935652895309, 892.971191448741024 ], [ 164.312485887472491, 892.668568115567837 ], [ 164.997647415531702, 883.076306745249667 ], [ 164.655066653377901, 884.789210562521248 ], [ 166.02538970224299, 788.524016102687938 ], [ 209.714599717422914, 787.918701210978838 ], [ 209.033935652895309, 892.971191448741024 ] ] ] } },
{ "type": "Feature", "properties": { "feature_type": "building", "subtype": "no-damage", "uid": "aaf5cf43-505c-4f52-8f2a-7ecb5893e11d" }, "geometry": { "type": "Polygon", "coordinates": [ [ [ 224.77677365636211, 415.917064748176813 ], [ 222.634539996753006, 415.75227754399549 ], [ 178.636356378803612, 416.246639155539015 ], [ 176.1718751102689, 406.786865273877027 ], [ 175.258244714167489, 389.028724701162389 ], [ 179.210517985439992, 389.028724703163277 ], [ 178.422075377117693, 381.932741215506724 ], [ 224.458984481598605, 380.080810586346786 ], [ 224.77677365636211, 415.917064748176813 ] ] ] } },
{ "type": "Feature", "properties": { "feature_type": "building", "subtype": "no-damage", "uid": "93f0d90d-2bfe-416a-bded-79c16dca565d" }, "geometry": { "type": "Polygon", "coordinates": [ [ [ 232.528055171255289, 412.72014752302681 ], [ 230.97867413220041, 400.066869027948712 ], [ 237.950888815826403, 399.163063421228799 ], [ 238.209118989460706, 400.71244446003368 ], [ 243.335137312880988, 400.56601443845318 ], [ 245.054943147046288, 411.289509622152025 ], [ 232.528055171255289, 412.72014752302681 ] ] ] } },
{ "type": "Feature", "properties": { "feature_type": "building", "subtype": "no-damage", "uid": "3cd56e59-acef-4eb7-baab-6aa9d8b264db" }, "geometry": { "type": "Polygon", "coordinates": [ [ [ 175.429396522074313, 308.002926311935425 ], [ 176.234659499310595, 228.550312653004596 ], [ 190.729393075056294, 229.623996620652008 ], [ 194.218865973161911, 226.4029447167093 ], [ 246.02411744316359, 226.671365708621209 ], [ 246.292538436075887, 265.860830552762195 ], [ 216.229387321438992, 265.323988568938489 ], [ 216.497808314851596, 311.492399208790289 ], [ 176.234659499060513, 311.223978215877992 ], [ 175.429396522074313, 308.002926311935425 ] ] ] } },
{ "type": "Feature", "properties": { "feature_type": "building", "subtype": "no-damage", "uid": "2f91e718-eaeb-4a2d-b80e-5f6ed2d87494" }, "geometry": { "type": "Polygon", "coordinates": [ [ [ 238.194500932654307, 171.104340761298602 ], [ 244.244068855074886, 171.949003560360296 ], [ 245.2994086971824, 220.367415024801886 ], [ 193.702128170665588, 220.36741502180061 ], [ 192.788086046580588, 170.015869178635313 ], [ 194.101501192399809, 168.802029486693414 ], [ 238.172363387157191, 167.75366214984939 ], [ 238.194500932654307, 171.104340761298602 ] ] ] } },
{ "type": "Feature", "properties": { "feature_type": "building", "subtype": "no-damage", "uid": "31cb9b60-b114-493f-9feb-24233710b3b7" }, "geometry": { "type": "Polygon", "coordinates": [ [ [ 238.172363390158608, 167.253173867719113 ], [ 193.900781824374491, 168.306190316583695 ], [ 192.4913755295714, 169.611429113386095 ], [ 191.329725491386199, 169.611429113386095 ], [ 171.277099716447196, 169.205078162724789 ], [ 171.017003617659611, 125.020565272106495 ], [ 237.909136829703897, 125.039019573928798 ], [ 238.172363390158608, 167.253173867719113 ] ] ] } },
{ "type": "Feature", "properties": { "feature_type": "building", "subtype": "no-damage", "uid": "e68d004d-4363-4811-bf1e-364871dbafe9" }, "geometry": { "type": "Polygon", "coordinates": [ [ [ 508.823729889477818, 883.711464708189396 ], [ 466.340125957740611, 883.921779581806845 ], [ 465.498866478277421, 862.469662741946081 ], [ 469.284534152369019, 862.679977612562311 ], [ 469.07421928275329, 794.117329690662018 ], [ 510.716563724772925, 794.537959431894251 ], [ 508.823729889477818, 883.711464708189396 ] ] ] } },
{ "type": "Feature", "properties": { "feature_type": "building", "subtype": "major-damage", "uid": "f6ca9179-fe29-4c78-b563-5422b0c8757e" }, "geometry": { "type": "Polygon", "coordinates": [ [ [ 658.09102080200546, 830.364093915106423 ], [ 655.804383894302305, 808.061743432960043 ], [ 638.599501834601824, 809.017518762059353 ], [ 636.312864930150113, 740.308201045871215 ], [ 649.844680173655547, 742.444803456123509 ], [ 652.617787142130624, 571.440914653528125 ], [ 796.058012836124135, 571.046966131389695 ], [ 798.800731953171862, 756.294870976989159 ], [ 756.993052802812144, 759.855874988740652 ], [ 755.250398918199835, 830.045502140407393 ], [ 658.09102080200546, 830.364093915106423 ] ] ] } },
{ "type": "Feature", "properties": { "feature_type": "building", "subtype": "major-damage", "uid": "dbc13b01-067b-43ce-8615-5ad43a3369cb" }, "geometry": { "type": "Polygon", "coordinates": [ [ [ 661.329839524065733, 521.965598662888738 ], [ 651.285336162936801, 523.639682556910429 ], [ 651.80585002791554, 409.131407546782214 ], [ 777.399656119628276, 412.592117638163074 ], [ 777.957684086970062, 520.849542732207055 ], [ 661.329839524065733, 521.965598662888738 ] ] ] } },
{ "type": "Feature", "properties": { "feature_type": "building", "subtype": "no-damage", "uid": "417c1499-cf50-4132-a7d6-5da71dc21737" }, "geometry": { "type": "Polygon", "coordinates": [ [ [ 1024.043529902709906, 916.297740143609417 ], [ 997.08929004743095, 919.261447650119635 ], [ 997.372247017371365, 914.284780825941766 ], [ 988.776945801618012, 914.758941181205842 ], [ 985.986783082975876, 903.841299089210565 ], [ 971.381016155179736, 905.009992038242217 ], [ 970.295879323099257, 845.329321048760335 ], [ 916.058261526106776, 843.489503833501544 ], [ 919.470132679669177, 551.963202740256293 ], [ 951.701958574656601, 551.912174475859274 ], [ 1024.043715998029029, 612.875905401759837 ], [ 1024.043529902709906, 916.297740143609417 ] ] ] } },
{ "type": "Feature", "properties": { "feature_type": "building", "subtype": "minor-damage", "uid": "c73f1b1e-72b4-4ac8-88c9-4ab32f38c5f0" }, "geometry": { "type": "Polygon", "coordinates": [ [ [ 948.868908074672731, 438.462488638656623 ], [ 968.919329106672535, 417.939453621332916 ], [ 987.720021637930813, 435.222083941030689 ], [ 968.481873719928103, 457.558993933391321 ], [ 948.868908074672731, 438.462488638656623 ] ] ] } },
{ "type": "Feature", "properties": { "feature_type": "building", "subtype": "destroyed", "uid": "9c68305b-de24-4251-8bba-e368a631429f" }, "geometry": { "type": "Polygon", "coordinates": [ [ [ 931.425843840662424, 422.956150702402283 ], [ 938.914518867305333, 415.209245502375381 ], [ 947.95257493525412, 421.277654577780822 ], [ 939.043633956123358, 430.703055906431075 ], [ 931.425843840662424, 422.956150702402283 ] ] ] } },
{ "type": "Feature", "properties": { "feature_type": "building", "subtype": "destroyed", "uid": "8025c8e2-4b92-4a02-9433-d0fc581c0571" }, "geometry": { "type": "Polygon", "coordinates": [ [ [ 939.220571777262421, 461.264162608558081 ], [ 947.633166611411639, 454.323771864219907 ], [ 959.410799385173277, 467.152978993813122 ], [ 950.787889678657166, 473.88305486453379 ], [ 939.220571777262421, 461.264162608558081 ] ] ] } },
{ "type": "Feature", "properties": { "feature_type": "building", "subtype": "destroyed", "uid": "9c23b999-0716-4c30-b1ec-28ef732abaf2" }, "geometry": { "type": "Polygon", "coordinates": [ [ [ 848.947477020691053, 319.223746058796678 ], [ 891.346540908344423, 356.117367910948872 ], [ 869.788574326323896, 378.439209025121386 ], [ 826.491775046162388, 338.959876400482983 ], [ 846.085449331074642, 317.899635573420085 ], [ 848.947477020691053, 319.223746058796678 ] ] ] } },
{ "type": "Feature", "properties": { "feature_type": "building", "subtype": "un-classified", "uid": "e072d321-c790-4e68-aa59-6fdabd3f265e" }, "geometry": { "type": "Polygon", "coordinates": [ [ [ 681.938465748028534, 0.006039576827027 ], [ 683.279806210609422, 10.602629229039611 ], [ 648.921919224632461, 9.260524268479925 ], [ 648.385439966734793, 0.006257046608834 ], [ 681.938465748028534, 0.006039576827027 ] ] ] } },
{ "type": "Feature", "properties": { "feature_type": "building", "subtype": "un-classified", "uid": "29d17c9a-4e2b-451a-b780-f25ecb51bcc8" }, "geometry": { "type": "Polygon", "coordinates": [ [ [ 955.565211538718586, 0.002483348178482 ], [ 956.195957488155045, 7.886807699627447 ], [ 886.581735206169469, 6.624918474930278 ], [ 885.951141954939203, 0.003689321879778 ], [ 955.565211538718586, 0.002483348178482 ] ] ] } },
{ "type": "Feature", "properties": { "feature_type": "building", "subtype": "destroyed", "uid": "7982cae0-d4f3-4338-86bf-e6fa988a3c33" }, "geometry": { "type": "Polygon", "coordinates": [ [ [ 964.302954138466475, 350.686816581983294 ], [ 965.228163055922778, 371.34981565530228 ], [ 945.490372895807695, 369.807800797710684 ], [ 944.873566951670568, 373.50863645252889 ], [ 945.181969924739519, 379.368292906574823 ], [ 933.771059989216383, 379.368292906574823 ], [ 933.462657014896763, 362.714532461393276 ], [ 943.02314912476163, 363.022935430710618 ], [ 940.247522381646945, 352.228831438574389 ], [ 964.302954138466475, 350.686816581983294 ] ] ] } },
{ "type": "Feature", "properties": { "feature_type": "building", "subtype": "destroyed", "uid": "e6e89706-d834-4376-8a75-ad08d50d9b2b" }, "geometry": { "type": "Polygon", "coordinates": [ [ [ 961.835730371172076, 324.780966998255394 ], [ 964.919760081102936, 329.40701156902918 ], [ 965.22816305167089, 342.051533389074677 ], [ 939.939119411829324, 341.126324472118711 ], [ 939.63071644276215, 324.164161055618877 ], [ 961.835730371172076, 324.780966998255394 ] ] ] } },
{ "type": "Feature", "properties": { "feature_type": "building", "subtype": "major-damage", "uid": "4dbe8d7f-2eb6-4adc-b020-c27da05f496a" }, "geometry": { "type": "Polygon", "coordinates": [ [ [ 960.293715512079757, 297.024699588619001 ], [ 961.83573036742041, 299.491923357163898 ], [ 972.629834361057419, 298.875117417528827 ], [ 972.321431389989357, 314.603668949756127 ], [ 940.555925353965563, 315.220474891392087 ], [ 939.939119411329102, 297.333102557936286 ], [ 960.293715512079757, 297.024699588619001 ] ] ] } },
{ "type": "Feature", "properties": { "feature_type": "building", "subtype": "no-damage", "uid": "5c2f2de1-e30c-4c4e-abcd-6ebea35ff8ce" }, "geometry": { "type": "Polygon", "coordinates": [ [ [ 0.067681773302289, 991.78476910095651 ], [ 26.577585826807191, 991.784769064940519 ], [ 24.609540695053621, 1014.220483545821025 ], [ 24.253300820357769, 1023.976595867654964 ], [ 0.067642975285788, 1023.976082767307048 ], [ 0.067681773302289, 991.78476910095651 ] ] ] } },
{ "type": "Feature", "properties": { "feature_type": "building", "subtype": "no-damage", "uid": "555abb29-bbed-41e3-9da6-66f620e0fa3f" }, "geometry": { "type": "Polygon", "coordinates": [ [ [ 28.152021929508841, 953.998302569087855 ], [ 58.066307903350307, 953.998302569087855 ], [ 57.672698878800396, 961.083265035997215 ], [ 66.725706475712755, 960.689656011947591 ], [ 66.725706475462644, 978.795671205271674 ], [ 54.523826669895527, 978.402062178220604 ], [ 30.12006705926153, 978.008453151169647 ], [ 27.36480387715757, 976.434017048968258 ], [ 28.152021929508841, 953.998302569087855 ] ] ] } },
{ "type": "Feature", "properties": { "feature_type": "building", "subtype": "minor-damage", "uid": "6468f3aa-927b-4cc5-ab26-081e7aac4a27" }, "geometry": { "type": "Polygon", "coordinates": [ [ [ 171.743813384920202, 653.776418547401704 ], [ 172.360619327806688, 605.973958008083287 ], [ 176.986663898580701, 605.357152065446826 ], [ 194.565633254465894, 604.740346123810809 ], [ 194.565633258467699, 596.413465899219204 ], [ 206.284946164558789, 595.796659956582744 ], [ 206.593349134376297, 591.787421332447138 ], [ 226.639542264809194, 590.553809447174217 ], [ 226.331139292240408, 599.805898583719681 ], [ 274.133599831309823, 599.189092641083221 ], [ 275.984017659969481, 627.253763023038232 ], [ 271.666376065015811, 627.253763023038232 ], [ 271.974779036083874, 633.730225419720568 ], [ 248.844556193719313, 634.038628391038856 ], [ 249.152959161285906, 624.169733310856486 ], [ 226.639542262057887, 624.478136281174216 ], [ 228.18155712240079, 661.794895797673917 ], [ 188.089170858783888, 663.028507684947613 ], [ 187.780767886965407, 653.776418547401704 ], [ 171.743813384920202, 653.776418547401704 ] ] ] } },
{ "type": "Feature", "properties": { "feature_type": "building", "subtype": "minor-damage", "uid": "ce7b890f-7545-439b-8a7a-fa0c3e31fa64" }, "geometry": { "type": "Polygon", "coordinates": [ [ [ 1024.043607070052985, 200.406217138033412 ], [ 1018.620827602592044, 198.826669507019488 ], [ 1015.922341606610985, 166.351786327124898 ], [ 1019.644391257913981, 166.537888808364386 ], [ 1020.38880118537304, 154.255124971519791 ], [ 1016.573700295200979, 153.603766283679789 ], [ 1015.922341608610964, 148.206794292716808 ], [ 1020.016596223893998, 148.951204222677291 ], [ 1019.92354497902295, 136.296235419351689 ], [ 1024.043552115095963, 135.676395098308689 ], [ 1024.043607070052985, 200.406217138033412 ] ] ] } },
{ "type": "Feature", "properties": { "feature_type": "building", "subtype": "minor-damage", "uid": "56e0eb2a-27b2-485f-bd0e-f3beacf6ae01" }, "geometry": { "type": "Polygon", "coordinates": [ [ [ 1016.387597812460967, 151.55663897903969 ], [ 1016.573700295200979, 153.603766283679789 ], [ 1020.38880118537304, 154.255124971519791 ], [ 1019.644391257913981, 166.537888808364386 ], [ 1015.922341606610985, 166.351786327124898 ], [ 1006.782954984701973, 165.434279988090708 ], [ 1005.85381421042996, 171.00912463872919 ], [ 987.967854289046954, 172.635120993081102 ], [ 988.896995065820875, 165.434279988090708 ], [ 969.386410422761855, 166.643260304437206 ], [ 962.881053361423369, 154.981446268393597 ], [ 984.019005995261523, 155.446016654779612 ], [ 985.412717157420957, 148.709746035174788 ], [ 1004.924673436657031, 148.9420312313691 ], [ 1005.853814211179952, 154.05230549061929 ], [ 1016.387597812460967, 151.55663897903969 ] ] ] } },
{ "type": "Feature", "properties": { "feature_type": "building", "subtype": "minor-damage", "uid": "12b45e1f-3c8b-417b-b435-d6a1f34688e5" }, "geometry": { "type": "Polygon", "coordinates": [ [ [ 962.881053361423369, 154.981446268393597 ], [ 969.386410422761855, 166.643260304437206 ], [ 968.782888613038153, 169.090428824681595 ], [ 967.945427441457355, 191.608829196732103 ], [ 958.081995873732694, 191.236624232252012 ], [ 957.151483463783165, 196.447493738974089 ], [ 953.615536297971403, 196.540544980094097 ], [ 951.56840899058011, 198.587672284734197 ], [ 940.867516255526425, 197.750211115654594 ], [ 941.053618736265776, 190.399163059170689 ], [ 932.958160754073106, 190.120009336811108 ], [ 932.492904547472676, 189.003394442370592 ], [ 932.585955784840962, 179.512167838125691 ], [ 935.656646745302737, 177.465040536486896 ], [ 936.494107916133089, 164.1587130403191 ], [ 933.795621921652014, 163.60040559660041 ], [ 933.702570682532951, 154.295281471594109 ], [ 942.449387353566181, 154.481383955835014 ], [ 941.891079907846574, 147.223387142471893 ], [ 961.71099428091452, 146.758130936871908 ], [ 962.881053361423369, 154.981446268393597 ] ] ] } },
{ "type": "Feature", "properties": { "feature_type": "building", "subtype": "no-damage", "uid": "4c153225-b849-43a7-8e94-fa6bb28cf99e" }, "geometry": { "type": "Polygon", "coordinates": [ [ [ 322.467488442819274, 98.142500721054191 ], [ 323.666122043758605, 128.450807553225587 ], [ 294.556448815277008, 128.622040926181796 ], [ 294.213982072866088, 130.334374644739199 ], [ 288.563280797324808, 130.334374646740088 ], [ 287.535880566840603, 98.9986675808331 ], [ 322.467488442819274, 98.142500721054191 ] ] ] } },
{ "type": "Feature", "properties": { "feature_type": "building", "subtype": "no-damage", "uid": "a4854f5b-944e-42c7-9685-e3fbd59cc5c0" }, "geometry": { "type": "Polygon", "coordinates": [ [ [ 323.666122043758605, 128.450807553225587 ], [ 321.26885483787828, 128.793274299138091 ], [ 321.953788323700508, 157.731714155663212 ], [ 318.700354258541495, 158.759114386397414 ], [ 291.64548149528008, 158.416647640484996 ], [ 290.94567889542202, 130.367949446723202 ], [ 294.213982072866088, 130.334374644739199 ], [ 294.556448815277008, 128.622040926181796 ], [ 323.666122043758605, 128.450807553225587 ] ] ] } },
{ "type": "Feature", "properties": { "feature_type": "building", "subtype": "destroyed", "uid": "2d4a5f2f-a091-4959-b197-66b0dc57f99c" }, "geometry": { "type": "Polygon", "coordinates": [ [ [ 8.96963381935868, 423.831454321721594 ], [ 9.807094988188187, 414.433278960597477 ], [ 16.78593807844149, 414.061073999118776 ], [ 16.785938079191819, 424.017556805962499 ], [ 8.96963381935868, 423.831454321721594 ] ] ] } },
{ "type": "Feature", "properties": { "feature_type": "building", "subtype": "no-damage", "uid": "bd7fa62c-1bdd-40ee-ba5b-25a1be35af49" }, "geometry": { "type": "Polygon", "coordinates": [ [ [ 848.738389159888015, 790.073458990017571 ], [ 857.81375787129366, 789.73099224510554 ], [ 858.49869136161783, 806.854329437682281 ], [ 848.738389159387793, 807.025562812639464 ], [ 848.738389159888015, 790.073458990017571 ] ] ] } }
]
}
