{
"type": "FeatureCollection",
"name": "hurricane-michael_00000023_post_disaster",
"features": [
{ "type": "Feature", "properties": { "feature_type": "building", "subtype": "un-classified", "uid": "3f72a1dc-0f44-4505-9093-0a46f148a216" }, "geometry": { "type": "Polygon", "coordinates": [ [ [ 251.847381043210589, 926.211845276241206 ], [ 321.847381041795586, 909.211845276032477 ], [ 322.847381039662991, 914.211845278856117 ], [ 325.847381040009225, 928.211845276970962 ], [ 326.847381043621397, 934.211845278161263 ], [ 257.847381041654785, 951.52961311800027 ], [ 251.847381043210589, 926.211845276241206 ] ] ] } },
{ "type": "Feature", "properties": { "feature_type": "building", "subtype": "minor-damage", "uid": "8621bebf-b9e1-486a-a9ab-933f339dd2ee" }, "geometry": { "type": "Polygon", "coordinates": [ [ [ 1015.409979325579002, 95.447581508472254 ], [ 1012.299979329578036, 96.227581509036611 ], [ 991.299979329653183, 96.227581509036611 ], [ 987.299979325694835, 96.227581508037517 ], [ 986.299979327577603, 78.227581509462169 ], [ 991.299979328903873, 78.227581509462169 ], [ 991.29997932640606, 65.227581510713122 ], [ 1011.299979325715981, 65.227581508714906 ], [ 1011.299979327465053, 78.227581507463967 ], [ 1015.299979326676976, 77.227581509097277 ], [ 1015.379979324787996, 78.577581511188455 ], [ 1015.409979325579002, 95.447581508472254 ] ] ] } },
{ "type": "Feature", "properties": { "feature_type": "building", "subtype": "minor-damage", "uid": "10c58572-4e21-43ca-bd78-007bdc91791e" }, "geometry": { "type": "Polygon", "coordinates": [ [ [ 830.541233699437043, 48.568092316059669 ], [ 831.529613200562835, 84.000000051632625 ], [ 807.529613202789278, 85.000000051997517 ], [ 802.529613201213238, 85.000000049999315 ], [ 801.529613202596579, 57.0000000507723 ], [ 806.529613203173426, 57.0000000507723 ], [ 806.52961320542147, 48.881495925253553 ], [ 830.541233699437043, 48.568092316059669 ] ] ] } },
{ "type": "Feature", "properties": { "feature_type": "building", "subtype": "no-damage", "uid": "26e185de-7983-49a2-bb66-89f788d0c38d" }, "geometry": { "type": "Polygon", "coordinates": [ [ [ 879.513383003718332, 142.628429030797008 ], [ 888.448682296451466, 142.628429030797008 ], [ 888.803582533341, 159.27352879386649 ], [ 880.158482765695226, 159.058495538791789 ], [ 879.513383003718332, 142.628429030797008 ] ] ] } },
{ "type": "Feature", "properties": { "feature_type": "building", "subtype": "no-damage", "uid": "9a34aebb-979b-47d3-8253-834443b14d02" }, "geometry": { "type": "Polygon", "coordinates": [ [ [ 854.559468056515698, 147.279734009776291 ], [ 877.559468057670756, 147.279734008777211 ], [ 877.559468055672482, 161.27973401088849 ], [ 854.559468055266734, 162.279734011253396 ], [ 854.559468056515698, 147.279734009776291 ] ] ] } },
{ "type": "Feature", "properties": { "feature_type": "building", "subtype": "major-damage", "uid": "11e0ce10-6ecf-414b-ab1b-52b97cb68606" }, "geometry": { "type": "Polygon", "coordinates": [ [ [ 897.944690344145897, 324.831515867341125 ], [ 908.944690343666707, 324.831515868340205 ], [ 908.944690343916477, 335.831515871355009 ], [ 897.944690343896127, 335.831515871355009 ], [ 897.944690344145897, 324.831515867341125 ] ] ] } },
{ "type": "Feature", "properties": { "feature_type": "building", "subtype": "major-damage", "uid": "fa47915b-44da-45d8-9956-90b7c86d56c8" }, "geometry": { "type": "Polygon", "coordinates": [ [ [ 898.000000138579253, 333.000000050574783 ], [ 898.000000136580979, 338.000000052399173 ], [ 904.000000135025289, 338.000000050401127 ], [ 905.000000135640221, 354.000000051243887 ], [ 881.00000013387023, 354.000000051243887 ], [ 881.00000013536885, 338.000000050401127 ], [ 892.0000001378869, 338.000000052399173 ], [ 892.000000133141157, 333.000000052572886 ], [ 898.000000138579253, 333.000000050574783 ] ] ] } },
{ "type": "Feature", "properties": { "feature_type": "building", "subtype": "destroyed", "uid": "e3615d49-ed2e-49fc-986e-1b78e8bc2211" }, "geometry": { "type": "Polygon", "coordinates": [ [ [ 1022.009459585518016, 524.889476716949844 ], [ 990.000000134457309, 526.000000051062898 ], [ 989.000000135091227, 507.000000052122573 ], [ 1021.970886341058986, 506.49050515288701 ], [ 1022.009459585518016, 524.889476716949844 ] ] ] } },
{ "type": "Feature", "properties": { "feature_type": "building", "subtype": "minor-damage", "uid": "21d9a521-0c76-4921-8aeb-a13dd2721665" }, "geometry": { "type": "Polygon", "coordinates": [ [ [ 919.872705700656979, 413.728454222801815 ], [ 929.910122314008618, 413.432049475427618 ], [ 929.910122315007698, 424.839239984058679 ], [ 920.020908073844566, 425.728454224183281 ], [ 919.872705700656979, 413.728454222801815 ] ] ] } },
{ "type": "Feature", "properties": { "feature_type": "building", "subtype": "no-damage", "uid": "94b09ac1-bfcc-4337-9fed-348f1e2c055d" }, "geometry": { "type": "Polygon", "coordinates": [ [ [ 923.334469497258738, 440.000000051652876 ], [ 975.334469496764314, 439.000000051288112 ], [ 975.334469499012243, 450.000000051305506 ], [ 923.334469501005401, 450.000000051305506 ], [ 923.334469497258738, 440.000000051652876 ] ] ] } },
{ "type": "Feature", "properties": { "feature_type": "building", "subtype": "minor-damage", "uid": "5ea33134-8a0a-4095-8450-f80a7232d102" }, "geometry": { "type": "Polygon", "coordinates": [ [ [ 814.77699049686737, 411.809705688086126 ], [ 836.809705770697974, 411.641221504774308 ], [ 837.809705769564516, 457.641221502576627 ], [ 814.887776256358393, 458.402515180636897 ], [ 814.77699049686737, 411.809705688086126 ] ] ] } },
{ "type": "Feature", "properties": { "feature_type": "building", "subtype": "destroyed", "uid": "2d801c73-9e11-4231-859e-8a69a69a3576" }, "geometry": { "type": "Polygon", "coordinates": [ [ [ 1014.876944615275988, 628.969546360542722 ], [ 1015.459489685561039, 638.156714682553911 ], [ 1005.15138759425497, 638.156714682553911 ], [ 981.989345787496177, 637.540510501749623 ], [ 981.756937426252421, 615.383795869129926 ], [ 1005.151387594754965, 617.616204232102518 ], [ 1006.249159508294042, 628.969546359543642 ], [ 1014.876944615275988, 628.969546360542722 ] ] ] } },
{ "type": "Feature", "properties": { "feature_type": "building", "subtype": "no-damage", "uid": "6dbac601-d2ad-43f1-b111-6468981814b2" }, "geometry": { "type": "Polygon", "coordinates": [ [ [ 971.28722631994583, 811.075166325161263 ], [ 962.484301784227, 811.075166325161263 ], [ 962.48430178122976, 769.075166325821215 ], [ 970.877226317388249, 769.075166326820295 ], [ 971.28722631994583, 811.075166325161263 ] ] ] } },
{ "type": "Feature", "properties": { "feature_type": "building", "subtype": "destroyed", "uid": "9cc8f041-d363-4c48-bf7b-971c43267c2a" }, "geometry": { "type": "Polygon", "coordinates": [ [ [ 984.785583540898642, 929.176671114460987 ], [ 1002.530013327727033, 930.353342179037213 ], [ 999.353342261920375, 966.293315795280819 ], [ 982.157798432861, 964.842201752319738 ], [ 984.785583540898642, 929.176671114460987 ] ] ] } },
{ "type": "Feature", "properties": { "feature_type": "building", "subtype": "no-damage", "uid": "ac118550-4357-4e45-a467-da4fdc9291aa" }, "geometry": { "type": "Polygon", "coordinates": [ [ [ 818.282119969086921, 1022.98080566907197 ], [ 822.436957842132074, 1016.171658859351965 ], [ 846.679882483339156, 1016.75580004424603 ], [ 847.792070727322994, 1006.207929458606031 ], [ 881.151835421045007, 1006.207929458606031 ], [ 882.894034102771911, 1022.979877689862974 ], [ 818.282119969086921, 1022.98080566907197 ] ] ] } },
{ "type": "Feature", "properties": { "feature_type": "building", "subtype": "minor-damage", "uid": "3e934116-d902-4da0-a130-364b20055a01" }, "geometry": { "type": "Polygon", "coordinates": [ [ [ 472.943870320724216, 103.050799591863907 ], [ 467.943870321396105, 103.050799591863907 ], [ 467.943870320646795, 93.050799592211305 ], [ 472.943870320224619, 93.050799590213089 ], [ 471.94387032085848, 75.050799588640444 ], [ 493.943870320149813, 74.050799593271066 ], [ 494.943870320514975, 103.050799589865704 ], [ 472.943870320724216, 103.050799591863907 ] ] ] } },
{ "type": "Feature", "properties": { "feature_type": "building", "subtype": "no-damage", "uid": "31c1ccbe-27f1-48d7-aa9d-af91980b2415" }, "geometry": { "type": "Polygon", "coordinates": [ [ [ 504.21793813462051, 117.5487371100795 ], [ 505.217938134486076, 138.548737110748704 ], [ 485.217938136924204, 138.548737109749595 ], [ 485.217938133926907, 134.548737108289998 ], [ 476.217938133887628, 134.548737108289998 ], [ 476.217938134137398, 123.548737107273396 ], [ 485.217938135175814, 123.548737108272505 ], [ 485.217938135425584, 117.5487371100795 ], [ 485.217938137173974, 107.548737110426998 ], [ 507.21793813696479, 107.548737107429702 ], [ 507.2179381352164, 116.5487371087155 ], [ 504.21793813462051, 117.5487371100795 ] ] ] } },
{ "type": "Feature", "properties": { "feature_type": "building", "subtype": "no-damage", "uid": "f28f7e84-9e28-4077-b04a-bc7dd158939a" }, "geometry": { "type": "Polygon", "coordinates": [ [ [ 506.033526340853712, 144.991364932271608 ], [ 508.190240972919923, 176.537202559006602 ], [ 502.644403346678928, 176.29946702249589 ], [ 493.644403351635106, 176.29946702149681 ], [ 493.644403347638672, 171.299467024667791 ], [ 487.644403347445973, 171.299467024667791 ], [ 475.644403348559194, 171.299467024667791 ], [ 475.644403348059598, 154.299467023460096 ], [ 487.64440334944419, 154.299467021461908 ], [ 487.64440334844511, 145.299467024172401 ], [ 506.033526340853712, 144.991364932271608 ] ] ] } },
{ "type": "Feature", "properties": { "feature_type": "building", "subtype": "major-damage", "uid": "6789eed7-101b-4424-9a08-67cb9812425c" }, "geometry": { "type": "Polygon", "coordinates": [ [ [ 498.712483995783373, 227.25832153605441 ], [ 521.944892352936904, 227.642117353616811 ], [ 521.717811168958406, 275.717811082806122 ], [ 500.717811168283788, 274.717811085438484 ], [ 498.712483995783373, 227.25832153605441 ] ] ] } },
{ "type": "Feature", "properties": { "feature_type": "building", "subtype": "minor-damage", "uid": "80bb0811-919f-4166-9957-20c6fce5b920" }, "geometry": { "type": "Polygon", "coordinates": [ [ [ 422.888830196758079, 363.000000050531582 ], [ 422.441791505345293, 373.000000053181509 ], [ 414.441791508168876, 373.000000050184212 ], [ 412.441791504191485, 373.000000050184212 ], [ 412.441791503692002, 380.000000050740198 ], [ 403.441791505151286, 380.000000050740198 ], [ 402.441791504786181, 373.000000051183179 ], [ 385.441791503823822, 374.000000051548113 ], [ 385.301924523257924, 353.709800521161014 ], [ 419.359217132442723, 354.552961357698393 ], [ 423.16655989156601, 354.500243682785822 ], [ 422.888830196758079, 363.000000050531582 ] ] ] } },
{ "type": "Feature", "properties": { "feature_type": "building", "subtype": "major-damage", "uid": "17878cb3-ff80-4dfa-862c-6bdfe13e3844" }, "geometry": { "type": "Polygon", "coordinates": [ [ [ 760.000000137143843, 514.000000050680569 ], [ 760.000000134895913, 530.00000005052425 ], [ 756.000000132935725, 530.00000005052425 ], [ 756.000000135932964, 533.00000005061986 ], [ 735.00000013675708, 533.00000005061986 ], [ 735.000000134009611, 529.000000050159315 ], [ 727.000000133336357, 529.000000053156668 ], [ 728.000000133451749, 513.000000050315634 ], [ 760.000000137143843, 514.000000050680569 ] ] ] } },
{ "type": "Feature", "properties": { "feature_type": "building", "subtype": "no-damage", "uid": "dadb40af-9ed2-4d80-8c9a-8dafb8df3941" }, "geometry": { "type": "Polygon", "coordinates": [ [ [ 461.228864225572522, 498.755923974841323 ], [ 625.548886090076849, 497.176671116681518 ], [ 626.000000134421612, 547.000000051732059 ], [ 462.446389804092576, 548.815463273129126 ], [ 460.292757917248025, 518.109008074764233 ], [ 450.757306968794921, 516.603410553564231 ], [ 450.757306970293484, 507.569825445347078 ], [ 460.794623759979288, 507.067959610608625 ], [ 461.228864225572522, 498.755923974841323 ] ] ] } },
{ "type": "Feature", "properties": { "feature_type": "building", "subtype": "no-damage", "uid": "6b87ee39-516e-4038-8f12-52939e6e46c6" }, "geometry": { "type": "Polygon", "coordinates": [ [ [ 731.400362381004811, 419.541614572311403 ], [ 731.353342263719355, 433.887811808842173 ], [ 753.075917780548025, 433.415858869564374 ], [ 754.000000135702294, 443.000000049750327 ], [ 758.000000133666049, 443.000000049750327 ], [ 758.000000133416279, 451.000000049672224 ], [ 755.000000135567802, 451.000000049672224 ], [ 753.000000136585982, 451.000000048673087 ], [ 753.000000134837592, 460.000000051957215 ], [ 732.108520566861898, 460.000000050958079 ], [ 732.67596443906973, 451.378295963977791 ], [ 733.000000134528136, 443.000000049750327 ], [ 717.27130121867549, 442.810852094595816 ], [ 717.838745090133898, 436.000000049194227 ], [ 711.247760954571959, 435.536409116653999 ], [ 711.424778053743466, 420.447920375063688 ], [ 731.400362381004811, 419.541614572311403 ] ] ] } },
{ "type": "Feature", "properties": { "feature_type": "building", "subtype": "no-damage", "uid": "2422eda4-71ff-4a1d-aee4-aa6e90fa6f58" }, "geometry": { "type": "Polygon", "coordinates": [ [ [ 748.000000135259711, 297.000000053424117 ], [ 748.000000134010861, 308.000000051443408 ], [ 752.379821650916597, 309.134887790363621 ], [ 751.623229824303507, 335.511658102276726 ], [ 724.621704223795405, 336.889954012950682 ], [ 724.000000137236384, 309.000000050809092 ], [ 730.000000134431843, 308.000000050444214 ], [ 730.00000013343265, 297.00000005242498 ], [ 748.000000135259711, 297.000000053424117 ] ] ] } },
{ "type": "Feature", "properties": { "feature_type": "building", "subtype": "no-damage", "uid": "614750ee-325f-4922-bc54-ca3d82a139e9" }, "geometry": { "type": "Polygon", "coordinates": [ [ [ 751.297668526206962, 234.000000051416691 ], [ 751.67596443726552, 250.810852093473386 ], [ 738.000000134855327, 251.00000004962709 ], [ 711.266100129313031, 252.063438589747108 ], [ 710.919372610283403, 235.378295965088 ], [ 710.996268457382826, 221.486939174990511 ], [ 750.992536777899545, 221.4906708530944 ], [ 751.297668526206962, 234.000000051416691 ] ] ] } },
{ "type": "Feature", "properties": { "feature_type": "building", "subtype": "no-damage", "uid": "74fbf661-c6b3-4696-bd69-5ead8d59d97b" }, "geometry": { "type": "Polygon", "coordinates": [ [ [ 597.922570611521905, 121.447286925333998 ], [ 597.648127631638431, 128.172843946506191 ], [ 603.281082824266377, 128.172843946506191 ], [ 604.653297716190764, 140.349515012099005 ], [ 598.104411760726975, 142.270615862790805 ], [ 597.829968780843387, 146.3306422461566 ], [ 598.243337295168885, 149.898400968156295 ], [ 598.792223250689744, 160.702857139826989 ], [ 604.243337292863885, 162.898400969902696 ], [ 604.243337294112735, 168.898400970093888 ], [ 605.475745654722573, 182.2171574082804 ], [ 587.238010121879825, 182.909055315745405 ], [ 587.238010123378444, 173.287523964382814 ], [ 571.243337297049152, 170.898400968825399 ], [ 571.857939592673233, 163.684559402744412 ], [ 566.643522999364336, 162.861230466590911 ], [ 566.643523002861116, 151.883511320208697 ], [ 572.406825550442022, 150.785739407668586 ], [ 571.309053635903524, 143.101336004901412 ], [ 566.094637042344743, 140.631349196440908 ], [ 565.820194063460349, 131.574730901749689 ], [ 571.309053635403984, 130.47695898621231 ], [ 570.243337293436866, 120.898400969563497 ], [ 597.922570611521905, 121.447286925333998 ] ] ] } },
{ "type": "Feature", "properties": { "feature_type": "building", "subtype": "no-damage", "uid": "e8f22d46-32ee-4cb4-a147-7e4b174cbe92" }, "geometry": { "type": "Polygon", "coordinates": [ [ [ 721.432241410855227, 113.6089123918985 ], [ 721.706684389989391, 119.981127284647897 ], [ 747.157798434221263, 120.353342178205196 ], [ 747.432241414104851, 127.627785157146107 ], [ 746.608912478450634, 139.041153669490711 ], [ 708.511140561641241, 140.315596649239495 ], [ 683.688006117424266, 141.482180407403007 ], [ 683.492267800116451, 129.176671114280595 ], [ 683.041153754023298, 115.432241328416893 ], [ 721.432241410855227, 113.6089123918985 ] ] ] } },
{ "type": "Feature", "properties": { "feature_type": "building", "subtype": "no-damage", "uid": "db045180-faa0-4874-b8b8-a6acc89db6e1" }, "geometry": { "type": "Polygon", "coordinates": [ [ [ 702.000000137195798, 90.725557070806587 ], [ 747.000000135144319, 90.725557073803898 ], [ 747.000000133146159, 109.725557071745001 ], [ 702.000000135447408, 109.725557071745001 ], [ 702.000000137195798, 90.725557070806587 ] ] ] } },
{ "type": "Feature", "properties": { "feature_type": "building", "subtype": "no-damage", "uid": "f8093908-ec3e-47e0-bddd-936fd9be6c27" }, "geometry": { "type": "Polygon", "coordinates": [ [ [ 602.497334998838369, 79.050799591099135 ], [ 602.497334997089979, 85.05079959029122 ], [ 597.037845450791224, 85.358901681192918 ], [ 597.037845450291684, 98.358901681940182 ], [ 602.497335001585952, 98.050799592037578 ], [ 603.497334998953761, 108.050799592689302 ], [ 597.654049628598386, 108.050799592689302 ], [ 598.345947542807494, 117.434595409539298 ], [ 574.497334999104623, 118.050799589344507 ], [ 574.497334998355313, 110.050799591420798 ], [ 570.497334999142709, 111.050799591785704 ], [ 570.497334998643169, 99.050799590404282 ], [ 573.881130817051371, 98.975105862744485 ], [ 572.264926635382153, 85.742697501752616 ], [ 570.497334998643169, 86.050799593653423 ], [ 570.497335000391558, 77.050799589370243 ], [ 595.497334998280508, 77.050799589370243 ], [ 595.497334999029817, 80.050799591464042 ], [ 602.497334998838369, 79.050799591099135 ] ] ] } },
{ "type": "Feature", "properties": { "feature_type": "building", "subtype": "no-damage", "uid": "b956c827-c050-4e3a-951c-8844c709e640" }, "geometry": { "type": "Polygon", "coordinates": [ [ [ 641.989654804413021, 51.028440063841053 ], [ 641.14243476220247, 70.514500280853667 ], [ 623.487301598973772, 69.489476282615897 ], [ 624.582908335843968, 51.255498914861647 ], [ 641.989654804413021, 51.028440063841053 ] ] ] } },
{ "type": "Feature", "properties": { "feature_type": "building", "subtype": "no-damage", "uid": "f4c5114f-3e8e-484c-8f75-384254a9dc33" }, "geometry": { "type": "Polygon", "coordinates": [ [ [ 605.536576998986448, 57.463146272406647 ], [ 606.460883266446558, 69.279206558635863 ], [ 594.826120499285821, 69.178229222084269 ], [ 595.181513273410701, 57.673146272443311 ], [ 605.536576998986448, 57.463146272406647 ] ] ] } },
{ "type": "Feature", "properties": { "feature_type": "building", "subtype": "destroyed", "uid": "2872e075-fe55-4e87-b6fb-9b6d85274479" }, "geometry": { "type": "Polygon", "coordinates": [ [ [ 374.796220274298207, 520.132081460892664 ], [ 374.554672894375813, 498.384936561714028 ], [ 411.894378525536411, 497.87933904487528 ], [ 412.396244363771814, 518.88680240175222 ], [ 374.796220274298207, 520.132081460892664 ] ] ] } },
{ "type": "Feature", "properties": { "feature_type": "building", "subtype": "no-damage", "uid": "4301c1f8-e285-4730-9022-4fd20df82dc0" }, "geometry": { "type": "Polygon", "coordinates": [ [ [ 488.310971927298397, 637.157018131866153 ], [ 488.816569445635878, 572.157018130127994 ], [ 666.340825357930044, 570.160749808501237 ], [ 667.340825357046356, 632.647688933465702 ], [ 488.310971927298397, 637.157018131866153 ] ] ] } },
{ "type": "Feature", "properties": { "feature_type": "building", "subtype": "no-damage", "uid": "7aa42ea2-bae0-45d0-9530-375ea649be8a" }, "geometry": { "type": "Polygon", "coordinates": [ [ [ 62.591275619944078, 708.453607121827758 ], [ 74.850603595775269, 707.753074096721434 ], [ 85.008332488543886, 708.803873634380921 ], [ 95.237439103008072, 715.990812726378067 ], [ 101.234134259545598, 722.324823266616363 ], [ 106.585411935484302, 734.373329125694681 ], [ 107.775655875192001, 744.180791507156414 ], [ 102.8719246817124, 754.688786916721824 ], [ 90.945196280162378, 763.573983219559977 ], [ 78.949635029587938, 767.624281184438473 ], [ 52.845946295306163, 762.05778328921258 ], [ 43.357683900479778, 752.05965438639339 ], [ 39.178852470319868, 741.870858962216971 ], [ 39.473685722491133, 731.571197018275598 ], [ 43.676883885868762, 720.362668582604897 ], [ 47.529815538441561, 716.860003447082136 ], [ 52.433546727175468, 712.306538768904488 ], [ 56.987011405354338, 709.85467317603684 ], [ 59.789143510775887, 708.803873634380921 ], [ 62.591275619944078, 708.453607121827758 ] ] ] } },
{ "type": "Feature", "properties": { "feature_type": "building", "subtype": "no-damage", "uid": "bd17521d-e984-42e6-a9ad-7197d3466a8f" }, "geometry": { "type": "Polygon", "coordinates": [ [ [ 115.026850013443905, 688.969750088625915 ], [ 124.176716042666598, 687.533883153549823 ], [ 131.532312830263407, 687.884149669100339 ], [ 138.537643102059889, 690.336015259969827 ], [ 145.192706860304014, 694.539213426593392 ], [ 149.74617153873271, 703.646142779951447 ], [ 150.096438050037108, 709.250406997786854 ], [ 145.5429733736066, 719.758402405353991 ], [ 137.136577046351789, 727.113999192948995 ], [ 121.7248504492987, 729.027132469929711 ], [ 107.587190072857297, 725.587967252080148 ], [ 104.559757333799297, 723.166834642706704 ], [ 99.596407569683961, 714.787724111535795 ], [ 97.880254624897063, 709.507253504661094 ], [ 99.464395803912595, 701.454535825830249 ], [ 101.708595810536096, 697.626194637694425 ], [ 105.932972297485605, 694.06187697760447 ], [ 109.893325254141203, 691.553653437690514 ], [ 112.137525260015394, 689.705488725384271 ], [ 115.026850013443905, 688.969750088625915 ] ] ] } },
{ "type": "Feature", "properties": { "feature_type": "building", "subtype": "no-damage", "uid": "c878e608-8c59-45fa-bf34-77c881ac925f" }, "geometry": { "type": "Polygon", "coordinates": [ [ [ 0.076816501306207, 704.283542202644753 ], [ 7.536604366867168, 705.590204623905265 ], [ 15.853345572497069, 707.966416398297724 ], [ 20.7377808830581, 710.738663468255709 ], [ 28.262451499055349, 717.735287020915848 ], [ 31.958780923918521, 723.279781157834577 ], [ 34.599016226856968, 730.804451774579206 ], [ 35.127063288943319, 739.913263569589617 ], [ 33.410910341658663, 747.173910656290332 ], [ 27.33836914040425, 759.979051877911388 ], [ 20.7377808830581, 765.127510717266318 ], [ 9.912816137263796, 770.936028387226202 ], [ 0.076783535140823, 771.064046750521356 ], [ 0.076816501306207, 704.283542202644753 ] ] ] } },
{ "type": "Feature", "properties": { "feature_type": "building", "subtype": "no-damage", "uid": "5f98540e-fac2-40a8-bc96-9d02dd89ac29" }, "geometry": { "type": "Polygon", "coordinates": [ [ [ 122.853785670649202, 638.62916399437529 ], [ 127.766038261325704, 639.45249293052882 ], [ 134.161678617012598, 641.047053560132667 ], [ 141.300733385035699, 642.711109265213395 ], [ 147.414952375656895, 648.418873514674146 ], [ 149.537560070594594, 653.647246877846669 ], [ 148.66213388924001, 661.995246429745634 ], [ 149.384709405893688, 666.716411631509914 ], [ 144.093819351176393, 674.425191251483739 ], [ 137.566167231466608, 678.802418400385477 ], [ 130.462910421010292, 679.508360534229837 ], [ 120.943104266049801, 680.070438807902406 ], [ 112.098315999582397, 679.278368219768595 ], [ 106.949857156729294, 675.186003497592424 ], [ 104.128619812300798, 665.545031549680743 ], [ 103.211849941999802, 657.364415199140694 ], [ 106.421810097640304, 648.123591639607753 ], [ 110.514174815821093, 644.29525044947377 ], [ 115.398610128630096, 641.655015144038316 ], [ 118.625968119541994, 639.563665799368778 ], [ 122.853785670649202, 638.62916399437529 ] ] ] } },
{ "type": "Feature", "properties": { "feature_type": "building", "subtype": "no-damage", "uid": "58efd9d9-034f-4643-9a96-8d7e5805b1dd" }, "geometry": { "type": "Polygon", "coordinates": [ [ [ 61.395261216287153, 648.534357877277785 ], [ 66.884120790978272, 644.966599157276278 ], [ 71.000765470248183, 643.045498305585284 ], [ 78.136282913749881, 642.222169367433594 ], [ 84.722914400981381, 642.222169369431867 ], [ 88.565116101866423, 643.319941285968298 ], [ 91.858431845981727, 644.417713198508409 ], [ 95.975076524252543, 646.887700007968078 ], [ 98.445063333712781, 648.534357877277785 ], [ 101.189493118310807, 652.102116601275611 ], [ 102.306505641122797, 657.208791669374477 ], [ 101.886049684735298, 663.853962742796057 ], [ 101.380597138296594, 666.212741289179348 ], [ 100.538176229230601, 670.424845839004092 ], [ 95.989103319025389, 677.669665660466649 ], [ 90.766093676821612, 680.870865116415303 ], [ 79.140685124966978, 683.229643664796754 ], [ 70.379507664436247, 682.555706936544993 ], [ 63.808624569225543, 679.01753911796925 ], [ 58.922583293645467, 673.794529477265428 ], [ 57.069257292201627, 667.05516220174195 ], [ 56.900773111387537, 660.484279103535641 ], [ 58.417130749704533, 656.272174554709864 ], [ 60.438940933461133, 651.217649098316997 ], [ 61.395261216287153, 648.534357877277785 ] ] ] } },
{ "type": "Feature", "properties": { "feature_type": "building", "subtype": "no-damage", "uid": "91fb3bf6-cae6-4a81-a9b1-cfaddb312063" }, "geometry": { "type": "Polygon", "coordinates": [ [ [ 17.095126256412438, 648.259290454284269 ], [ 22.889899290385092, 645.625755066184638 ], [ 31.921295997277621, 643.475422515438254 ], [ 41.841721310387179, 643.998557861414611 ], [ 48.10658128772657, 647.317125519364708 ], [ 53.854688002906641, 653.151918987802105 ], [ 55.789987296830411, 663.473515227388134 ], [ 55.574954041755717, 670.139546133702652 ], [ 52.779521729031863, 676.375510524872425 ], [ 44.3932247851154, 681.966375154814727 ], [ 35.576861332548233, 683.901674446490006 ], [ 25.470298347534719, 683.901674446490006 ], [ 17.084001406615581, 678.95590958476896 ], [ 13.335337923822889, 675.253795175738219 ], [ 11.52197373820105, 666.594791052691903 ], [ 11.719294882042981, 656.929419434620741 ], [ 13.213402813772531, 651.861719460351651 ], [ 17.095126256412438, 648.259290454284269 ] ] ] } },
{ "type": "Feature", "properties": { "feature_type": "building", "subtype": "no-damage", "uid": "b4ac9967-dfb5-42fb-924c-d679fdb83e39" }, "geometry": { "type": "Polygon", "coordinates": [ [ [ 0.076835863180403, 646.513399230332425 ], [ 2.5295405907394, 648.190879741674621 ], [ 4.818929625660857, 650.061638969128921 ], [ 8.119223755957471, 655.738144873567421 ], [ 9.571353172448733, 659.566486063701404 ], [ 10.23141199880779, 662.206721363142265 ], [ 10.363423763330269, 668.543286093190318 ], [ 9.043306111111715, 672.635650814367409 ], [ 6.403070810671017, 675.803933176893565 ], [ 0.076826039746185, 678.951244390424563 ], [ 0.076835863180403, 646.513399230332425 ] ] ] } },
{ "type": "Feature", "properties": { "feature_type": "building", "subtype": "no-damage", "uid": "83cb1536-557f-470c-9067-4f663702bd25" }, "geometry": { "type": "Polygon", "coordinates": [ [ [ 118.628504402172098, 590.363167753158109 ], [ 126.154668326289297, 590.148134497084357 ], [ 135.616131544080588, 592.51350030190622 ], [ 144.862561508046014, 595.523965871951987 ], [ 148.303093588241893, 600.469730735671192 ], [ 149.808326371516699, 604.985429088242086 ], [ 150.453426138988789, 611.006360229332813 ], [ 150.883492647389687, 616.597224857276842 ], [ 149.378259863865111, 621.758022979068073 ], [ 146.152761038244307, 624.983521798193806 ], [ 140.776929662376205, 628.424053881386158 ], [ 128.089967620462886, 630.574386430134268 ], [ 121.423936716894104, 630.574386430134268 ], [ 110.027174204929395, 628.424053879387998 ], [ 105.296442597032794, 624.338422034968062 ], [ 102.2637273203989, 617.936023122071788 ], [ 101.421306409084906, 611.028171661238275 ], [ 102.494736890450895, 605.612336407796761 ], [ 104.622505868780905, 600.245184021199861 ], [ 107.6552211404194, 596.707016200625844 ], [ 111.024904778681602, 594.348237652244393 ], [ 114.394588418442396, 591.315522375611181 ], [ 118.628504402172098, 590.363167753158109 ] ] ] } },
{ "type": "Feature", "properties": { "feature_type": "building", "subtype": "no-damage", "uid": "7add5255-65b6-46b6-85aa-701b041e1437" }, "geometry": { "type": "Polygon", "coordinates": [ [ [ 62.740485210980587, 594.035832565952433 ], [ 67.954901801042453, 591.840288733878538 ], [ 78.383734989408779, 591.840288733878538 ], [ 82.225936691043145, 591.840288735876811 ], [ 90.733669032214024, 594.310275544337287 ], [ 95.124756686371953, 595.956933415645153 ], [ 97.594743497081083, 598.701363202490484 ], [ 100.021776477572601, 604.625772751339241 ], [ 100.864197389386206, 611.870592572801797 ], [ 101.481103119603603, 619.794938020906557 ], [ 98.688366966782098, 623.932324912124159 ], [ 94.65441474959232, 627.449103773655565 ], [ 87.931161047115779, 630.138405249949642 ], [ 76.243043078423909, 631.2761866450345 ], [ 66.72705322887073, 630.448709266790956 ], [ 60.107234198924417, 627.528046712396531 ], [ 56.366515007986457, 619.658248062705638 ], [ 54.971758290129472, 609.292534136374456 ], [ 55.645695017132489, 603.300439960309859 ], [ 57.523320385500149, 599.028611822844141 ], [ 59.888686191321717, 595.803112995725542 ], [ 62.899151759370064, 594.082846959124822 ], [ 62.740485210980587, 594.035832565952433 ] ] ] } },
{ "type": "Feature", "properties": { "feature_type": "building", "subtype": "no-damage", "uid": "b9545769-ea25-42e7-9c7b-a0a30b0e9b7d" }, "geometry": { "type": "Polygon", "coordinates": [ [ [ 15.837299725419481, 597.479543116712875 ], [ 19.005582088446069, 595.631378404406632 ], [ 24.550076225116381, 594.707296050751324 ], [ 30.226582131054911, 594.443272517710056 ], [ 34.979005677343238, 594.443272517710056 ], [ 37.355217448738969, 595.367354877359958 ], [ 40.391488049241289, 595.895401934450661 ], [ 43.823793942811513, 596.819484292102402 ], [ 46.992076309334969, 598.667649004408645 ], [ 49.236276314459793, 600.119778422148443 ], [ 52.14053514694276, 601.835931369932155 ], [ 53.856688094726969, 606.192319619155114 ], [ 54.648758684609398, 615.961190241773352 ], [ 54.516746923583781, 618.20539025164328 ], [ 53.724676330454272, 622.693790265388657 ], [ 52.40455868123302, 624.673966743216397 ], [ 47.916158661491899, 627.974260874261518 ], [ 37.223205685715143, 631.538578533352393 ], [ 24.9461115241789, 631.274555001310205 ], [ 18.609546793130189, 630.350472643658463 ], [ 11.612923238469961, 624.5419549776949 ], [ 10.02878205720644, 617.017284361949351 ], [ 10.04216264664923, 608.496662822102167 ], [ 10.42481735177299, 605.004213732458425 ], [ 11.612923238220191, 601.43989607236847 ], [ 13.725111482069609, 599.459719594540616 ], [ 15.837299725419481, 597.479543116712875 ] ] ] } },
{ "type": "Feature", "properties": { "feature_type": "building", "subtype": "no-damage", "uid": "d7c68bc9-a503-4b3e-bafb-834617cfee5b" }, "geometry": { "type": "Polygon", "coordinates": [ [ [ 0.076845978352809, 594.873632328644248 ], [ 2.443281376546911, 596.248494401925086 ], [ 4.408540153122869, 598.627491863376122 ], [ 6.477233595485123, 601.73053203378754 ], [ 8.545927042593117, 605.350745565601187 ], [ 9.373404422585285, 607.522873681492229 ], [ 9.373404420836852, 611.039652541025362 ], [ 9.476839092867545, 615.797647464926513 ], [ 9.166535075776368, 620.141903703702383 ], [ 7.821884338877831, 623.968986576080397 ], [ 5.753190893768044, 627.278896090053649 ], [ 3.994801461503243, 629.347589535662451 ], [ 0.07683974644547, 630.407430992889658 ], [ 0.076845978352809, 594.873632328644248 ] ] ] } },
{ "type": "Feature", "properties": { "feature_type": "building", "subtype": "destroyed", "uid": "6af66fc4-de42-42dd-8d9c-d996a6d71834" }, "geometry": { "type": "Polygon", "coordinates": [ [ [ 390.351363132708684, 540.840456669542618 ], [ 427.249398974527026, 542.188330124047866 ], [ 426.238493882648697, 564.259757959055491 ], [ 385.711733627881813, 562.562287137490102 ], [ 386.98167949444661, 541.177425036166255 ], [ 390.351363132708684, 540.840456669542618 ] ] ] } },
{ "type": "Feature", "properties": { "feature_type": "building", "subtype": "destroyed", "uid": "ca89ad8c-6311-4f6e-a0fb-6ca5bf730a09" }, "geometry": { "type": "Polygon", "coordinates": [ [ [ 385.654682585335706, 588.104988384694934 ], [ 423.833554390688391, 589.105868866894639 ], [ 423.257295411865584, 611.147774980392796 ], [ 383.927619793553276, 609.563062773581578 ], [ 384.503878776872114, 588.09741564265255 ], [ 385.654682585335706, 588.104988384694934 ] ] ] } },
{ "type": "Feature", "properties": { "feature_type": "building", "subtype": "destroyed", "uid": "cef18cc8-5962-4dab-be26-f4fdb2eb25f2" }, "geometry": { "type": "Polygon", "coordinates": [ [ [ 387.683981484542073, 564.591699077250723 ], [ 425.861139129472804, 566.32047602795592 ], [ 424.70862116183622, 587.497993668099753 ], [ 384.514557073916023, 586.489540445855937 ], [ 385.326826726681986, 564.750233215967683 ], [ 387.683981484542073, 564.591699077250723 ] ] ] } },
{ "type": "Feature", "properties": { "feature_type": "building", "subtype": "no-damage", "uid": "ca1e16f8-695a-4aed-aea9-09d55fc12a9f" }, "geometry": { "type": "Polygon", "coordinates": [ [ [ 449.092381064151425, 358.979342015079908 ], [ 491.114018228549014, 359.426380707991314 ], [ 492.902173003441817, 466.71566708763612 ], [ 442.833839358395778, 466.71566708763612 ], [ 444.00647125556668, 359.549965787819701 ], [ 449.092381064151425, 358.979342015079908 ] ] ] } },
{ "type": "Feature", "properties": { "feature_type": "building", "subtype": "minor-damage", "uid": "e01e648e-3354-44d5-8d25-8643cdd83ba6" }, "geometry": { "type": "Polygon", "coordinates": [ [ [ 276.418621604951113, 225.467087476834593 ], [ 283.944785530816716, 225.252054220760812 ], [ 283.084652509518889, 218.801056571519098 ], [ 299.212146632127713, 218.370990060370787 ], [ 298.567046866404098, 224.391921203459589 ], [ 307.598443575544593, 225.037020966685304 ], [ 307.59844357854189, 246.970412970310491 ], [ 276.848688116599078, 248.475645757831103 ], [ 275.343455331825623, 248.690679010907502 ], [ 275.343455332574877, 225.252054219761703 ], [ 276.418621604951113, 225.467087476834593 ] ] ] } },
{ "type": "Feature", "properties": { "feature_type": "building", "subtype": "destroyed", "uid": "f51a01cd-e2aa-4698-936a-81983a1bc294" }, "geometry": { "type": "Polygon", "coordinates": [ [ [ 521.375408688536822, 713.04775172388031 ], [ 573.269857730466356, 713.11991578614527 ], [ 575.563788939383585, 751.753737614334909 ], [ 520.515275667238939, 752.613870636631646 ], [ 518.078840003437676, 752.398837379558813 ], [ 517.50481009819157, 713.477818232031382 ], [ 521.375408688536822, 713.04775172388031 ] ] ] } },
{ "type": "Feature", "properties": { "feature_type": "building", "subtype": "no-damage", "uid": "293fe54a-143a-4a92-90f1-992ad53685a9" }, "geometry": { "type": "Polygon", "coordinates": [ [ [ 285.968384128108823, 271.723694988988711 ], [ 308.545264508561672, 272.229147533928597 ], [ 308.545264510060292, 287.561208089416311 ], [ 285.631415763733003, 287.72969227472629 ], [ 285.968384128108823, 271.723694988988711 ] ] ] } },
{ "type": "Feature", "properties": { "feature_type": "building", "subtype": "no-damage", "uid": "c3ce6e19-d728-4e22-b3c0-2d1dcf8f2988" }, "geometry": { "type": "Polygon", "coordinates": [ [ [ 291.161609789660702, 313.823416092253183 ], [ 324.921830819402089, 314.253482599405174 ], [ 325.996997094775509, 343.067938763420386 ], [ 291.161609788162025, 342.422839001193779 ], [ 291.161609789660702, 313.823416092253183 ] ] ] } },
{ "type": "Feature", "properties": { "feature_type": "building", "subtype": "minor-damage", "uid": "e00fd31a-063f-42ce-af54-cd19e9da4b14" }, "geometry": { "type": "Polygon", "coordinates": [ [ [ 70.783529079569462, 221.928499718122907 ], [ 124.724572171877895, 219.476634124256208 ], [ 126.826171256439196, 248.899021262646698 ], [ 70.08299605296429, 251.701153371064891 ], [ 69.032196514555196, 221.578233201573397 ], [ 70.783529079569462, 221.928499718122907 ] ] ] } },
{ "type": "Feature", "properties": { "feature_type": "building", "subtype": "no-damage", "uid": "4461f23e-9322-47c7-bdf1-532a890a2dc9" }, "geometry": { "type": "Polygon", "coordinates": [ [ [ 265.901390158770482, 165.864489256171709 ], [ 266.294615176096272, 178.594308491523492 ], [ 248.723539851876211, 177.80785845937001 ], [ 248.096209426776312, 165.891597100951088 ], [ 265.901390158770482, 165.864489256171709 ] ] ] } },
{ "type": "Feature", "properties": { "feature_type": "building", "subtype": "un-classified", "uid": "4d6c94e3-caf1-4dbb-8307-004d4e20e042" }, "geometry": { "type": "Polygon", "coordinates": [ [ [ 403.412583713663707, 65.053558865747689 ], [ 423.728041503197289, 64.703292353194527 ], [ 424.078308015251025, 109.8876726044344 ], [ 403.062317201859798, 109.8876726044344 ], [ 403.412583713663707, 65.053558865747689 ] ] ] } },
{ "type": "Feature", "properties": { "feature_type": "building", "subtype": "un-classified", "uid": "912372b3-fc23-486b-94b6-1f7232bb5cef" }, "geometry": { "type": "Polygon", "coordinates": [ [ [ 438.439235074894214, 61.550893725229493 ], [ 456.302827266564009, 61.901160244776378 ], [ 457.353626806221882, 92.374346922824614 ], [ 438.4392350723964, 92.024080412269655 ], [ 438.439235074894214, 61.550893725229493 ] ] ] } },
{ "type": "Feature", "properties": { "feature_type": "building", "subtype": "destroyed", "uid": "129b3884-b0a4-49d3-8386-10822dfc1b9d" }, "geometry": { "type": "Polygon", "coordinates": [ [ [ 666.828212445738359, 773.768543102574881 ], [ 681.315632777079827, 773.544769855975233 ], [ 679.914566719623281, 797.713159291081638 ], [ 666.694525149127912, 796.265073881153739 ], [ 666.828212445738359, 773.768543102574881 ] ] ] } },
{ "type": "Feature", "properties": { "feature_type": "building", "subtype": "no-damage", "uid": "66850e44-02a5-4efc-813b-d02f71264c78" }, "geometry": { "type": "Polygon", "coordinates": [ [ [ 735.060867477966553, 751.627604644043572 ], [ 760.501978950742455, 750.953667916791005 ], [ 760.665462605646781, 780.410758780238439 ], [ 735.606214476431091, 780.864063398959843 ], [ 735.060867477966553, 751.627604644043572 ] ] ] } },
{ "type": "Feature", "properties": { "feature_type": "building", "subtype": "no-damage", "uid": "17b77b44-03dc-4814-b57a-cbe90fb5fe78" }, "geometry": { "type": "Polygon", "coordinates": [ [ [ 695.25145029107648, 754.432179824990726 ], [ 718.488969244360192, 755.341091484185881 ], [ 719.34468830659921, 766.731525105843502 ], [ 691.376314108623546, 767.742430197721433 ], [ 691.713282470501554, 754.432179824990726 ], [ 695.25145029107648, 754.432179824990726 ] ] ] } },
{ "type": "Feature", "properties": { "feature_type": "building", "subtype": "no-damage", "uid": "4e27c66b-3518-499c-b6bb-e7d30b9dd908" }, "geometry": { "type": "Polygon", "coordinates": [ [ [ 657.918068565193721, 754.734560621317428 ], [ 685.772551016064995, 753.810478265663846 ], [ 684.980480426931877, 768.859819493158511 ], [ 654.962746368930198, 768.991831259679202 ], [ 655.277833261755632, 754.470537093271673 ], [ 657.918068565193721, 754.734560621317428 ] ] ] } },
{ "type": "Feature", "properties": { "feature_type": "building", "subtype": "minor-damage", "uid": "3012eb4e-8893-47f3-b794-6545f08bbbbb" }, "geometry": { "type": "Polygon", "coordinates": [ [ [ 140.477651288362409, 230.939577623835589 ], [ 153.726041171162194, 231.247679714737302 ], [ 153.109836990357792, 225.393739998595095 ], [ 164.817716419647894, 224.469433726889093 ], [ 165.742022691603893, 242.64745705611989 ], [ 140.477651288112611, 241.723150784413889 ], [ 140.477651288362409, 230.939577623835589 ] ] ] } },
{ "type": "Feature", "properties": { "feature_type": "building", "subtype": "no-damage", "uid": "d61aac4b-15c2-4811-bc89-98297196dba0" }, "geometry": { "type": "Polygon", "coordinates": [ [ [ 503.453220105403602, 436.304876261076004 ], [ 517.505463606717512, 435.803010419343877 ], [ 517.505463603720273, 454.873912316245082 ], [ 504.456951783123316, 455.375778154980026 ], [ 503.453220105403602, 436.304876261076004 ] ] ] } },
{ "type": "Feature", "properties": { "feature_type": "building", "subtype": "no-damage", "uid": "888e861c-85b0-4b3e-811b-be2066dfce28" }, "geometry": { "type": "Polygon", "coordinates": [ [ [ 528.044646230142803, 405.691060059286087 ], [ 549.624877322722, 405.691060058287121 ], [ 549.123011482987863, 424.26009611445528 ], [ 528.044646229643263, 427.7731569905946 ], [ 527.54278039090832, 422.252632757517688 ], [ 520.516658639377056, 422.754498597251711 ], [ 519.512926961157859, 406.694791736755803 ], [ 528.044646230142803, 405.691060059286087 ] ] ] } },
{ "type": "Feature", "properties": { "feature_type": "building", "subtype": "no-damage", "uid": "e4c5d97c-956d-491b-a29d-a6a80a211c69" }, "geometry": { "type": "Polygon", "coordinates": [ [ [ 577.227498486614877, 366.043658750278212 ], [ 593.287205348113957, 365.541792910544302 ], [ 592.785339510128324, 360.523134517201413 ], [ 605.331985490241891, 361.025000356935323 ], [ 605.833851330725224, 365.541792911543382 ], [ 618.380497314335571, 365.541792910544302 ], [ 620.387960674770511, 380.597768090573084 ], [ 578.733096007815334, 380.597768089574117 ], [ 577.227498486614877, 366.043658750278212 ] ] ] } },
{ "type": "Feature", "properties": { "feature_type": "building", "subtype": "no-damage", "uid": "f5940fdb-3dc8-4ee0-9488-0cbba1cfdf9c" }, "geometry": { "type": "Polygon", "coordinates": [ [ [ 712.65184970813948, 495.833147395622575 ], [ 729.21342240312822, 495.216943213819206 ], [ 729.29284781213903, 505.562362090407817 ], [ 713.233140952138569, 505.562362090407817 ], [ 712.65184970813948, 495.833147395622575 ] ] ] } },
{ "type": "Feature", "properties": { "feature_type": "building", "subtype": "un-classified", "uid": "1ec5f9d1-d409-4960-baf6-eba37a22ea3b" }, "geometry": { "type": "Polygon", "coordinates": [ [ [ 136.802560175985604, 866.8958132642897 ], [ 182.428303566524505, 865.930189067266383 ], [ 182.669709617029298, 876.79346130201202 ], [ 137.526778328499006, 877.517679449529624 ], [ 136.802560175985604, 866.8958132642897 ] ] ] } },
{ "type": "Feature", "properties": { "feature_type": "building", "subtype": "un-classified", "uid": "2ac6e425-0d2d-4c88-856f-f2c7534a3a8b" }, "geometry": { "type": "Polygon", "coordinates": [ [ [ 192.084545552245913, 884.518454891186593 ], [ 205.361878285297905, 884.277048840681914 ], [ 208.500156930120397, 922.902016789552135 ], [ 194.981418149061312, 923.626234938068933 ], [ 192.084545552245913, 884.518454891186593 ] ] ] } },
{ "type": "Feature", "properties": { "feature_type": "building", "subtype": "un-classified", "uid": "38684aff-639c-4ba9-ab71-f397cab20162" }, "geometry": { "type": "Polygon", "coordinates": [ [ [ 195.705636302074311, 926.764513583639882 ], [ 209.465781130890491, 925.316077286606287 ], [ 210.914217429173391, 970.4590085771232 ], [ 197.154072596360692, 970.4590085771232 ], [ 195.705636302074311, 926.764513583639882 ] ] ] } },
{ "type": "Feature", "properties": { "feature_type": "building", "subtype": "un-classified", "uid": "da8037ad-1a93-4820-9086-b7ec5d32beb6" }, "geometry": { "type": "Polygon", "coordinates": [ [ [ 197.636884695122291, 973.114475121684791 ], [ 208.982969030630301, 972.390256976165347 ], [ 211.879841627195987, 1012.946473320081054 ], [ 199.085320994154387, 1013.187879368588028 ], [ 197.636884695122291, 973.114475121684791 ] ] ] } },
{ "type": "Feature", "properties": { "feature_type": "building", "subtype": "un-classified", "uid": "10cfc681-0eae-4fa3-8bfd-3b74d76f644e" }, "geometry": { "type": "Polygon", "coordinates": [ [ [ 253.160276125134402, 992.668365144626364 ], [ 278.749317387221197, 991.702740946604081 ], [ 279.956347639245507, 1018.740218511213016 ], [ 254.367306372412912, 1019.705842708235991 ], [ 253.160276125134402, 992.668365144626364 ] ] ] } },
{ "type": "Feature", "properties": { "feature_type": "building", "subtype": "un-classified", "uid": "ec859142-b5af-4151-a1af-e368e220ac5e" }, "geometry": { "type": "Polygon", "coordinates": [ [ [ 250.26340352582119, 856.273947077051503 ], [ 272.714166144833996, 856.99816522456922 ], [ 272.231354045822684, 899.727036022028415 ], [ 250.263403525571391, 899.485629971523736 ], [ 250.26340352582119, 856.273947077051503 ] ] ] } },
{ "type": "Feature", "properties": { "feature_type": "building", "subtype": "un-classified", "uid": "36971570-4a13-4e34-8011-0a2f15590cb3" }, "geometry": { "type": "Polygon", "coordinates": [ [ [ 10.24107096612223, 983.9286395219616 ], [ 54.418378057379208, 983.445827420952241 ], [ 54.418378056130337, 1011.690335236085957 ], [ 9.758258866111815, 1013.621583629133966 ], [ 10.24107096612223, 983.9286395219616 ] ] ] } },
{ "type": "Feature", "properties": { "feature_type": "building", "subtype": "un-classified", "uid": "462d2fc3-f3a4-4d4a-adee-c6d06b5dbaef" }, "geometry": { "type": "Polygon", "coordinates": [ [ [ 352.239893236539672, 938.390212749437751 ], [ 360.184107417226301, 938.201064793284104 ], [ 359.805811501671826, 969.788773556871206 ], [ 350.726709584312573, 968.843033773105503 ], [ 352.239893236539672, 938.390212749437751 ] ] ] } },
{ "type": "Feature", "properties": { "feature_type": "building", "subtype": "no-damage", "uid": "5afb5fec-1b3b-404f-97aa-6183cc0fe603" }, "geometry": { "type": "Polygon", "coordinates": [ [ [ 100.273344919856797, 767.694069897397981 ], [ 102.121957460521799, 761.532028091353141 ], [ 107.667795087761903, 757.2185988267222 ], [ 113.521734800908305, 754.137577923699837 ], [ 120.916184968563599, 753.213271653992024 ], [ 129.234941405177608, 752.597067471189462 ], [ 134.780779030669208, 752.90516956309034 ], [ 144.331943831140109, 756.910496733822242 ], [ 149.877781458380213, 763.688742724667804 ], [ 152.342598177601701, 770.158886618616975 ], [ 152.342598175853198, 777.861438877172077 ], [ 147.721066821568201, 786.488297400439478 ], [ 142.483331287228111, 790.493624575167814 ], [ 136.32128948567771, 794.807053841797028 ], [ 127.694430955664203, 795.731360112503921 ], [ 115.370347344320706, 794.807053841797028 ], [ 108.283999270814306, 791.726032938774665 ], [ 103.662467913032501, 787.412603673144531 ], [ 98.732834472591421, 776.93713260446691 ], [ 99.040936558997231, 771.391294980225553 ], [ 100.273344919856797, 767.694069897397981 ] ] ] } },
{ "type": "Feature", "properties": { "feature_type": "building", "subtype": "minor-damage", "uid": "05d8c69d-a292-44df-b095-6cdae629fb97" }, "geometry": { "type": "Polygon", "coordinates": [ [ [ 798.895140536131976, 140.984077193000189 ], [ 823.673522858960382, 139.849189455078999 ], [ 824.240966727421551, 158.763985118403809 ], [ 799.462584405342454, 159.331428991860292 ], [ 798.895140536131976, 140.984077193000189 ] ] ] } },
{ "type": "Feature", "properties": { "feature_type": "building", "subtype": "destroyed", "uid": "881e709e-4822-4098-8035-c9c6b1fed3a5" }, "geometry": { "type": "Polygon", "coordinates": [ [ [ 867.162424450582762, 425.726205527217076 ], [ 867.675623390974465, 407.935308771449513 ], [ 883.071591739352357, 408.106375084497074 ], [ 883.071591739352357, 425.726205529215292 ], [ 867.162424450582762, 425.726205527217076 ] ] ] } },
{ "type": "Feature", "properties": { "feature_type": "building", "subtype": "un-classified", "uid": "e230c6f5-3210-4e5c-bed4-5d3c5eec04f6" }, "geometry": { "type": "Polygon", "coordinates": [ [ [ 993.578556161701044, 176.622913194256796 ], [ 997.421874579168161, 202.672071359053689 ], [ 968.810504135470296, 202.245035978696905 ], [ 969.237539515077856, 176.622913192258608 ], [ 993.578556161701044, 176.622913194256796 ] ] ] } }
]
}
