{
"type": "FeatureCollection",
"name": "hurricane-florence_00000458_post_disaster",
"features": [
{ "type": "Feature", "properties": { "feature_type": "building", "subtype": "no-damage", "uid": "0c7cfa2f-bf4b-45b7-933c-75e4d381e2e4" }, "geometry": { "type": "Polygon", "coordinates": [ [ [ 117.3903901234941, 52.25814120616694 ], [ 123.690042168429898, 74.507976089844504 ], [ 143.39320920679981, 67.538148294318717 ], [ 149.290755805052896, 85.49885838278901 ], [ 94.872484933617244, 104.665884822524305 ], [ 90.315289834376188, 98.634303078435622 ], [ 90.985465583308624, 93.406932230771588 ], [ 92.727922533209622, 93.272897084936389 ], [ 91.521606183729176, 90.592194081558787 ], [ 91.318922015093406, 90.011167645703324 ], [ 86.692496349060121, 91.528982437701046 ], [ 82.805477000663416, 81.878451644915799 ], [ 84.547933950309499, 79.331783794511225 ], [ 81.867230955344553, 77.053186244954247 ], [ 78.382317053630615, 64.453882156101315 ], [ 117.3903901234941, 52.25814120616694 ] ] ] } },
{ "type": "Feature", "properties": { "feature_type": "building", "subtype": "no-damage", "uid": "fa2df7e9-d2dc-4720-b78f-cc387199fc67" }, "geometry": { "type": "Polygon", "coordinates": [ [ [ -0.000009231779588, 224.955620411253108 ], [ -0.000009230759897, 199.622977075475688 ], [ 5.227361617286124, 203.644031575953505 ], [ 9.516486415552128, 201.499469174271098 ], [ 17.826665710471779, 213.562632668566692 ], [ 10.588767615246089, 217.583687163945996 ], [ 10.856837913416991, 218.5219332164028 ], [ -0.000009231779588, 224.955620411253108 ] ] ] } },
{ "type": "Feature", "properties": { "feature_type": "building", "subtype": "no-damage", "uid": "3c9c77c6-2b09-4d85-b3b8-7b538d6a3beb" }, "geometry": { "type": "Polygon", "coordinates": [ [ [ -0.000009227700821, 175.084401818006512 ], [ 7.588944753184749, 170.465603875060793 ], [ 18.206368735859112, 185.148051702573611 ], [ -0.000009227955744, 194.243859962546111 ], [ -0.000009227700821, 175.084401818006512 ] ] ] } },
{ "type": "Feature", "properties": { "feature_type": "building", "subtype": "no-damage", "uid": "d9ec7fa4-f5f5-4f92-b0e8-28e2d71d1167" }, "geometry": { "type": "Polygon", "coordinates": [ [ [ 469.097040150239195, 0.011691329201248 ], [ 436.513298025047277, 8.981733199491872 ], [ 442.408184685004812, 28.19469712333413 ], [ 409.22215608949989, 36.49120427224284 ], [ 407.912181273046201, 29.286342805008221 ], [ 411.623776576538603, 23.828114411933139 ], [ 410.313801763781214, 18.15155689108866 ], [ 404.200585972230385, 19.024873434796419 ], [ 401.362307207474714, 10.07337888116596 ], [ 407.038864733417313, 8.763404065604314 ], [ 407.721843022969495, 0.011468384808756 ], [ 469.097040150239195, 0.011691329201248 ] ] ] } },
{ "type": "Feature", "properties": { "feature_type": "building", "subtype": "no-damage", "uid": "a9501d18-446a-4d49-b781-bde638912d38" }, "geometry": { "type": "Polygon", "coordinates": [ [ [ 479.834235160485093, 119.946778670342795 ], [ 493.861695587608779, 110.1959830087076 ], [ 508.744488967677285, 119.433578896638394 ], [ 519.463126263593381, 107.458917556428602 ], [ 533.035944832816426, 115.782622585425202 ], [ 515.611985282587398, 141.319915765372798 ], [ 505.15209056614998, 155.029484413509806 ], [ 472.066385308367217, 130.240053059441692 ], [ 479.834235160485093, 119.946778670342795 ] ] ] } },
{ "type": "Feature", "properties": { "feature_type": "building", "subtype": "no-damage", "uid": "8314deae-0237-4870-969e-ab53cec43a9b" }, "geometry": { "type": "Polygon", "coordinates": [ [ [ 1022.384001605735989, 198.802275506286605 ], [ 1012.811101708384967, 199.73625655610951 ], [ 1007.571202454423997, 189.474787185897696 ], [ 1007.789531591242962, 147.773922306446906 ], [ 1022.384110433107026, 146.201396558364991 ], [ 1022.384001605735989, 198.802275506286605 ] ] ] } },
{ "type": "Feature", "properties": { "feature_type": "building", "subtype": "no-damage", "uid": "78778b08-324b-47e2-927a-ac2642af722b" }, "geometry": { "type": "Polygon", "coordinates": [ [ [ 966.769545607256418, 152.922094625057412 ], [ 986.200838666896743, 155.323715117194695 ], [ 987.074155208310117, 158.161993877107108 ], [ 992.314054462271315, 158.816981281828902 ], [ 990.567421376257926, 191.784680745615503 ], [ 968.516178688298737, 193.094655558118092 ], [ 969.389495230859325, 189.383060252458591 ], [ 954.761443154091239, 190.474705931073601 ], [ 955.198101423395769, 183.706502730594394 ], [ 946.246606870275855, 174.755008177983598 ], [ 949.958202170454342, 162.091918319713301 ], [ 948.648227356804682, 158.380323014053687 ], [ 947.119923411561786, 158.380323014053687 ], [ 939.041745395139174, 144.843916615134788 ], [ 945.154961189494088, 139.167359091231191 ], [ 956.726405374501951, 135.237434651684111 ], [ 966.769545607256418, 152.922094625057412 ] ] ] } },
{ "type": "Feature", "properties": { "feature_type": "building", "subtype": "no-damage", "uid": "a9c82494-5c54-4d8c-b708-e39491503b92" }, "geometry": { "type": "Polygon", "coordinates": [ [ [ 888.240145308053911, 186.719877818707204 ], [ 888.895132711628435, 153.533849223072394 ], [ 896.099994183451145, 153.752178358999288 ], [ 900.684906031416062, 150.91389959602779 ], [ 907.016450961570399, 151.350557865842291 ], [ 913.34799588866565, 151.132228729915397 ], [ 922.954477851860702, 150.91389959602779 ], [ 929.067693647745159, 153.315520084086387 ], [ 929.286022783672024, 201.12960075929459 ], [ 908.544754907195625, 201.347929898280597 ], [ 907.889767505150644, 186.71987781564809 ], [ 888.240145308053911, 186.719877818707204 ] ] ] } },
{ "type": "Feature", "properties": { "feature_type": "building", "subtype": "no-damage", "uid": "8532d3e5-091a-4400-95e6-87a2d4c49aee" }, "geometry": { "type": "Polygon", "coordinates": [ [ [ 812.356349809366861, 146.4346457510932 ], [ 833.010045954881434, 146.782236860701488 ], [ 832.286202176475854, 169.307506007444402 ], [ 834.759395635050396, 170.174495718470098 ], [ 835.101528817732401, 168.675470724819689 ], [ 841.869732018211153, 168.675470724819689 ], [ 842.459473290451911, 170.782220577140095 ], [ 857.589429773084362, 169.985445537322192 ], [ 857.175796542251987, 204.084086768469007 ], [ 847.253934288448022, 206.136885853089694 ], [ 842.464069754862749, 204.084086769488692 ], [ 840.582337256166056, 200.491688366814003 ], [ 835.963539309269436, 201.175954729373899 ], [ 833.910740223374319, 204.768353131028903 ], [ 811.15888367450475, 203.913020180633197 ], [ 812.356349809366861, 146.4346457510932 ] ] ] } },
{ "type": "Feature", "properties": { "feature_type": "building", "subtype": "no-damage", "uid": "f3c42e35-655f-412a-8b09-9c2e759e8bc1" }, "geometry": { "type": "Polygon", "coordinates": [ [ [ 1022.383693249283056, 512.382842531237429 ], [ 1005.706088980028994, 508.246101571742713 ], [ 1014.06115403964202, 489.100464857876716 ], [ 1013.719020858362001, 479.691802374972326 ], [ 1022.383699996838004, 472.891600535509781 ], [ 1022.383693249283056, 512.382842531237429 ] ] ] } },
{ "type": "Feature", "properties": { "feature_type": "building", "subtype": "no-damage", "uid": "7fda12b7-7c63-4842-ad6e-b469fc85f02d" }, "geometry": { "type": "Polygon", "coordinates": [ [ [ 1002.018753511159957, 469.093227842613885 ], [ 999.398803887301938, 505.990851745947623 ], [ 979.749181690715091, 505.117535198161079 ], [ 980.840827367800443, 490.926141394520414 ], [ 978.220877741393451, 490.926141391461272 ], [ 977.12923206341577, 500.314294220004683 ], [ 961.191205170831154, 498.785990272594915 ], [ 963.15616738843778, 477.826393266435616 ], [ 965.776117014972215, 471.931506606605012 ], [ 967.522750099965833, 470.184873522248608 ], [ 970.142699727392596, 454.246846627113484 ], [ 981.932473046797782, 454.901834033874593 ], [ 981.714143907684274, 456.211808847396924 ], [ 990.447309332142595, 457.303454528051304 ], [ 989.573992788307464, 467.783253033170411 ], [ 1002.018753511159957, 469.093227842613885 ] ] ] } },
{ "type": "Feature", "properties": { "feature_type": "building", "subtype": "no-damage", "uid": "381b7d4a-f11b-47bc-84ef-f5f21345c39f" }, "geometry": { "type": "Polygon", "coordinates": [ [ [ 924.400040340908049, 464.297893649400692 ], [ 924.400040342182706, 454.033898217120282 ], [ 939.624966901491803, 454.204964810054491 ], [ 939.967100082771708, 461.389761609285927 ], [ 949.204695975672848, 461.731894791075717 ], [ 948.349363022218085, 471.824823632461289 ], [ 954.678826874112247, 483.457351794960118 ], [ 953.823493921039926, 504.840675610936387 ], [ 936.71683486341658, 505.182808796804977 ], [ 936.374701680607131, 483.115218612150613 ], [ 932.782303278060112, 483.115218612150613 ], [ 932.440170097417422, 486.023350651245721 ], [ 919.439109215535609, 485.615971339269379 ], [ 916.600830450652438, 474.481185427389221 ], [ 922.495717110227588, 468.149640496724487 ], [ 924.400040340908049, 464.297893649400692 ] ] ] } },
{ "type": "Feature", "properties": { "feature_type": "building", "subtype": "no-damage", "uid": "c0dbcd37-4a4a-4c87-b1ef-be24645b55d0" }, "geometry": { "type": "Polygon", "coordinates": [ [ [ 898.258767859272325, 489.716119085623689 ], [ 899.134172515201499, 491.080534202517924 ], [ 906.379058221741275, 505.013006717536882 ], [ 893.282534058659508, 508.914099017989713 ], [ 895.790379114849998, 516.994933070093111 ], [ 879.62871099968288, 521.453324274980787 ], [ 875.448969247777654, 506.68490341248679 ], [ 870.433279142279503, 498.046770460027403 ], [ 869.597330791617992, 486.064844099313689 ], [ 876.64418344571618, 483.384574159037811 ], [ 875.334208630536978, 475.088067011148723 ], [ 880.574107880674319, 471.81312997632341 ], [ 889.743931574182398, 470.939813437714122 ], [ 895.42048909974244, 475.088067010129123 ], [ 900.878717487463746, 477.926345771061108 ], [ 898.258767859272325, 489.716119085623689 ] ] ] } },
{ "type": "Feature", "properties": { "feature_type": "building", "subtype": "no-damage", "uid": "c1150863-4cac-436b-8626-3e0533325722" }, "geometry": { "type": "Polygon", "coordinates": [ [ [ 1022.383725996302019, 626.924352402138652 ], [ 1020.052822561073981, 628.439639926791983 ], [ 1007.051761676259957, 620.05737699027668 ], [ 1015.434024616854003, 611.675114053761263 ], [ 1008.212195323937976, 604.577331490675988 ], [ 1007.993866190686958, 602.175710999558419 ], [ 1002.753966937108999, 598.46411569593829 ], [ 1005.373916564917977, 591.695912498518169 ], [ 1015.417056796398015, 585.364367565814064 ], [ 1018.691993829820944, 590.167608549068973 ], [ 1020.875285186285964, 588.420975460633713 ], [ 1022.383706936861017, 589.981840462110426 ], [ 1022.383725996302019, 626.924352402138652 ] ] ] } },
{ "type": "Feature", "properties": { "feature_type": "building", "subtype": "no-damage", "uid": "fdf59379-50c4-499c-be01-61d58f964506" }, "geometry": { "type": "Polygon", "coordinates": [ [ [ 964.667884572809953, 582.165257551119566 ], [ 965.977859385567285, 570.593813369424879 ], [ 982.570873684912954, 573.213762994429999 ], [ 978.640949245111301, 607.928095541553489 ], [ 964.886213709119261, 606.618120730070586 ], [ 963.576238894449943, 619.062881449354904 ], [ 943.271629291866702, 617.097919231110836 ], [ 944.799933241315784, 601.814879746815677 ], [ 941.961654477197385, 594.17336000364844 ], [ 948.511528544553357, 588.496802482803901 ], [ 950.25816163043919, 573.213762994429999 ], [ 962.047934949079604, 574.523737805912901 ], [ 961.392947540661453, 581.728599279265723 ], [ 964.667884572809953, 582.165257551119566 ] ] ] } },
{ "type": "Feature", "properties": { "feature_type": "building", "subtype": "no-damage", "uid": "5eb76404-9df8-414d-a3c0-fc58f21b18d1" }, "geometry": { "type": "Polygon", "coordinates": [ [ [ 896.09300294636796, 589.462530953203782 ], [ 912.269087127513444, 586.179057864298898 ], [ 911.614099720242507, 582.904120831512955 ], [ 926.460480938928185, 579.629183796687585 ], [ 927.115468342502822, 583.340779100307714 ], [ 934.538658951909383, 582.467462562718197 ], [ 940.433545608425447, 610.631921038151518 ], [ 918.600632056138238, 615.435162022426084 ], [ 916.199011569481968, 608.011971414166055 ], [ 899.824326403386522, 610.195262772415731 ], [ 896.09300294636796, 589.462530953203782 ] ] ] } },
{ "type": "Feature", "properties": { "feature_type": "building", "subtype": "no-damage", "uid": "52867d20-aa4c-46c9-8e0c-f16a4f1af12d" }, "geometry": { "type": "Polygon", "coordinates": [ [ [ 927.278763515980472, 637.210016932384974 ], [ 960.683121248686916, 648.999790246947555 ], [ 957.189855083925522, 661.881209242164459 ], [ 970.071274076592204, 667.776095899955635 ], [ 964.176387416762168, 683.277464519158002 ], [ 926.18711783609092, 671.051032934780892 ], [ 927.715421785157673, 663.409513192633426 ], [ 921.60220599296963, 661.881209243184117 ], [ 922.25719339896591, 643.541561861010337 ], [ 927.278763515980472, 637.210016932384974 ] ] ] } },
{ "type": "Feature", "properties": { "feature_type": "building", "subtype": "no-damage", "uid": "0a1d7eec-c592-4f4c-b8bf-3bb8f9642439" }, "geometry": { "type": "Polygon", "coordinates": [ [ [ 935.761418300504147, 692.307333575653274 ], [ 947.332862481688153, 692.089004438706638 ], [ 947.776208975062559, 699.446948913721144 ], [ 949.315808290439918, 701.157614818591355 ], [ 951.026474195819787, 709.539877756126316 ], [ 950.684341014284996, 713.132276162879862 ], [ 956.671671686556238, 721.685605687231032 ], [ 940.611995014491981, 723.109520086002931 ], [ 922.650003003668871, 728.241517802652993 ], [ 918.715471419841947, 720.543521225638415 ], [ 920.426137328153459, 714.55619055553359 ], [ 931.716532305802502, 712.503391470912902 ], [ 930.519066171577606, 703.607928759673428 ], [ 933.427198211564814, 703.607928759673428 ], [ 933.085065032069338, 693.343933327392961 ], [ 935.761418300504147, 692.307333575653274 ] ] ] } },
{ "type": "Feature", "properties": { "feature_type": "building", "subtype": "no-damage", "uid": "d06eb68a-0744-4913-bf89-5b80e3f279da" }, "geometry": { "type": "Polygon", "coordinates": [ [ [ 1022.383889292294043, 778.749875025858842 ], [ 1019.978815034609966, 778.801696470111096 ], [ 1019.542156764667993, 777.273392524740643 ], [ 1018.013852817512998, 770.723518459168758 ], [ 1014.738915785237054, 767.011923156568287 ], [ 1006.005750362690947, 763.955315257669781 ], [ 1002.294155059453033, 755.739278677825837 ], [ 1004.477446415535951, 748.316088069565808 ], [ 1011.900637020863996, 747.224442389931141 ], [ 1014.52058664625099, 745.041151036779866 ], [ 1017.795523678909944, 746.569454983169976 ], [ 1018.668840225804047, 743.294517952423462 ], [ 1022.383838562627943, 743.017683808548213 ], [ 1022.383889292294043, 778.749875025858842 ] ] ] } },
{ "type": "Feature", "properties": { "feature_type": "building", "subtype": "no-damage", "uid": "a7f5d9cf-4bd4-483f-9157-43cfb5bbe463" }, "geometry": { "type": "Polygon", "coordinates": [ [ [ 977.350547661302699, 737.496915726753514 ], [ 992.404407634050699, 745.023845707774626 ], [ 984.022144694859321, 760.761972042573802 ], [ 975.639881756687601, 768.117835437798476 ], [ 973.416016079387759, 778.552897458934467 ], [ 963.746232262926128, 773.200284333989543 ], [ 957.2457018243432, 780.72721432112894 ], [ 942.191841853252299, 774.055617290503506 ], [ 940.310109356085263, 769.265752753603806 ], [ 945.442107070950442, 761.054556404924256 ], [ 947.424075415392053, 752.417645490869745 ], [ 951.311094763533902, 748.396590991411585 ], [ 954.393903210279973, 746.922204341338329 ], [ 960.693555257510184, 735.261146296784659 ], [ 974.118167175248686, 741.77216758257623 ], [ 977.350547661302699, 737.496915726753514 ] ] ] } },
{ "type": "Feature", "properties": { "feature_type": "building", "subtype": "no-damage", "uid": "ccf6d83e-b0cc-482d-a1ef-18c15f205abb" }, "geometry": { "type": "Polygon", "coordinates": [ [ [ 1022.384028760892988, 857.969356097400009 ], [ 1018.424152687495052, 857.492591862914651 ], [ 1013.97642133238503, 845.860063704494678 ], [ 1017.226686551868056, 845.175797341934754 ], [ 1013.805354741999963, 835.596068270174896 ], [ 1009.357623385997954, 837.135667584150156 ], [ 1010.726156110736042, 845.346863930790278 ], [ 997.211895454512273, 847.399663018470051 ], [ 994.474830005292574, 836.109268040820211 ], [ 990.027098648526021, 830.806203733275197 ], [ 992.079897737607666, 820.542208302014387 ], [ 999.093627954101066, 819.686875348559624 ], [ 998.067228410516236, 809.936079685904701 ], [ 1003.370292716021027, 807.883280598225042 ], [ 1013.463221558425971, 807.199014235665118 ], [ 1016.200287007772999, 812.844211721940837 ], [ 1022.383940768247044, 810.52652062603795 ], [ 1022.384028760892988, 857.969356097400009 ] ] ] } },
{ "type": "Feature", "properties": { "feature_type": "building", "subtype": "no-damage", "uid": "154f3035-ea35-4a2c-be8a-a070c3b3c3ee" }, "geometry": { "type": "Polygon", "coordinates": [ [ [ 921.640758366451223, 822.571301382947354 ], [ 928.654488581542523, 820.347435703353085 ], [ 939.089550607138904, 820.860635475018057 ], [ 941.142349691886807, 835.914495448276966 ], [ 939.089550608541003, 843.612492022232459 ], [ 946.445413999176481, 853.705420865657402 ], [ 946.103280818788789, 861.06128425782299 ], [ 935.155019023184536, 862.600883574857448 ], [ 933.615419707807177, 857.639952450121996 ], [ 930.70728766603554, 858.495285402557101 ], [ 934.128619481511578, 873.207012186888278 ], [ 931.904753800770209, 876.115144227003157 ], [ 913.429562017517355, 878.167943317742015 ], [ 910.863563159574937, 854.218620639361802 ], [ 908.810764072915049, 846.007424293741337 ], [ 910.179296795995356, 834.54596272213746 ], [ 922.108076481752164, 833.30261493397029 ], [ 921.640758366451223, 822.571301382947354 ] ] ] } },
{ "type": "Feature", "properties": { "feature_type": "building", "subtype": "no-damage", "uid": "cf979005-4245-450a-8bfb-76ac102f4935" }, "geometry": { "type": "Polygon", "coordinates": [ [ [ 982.205529668012673, 951.034532651576455 ], [ 978.712263499299979, 933.131543542276177 ], [ 986.353783245908176, 928.546631698007332 ], [ 997.925227427729396, 928.328302562080353 ], [ 1002.761434420602995, 952.169052783554775 ], [ 1001.287047769509968, 957.396423631218795 ], [ 1006.561027634474954, 965.92148887569374 ], [ 1007.652673311304966, 970.72472985588945 ], [ 996.799812618645205, 973.267319872166354 ], [ 997.429932899446158, 979.426002389904056 ], [ 982.359965904810906, 982.367841316844533 ], [ 980.809574309989216, 977.147404845445521 ], [ 977.517548787441115, 974.914633068681496 ], [ 968.129395959790713, 976.442937019150349 ], [ 965.727775469055587, 967.273113327553574 ], [ 968.282478960050184, 960.63540239560507 ], [ 965.203280331335009, 952.253139457050338 ], [ 971.019544410034769, 948.831807646290144 ], [ 977.349008260781716, 949.173940828079935 ], [ 978.273637807346518, 951.588357135714773 ], [ 982.205529668012673, 951.034532651576455 ] ] ] } },
{ "type": "Feature", "properties": { "feature_type": "building", "subtype": "no-damage", "uid": "ba986ae7-07dc-46a9-b71c-80cadd0760e4" }, "geometry": { "type": "Polygon", "coordinates": [ [ [ 939.051159246814223, 962.138990455956105 ], [ 935.971960617971604, 940.635722097957341 ], [ 942.130357877696269, 937.898656647717758 ], [ 949.144088091258141, 938.753989599133206 ], [ 954.79452598240573, 960.678345759739159 ], [ 958.413475025366211, 979.845372196415383 ], [ 945.009960033206767, 980.783618246832816 ], [ 946.818616619181171, 989.987059437033963 ], [ 934.373855894671919, 991.733692518331281 ], [ 933.282210215419695, 982.782197962661485 ], [ 929.352285780588886, 980.598906608490438 ], [ 924.985703066001747, 979.943919203768701 ], [ 921.49243689856371, 974.049032541898896 ], [ 922.802411711448599, 969.245791564762158 ], [ 921.92909517067244, 960.075967872145611 ], [ 932.72174790280144, 958.955043237731843 ], [ 933.734056833778482, 962.588082899418509 ], [ 939.051159246814223, 962.138990455956105 ] ] ] } },
{ "type": "Feature", "properties": { "feature_type": "building", "subtype": "no-damage", "uid": "4cc70678-8fa8-4861-82c4-66dbd9de192b" }, "geometry": { "type": "Polygon", "coordinates": [ [ [ 586.456855890144993, 1022.987599732820968 ], [ 552.868432086093662, 1020.615905542715041 ], [ 549.811824188470155, 1011.664410987045017 ], [ 554.396736032483773, 1002.931245569341968 ], [ 571.426408601898856, 1004.459549517771052 ], [ 573.609699958618876, 995.726384094969148 ], [ 569.24311724530628, 995.07139668922764 ], [ 568.588129842368971, 985.028256455962492 ], [ 574.264687363977828, 975.858432764365716 ], [ 611.598969540819667, 977.605065846682805 ], [ 608.979019911226032, 994.85306755024169 ], [ 613.127273485680121, 994.85306755024169 ], [ 610.725652994690108, 1015.376006287605946 ], [ 603.084133252288211, 1018.214285047518956 ], [ 601.195604298925787, 1022.987539613832951 ], [ 586.456855890144993, 1022.987599732820968 ] ] ] } },
{ "type": "Feature", "properties": { "feature_type": "building", "subtype": "no-damage", "uid": "e7fc997e-32e0-4e8e-9cf3-f44ec669a302" }, "geometry": { "type": "Polygon", "coordinates": [ [ [ 406.989130454347787, 887.429694027719847 ], [ 407.331263636647407, 879.047431087125801 ], [ 442.399914706113577, 879.218497679040411 ], [ 444.794846974180814, 882.639829485721748 ], [ 443.768447432635412, 898.206889227586657 ], [ 433.162318813594879, 898.035822637711362 ], [ 432.104253516803226, 908.170648007249383 ], [ 430.763902019830596, 914.604335201079948 ], [ 430.763902015879296, 919.295565449088144 ], [ 429.423550516102523, 925.595217495044153 ], [ 402.750555680422792, 923.852760548202127 ], [ 402.884590831483877, 918.089249102921599 ], [ 396.853009084846519, 917.016967903609952 ], [ 398.059325433562208, 893.560816666627943 ], [ 399.801782385247577, 890.343973068693003 ], [ 400.203887834861973, 887.261164621691705 ], [ 406.989130454347787, 887.429694027719847 ] ] ] } },
{ "type": "Feature", "properties": { "feature_type": "building", "subtype": "no-damage", "uid": "69109d29-dcda-46f5-9b6b-286abad55776" }, "geometry": { "type": "Polygon", "coordinates": [ [ [ 410.424759459241272, 937.944490428150289 ], [ 440.850738491109382, 938.882736476528294 ], [ 439.644422144178122, 959.256079266509005 ], [ 451.171445037287526, 960.462395607577037 ], [ 450.50126928848249, 979.629422048332003 ], [ 431.602313147684299, 978.825211151907411 ], [ 431.06617254624399, 985.661003797519243 ], [ 415.384060005165111, 984.454687450332926 ], [ 415.384060004017897, 983.248371100087638 ], [ 408.146161909174623, 982.578195351537602 ], [ 410.424759459241272, 937.944490428150289 ] ] ] } },
{ "type": "Feature", "properties": { "feature_type": "building", "subtype": "no-damage", "uid": "4cf56e27-5d84-4fb2-b0aa-240deac1762d" }, "geometry": { "type": "Polygon", "coordinates": [ [ [ 550.889866500431594, 838.11122905665195 ], [ 553.291486989127293, 815.841657233911292 ], [ 590.625769163547375, 818.898265128730941 ], [ 587.569161267070854, 842.259482626007866 ], [ 603.838025972967898, 843.882311663481801 ], [ 602.852200755826061, 857.324192975395817 ], [ 594.119035334936711, 857.105863841508267 ], [ 593.682377061553325, 859.070826060771878 ], [ 546.90259820873132, 857.013968053227472 ], [ 545.788000408019343, 848.097185647530864 ], [ 548.574494909289456, 841.966897743614595 ], [ 550.889866500431594, 838.11122905665195 ] ] ] } },
{ "type": "Feature", "properties": { "feature_type": "building", "subtype": "no-damage", "uid": "b9328e89-1df6-465c-ba39-df931b47e465" }, "geometry": { "type": "Polygon", "coordinates": [ [ [ 553.235418426232968, 730.42514072592337 ], [ 572.394876571918303, 734.872872082052936 ], [ 584.369537913019371, 740.004869793604485 ], [ 605.239661963064918, 744.965800920379365 ], [ 598.396998339250786, 774.560321086054955 ], [ 593.265000622601065, 772.849655182204401 ], [ 589.843668809801784, 781.745117892424219 ], [ 561.325557061878271, 772.105859724018501 ], [ 566.799687959935341, 753.630667941019169 ], [ 555.338226392028787, 750.038269541403452 ], [ 550.351120916729769, 745.453357699174035 ], [ 548.386158700525243, 742.178420662309236 ], [ 553.235418426232968, 730.42514072592337 ] ] ] } },
{ "type": "Feature", "properties": { "feature_type": "building", "subtype": "no-damage", "uid": "ba156e41-ed96-41b5-8fcc-dd7ba1211533" }, "geometry": { "type": "Polygon", "coordinates": [ [ [ 596.330377240565554, 678.871465908286041 ], [ 598.041043149896836, 667.923204116504735 ], [ 603.68624063680943, 668.436403886130392 ], [ 615.660901978037941, 662.449073210927054 ], [ 637.215292392045399, 667.581070931655859 ], [ 632.938627626683683, 672.199868877660606 ], [ 634.307160350528761, 677.331866591251696 ], [ 638.2416919341008, 678.700399318410859 ], [ 633.793960580010889, 704.360387899621855 ], [ 606.284489504585395, 700.212134328226625 ], [ 602.136235927709549, 696.500539025626153 ], [ 590.128133475564027, 694.753905942289407 ], [ 588.381500390952738, 696.718868165631875 ], [ 584.23324681892052, 695.845551620904416 ], [ 584.451575952935514, 685.584082252731946 ], [ 589.473146068038204, 677.724233375677159 ], [ 596.330377240565554, 678.871465908286041 ] ] ] } },
{ "type": "Feature", "properties": { "feature_type": "building", "subtype": "no-damage", "uid": "9de71503-8878-44d7-a9e8-e525f9cfdda8" }, "geometry": { "type": "Polygon", "coordinates": [ [ [ 387.682493831652778, 514.451306867495532 ], [ 390.520772589398177, 508.338091074797092 ], [ 404.712166401450304, 501.351558736351592 ], [ 420.650193292250378, 513.577990322768073 ], [ 430.693333526024674, 525.367763639369969 ], [ 406.889766714533721, 542.448973975038598 ], [ 404.924804495397723, 548.562189765697553 ], [ 398.593259563586287, 550.527151988020364 ], [ 393.29832720677598, 546.89065445869403 ], [ 399.969924238165675, 539.876924239140862 ], [ 396.890725609832884, 536.626659024374135 ], [ 385.771397219764822, 544.324655600368942 ], [ 377.560200874017482, 537.481991977828898 ], [ 372.428203157112875, 527.389063133384298 ], [ 387.682493831652778, 514.451306867495532 ] ] ] } },
{ "type": "Feature", "properties": { "feature_type": "building", "subtype": "no-damage", "uid": "6f64b355-d363-4e7f-9187-2017edb48e07" }, "geometry": { "type": "Polygon", "coordinates": [ [ [ 315.856510336647602, 613.343657496350374 ], [ 338.558564294363293, 643.296137953169819 ], [ 309.683234318021391, 663.216673142397099 ], [ 305.080338882862577, 657.663919666395714 ], [ 297.040209126225818, 663.138050562796252 ], [ 288.144746415369411, 650.479122861046221 ], [ 299.093008213905421, 642.610059694156462 ], [ 292.079277997539407, 632.51713085175129 ], [ 295.819802164010184, 624.658548478800981 ], [ 315.856510336647602, 613.343657496350374 ] ] ] } },
{ "type": "Feature", "properties": { "feature_type": "building", "subtype": "no-damage", "uid": "50281764-09c2-40a8-a0c8-b46c6590cf4b" }, "geometry": { "type": "Polygon", "coordinates": [ [ [ 196.332391046708807, 537.343095521760688 ], [ 240.091249136682592, 511.025369159920672 ], [ 249.565330443754107, 526.908387821087217 ], [ 235.6328579326875, 535.546520779664775 ], [ 248.172083195795807, 551.708188888970085 ], [ 220.966690010452197, 567.698790411459186 ], [ 207.79456253232209, 545.631200226804708 ], [ 203.688964359894612, 548.026132495254501 ], [ 196.332391046708807, 537.343095521760688 ] ] ] } },
{ "type": "Feature", "properties": { "feature_type": "building", "subtype": "no-damage", "uid": "e38d636d-e97b-4f46-b040-af97d50bbb94" }, "geometry": { "type": "Polygon", "coordinates": [ [ [ 192.769616731853006, 471.396585735752126 ], [ 205.428544434621699, 462.672189617446975 ], [ 207.652410113196112, 470.883385964087211 ], [ 215.521473279575389, 479.094582310727276 ], [ 171.044159731539196, 504.754570899076214 ], [ 166.083228601323299, 494.832708646546109 ], [ 172.925892226029589, 490.213910703600391 ], [ 166.5964283752825, 482.344847534671317 ], [ 156.674566120076491, 489.01644456835578 ], [ 147.265903638319998, 475.502183915190415 ], [ 159.069498387634013, 469.343786653170923 ], [ 161.158264654035008, 466.122800390124098 ], [ 165.227895649270607, 461.987923255906821 ], [ 181.006596304138498, 457.12151721817628 ], [ 186.953352652133589, 453.540414187165482 ], [ 194.138149458502198, 463.014322801276194 ], [ 190.032551284672593, 465.922454838331873 ], [ 192.769616731853006, 471.396585735752126 ] ] ] } },
{ "type": "Feature", "properties": { "feature_type": "building", "subtype": "no-damage", "uid": "717c1e5b-c17c-4f1b-98dc-98610e46269e" }, "geometry": { "type": "Polygon", "coordinates": [ [ [ 36.176464089708617, 959.125344522409364 ], [ 46.874591730243942, 952.138812182944207 ], [ 49.712870493852513, 955.195420076744085 ], [ 55.826086287060249, 951.483824775163384 ], [ 52.551149252999913, 945.807267251259759 ], [ 55.389428019667562, 940.785697133097642 ], [ 63.030947758755467, 937.729089238277993 ], [ 67.179201334229205, 942.314001080507524 ], [ 68.052517875642593, 936.200785285769712 ], [ 80.472606789525457, 929.002612038143752 ], [ 86.63100404886778, 937.89807474836357 ], [ 96.411078669997352, 931.615873437422124 ], [ 97.750332438680985, 921.988881821649784 ], [ 109.164531462957598, 917.340804920865935 ], [ 122.696775708286907, 934.688383845764065 ], [ 109.382860597482505, 946.280337684878873 ], [ 104.250862881087698, 940.293007013754277 ], [ 92.960467903311226, 948.333136769499561 ], [ 100.316331297515703, 953.978334257814595 ], [ 61.772340516896321, 986.679057009603866 ], [ 48.771279633230037, 981.889192470664852 ], [ 43.297148735172961, 976.072928397572923 ], [ 41.073283057618198, 969.572397954783355 ], [ 40.560083284806083, 965.979999552108666 ], [ 36.176464089708617, 959.125344522409364 ] ] ] } },
{ "type": "Feature", "properties": { "feature_type": "building", "subtype": "no-damage", "uid": "05cdb6eb-b2e9-4616-92a6-1714857a7590" }, "geometry": { "type": "Polygon", "coordinates": [ [ [ 1022.384345899058985, 52.15320986877083 ], [ 1020.875883053503003, 52.562008343928767 ], [ 1010.937534098761944, 51.868635165008882 ], [ 1007.470668181092037, 47.015022882998537 ], [ 1008.457507092448054, 11.71533188426125 ], [ 997.794888228956779, 0.005871334321656 ], [ 1022.384499065051045, 0.005263083072593 ], [ 1022.384345899058985, 52.15320986877083 ] ] ] } }
]
}
