{
"type": "FeatureCollection",
"name": "hurricane-michael_00000503_post_disaster",
"features": [
{ "type": "Feature", "properties": { "feature_type": "building", "subtype": "no-damage", "uid": "3e465d08-c7eb-495a-b503-acbca56d4475" }, "geometry": { "type": "Polygon", "coordinates": [ [ [ 1023.036642765647002, 765.840033784495745 ], [ 949.120991393236409, 567.342405518678675 ], [ 988.740839199645166, 553.502433192197486 ], [ 1023.036694281058999, 654.514624494516625 ], [ 1023.036642765647002, 765.840033784495745 ] ] ] } },
{ "type": "Feature", "properties": { "feature_type": "building", "subtype": "no-damage", "uid": "5e99753f-0f4e-4a7c-8c42-b64c041721ac" }, "geometry": { "type": "Polygon", "coordinates": [ [ [ 981.633214357194333, 689.090087998218905 ], [ 968.183776283994121, 692.938769922485562 ], [ 963.183776283433417, 676.820324980298324 ], [ 976.329576419655837, 672.758093094042579 ], [ 981.633214357194333, 689.090087998218905 ] ] ] } },
{ "type": "Feature", "properties": { "feature_type": "building", "subtype": "no-damage", "uid": "3c322155-5860-42e8-82c1-6c23eba00c85" }, "geometry": { "type": "Polygon", "coordinates": [ [ [ 887.431542888468812, 554.660165031755469 ], [ 886.802468246787498, 543.28563884857715 ], [ 898.163024101321184, 543.201903129400876 ], [ 898.323256973344883, 555.506511477524327 ], [ 887.431542888468812, 554.660165031755469 ] ] ] } },
{ "type": "Feature", "properties": { "feature_type": "building", "subtype": "no-damage", "uid": "0f33bd72-7913-4727-8149-b338495b0e33" }, "geometry": { "type": "Polygon", "coordinates": [ [ [ 745.955642268245697, 330.248644424634108 ], [ 763.595061164857157, 345.788132498716607 ], [ 748.055573089532686, 361.747606739205708 ], [ 745.535656103838392, 360.487648243984211 ], [ 731.256126522235604, 344.948160171900611 ], [ 745.955642268245697, 330.248644424634108 ] ] ] } },
{ "type": "Feature", "properties": { "feature_type": "building", "subtype": "no-damage", "uid": "de78c2f6-2d8e-4b00-9b7f-55be2bd62313" }, "geometry": { "type": "Polygon", "coordinates": [ [ [ 724.708464878610926, 434.075934126760785 ], [ 736.552749499629272, 442.320485192495084 ], [ 739.804121751691582, 444.642893940970907 ], [ 734.46258162930053, 452.771324561135373 ], [ 718.089599940660833, 442.436605626070786 ], [ 724.708464878610926, 434.075934126760785 ] ] ] } },
{ "type": "Feature", "properties": { "feature_type": "building", "subtype": "no-damage", "uid": "e4dec9fd-f934-4322-832a-f67855f9f72e" }, "geometry": { "type": "Polygon", "coordinates": [ [ [ 737.946194749763436, 448.590988811480372 ], [ 740.900652998047008, 445.714429513515086 ], [ 745.889423204235754, 447.507683383064489 ], [ 746.693449053292284, 452.155453528425085 ], [ 744.784074744420991, 455.183402115802323 ], [ 740.431762642771901, 455.694922567810011 ], [ 737.249472125570946, 453.119685875855623 ], [ 737.946194749763436, 448.590988811480372 ] ] ] } },
{ "type": "Feature", "properties": { "feature_type": "building", "subtype": "no-damage", "uid": "2ef00399-9add-45d7-9689-14aa259912f4" }, "geometry": { "type": "Polygon", "coordinates": [ [ [ 750.388823715558829, 450.364365069308803 ], [ 764.352802676505462, 458.631040619734392 ], [ 764.408658593426708, 463.043657971307823 ], [ 758.432075595047081, 467.232851661193024 ], [ 744.077105218900101, 458.240049209531378 ], [ 750.388823715558829, 450.364365069308803 ] ] ] } },
{ "type": "Feature", "properties": { "feature_type": "building", "subtype": "no-damage", "uid": "622a0fcc-2cae-4829-a6f2-ea98036d6394" }, "geometry": { "type": "Polygon", "coordinates": [ [ [ 801.581694103287077, 405.07963386621941 ], [ 812.75666540906343, 409.143259795049403 ], [ 813.09530090538135, 409.369016792761386 ], [ 808.015768491847552, 422.237165567389809 ], [ 796.727918688714453, 420.995502089969079 ], [ 801.581694103287077, 405.07963386621941 ] ] ] } },
{ "type": "Feature", "properties": { "feature_type": "building", "subtype": "minor-damage", "uid": "cbe2f410-a123-4cd0-87cd-ae8b17ed36bc" }, "geometry": { "type": "Polygon", "coordinates": [ [ [ 602.858819821297402, 320.386669553944216 ], [ 597.583517025845026, 345.408713879268078 ], [ 593.641837907111039, 352.020415029249818 ], [ 565.720695779289144, 343.103252849801322 ], [ 560.218625240665801, 341.124423167405325 ], [ 558.136606161554027, 345.40013647569441 ], [ 550.67609489701988, 343.19878973629659 ], [ 554.74322023193065, 328.75548410457219 ], [ 560.228670227785642, 329.605311992096802 ], [ 562.06150671401042, 323.622757064992072 ], [ 556.450412819668031, 322.240154318597774 ], [ 558.232609708007658, 318.390609039162712 ], [ 553.831758823241444, 316.750987897701577 ], [ 555.992251625431209, 309.126044346753872 ], [ 564.006927630156156, 309.907351843595507 ], [ 565.340748989934582, 310.338847506195123 ], [ 588.173517452703209, 314.327200127539527 ], [ 602.858819821297402, 320.386669553944216 ] ] ] } },
{ "type": "Feature", "properties": { "feature_type": "building", "subtype": "no-damage", "uid": "36f5f85b-a5e8-4fb8-a6af-3ddc5ddf23f8" }, "geometry": { "type": "Polygon", "coordinates": [ [ [ 779.654059335705142, 982.982243640617526 ], [ 793.651008130420337, 980.145024288364084 ], [ 795.353339743120955, 989.791570078429572 ], [ 781.356390945157386, 991.872197601483094 ], [ 779.654059335705142, 982.982243640617526 ] ] ] } },
{ "type": "Feature", "properties": { "feature_type": "building", "subtype": "no-damage", "uid": "de268667-25d8-4630-9f98-e8210219cb75" }, "geometry": { "type": "Polygon", "coordinates": [ [ [ 799.486394291761371, 500.112110975431278 ], [ 810.886171631096886, 481.934087647010983 ], [ 825.058867780987725, 490.86904826491309 ], [ 813.350988351784963, 509.047071591334372 ], [ 799.486394291761371, 500.112110975431278 ] ] ] } },
{ "type": "Feature", "properties": { "feature_type": "building", "subtype": "major-damage", "uid": "caf499a1-3def-4af1-87e8-1bdae1b80bf3" }, "geometry": { "type": "Polygon", "coordinates": [ [ [ 909.096344131629053, 833.684984458899294 ], [ 944.219982421986174, 821.669002934825699 ], [ 942.679471971399948, 817.355573673182221 ], [ 964.862822472085327, 809.653021414750242 ], [ 969.176251734726179, 817.047471581565674 ], [ 1013.851054826463951, 801.026162888464796 ], [ 1023.036608750043001, 817.768846005373689 ], [ 1023.036591037090943, 841.568827066782546 ], [ 979.035518624225119, 858.949355858520335 ], [ 974.722089360334849, 846.317170159209581 ], [ 929.431082090611426, 864.803295577247468 ], [ 926.350061186940252, 857.100743317815954 ], [ 918.647508931510401, 860.79796840122367 ], [ 909.096344131629053, 833.684984458899294 ] ] ] } }
]
}
