{
"type": "FeatureCollection",
"name": "hurricane-florence_00000248_post_disaster",
"features": [
{ "type": "Feature", "properties": { "feature_type": "building", "subtype": "un-classified", "uid": "db3d7a93-d624-43fb-ac50-813e137113bd" }, "geometry": { "type": "Polygon", "coordinates": [ [ [ 647.36719731956066, 30.792209359787151 ], [ 657.443590341274216, 35.830405871282039 ], [ 654.084792664906558, 44.008017222160753 ], [ 643.528571404330705, 39.069246480864017 ], [ 647.36719731956066, 30.792209359787151 ] ] ] } },
{ "type": "Feature", "properties": { "feature_type": "building", "subtype": "un-classified", "uid": "e7d22002-dc80-4e41-89a8-189a8e9a3f32" }, "geometry": { "type": "Polygon", "coordinates": [ [ [ 588.545356158678601, 22.807364811662861 ], [ 595.894107380301307, 17.908197331938929 ], [ 599.262285017960608, 22.34806785843217 ], [ 591.607335834142305, 27.24723533611769 ], [ 588.545356158678601, 22.807364811662861 ] ] ] } },
{ "type": "Feature", "properties": { "feature_type": "building", "subtype": "un-classified", "uid": "20551efa-5d33-4f05-8650-254334650c63" }, "geometry": { "type": "Polygon", "coordinates": [ [ [ 592.985226689247611, 50.212082887577438 ], [ 611.663302697091467, 37.19866927691816 ], [ 629.064179431650928, 60.05271627022902 ], [ 626.920793658061939, 64.772581059916504 ], [ 626.989295788930235, 74.444020738541951 ], [ 616.562470175540284, 83.18675752571491 ], [ 610.005417580320795, 76.128109555843167 ], [ 599.721581969917111, 66.899872111851721 ], [ 597.42509721446595, 57.254636136814078 ], [ 592.985226689247611, 50.212082887577438 ] ] ] } },
{ "type": "Feature", "properties": { "feature_type": "building", "subtype": "un-classified", "uid": "67f35832-0b87-420f-9c38-abd6baeac132" }, "geometry": { "type": "Polygon", "coordinates": [ [ [ 569.474084559835319, 89.017952282182193 ], [ 586.148115873103393, 111.8097936405035 ], [ 576.791465207007832, 118.887260166080594 ], [ 578.230949922830177, 120.926530182201304 ], [ 571.15348339674506, 126.084683753348003 ], [ 569.114213380115302, 123.445628439987104 ], [ 559.157777419327545, 130.763009080791193 ], [ 561.436961552713115, 134.121806756140387 ], [ 554.839323265745065, 139.040046204925687 ], [ 556.15885092446365, 141.199273281717495 ], [ 549.561212634947537, 146.117512734579691 ], [ 549.201341459049559, 146.477383913535391 ], [ 547.521942622649362, 144.198199774034094 ], [ 533.24705250471186, 154.634463974960312 ], [ 523.290616542395355, 140.839402099704188 ], [ 525.689757738235585, 138.920089144254604 ], [ 518.492334151224554, 129.683395541885687 ], [ 553.279881488232263, 104.252498874280306 ], [ 551.240611471602506, 101.493486497190702 ], [ 569.114213380370074, 88.53812404051699 ], [ 569.474084559835319, 89.017952282182193 ] ] ] } },
{ "type": "Feature", "properties": { "feature_type": "building", "subtype": "un-classified", "uid": "1359e9a1-f599-4da6-a7b8-19b6e356d8e7" }, "geometry": { "type": "Polygon", "coordinates": [ [ [ 579.859690956495001, 160.101171858487305 ], [ 585.983650300797763, 154.742707431647887 ], [ 594.250995422511551, 164.08174543582669 ], [ 587.05534318606351, 170.358803766069798 ], [ 578.634899083251867, 161.019765758833387 ], [ 579.859690956495001, 160.101171858487305 ] ] ] } },
{ "type": "Feature", "properties": { "feature_type": "building", "subtype": "un-classified", "uid": "327e7d02-0085-4dae-8fc7-fcac86825486" }, "geometry": { "type": "Polygon", "coordinates": [ [ [ 653.433851591842767, 128.703324290302902 ], [ 660.629503824978428, 101.604804175055094 ], [ 741.116664334762277, 119.823583242412397 ], [ 732.892224129232318, 146.462806401371893 ], [ 653.433851591842767, 128.703324290302902 ] ] ] } },
{ "type": "Feature", "properties": { "feature_type": "building", "subtype": "un-classified", "uid": "517a4d4b-249d-4668-b6d7-b9e61b362830" }, "geometry": { "type": "Polygon", "coordinates": [ [ [ 756.668905190295959, 335.232938022385383 ], [ 767.232735066696591, 329.721374611135786 ], [ 777.171558367858665, 345.209593234814292 ], [ 766.413566932981553, 351.374615155477784 ], [ 756.668905190295959, 335.232938022385383 ] ] ] } },
{ "type": "Feature", "properties": { "feature_type": "building", "subtype": "un-classified", "uid": "80bbd123-fedc-498b-930e-cf7154c46e7b" }, "geometry": { "type": "Polygon", "coordinates": [ [ [ 776.38062773134277, 351.741131069962307 ], [ 791.735131382324994, 339.745425095599728 ], [ 797.759343137764631, 350.42160341481059 ], [ 802.95478264075939, 357.69674979067122 ], [ 789.575904306043412, 368.894990617509904 ], [ 786.457020751017922, 364.936407648997374 ], [ 783.383866288741501, 366.803785471739786 ], [ 777.395894062975685, 358.514336271766126 ], [ 779.969458760249154, 356.629728231447586 ], [ 776.38062773134277, 351.741131069962307 ] ] ] } },
{ "type": "Feature", "properties": { "feature_type": "building", "subtype": "un-classified", "uid": "4c99246b-bfe7-420f-9ea3-9fc2c08fb798" }, "geometry": { "type": "Polygon", "coordinates": [ [ [ 724.25453936483666, 364.919551897387123 ], [ 741.528355976618855, 354.12341651750512 ], [ 740.088871256210041, 351.724275322428809 ], [ 748.485865441013743, 346.566121751282026 ], [ 754.36376137159948, 355.562901235366326 ], [ 761.441227899723003, 351.244447086878779 ], [ 763.480497915333672, 349.924919426631106 ], [ 772.357320338999671, 363.959895419152588 ], [ 755.803246088441028, 374.636073739382709 ], [ 753.404104894129659, 376.195515513838075 ], [ 751.964620174485162, 373.796374321819428 ], [ 736.610116521719306, 383.992724398345786 ], [ 724.25453936483666, 364.919551897387123 ] ] ] } },
{ "type": "Feature", "properties": { "feature_type": "building", "subtype": "un-classified", "uid": "cfb88ed0-340d-4ce9-8fe2-c34da74db5fe" }, "geometry": { "type": "Polygon", "coordinates": [ [ [ 647.797563803903927, 619.881857739460429 ], [ 660.847117249428152, 606.195740708707717 ], [ 682.80856085931589, 595.37415980140554 ], [ 728.322857036676737, 658.075672716421536 ], [ 707.952822382335967, 673.034916908962145 ], [ 690.447323854502542, 681.628525274217395 ], [ 647.797563803903927, 619.881857739460429 ] ] ] } },
{ "type": "Feature", "properties": { "feature_type": "building", "subtype": "un-classified", "uid": "26bb38fc-cd47-4f0e-be84-80b95e17ff1a" }, "geometry": { "type": "Polygon", "coordinates": [ [ [ 608.221290396556356, 155.22838635036149 ], [ 625.28427228924204, 144.621361584076112 ], [ 632.071867641549716, 157.795864243544997 ], [ 619.563455493523861, 166.675571493407404 ], [ 614.312453133420377, 168.250872201362313 ], [ 608.221290396556356, 155.22838635036149 ] ] ] } }
]
}
