{
"type": "FeatureCollection",
"name": "hurricane-florence_00000280_post_disaster",
"features": [
{ "type": "Feature", "properties": { "feature_type": "building", "subtype": "no-damage", "uid": "a6f2fff3-cd4b-4e42-b3e5-28aa2e0cc816" }, "geometry": { "type": "Polygon", "coordinates": [ [ [ 0.656877505180769, 634.153183898609882 ], [ 10.6902641684686, 650.878859814401608 ], [ 0.656858676801916, 658.888581422422931 ], [ 0.656877505180769, 634.153183898609882 ] ] ] } },
{ "type": "Feature", "properties": { "feature_type": "building", "subtype": "no-damage", "uid": "6fb0ba7c-7854-4d69-a35e-69844f11280d" }, "geometry": { "type": "Polygon", "coordinates": [ [ [ 0.65682421272003, 695.236392505228082 ], [ 16.355809710238638, 686.233959620375117 ], [ 36.090948132515287, 721.991685669312005 ], [ 0.656767026876488, 742.710591708069273 ], [ 0.65682421272003, 695.236392505228082 ] ] ] } },
{ "type": "Feature", "properties": { "feature_type": "building", "subtype": "no-damage", "uid": "b1ac5647-2248-4784-bbce-db0323b59c75" }, "geometry": { "type": "Polygon", "coordinates": [ [ [ 0.656714836181929, 778.473667251728216 ], [ 38.631114466658623, 756.577027262373122 ], [ 59.538637346084727, 794.28872741496798 ], [ 0.6566337615811, 825.787250971567687 ], [ 0.656714836181929, 778.473667251728216 ] ] ] } },
{ "type": "Feature", "properties": { "feature_type": "building", "subtype": "no-damage", "uid": "8fcb8007-39ea-4a8d-a39b-a5476575484d" }, "geometry": { "type": "Polygon", "coordinates": [ [ [ 0.656560723961971, 862.831911290823996 ], [ 62.731636354855659, 827.641776593967506 ], [ 84.616146288913384, 864.181092284571378 ], [ 0.656455253546801, 910.131018267808372 ], [ 0.656560723961971, 862.831911290823996 ] ] ] } },
{ "type": "Feature", "properties": { "feature_type": "building", "subtype": "no-damage", "uid": "18e3e967-fde7-44ba-9973-81a571a7aab5" }, "geometry": { "type": "Polygon", "coordinates": [ [ [ 0.65635910227971, 948.706102069331905 ], [ 87.190530959614293, 898.215115017842209 ], [ 108.388010473589702, 934.624903353063132 ], [ 0.656228430109767, 996.125316854284961 ], [ 0.65635910227971, 948.706102069331905 ] ] ] } },
{ "type": "Feature", "properties": { "feature_type": "building", "subtype": "no-damage", "uid": "86671a3b-1fa0-4ac7-a701-3c02f4fb4b00" }, "geometry": { "type": "Polygon", "coordinates": [ [ [ 57.853634845352467, 658.478603626782501 ], [ 62.412003116455161, 656.55929066725605 ], [ 61.932174880905308, 654.879891830091083 ], [ 75.487322635071109, 651.281180038495791 ], [ 76.08710793409486, 652.600707696705058 ], [ 78.966077367778155, 652.000922398445596 ], [ 87.842899792718214, 673.593193159228804 ], [ 82.63084164155859, 674.533660205450246 ], [ 83.508604335933427, 676.522605135150343 ], [ 71.309356829320137, 680.266495258025884 ], [ 70.298326089219202, 677.204845060081198 ], [ 65.890757851455433, 680.070874383488785 ], [ 57.853634845352467, 658.478603626782501 ] ] ] } },
{ "type": "Feature", "properties": { "feature_type": "building", "subtype": "no-damage", "uid": "ae66799e-450b-4b8a-bbaf-4a2e314a9385" }, "geometry": { "type": "Polygon", "coordinates": [ [ [ 63.79371686884695, 634.686477429499746 ], [ 66.879283408491432, 631.344909966630553 ], [ 72.418457586267095, 631.814857443824053 ], [ 75.20229411452506, 641.119817467385701 ], [ 70.544873724076609, 641.589764946617493 ], [ 66.665336854267224, 643.829426028231751 ], [ 63.79371686884695, 634.686477429499746 ] ] ] } },
{ "type": "Feature", "properties": { "feature_type": "building", "subtype": "no-damage", "uid": "43cb6532-2c5e-4f9d-92b7-2738bd45182e" }, "geometry": { "type": "Polygon", "coordinates": [ [ [ 0.656880826786673, 415.096880542100905 ], [ 7.343912969085902, 411.894316154777584 ], [ 28.056038442172131, 446.479657745800296 ], [ 23.75729542268683, 446.675055157490988 ], [ 24.998182011978631, 447.958240176611696 ], [ 0.656904705861464, 461.682679104676879 ], [ 0.656880826786673, 415.096880542100905 ] ] ] } },
{ "type": "Feature", "properties": { "feature_type": "building", "subtype": "no-damage", "uid": "9f3037d2-6f1b-4fdb-83b5-0f59576d4347" }, "geometry": { "type": "Polygon", "coordinates": [ [ [ 693.24472047755728, 465.301830918513872 ], [ 701.566274308283823, 464.986476446151983 ], [ 702.001585840807024, 474.298610400559824 ], [ 693.484634594822637, 474.658481583592277 ], [ 693.24472047755728, 465.301830918513872 ] ] ] } },
{ "type": "Feature", "properties": { "feature_type": "building", "subtype": "no-damage", "uid": "8068a68e-ea16-46e0-b05a-36e000609559" }, "geometry": { "type": "Polygon", "coordinates": [ [ [ 782.817959391150453, 468.922684371996695 ], [ 792.392432483478615, 469.313479192320585 ], [ 792.197035074590758, 479.474144519723325 ], [ 782.427164571590993, 479.08334970041858 ], [ 782.817959391150453, 468.922684371996695 ] ] ] } },
{ "type": "Feature", "properties": { "feature_type": "building", "subtype": "no-damage", "uid": "65a8a77e-d489-4b7a-af03-e59e098f07b4" }, "geometry": { "type": "Polygon", "coordinates": [ [ [ 742.282760644638756, 460.435285884361292 ], [ 770.606072626498872, 460.741483851143414 ], [ 769.993676691406108, 495.188755180371516 ], [ 743.354453532962111, 494.576359243749778 ], [ 741.670364709545993, 492.739171435923026 ], [ 742.282760644638756, 460.435285884361292 ] ] ] } },
{ "type": "Feature", "properties": { "feature_type": "building", "subtype": "no-damage", "uid": "f253f945-d052-42fc-9ab1-d81ca76cbb1f" }, "geometry": { "type": "Polygon", "coordinates": [ [ [ 685.272399178170076, 496.425258425528227 ], [ 720.179903578142103, 496.545215487218513 ], [ 720.179903578142103, 512.859375615164595 ], [ 718.620461803177363, 519.329136189352312 ], [ 721.259517115008975, 528.453793385199219 ], [ 685.098768907618592, 528.180737343175451 ], [ 683.69242611324205, 520.048878547263598 ], [ 685.392356238586331, 513.459160915462462 ], [ 685.272399178170076, 496.425258425528227 ] ] ] } },
{ "type": "Feature", "properties": { "feature_type": "building", "subtype": "no-damage", "uid": "c71c632d-0062-441f-b9d8-70d5927db154" }, "geometry": { "type": "Polygon", "coordinates": [ [ [ 727.736102690895791, 548.212704408952845 ], [ 735.391051877262043, 549.788971605362804 ], [ 743.964594962190517, 551.12158510153597 ], [ 740.137120372065056, 575.005026550284242 ], [ 731.257379315003618, 575.61742248690598 ], [ 726.664409803591639, 573.62713569874586 ], [ 727.5830037069951, 570.412057042438391 ], [ 723.296232162619845, 568.881067203432167 ], [ 727.736102690895791, 548.212704408952845 ] ] ] } },
{ "type": "Feature", "properties": { "feature_type": "building", "subtype": "no-damage", "uid": "298c7f51-36f5-462c-9af6-9e82d6e392c7" }, "geometry": { "type": "Polygon", "coordinates": [ [ [ 764.479858780663449, 548.094029228262457 ], [ 774.125094750348126, 549.607943847096635 ], [ 785.481968060187, 551.281559373947061 ], [ 778.961717966838137, 589.770445030657584 ], [ 767.541838450521595, 590.314924923020158 ], [ 754.987721788764134, 586.334351348738323 ], [ 757.743503495662367, 563.675701764060591 ], [ 762.336473003761967, 564.134998716272094 ], [ 764.479858780663449, 548.094029228262457 ] ] ] } }
]
}
