{
"type": "FeatureCollection",
"name": "hurricane-harvey_00000148_post_disaster",
"features": [
{ "type": "Feature", "properties": { "feature_type": "building", "subtype": "minor-damage", "uid": "c815a5e0-ccb7-4663-87a5-33f5cc5145b1" }, "geometry": { "type": "Polygon", "coordinates": [ [ [ -0.000004986646347, 475.598095997537996 ], [ -0.000004985898313, 421.796365486234208 ], [ 10.50019100281262, 421.885852783120583 ], [ 9.927316199178151, 475.373314072911796 ], [ -0.000004986646347, 475.598095997537996 ] ] ] } },
{ "type": "Feature", "properties": { "feature_type": "building", "subtype": "minor-damage", "uid": "3a37c8ef-78ef-42a8-a453-277b5367c85d" }, "geometry": { "type": "Polygon", "coordinates": [ [ [ 151.897247629902211, 367.67518694402662 ], [ 216.107790766638601, 367.823389314464407 ], [ 216.896515257011714, 428.02740387122742 ], [ 151.854599506134605, 427.339169130062373 ], [ 145.370933785007793, 397.754349784845488 ], [ 151.897247629902211, 367.67518694402662 ] ] ] } },
{ "type": "Feature", "properties": { "feature_type": "building", "subtype": "minor-damage", "uid": "c508d992-d967-4cbd-a2a1-1319cb04cae6" }, "geometry": { "type": "Polygon", "coordinates": [ [ [ 154.310966054526801, 466.653985347223625 ], [ 217.817380113356194, 466.563001943729091 ], [ 218.636230726479312, 498.134242169381423 ], [ 153.856049047963495, 498.498175775380275 ], [ 154.310966054526801, 466.653985347223625 ] ] ] } },
{ "type": "Feature", "properties": { "feature_type": "building", "subtype": "minor-damage", "uid": "6a7c67a7-365a-4a6f-a3df-fa10d3f4803d" }, "geometry": { "type": "Polygon", "coordinates": [ [ [ -0.000004988204752, 639.061469773072872 ], [ -0.000004986022985, 586.044205894721131 ], [ 19.891536243269261, 586.044205894721131 ], [ 24.998531069453261, 588.313981372527564 ], [ 24.802201961355141, 639.884446261807739 ], [ -0.000004988204752, 639.061469773072872 ] ] ] } },
{ "type": "Feature", "properties": { "feature_type": "building", "subtype": "minor-damage", "uid": "aa93e36b-d2bd-4cf6-ab06-c74074755ba4" }, "geometry": { "type": "Polygon", "coordinates": [ [ [ 140.318874862084414, 543.544094211065271 ], [ 206.3315117429932, 544.48983399373401 ], [ 205.95321582740749, 580.61709371481777 ], [ 140.886318731410995, 581.562833501476007 ], [ 140.318874862084414, 543.544094211065271 ] ] ] } },
{ "type": "Feature", "properties": { "feature_type": "building", "subtype": "minor-damage", "uid": "41f99877-7ba1-41eb-b433-95bfa2f1d219" }, "geometry": { "type": "Polygon", "coordinates": [ [ [ 140.697170774179199, 586.534940590342103 ], [ 222.976531927591111, 587.291532414282869 ], [ 223.354827841493687, 639.874664368164417 ], [ 141.26461464412921, 641.766143939486142 ], [ 140.697170774179199, 586.534940590342103 ] ] ] } },
{ "type": "Feature", "properties": { "feature_type": "building", "subtype": "major-damage", "uid": "c927b4bc-e00d-4ec3-813e-322340961758" }, "geometry": { "type": "Polygon", "coordinates": [ [ [ 279.565985051159373, 582.32750803109866 ], [ 367.066978696297213, 574.624955771538112 ], [ 372.304714231523974, 615.602533780830868 ], [ 284.495618497512623, 625.461800673666858 ], [ 279.565985051159373, 582.32750803109866 ] ] ] } },
{ "type": "Feature", "properties": { "feature_type": "building", "subtype": "minor-damage", "uid": "f29ae9fc-b8c0-4cf0-8167-26afaa11594b" }, "geometry": { "type": "Polygon", "coordinates": [ [ [ 139.853700652496286, 752.203180584893403 ], [ 202.398424978864711, 753.435588944627739 ], [ 203.322731251906504, 806.429148473050304 ], [ 139.237496470946297, 808.27776101614279 ], [ 139.54559856069281, 781.164777073061714 ], [ 139.853700652496286, 752.203180584893403 ] ] ] } },
{ "type": "Feature", "properties": { "feature_type": "building", "subtype": "minor-damage", "uid": "45fb95e3-1921-4b51-b69f-95c44367f1ef" }, "geometry": { "type": "Polygon", "coordinates": [ [ [ -0.000004986085322, 705.200356066306767 ], [ 22.854983396094291, 705.767799936506435 ], [ 23.800723181131289, 758.161783928667887 ], [ -0.000004987519054, 757.594340060462969 ], [ -0.000004986085322, 705.200356066306767 ] ] ] } },
{ "type": "Feature", "properties": { "feature_type": "building", "subtype": "minor-damage", "uid": "a09e6770-5185-4387-bbc4-500095d18338" }, "geometry": { "type": "Polygon", "coordinates": [ [ [ -0.00000498677102, 824.295602907529769 ], [ 20.660537946230651, 824.443805278964874 ], [ 21.846156935476849, 878.537671563916547 ], [ -0.000004986958028, 877.944862075184005 ], [ -0.00000498677102, 824.295602907529769 ] ] ] } },
{ "type": "Feature", "properties": { "feature_type": "building", "subtype": "minor-damage", "uid": "27441044-4761-462f-be5e-32ed355696c1" }, "geometry": { "type": "Polygon", "coordinates": [ [ [ 139.510343927191911, 869.43884812590386 ], [ 202.685761457976611, 870.195439950842001 ], [ 205.522980806729294, 925.048347381532608 ], [ 140.077787801380794, 924.102607600858732 ], [ 139.510343927191911, 869.43884812590386 ] ] ] } },
{ "type": "Feature", "properties": { "feature_type": "building", "subtype": "minor-damage", "uid": "880955c6-cf33-4655-9fc7-13e27a91deba" }, "geometry": { "type": "Polygon", "coordinates": [ [ [ -0.00000498627233, 995.975827780605641 ], [ -0.000004983280193, 941.690364217122578 ], [ 20.891696730510581, 942.068660132583773 ], [ 21.45914060095928, 996.164975739333613 ], [ -0.00000498627233, 995.975827780605641 ] ] ] } },
{ "type": "Feature", "properties": { "feature_type": "building", "subtype": "minor-damage", "uid": "d3a739e0-1da4-4172-b0a3-90ddb8f098a9" }, "geometry": { "type": "Polygon", "coordinates": [ [ [ 137.902410553764099, 1022.986216874153001 ], [ 139.10196719598801, 985.968615949863874 ], [ 220.440919028618197, 985.66051385569142 ], [ 222.240706115543304, 1022.987385535205021 ], [ 137.902410553764099, 1022.986216874153001 ] ] ] } },
{ "type": "Feature", "properties": { "feature_type": "building", "subtype": "major-damage", "uid": "5ef9f66a-ccd5-4718-bf69-10666ad10235" }, "geometry": { "type": "Polygon", "coordinates": [ [ [ 304.497392092554321, 1022.988238156729949 ], [ 304.458508585508127, 1012.236940844524952 ], [ 298.587613398194208, 1011.768970938760049 ], [ 297.821844460775424, 1011.896599095058946 ], [ 297.921679555314086, 997.191359297439362 ], [ 304.581510938691792, 997.642873290204875 ], [ 305.145903430209614, 995.272424831676403 ], [ 350.410181143598606, 996.852723806355925 ], [ 351.931604212789523, 1022.988600907512023 ], [ 304.497392092554321, 1022.988238156729949 ] ] ] } },
{ "type": "Feature", "properties": { "feature_type": "building", "subtype": "major-damage", "uid": "9a04485a-2043-4b47-add6-cf0d578e7163" }, "geometry": { "type": "Polygon", "coordinates": [ [ [ 300.407507388483396, 939.460667889388105 ], [ 302.284837712530418, 867.652783027854184 ], [ 321.058140945146704, 868.1221156068558 ], [ 320.823474653339588, 939.930000475371344 ], [ 372.919391128705797, 942.041997082374905 ], [ 371.51139338372252, 963.161963221229712 ], [ 286.56219625470618, 960.111301447246319 ], [ 286.32752996663919, 939.695334182379725 ], [ 300.407507388483396, 939.460667889388105 ] ] ] } },
{ "type": "Feature", "properties": { "feature_type": "building", "subtype": "major-damage", "uid": "c0f34c29-2c3e-4a02-8799-cdc37b3c23dd" }, "geometry": { "type": "Polygon", "coordinates": [ [ [ 348.540207693785987, 931.627336717922049 ], [ 344.909580427965409, 912.814796393257325 ], [ 345.930605678044117, 912.559540077667521 ], [ 340.307085727438391, 889.701752683076961 ], [ 349.500444671907587, 887.760676307684662 ], [ 349.323558161738674, 886.345584196909954 ], [ 356.752791737567122, 884.753605572413107 ], [ 357.725667558113912, 886.69935722435423 ], [ 380.367141310861484, 883.6038432347151 ], [ 383.816428329626319, 900.938721572505528 ], [ 394.075846120831272, 898.727640153471839 ], [ 399.647771301767591, 922.165103214178316 ], [ 348.540207693785987, 931.627336717922049 ] ] ] } },
{ "type": "Feature", "properties": { "feature_type": "building", "subtype": "major-damage", "uid": "77bdbcbf-57e9-4295-aa76-b18d04da6d4e" }, "geometry": { "type": "Polygon", "coordinates": [ [ [ 418.737243538121277, 875.060107152714181 ], [ 564.893370320565168, 844.511080650444683 ], [ 564.893370319630208, 875.659107668983211 ], [ 424.427748474902501, 906.507634427891162 ], [ 418.737243538121277, 875.060107152714181 ] ] ] } },
{ "type": "Feature", "properties": { "feature_type": "building", "subtype": "major-damage", "uid": "44f8c92d-fadf-4f8a-8031-3fb7d7ce0a4f" }, "geometry": { "type": "Polygon", "coordinates": [ [ [ 521.185843935710182, 935.950673821169403 ], [ 491.289995036838604, 942.860002574638543 ], [ 482.166115051261784, 943.646317672290252 ], [ 482.439995036530775, 947.660002573658403 ], [ 467.449693733310596, 949.636824678262997 ], [ 464.8565283095881, 942.577652132599837 ], [ 459.093938473670278, 917.510386358590608 ], [ 515.423254102909254, 904.400494482801378 ], [ 521.185843935710182, 935.950673821169403 ] ] ] } },
{ "type": "Feature", "properties": { "feature_type": "building", "subtype": "major-damage", "uid": "42e136bd-2ddc-4815-9538-f7cfc6c5f749" }, "geometry": { "type": "Polygon", "coordinates": [ [ [ 435.454952697496992, 859.261923949530342 ], [ 454.621619361618514, 856.028590618464136 ], [ 455.721619362785475, 860.195257284224567 ], [ 455.321619363511616, 863.961923954388681 ], [ 436.754952694030976, 867.661923951804624 ], [ 435.454952697496992, 859.261923949530342 ] ] ] } },
{ "type": "Feature", "properties": { "feature_type": "building", "subtype": "major-damage", "uid": "410fc9ae-530b-4112-8362-3d48fd24dfd4" }, "geometry": { "type": "Polygon", "coordinates": [ [ [ 312.607799759971499, 808.522474911561858 ], [ 335.535616867325018, 806.24788987905572 ], [ 337.355284891583608, 815.528196803103242 ], [ 313.062716763667424, 819.349499656117814 ], [ 312.607799759971499, 808.522474911561858 ] ] ] } },
{ "type": "Feature", "properties": { "feature_type": "building", "subtype": "major-damage", "uid": "cefe02c3-1ccd-4f0d-93b2-fdec12ab769b" }, "geometry": { "type": "Polygon", "coordinates": [ [ [ 318.781696542224722, 786.975201074885376 ], [ 317.352302754785626, 778.462872107883868 ], [ 311.276005446656995, 779.500288721893071 ], [ 305.79251763106322, 743.931719112684618 ], [ 315.42567190262929, 740.226659775940107 ], [ 325.948040412716978, 740.374862149370074 ], [ 333.209956708408811, 775.49882464227835 ], [ 331.876135347665183, 777.425455496866903 ], [ 334.108589788396216, 794.888155263085537 ], [ 315.716317888252775, 796.385200650258071 ], [ 314.433136128933086, 787.901943456945787 ], [ 318.781696542224722, 786.975201074885376 ] ] ] } },
{ "type": "Feature", "properties": { "feature_type": "building", "subtype": "major-damage", "uid": "ce16ae22-0f71-4701-9da3-746a28072f38" }, "geometry": { "type": "Polygon", "coordinates": [ [ [ 326.931432369938591, 739.591326735408643 ], [ 334.716487905320321, 736.792937608346165 ], [ 342.086143402794505, 736.247037199347801 ], [ 344.08777823354319, 740.068340049370249 ], [ 345.543512650681123, 745.163410519391277 ], [ 346.785740166018115, 752.998985366043144 ], [ 330.120466265966286, 755.673658956426152 ], [ 326.931432369938591, 739.591326735408643 ] ] ] } },
{ "type": "Feature", "properties": { "feature_type": "building", "subtype": "major-damage", "uid": "47285065-56f4-4f3f-b685-992b26bfcd30" }, "geometry": { "type": "Polygon", "coordinates": [ [ [ 345.088595643307428, 731.242950135813317 ], [ 360.828724059988474, 727.512630683301154 ], [ 363.285275891066874, 747.983895959898405 ], [ 348.636948291322199, 752.169132413924899 ], [ 345.088595643307428, 731.242950135813317 ] ] ] } },
{ "type": "Feature", "properties": { "feature_type": "building", "subtype": "major-damage", "uid": "be56cfaf-8e2b-4be6-ba57-d9d587f9560d" }, "geometry": { "type": "Polygon", "coordinates": [ [ [ 350.523232256264976, 758.622537866182142 ], [ 360.600993643881623, 755.658490398581876 ], [ 363.565041113911377, 767.811085017837513 ], [ 353.635482095485827, 770.182322991718252 ], [ 350.523232256264976, 758.622537866182142 ] ] ] } },
{ "type": "Feature", "properties": { "feature_type": "building", "subtype": "major-damage", "uid": "e9e826d8-1cb9-404b-afaf-d1cbd69fae8f" }, "geometry": { "type": "Polygon", "coordinates": [ [ [ 388.314837467276391, 735.058360498809861 ], [ 398.837205982600381, 734.169146257233251 ], [ 407.969995035513477, 777.660002576122224 ], [ 398.741219387610215, 780.938781806792235 ], [ 401.839995032874413, 802.08000257981314 ], [ 382.079995033058708, 807.190002576791585 ], [ 380.011632420079593, 796.069219531181716 ], [ 375.559995032780876, 796.29000257785367 ], [ 368.900326557883204, 759.363549735326387 ], [ 367.714707568263009, 757.288716505313232 ], [ 366.529088578829828, 747.062752746630395 ], [ 374.828421489340485, 743.802300528180808 ], [ 372.753588261073901, 730.760491671338059 ], [ 387.12921848033659, 726.462622843866257 ], [ 388.314837467276391, 735.058360498809861 ] ] ] } },
{ "type": "Feature", "properties": { "feature_type": "building", "subtype": "major-damage", "uid": "d945264f-d5e9-4896-8a94-293df065a4e0" }, "geometry": { "type": "Polygon", "coordinates": [ [ [ 429.726560249006923, 549.326157243385182 ], [ 428.115456727618209, 549.477634165125437 ], [ 426.56873890854439, 536.285040985566297 ], [ 433.028560395260683, 535.102256773051636 ], [ 445.584269765499812, 529.46128589602688 ], [ 460.596530966754983, 533.646522352048237 ], [ 462.143248787886023, 562.579243942187532 ], [ 454.136709480038689, 563.853011557199352 ], [ 456.229327707113214, 573.952169093747102 ], [ 435.121178625763719, 572.405451273238668 ], [ 434.0293778068949, 562.306293738685781 ], [ 436.485929641214909, 561.396459724685997 ], [ 436.003117545493808, 548.843345141180862 ], [ 429.726560249006923, 549.326157243385182 ] ] ] } },
{ "type": "Feature", "properties": { "feature_type": "building", "subtype": "major-damage", "uid": "833a4975-b2ea-4266-aabc-8f13385d6edb" }, "geometry": { "type": "Polygon", "coordinates": [ [ [ 288.264328823772928, 500.692478004904615 ], [ 387.55991899724529, 479.351336237983219 ], [ 390.820371206716686, 494.616180696274228 ], [ 291.080173919437925, 513.882489238169342 ], [ 288.264328823772928, 500.692478004904615 ] ] ] } },
{ "type": "Feature", "properties": { "feature_type": "building", "subtype": "major-damage", "uid": "8ee45e33-98d4-4213-9912-2b9fe18f77d7" }, "geometry": { "type": "Polygon", "coordinates": [ [ [ 303.149995030215678, 528.900002579441548 ], [ 296.9772850305215, 529.526085186785394 ], [ 299.399995026432919, 555.010002579113575 ], [ 291.109995027377579, 555.900002578915291 ], [ 290.451411447417399, 553.872366910578421 ], [ 287.968650171107925, 553.783696866158039 ], [ 286.318355745498025, 554.158691808745857 ], [ 278.623031915757906, 555.120607285757387 ], [ 277.820034327497012, 556.36971464970793 ], [ 274.8099950277429, 557.010002581032495 ], [ 274.482662324899422, 553.837517955868293 ], [ 269.38999502532829, 554.580002579982761 ], [ 267.219591800605201, 554.489939545988591 ], [ 266.774984681250828, 559.232415490757944 ], [ 263.366330092739304, 558.491403625603311 ], [ 263.810937215210515, 518.328560439071111 ], [ 273.129721400187123, 517.553697768321285 ], [ 273.698660832612518, 515.978173185739934 ], [ 293.449775442934992, 514.636246657213405 ], [ 303.108452968993902, 514.533942326269539 ], [ 303.149995030215678, 528.900002579441548 ] ] ] } },
{ "type": "Feature", "properties": { "feature_type": "building", "subtype": "major-damage", "uid": "d26dc2c5-cb00-47cf-9e73-a2d8ba1f5b9f" }, "geometry": { "type": "Polygon", "coordinates": [ [ [ 602.615854894105723, 687.895102391351998 ], [ 817.92432142196958, 640.457370222707027 ], [ 826.072526503287691, 668.221314240403672 ], [ 772.509128226081657, 682.379087021675559 ], [ 775.818737446352316, 695.617523898526201 ], [ 611.625346663463006, 729.265217644476138 ], [ 602.615854894105723, 687.895102391351998 ] ] ] } },
{ "type": "Feature", "properties": { "feature_type": "building", "subtype": "major-damage", "uid": "2af132e9-54e4-4fb9-8b10-f807b1b0801a" }, "geometry": { "type": "Polygon", "coordinates": [ [ [ 831.469995056061066, 626.28000256584096 ], [ 819.44743957459491, 629.615092797360717 ], [ 819.479995053856896, 629.740002568891214 ], [ 746.069995050395164, 644.65000256819053 ], [ 740.135070112415065, 620.455362538158397 ], [ 826.257598696228115, 602.151391883287374 ], [ 831.469995056061066, 626.28000256584096 ] ] ] } },
{ "type": "Feature", "properties": { "feature_type": "building", "subtype": "major-damage", "uid": "33c8d645-56e0-4f11-816d-e427069dcecc" }, "geometry": { "type": "Polygon", "coordinates": [ [ [ 833.766919990546285, 636.88200286305937 ], [ 820.390941436269259, 641.105996093024601 ], [ 817.939995054479709, 632.200002567491197 ], [ 818.016030570139492, 632.160240499208044 ], [ 818.078974480496072, 631.373441616820969 ], [ 831.899995054443821, 628.25000256721728 ], [ 833.766919990546285, 636.88200286305937 ] ] ] } },
{ "type": "Feature", "properties": { "feature_type": "building", "subtype": "major-damage", "uid": "bd936b1d-6da0-4aa3-b8d9-9d9dc7d6f53d" }, "geometry": { "type": "Polygon", "coordinates": [ [ [ 849.154400819722582, 577.76387958208386 ], [ 866.639458227858995, 575.551658206569186 ], [ 867.532855321514262, 584.358000986204388 ], [ 849.494742572366931, 587.8039612072713 ], [ 849.962712476073875, 586.229880610258874 ], [ 850.685938696430298, 584.017659234744201 ], [ 851.019467074784075, 583.848851036241058 ], [ 849.154400819722582, 577.76387958208386 ] ] ] } },
{ "type": "Feature", "properties": { "feature_type": "building", "subtype": "major-damage", "uid": "dadcd2cc-f584-44f8-9a6d-6225e3da35ca" }, "geometry": { "type": "Polygon", "coordinates": [ [ [ 849.491488592258406, 589.400877653414454 ], [ 867.019088714839199, 586.46543005953788 ], [ 873.825923717919977, 617.18127299816058 ], [ 855.787810964596133, 620.201806024915413 ], [ 849.491488592258406, 589.400877653414454 ] ] ] } },
{ "type": "Feature", "properties": { "feature_type": "building", "subtype": "major-damage", "uid": "82f04f13-d68c-4d86-868e-08af50099f1c" }, "geometry": { "type": "Polygon", "coordinates": [ [ [ 856.566931999934127, 621.993418146781323 ], [ 875.554476038336134, 618.043454605701868 ], [ 878.950058732935304, 635.575748916956627 ], [ 861.417764422250571, 638.971331611495089 ], [ 856.566931999934127, 621.993418146781323 ] ] ] } },
{ "type": "Feature", "properties": { "feature_type": "building", "subtype": "major-damage", "uid": "0e50d704-7d27-455c-acae-ee3b64163381" }, "geometry": { "type": "Polygon", "coordinates": [ [ [ 734.18090880203431, 409.030184336088098 ], [ 764.452860265753202, 403.163527073134219 ], [ 766.09552429855421, 412.550178692065174 ], [ 735.354240254400111, 418.651502243024026 ], [ 734.18090880203431, 409.030184336088098 ] ] ] } },
{ "type": "Feature", "properties": { "feature_type": "building", "subtype": "major-damage", "uid": "1d95f91d-e495-4c35-b878-8fbbd25fe40b" }, "geometry": { "type": "Polygon", "coordinates": [ [ [ 686.778318142988269, 329.712978180606228 ], [ 718.223601057950873, 330.886309631601307 ], [ 718.692933635705572, 339.803628668538522 ], [ 686.778318137876681, 338.160964635549703 ], [ 686.778318142988269, 329.712978180606228 ] ] ] } },
{ "type": "Feature", "properties": { "feature_type": "building", "subtype": "major-damage", "uid": "a385c8f7-33e0-4eca-ac6e-b55985a67a28" }, "geometry": { "type": "Polygon", "coordinates": [ [ [ 653.986372319889369, 307.419680596740818 ], [ 654.690371189575899, 298.267695268806619 ], [ 686.604986688152849, 299.441026718804324 ], [ 686.370320396532748, 307.419680594746126 ], [ 653.986372319889369, 307.419680596740818 ] ] ] } },
{ "type": "Feature", "properties": { "feature_type": "building", "subtype": "major-damage", "uid": "61cc4261-96cf-459d-b727-92bb57c62755" }, "geometry": { "type": "Polygon", "coordinates": [ [ [ 589.190665626583495, 234.57984482570069 ], [ 607.771034789918417, 234.852784533781886 ], [ 608.048355710337546, 236.558116365554014 ], [ 620.968340658957914, 236.563448192852604 ], [ 621.435007324684079, 244.575435398186812 ], [ 589.30354412801637, 243.672407415647797 ], [ 589.190665626583495, 234.57984482570069 ] ] ] } },
{ "type": "Feature", "properties": { "feature_type": "building", "subtype": "major-damage", "uid": "4cf656ec-da3a-4154-851c-03b0c2a7b6ea" }, "geometry": { "type": "Polygon", "coordinates": [ [ [ 555.779160351865698, 203.830933729879689 ], [ 560.407178770666746, 203.943812231561992 ], [ 562.213234743037219, 205.636989698947389 ], [ 588.288167786713302, 205.975625191028087 ], [ 588.62680328134968, 213.877120052457514 ], [ 579.709401937823031, 214.215755548527795 ], [ 579.596523436764187, 213.312727564991292 ], [ 556.004917347500395, 213.086970570603313 ], [ 555.779160351865698, 203.830933729879689 ] ] ] } },
{ "type": "Feature", "properties": { "feature_type": "building", "subtype": "major-damage", "uid": "64211231-0ab6-4cd8-8238-1372fc962020" }, "geometry": { "type": "Polygon", "coordinates": [ [ [ 524.226062077680695, 170.960195015481503 ], [ 555.392245939584654, 171.720345841260297 ], [ 555.120763502661475, 181.330824138963493 ], [ 538.071666406265535, 180.896452238091001 ], [ 538.234555870277063, 179.484743562499403 ], [ 522.705760426497704, 179.213261125077508 ], [ 522.651463942566579, 173.023461543877886 ], [ 524.280358567783196, 172.914868566914294 ], [ 524.226062077680695, 170.960195015481503 ] ] ] } },
{ "type": "Feature", "properties": { "feature_type": "building", "subtype": "major-damage", "uid": "eeae773b-ba8d-4d55-8f32-584661b5e254" }, "geometry": { "type": "Polygon", "coordinates": [ [ [ 764.31457323442271, 1018.873322125316008 ], [ 754.557485956819733, 992.52918647824913 ], [ 751.142505405846805, 975.942138110348651 ], [ 878.960348748175306, 948.622293727485726 ], [ 883.838892390935143, 967.160759554012202 ], [ 887.253872934988749, 992.529186474259632 ], [ 764.31457323442271, 1018.873322125316008 ] ] ] } },
{ "type": "Feature", "properties": { "feature_type": "building", "subtype": "major-damage", "uid": "5ab61ba3-9a1e-4fdc-8904-3fabf5afcc4e" }, "geometry": { "type": "Polygon", "coordinates": [ [ [ 891.3891772113451, 960.795737192218098 ], [ 945.413456906952433, 949.126492776172654 ], [ 953.04888843634717, 976.930988720603182 ], [ 897.583961284238171, 989.752751104244226 ], [ 891.3891772113451, 960.795737192218098 ] ] ] } },
{ "type": "Feature", "properties": { "feature_type": "building", "subtype": "major-damage", "uid": "94c28311-65ed-4b0e-b8b9-c9ac1754c15f" }, "geometry": { "type": "Polygon", "coordinates": [ [ [ 759.374768216963162, 867.374793841532096 ], [ 792.286993245742565, 859.652372324384146 ], [ 796.883672723026393, 885.577644553186019 ], [ 790.264454277872119, 887.784050698662895 ], [ 791.551524531269706, 893.116198884064033 ], [ 777.393751752311573, 896.609675286554648 ], [ 776.474415858550401, 888.887253770403959 ], [ 765.442385121883717, 892.196862993606146 ], [ 759.374768216963162, 867.374793841532096 ] ] ] } },
{ "type": "Feature", "properties": { "feature_type": "building", "subtype": "major-damage", "uid": "1ae051cd-a001-41e0-8e1b-7c8c3355b472" }, "geometry": { "type": "Polygon", "coordinates": [ [ [ 772.061603563360109, 858.020106683036943 ], [ 756.065158996318473, 859.123309752783143 ], [ 750.181409269875985, 833.565771885550248 ], [ 796.148204004564036, 823.453077042639507 ], [ 801.296485016346651, 847.355810303258295 ], [ 792.470860427337357, 851.400888240622066 ], [ 772.061603563360109, 858.020106683036943 ] ] ] } },
{ "type": "Feature", "properties": { "feature_type": "building", "subtype": "major-damage", "uid": "11cf8378-891e-41a7-8bc2-bfc683b0aa5a" }, "geometry": { "type": "Polygon", "coordinates": [ [ [ 677.921607951188776, 852.929950811686354 ], [ 729.588285231846612, 843.736591865217747 ], [ 732.446380459975217, 856.013803034516172 ], [ 709.176720955231985, 860.763747230599051 ], [ 681.415084355485305, 866.168387694521243 ], [ 677.921607951188776, 852.929950811686354 ] ] ] } },
{ "type": "Feature", "properties": { "feature_type": "building", "subtype": "major-damage", "uid": "a14f2847-fec8-4429-87e8-5de50eb87cf9" }, "geometry": { "type": "Polygon", "coordinates": [ [ [ 660.144064479503413, 903.308723148329477 ], [ 659.848817311318157, 903.431819485110395 ], [ 657.591247350732829, 889.209128735933859 ], [ 669.217732647298476, 885.822773795178819 ], [ 670.12076063233053, 882.097783361345591 ], [ 678.925283478102187, 880.630362886353396 ], [ 680.392703955213051, 881.872026360973223 ], [ 694.051002215233325, 879.5015779044395 ], [ 699.130534627734733, 884.129596323803867 ], [ 706.806272492902053, 881.872026360973223 ], [ 710.079748937957561, 900.271221539740736 ], [ 703.194160556701149, 901.061371027579185 ], [ 707.709300476749718, 931.538565494374893 ], [ 676.441956520448457, 938.875667868338155 ], [ 672.152573596844945, 935.489312929577864 ], [ 665.133492107720031, 902.823639907107349 ], [ 660.144064479503413, 903.308723148329477 ] ] ] } },
{ "type": "Feature", "properties": { "feature_type": "building", "subtype": "major-damage", "uid": "6d957bc8-33e6-40d2-9a23-12d35c3eac51" }, "geometry": { "type": "Polygon", "coordinates": [ [ [ 275.519428000909386, 944.059907829359645 ], [ 259.706850611847187, 944.243775008648072 ], [ 259.27999502885649, 943.750002582419143 ], [ 260.449995026323109, 889.950002581768558 ], [ 260.993920861878621, 889.635222870694179 ], [ 260.25845214759272, 860.032607064102649 ], [ 277.909701324738478, 859.481005525239993 ], [ 275.519428000909386, 944.059907829359645 ] ] ] } },
{ "type": "Feature", "properties": { "feature_type": "building", "subtype": "major-damage", "uid": "e5e0120c-1f3e-4207-bfcd-7a5794d1c4e6" }, "geometry": { "type": "Polygon", "coordinates": [ [ [ 350.69750781192829, 851.36888364066283 ], [ 385.273046814094982, 844.741905328235021 ], [ 387.434018002712207, 868.944782629789074 ], [ 379.510456981979701, 870.09730059738456 ], [ 378.934197998493914, 873.122660258956785 ], [ 355.307579678817376, 879.46150907624417 ], [ 350.69750781192829, 851.36888364066283 ] ] ] } },
{ "type": "Feature", "properties": { "feature_type": "building", "subtype": "major-damage", "uid": "a8f11205-0651-4d48-b3c0-afd825c0cd22" }, "geometry": { "type": "Polygon", "coordinates": [ [ [ 622.183843092776328, 266.70481908555422 ], [ 653.157763453502071, 266.560754337485321 ], [ 654.166216671781513, 276.933416037866323 ], [ 622.039778348323011, 276.501221804630916 ], [ 622.183843092776328, 266.70481908555422 ] ] ] } },
{ "type": "Feature", "properties": { "feature_type": "building", "subtype": "major-damage", "uid": "4bee376b-edf5-4ff6-9bc4-0b0afa78b2d1" }, "geometry": { "type": "Polygon", "coordinates": [ [ [ 552.175878891581988, 445.406773206863306 ], [ 568.356190636789847, 441.913296809359622 ], [ 571.849667037034578, 449.635718322518073 ], [ 554.198417859140818, 453.68079626087922 ], [ 552.175878891581988, 445.406773206863306 ] ] ] } },
{ "type": "Feature", "properties": { "feature_type": "building", "subtype": "major-damage", "uid": "742268af-8055-4550-94a1-49fae5448767" }, "geometry": { "type": "Polygon", "coordinates": [ [ [ 603.658688991954136, 437.132750155839517 ], [ 619.839000737847641, 434.55860964879372 ], [ 620.022867915203619, 445.774507565440217 ], [ 604.761892064442691, 447.79704653162861 ], [ 603.658688991954136, 437.132750155839517 ] ] ] } },
{ "type": "Feature", "properties": { "feature_type": "building", "subtype": "major-damage", "uid": "1530c9cc-6fd5-462a-86ff-bbd1040bd861" }, "geometry": { "type": "Polygon", "coordinates": [ [ [ 593.491692309004407, 406.292018484401922 ], [ 636.422986568629653, 397.215939495695693 ], [ 640.456799454401676, 409.605507637124902 ], [ 598.678023160875341, 421.706946290395308 ], [ 593.491692309004407, 406.292018484401922 ] ] ] } },
{ "type": "Feature", "properties": { "feature_type": "building", "subtype": "major-damage", "uid": "c281751a-db08-4729-85e1-61c9d5c8008d" }, "geometry": { "type": "Polygon", "coordinates": [ [ [ 549.119750587018075, 419.978169342492777 ], [ 567.99223229541451, 417.673133408299122 ], [ 569.576944497990212, 424.011982223591701 ], [ 550.128203807790896, 427.037341885163926 ], [ 549.119750587018075, 419.978169342492777 ] ] ] } },
{ "type": "Feature", "properties": { "feature_type": "building", "subtype": "major-damage", "uid": "92c2eb51-0e2a-4849-b111-bd9d094ac063" }, "geometry": { "type": "Polygon", "coordinates": [ [ [ 366.831183061245099, 1009.770237406876959 ], [ 376.375033683594779, 1006.823298952092955 ], [ 385.632177724744281, 1022.988801327858027 ], [ 371.223202191830808, 1022.988721461725959 ], [ 366.863676852544984, 1013.930383263682984 ], [ 366.831183061245099, 1009.770237406876959 ] ] ] } },
{ "type": "Feature", "properties": { "feature_type": "building", "subtype": "major-damage", "uid": "94316372-6a24-4225-a61f-3d11b1fa51d4" }, "geometry": { "type": "Polygon", "coordinates": [ [ [ 386.616546421278088, 1022.988806464361005 ], [ 383.36660006394402, 1016.425189116252 ], [ 394.939300261849212, 1011.643654308353007 ], [ 397.295418866940395, 1021.068128717501963 ], [ 389.292539411234486, 1022.988820230188026 ], [ 386.616546421278088, 1022.988806464361005 ] ] ] } },
{ "type": "Feature", "properties": { "feature_type": "building", "subtype": "major-damage", "uid": "82165577-d613-4c80-9c23-ce3cacae4539" }, "geometry": { "type": "Polygon", "coordinates": [ [ [ 534.029713984085902, 963.240327116618118 ], [ 547.010010503003059, 961.638967857071293 ], [ 548.181353187725108, 972.802896825046673 ], [ 535.26764488503261, 973.884471252426351 ], [ 534.029713984085902, 963.240327116618118 ] ] ] } },
{ "type": "Feature", "properties": { "feature_type": "building", "subtype": "major-damage", "uid": "40f8b5c0-760e-4275-8144-5c3d848d4dc9" }, "geometry": { "type": "Polygon", "coordinates": [ [ [ 484.796495998135299, 777.298250183443201 ], [ 479.754229894956495, 766.061200005620094 ], [ 477.881388198362686, 765.917135259546058 ], [ 473.271316330538582, 753.81569661026515 ], [ 482.63552481438029, 749.205624741877614 ], [ 475.000093280996111, 725.290876936461359 ], [ 478.889841417951175, 721.401128798444461 ], [ 484.220237014649513, 718.087639640734551 ], [ 488.542179394065727, 717.079186424199975 ], [ 493.584445497556089, 715.926668456604375 ], [ 510.872214995585011, 764.764617294942582 ], [ 508.999373299489889, 766.925588483062256 ], [ 511.016279742344807, 780.611739335168977 ], [ 492.864121764505512, 783.925228489886763 ], [ 489.982826847512797, 772.544113568981629 ], [ 484.796495998135299, 777.298250183443201 ] ] ] } },
{ "type": "Feature", "properties": { "feature_type": "building", "subtype": "major-damage", "uid": "7bf202ee-7c29-4202-b83e-2fa71eb6c83d" }, "geometry": { "type": "Polygon", "coordinates": [ [ [ 456.877138604599111, 972.845519914286228 ], [ 456.733073857216027, 967.515124316525544 ], [ 472.292066411332712, 965.210088383329207 ], [ 473.876778613534327, 980.192821951100314 ], [ 470.851418949345486, 980.048757206023538 ], [ 470.419224716421979, 977.311527035602239 ], [ 469.266706748764705, 977.167462289528089 ], [ 468.402318272258128, 979.040303986496951 ], [ 465.349800303514428, 979.88322963585415 ], [ 464.516466970587089, 979.61656296979595 ], [ 464.649800303927805, 977.54989630211071 ], [ 463.583133639945174, 977.416562968582866 ], [ 463.649800306896111, 983.949896299473949 ], [ 462.516466971412115, 984.649896301492049 ], [ 460.616466969515386, 984.51656296596957 ], [ 459.549800304348423, 983.583229633270093 ], [ 458.68313363791458, 982.016562966313813 ], [ 457.616466974056721, 980.616562968261974 ], [ 455.616466971328521, 980.549896300500677 ], [ 453.816466971883983, 980.449896302349657 ], [ 453.549800304267592, 979.816562968092853 ], [ 453.516466970885688, 977.249896298681051 ], [ 453.883133640642598, 974.183229634524537 ], [ 454.283133639168511, 973.583229635644443 ], [ 456.783133636516482, 973.483229632506436 ], [ 456.877138604599111, 972.845519914286228 ] ] ] } },
{ "type": "Feature", "properties": { "feature_type": "building", "subtype": "major-damage", "uid": "4a982f81-1994-42e4-85e5-4a190a5ac119" }, "geometry": { "type": "Polygon", "coordinates": [ [ [ 862.263332701316017, 640.786287110835133 ], [ 869.916831533320192, 638.836688705195343 ], [ 878.332787104679369, 639.922618456877899 ], [ 886.260074286061126, 643.180407710928307 ], [ 893.047135230146637, 651.976438697362937 ], [ 893.698693084634215, 657.949052326630181 ], [ 894.187361469687062, 664.138851910821927 ], [ 893.807286057608167, 667.66812359830476 ], [ 890.766682754120325, 676.464154586734139 ], [ 881.753465821804525, 681.622320902738238 ], [ 874.043364585310997, 684.717220696330173 ], [ 868.505122853365833, 685.748853956538824 ], [ 862.261026783313696, 684.391441769429093 ], [ 859.329016456165846, 683.196919042777722 ], [ 855.636855301244964, 680.047722765690878 ], [ 852.3790660503754, 676.627044049187361 ], [ 849.664241672728735, 671.577470707154703 ], [ 847.872457580695482, 666.310711414187153 ], [ 848.143940017431646, 660.663876706834003 ], [ 849.121276794394248, 655.397117412869079 ], [ 852.379066050936444, 647.741312668593537 ], [ 858.283386141010965, 642.997368530866083 ], [ 862.263332701316017, 640.786287110835133 ] ] ] } },
{ "type": "Feature", "properties": { "feature_type": "building", "subtype": "major-damage", "uid": "090908c1-6dbb-42b2-a7e2-e2986e5bf205" }, "geometry": { "type": "Polygon", "coordinates": [ [ [ 373.515500604402177, 964.829350927621817 ], [ 385.677913816359023, 965.100833362051617 ], [ 385.895099766608098, 973.462492450605964 ], [ 373.67839006405012, 973.191010011189178 ], [ 373.515500604402177, 964.829350927621817 ] ] ] } },
{ "type": "Feature", "properties": { "feature_type": "building", "subtype": "major-damage", "uid": "1e6bda49-0b4e-4c61-a53a-9cd7b20b2526" }, "geometry": { "type": "Polygon", "coordinates": [ [ [ 370.319631450899692, 790.390117209006348 ], [ 374.197652604730308, 807.393748430921278 ], [ 359.580495940729691, 810.078532309010598 ], [ 356.299093427887328, 793.373210406218504 ], [ 370.319631450899692, 790.390117209006348 ] ] ] } }
]
}
