{
"type": "FeatureCollection",
"name": "hurricane-florence_00000327_post_disaster",
"features": [
{ "type": "Feature", "properties": { "feature_type": "building", "subtype": "no-damage", "uid": "52227129-1936-4c1d-af48-640ce6a3fc61" }, "geometry": { "type": "Polygon", "coordinates": [ [ [ 390.685738670492981, 86.573421017289363 ], [ 401.925665002451979, 82.391122844981751 ], [ 422.314368584293277, 119.247625470351494 ], [ 422.052974946740505, 123.952710911649504 ], [ 412.120016792862998, 129.703370892966802 ], [ 390.685738670492981, 86.573421017289363 ] ] ] } },
{ "type": "Feature", "properties": { "feature_type": "building", "subtype": "no-damage", "uid": "4aa76994-9c12-4ae4-ace7-f09cd0113b68" }, "geometry": { "type": "Polygon", "coordinates": [ [ [ 459.130149983084607, 154.827506389468198 ], [ 467.645803753644088, 150.569679503677889 ], [ 466.368455690200619, 148.4407660638403 ], [ 471.477847954931519, 145.886069929308491 ], [ 483.825545924485084, 163.76894285166631 ], [ 471.903630639688288, 171.433031243031309 ], [ 465.942673001366813, 170.155683175255689 ], [ 459.130149983084607, 154.827506389468198 ] ] ] } },
{ "type": "Feature", "properties": { "feature_type": "building", "subtype": "no-damage", "uid": "ec28f36c-42d1-4526-94a3-f97706ae2164" }, "geometry": { "type": "Polygon", "coordinates": [ [ [ 597.509523769455882, 9.209826922957543 ], [ 603.463353193093326, 0.011021361540314 ], [ 603.494327397477491, 0.011021219870102 ], [ 624.333833149674206, 9.635609614594205 ], [ 620.927571642571479, 16.022349938183648 ], [ 630.294790792072604, 20.28017682703161 ], [ 621.779137019219775, 37.737267053675922 ], [ 611.986135180884958, 33.905222858503038 ], [ 614.115048623779671, 27.092699843276929 ], [ 601.767350656519284, 19.428611446815921 ], [ 597.509523769455882, 9.209826922957543 ] ] ] } },
{ "type": "Feature", "properties": { "feature_type": "building", "subtype": "no-damage", "uid": "3653b26c-1187-4342-8bd9-95606bae571e" }, "geometry": { "type": "Polygon", "coordinates": [ [ [ 477.999507497700392, 299.678912209464215 ], [ 484.902310536835273, 294.583923996244778 ], [ 481.232579881787103, 290.580581464761224 ], [ 495.244278746053396, 279.905001383182992 ], [ 498.580397522628687, 283.908343914666716 ], [ 499.914845033462711, 282.573896403832407 ], [ 516.929050798379535, 303.591444700746194 ], [ 497.245950011285174, 319.604814829738189 ], [ 491.908159971516511, 317.936755436354076 ], [ 477.999507497700392, 299.678912209464215 ] ] ] } },
{ "type": "Feature", "properties": { "feature_type": "building", "subtype": "no-damage", "uid": "8b019a74-f7d6-403b-a2a8-0b719b519d7c" }, "geometry": { "type": "Polygon", "coordinates": [ [ [ 554.293581104788473, 287.578074573792492 ], [ 563.968325560627932, 280.238613266752111 ], [ 555.737953470441994, 269.229421301604873 ], [ 561.299430536921591, 261.889959993545176 ], [ 571.975010626905828, 256.218558069696826 ], [ 578.313636300819212, 261.889959993545176 ], [ 583.317814467210951, 258.553841214930685 ], [ 598.675068248375965, 276.415102737831489 ], [ 595.221562990880784, 279.593221256384084 ], [ 605.226273541151954, 291.856229245382792 ], [ 597.307490051868854, 301.168068452366583 ], [ 586.252098129838714, 307.424229149276016 ], [ 576.61146529390237, 313.660519972144527 ], [ 572.642234379010347, 308.929234746121722 ], [ 554.293581104788473, 287.578074573792492 ] ] ] } },
{ "type": "Feature", "properties": { "feature_type": "building", "subtype": "no-damage", "uid": "e1236d67-10d4-47e5-93ae-93f3d66a5f91" }, "geometry": { "type": "Polygon", "coordinates": [ [ [ 218.484381540434612, 415.889909331782178 ], [ 227.894552423028614, 409.093674803311217 ], [ 237.827510578689697, 423.208931130262783 ], [ 228.417339697624612, 430.005165655676308 ], [ 218.484381540434612, 415.889909331782178 ] ] ] } },
{ "type": "Feature", "properties": { "feature_type": "building", "subtype": "no-damage", "uid": "9ebe62f9-9994-417b-b898-263e3b9d3ecb" }, "geometry": { "type": "Polygon", "coordinates": [ [ [ 381.138221810221921, 461.015204978755321 ], [ 383.161620710223588, 459.955094667305275 ], [ 384.991376159843298, 459.693701029242789 ], [ 387.866706152030076, 460.477881937314976 ], [ 389.435067966900021, 462.046243751420718 ], [ 390.742036145745772, 464.66018010758421 ], [ 390.742036143197822, 466.751329194757091 ], [ 390.480642507683399, 468.581084641829307 ], [ 388.583136875479227, 471.224092539834828 ], [ 385.252769794338519, 472.627882445910302 ], [ 382.3483682608192, 472.351953035398026 ], [ 379.928075359114985, 470.536733359756511 ], [ 378.979322540464921, 468.774728092720807 ], [ 378.71792890444101, 466.228541918632175 ], [ 378.979322539955319, 463.585534022665115 ], [ 380.024897081503184, 462.060779519793698 ], [ 381.138221810221921, 461.015204978755321 ] ] ] } },
{ "type": "Feature", "properties": { "feature_type": "building", "subtype": "no-damage", "uid": "2d92753c-3177-4689-95b6-a657336fea54" }, "geometry": { "type": "Polygon", "coordinates": [ [ [ 328.346867560690782, 572.800774250335621 ], [ 339.201731486087908, 568.09017292621877 ], [ 346.984464109060809, 586.727769473318972 ], [ 336.744026446798387, 591.438370797435709 ], [ 328.346867560690782, 572.800774250335621 ] ] ] } },
{ "type": "Feature", "properties": { "feature_type": "building", "subtype": "no-damage", "uid": "bc336df6-df5a-4530-bd76-f9592c46d7f7" }, "geometry": { "type": "Polygon", "coordinates": [ [ [ 969.570295545854719, 38.002621682828362 ], [ 969.47177903418708, 33.864928171893567 ], [ 973.510956032434137, 31.007949321556211 ], [ 1003.164426197778994, 43.618062876167059 ], [ 1001.883711535142993, 53.174164558634082 ], [ 969.865845082641272, 39.381852853819417 ], [ 969.570295545854719, 38.002621682828362 ] ] ] } },
{ "type": "Feature", "properties": { "feature_type": "building", "subtype": "no-damage", "uid": "fa2496fc-850e-41ae-8e9c-8df5a9310d2e" }, "geometry": { "type": "Polygon", "coordinates": [ [ [ 516.17510537575572, 378.931891838730905 ], [ 522.506650306481674, 372.81867604628718 ], [ 539.099664605313592, 388.101715530454214 ], [ 525.126599932250997, 400.328147117380126 ], [ 511.153535260971978, 386.136753310871995 ], [ 516.17510537575572, 378.931891838730905 ] ] ] } },
{ "type": "Feature", "properties": { "feature_type": "building", "subtype": "no-damage", "uid": "f662b558-be44-4af6-bca6-13470ab621b6" }, "geometry": { "type": "Polygon", "coordinates": [ [ [ 279.026757180488119, 350.744345969361177 ], [ 276.973958094838508, 346.809814387385416 ], [ 307.937010989545115, 329.532088743333588 ], [ 308.963410531605518, 331.07168805744368 ], [ 313.582208481069301, 329.018888972303273 ], [ 322.306604599284185, 342.875282808467205 ], [ 318.029939833819583, 345.78341484736319 ], [ 319.056339380976112, 347.323014160454079 ], [ 286.724753756387827, 364.942872990288777 ], [ 285.185154440749216, 361.008341407293813 ], [ 281.421689448098391, 362.427996184787219 ], [ 275.605425368778924, 353.139278238246106 ], [ 279.026757180488119, 350.744345969361177 ] ] ] } },
{ "type": "Feature", "properties": { "feature_type": "building", "subtype": "no-damage", "uid": "c54d0183-3a36-41d2-a27b-4b2f166d155e" }, "geometry": { "type": "Polygon", "coordinates": [ [ [ 282.142073716542882, 390.757252573835274 ], [ 299.566643206377194, 382.581108429997073 ], [ 305.732260105238026, 395.448482821285722 ], [ 288.173655462680983, 403.490591817497204 ], [ 282.142073716542882, 390.757252573835274 ] ] ] } },
{ "type": "Feature", "properties": { "feature_type": "building", "subtype": "no-damage", "uid": "a861932f-651b-4e3b-bee4-f9a8341ec5ac" }, "geometry": { "type": "Polygon", "coordinates": [ [ [ 359.621337763254701, 415.876137778396924 ], [ 367.395376458095882, 411.721048132664521 ], [ 375.705555755419425, 426.639531300006979 ], [ 368.467657657709481, 431.424215168082924 ], [ 359.621337763254701, 415.876137778396924 ] ] ] } },
{ "type": "Feature", "properties": { "feature_type": "building", "subtype": "no-damage", "uid": "d982fa72-a96d-45be-876b-26d8e348f7dc" }, "geometry": { "type": "Polygon", "coordinates": [ [ [ 352.053085412568521, 450.422853849401008 ], [ 363.685613569423992, 469.240178812658996 ], [ 350.684552684470475, 477.451375159335896 ], [ 338.538824752762878, 457.607650652998075 ], [ 352.053085412568521, 450.422853849401008 ] ] ] } },
{ "type": "Feature", "properties": { "feature_type": "building", "subtype": "no-damage", "uid": "314055f0-69c2-412c-b555-65b4845d5471" }, "geometry": { "type": "Polygon", "coordinates": [ [ [ 357.114762751401827, 503.632188445837016 ], [ 353.18023116636931, 496.61845823360261 ], [ 363.957426377368222, 491.315393926840784 ], [ 379.695552707306319, 522.278446817732288 ], [ 361.049294332867078, 532.371375663283061 ], [ 347.877166859353906, 508.422052980549211 ], [ 357.114762751401827, 503.632188445837016 ] ] ] } }
]
}
