{
"type": "FeatureCollection",
"name": "hurricane-florence_00000098_post_disaster",
"features": [
{ "type": "Feature", "properties": { "feature_type": "building", "subtype": "no-damage", "uid": "e43d4ea9-d373-4a88-8e2b-ae95c8bb37b7" }, "geometry": { "type": "Polygon", "coordinates": [ [ [ 128.966447946012096, 539.897235876446871 ], [ 166.373764732387002, 540.146617984077011 ], [ 166.373764732004901, 548.874991899881707 ], [ 163.879943614568901, 551.368813023049483 ], [ 128.467683721964505, 550.620666688951928 ], [ 128.966447946012096, 539.897235876446871 ] ] ] } },
{ "type": "Feature", "properties": { "feature_type": "building", "subtype": "no-damage", "uid": "0d252feb-64b5-4116-8ced-cce827b7e8a8" }, "geometry": { "type": "Polygon", "coordinates": [ [ [ 170.350484799324704, 572.928980716226306 ], [ 181.073915612208395, 571.682070155661222 ], [ 183.318354617684292, 572.679598602483225 ], [ 183.567736730153911, 575.422801831243419 ], [ 189.054143191493296, 574.674655496127002 ], [ 191.547964312367895, 576.919094504532723 ], [ 192.046728535651312, 592.630167551147338 ], [ 184.565265177739604, 593.627696000006836 ], [ 185.313411513747297, 600.610395130816642 ], [ 172.844305919562487, 601.607923580695115 ], [ 170.350484799324704, 572.928980716226306 ] ] ] } },
{ "type": "Feature", "properties": { "feature_type": "building", "subtype": "no-damage", "uid": "e466a14c-3084-419d-9808-bd49b63b9337" }, "geometry": { "type": "Polygon", "coordinates": [ [ [ 163.720110996100999, 617.688445142370483 ], [ 178.361073400814803, 616.415317977374116 ], [ 179.952482356677791, 629.783153216968572 ], [ 165.31151994928959, 631.374562174742437 ], [ 163.720110996100999, 617.688445142370483 ] ] ] } }
]
}
