{
"type": "FeatureCollection",
"name": "hurricane-florence_00000354_post_disaster",
"features": [
{ "type": "Feature", "properties": { "feature_type": "building", "subtype": "no-damage", "uid": "3af67eff-4230-4b89-8e9d-e80ca75c5dd6" }, "geometry": { "type": "Polygon", "coordinates": [ [ [ 382.228769856381291, 160.919353643928304 ], [ 397.111539260995983, 153.783779272839013 ], [ 409.343952469011811, 179.675720564928412 ], [ 395.480550835299027, 186.607421379238389 ], [ 386.102367373272216, 175.190502387126202 ], [ 382.228769856381291, 160.919353643928304 ] ] ] } },
{ "type": "Feature", "properties": { "feature_type": "building", "subtype": "no-damage", "uid": "1219e1ad-b813-4c37-8a4a-8a793663a005" }, "geometry": { "type": "Polygon", "coordinates": [ [ [ 426.877078073792575, 117.290413204543697 ], [ 432.99328467831009, 114.843930560901498 ], [ 432.381664015361309, 113.824562795350303 ], [ 439.109491279005624, 110.766459493600493 ], [ 449.099295399904406, 107.708356190831395 ], [ 453.176766471790984, 115.863298331548904 ], [ 466.632420999589215, 110.970333050379907 ], [ 471.9331333932966, 126.260849562186607 ], [ 466.428547446886625, 127.687964436200602 ], [ 480.495822638143181, 163.569709847407495 ], [ 439.924985494147279, 178.860226352079707 ], [ 436.459135083171077, 170.093663549177791 ], [ 439.109491280789314, 168.870422232962397 ], [ 430.954549138544792, 148.686940439986614 ], [ 432.789411121275975, 147.871446225099504 ], [ 423.818974768476323, 126.056976004388005 ], [ 426.877078073792575, 117.290413204543697 ] ] ] } },
{ "type": "Feature", "properties": { "feature_type": "building", "subtype": "no-damage", "uid": "f6655114-7944-455d-be2f-d019adfaaca0" }, "geometry": { "type": "Polygon", "coordinates": [ [ [ 471.603785120111183, 99.699522855039064 ], [ 477.719991725648015, 98.068534430360899 ], [ 481.593589240755307, 112.951303834724101 ], [ 475.681256190469128, 114.582292261440699 ], [ 471.603785120111183, 99.699522855039064 ] ] ] } },
{ "type": "Feature", "properties": { "feature_type": "building", "subtype": "no-damage", "uid": "11a3e760-61f5-4b47-a452-d54e601c15d1" }, "geometry": { "type": "Polygon", "coordinates": [ [ [ 500.774366411743415, 134.816027402710802 ], [ 520.02917065999975, 129.872226310949486 ], [ 534.079973758632491, 173.846036010882187 ], [ 515.085369569003888, 178.789837097547405 ], [ 500.774366411743415, 134.816027402710802 ] ] ] } },
{ "type": "Feature", "properties": { "feature_type": "building", "subtype": "no-damage", "uid": "f825452a-ef87-4eec-be28-38d092aba072" }, "geometry": { "type": "Polygon", "coordinates": [ [ [ 664.440202516062072, 70.286413185074935 ], [ 689.419408026101564, 67.684412615613425 ], [ 694.103009060253157, 109.576621849580903 ], [ 669.384003611134631, 112.4388224835307 ], [ 664.440202516062072, 70.286413185074935 ] ] ] } },
{ "type": "Feature", "properties": { "feature_type": "building", "subtype": "no-damage", "uid": "917419ca-8195-43f0-94cb-890e528be811" }, "geometry": { "type": "Polygon", "coordinates": [ [ [ 560.956476823262051, 544.396776570208317 ], [ 579.605369742827179, 538.039199449088073 ], [ 587.234462299533902, 560.502638638985445 ], [ 567.737892429450085, 567.707892722090605 ], [ 560.53263834940401, 553.72122303279582 ], [ 560.956476823262051, 544.396776570208317 ] ] ] } },
{ "type": "Feature", "properties": { "feature_type": "building", "subtype": "no-damage", "uid": "67335a08-e05c-4feb-8b83-871e30c9f54b" }, "geometry": { "type": "Polygon", "coordinates": [ [ [ 637.380862819617164, 518.519172383067144 ], [ 647.843364278565787, 517.271114159718991 ], [ 650.5198555560969, 533.353519023135618 ], [ 640.34773214579559, 534.625034446748145 ], [ 637.380862819617164, 518.519172383067144 ] ] ] } },
{ "type": "Feature", "properties": { "feature_type": "building", "subtype": "no-damage", "uid": "8b50ca9a-83d7-4ebe-bdb2-394d1d54fbf7" }, "geometry": { "type": "Polygon", "coordinates": [ [ [ 564.119332702568045, 327.568932181947787 ], [ 573.295664573238241, 323.197741679263913 ], [ 584.154737120082928, 322.885331148559487 ], [ 593.331068991007896, 348.289501671565517 ], [ 581.839041841083827, 350.657407425444376 ], [ 572.705934593459119, 353.588937918350496 ], [ 564.119332702568045, 327.568932181947787 ] ] ] } },
{ "type": "Feature", "properties": { "feature_type": "building", "subtype": "no-damage", "uid": "55c24884-27ec-482f-b395-f1e4c4eeb685" }, "geometry": { "type": "Polygon", "coordinates": [ [ [ 524.308723919286422, 344.742135963224086 ], [ 535.757526444636255, 340.318734988208917 ], [ 550.328729658995826, 382.210944225234016 ], [ 539.14012719074492, 385.593544970833818 ], [ 524.308723919286422, 344.742135963224086 ] ] ] } },
{ "type": "Feature", "properties": { "feature_type": "building", "subtype": "no-damage", "uid": "2b43bcad-4df0-40b0-af81-eba097b60360" }, "geometry": { "type": "Polygon", "coordinates": [ [ [ 467.324911345814201, 385.073144852049325 ], [ 513.943946245632787, 368.966846537882816 ], [ 515.201721909101366, 379.088543533930306 ], [ 520.145523000097114, 388.45574560274531 ], [ 474.116218078274073, 406.244784599456807 ], [ 468.886111690446512, 396.001547259891197 ], [ 467.324911345814201, 385.073144852049325 ] ] ] } },
{ "type": "Feature", "properties": { "feature_type": "building", "subtype": "no-damage", "uid": "826ff325-665f-4da1-9cc4-e4271d943137" }, "geometry": { "type": "Polygon", "coordinates": [ [ [ 651.244380898854956, 655.605365410562626 ], [ 660.091182848628591, 653.263564896416597 ], [ 663.473783594737256, 665.492967593066055 ], [ 654.626981643179988, 668.355168224977433 ], [ 651.244380898854956, 655.605365410562626 ] ] ] } },
{ "type": "Feature", "properties": { "feature_type": "building", "subtype": "no-damage", "uid": "524e1fa7-b6fc-4c72-a3c4-6d017ae8e5b2" }, "geometry": { "type": "Polygon", "coordinates": [ [ [ 693.656990254145512, 675.380569778627091 ], [ 715.286491413578688, 669.883472177165231 ], [ 716.605440753343487, 676.98364104232985 ], [ 719.324079566384512, 683.186571502299785 ], [ 697.954778463031062, 689.859056619560874 ], [ 694.446564951048572, 683.446771555576788 ], [ 693.656990254145512, 675.380569778627091 ] ] ] } },
{ "type": "Feature", "properties": { "feature_type": "building", "subtype": "no-damage", "uid": "4c9373ae-0ab1-41b0-82da-af693fc32fbf" }, "geometry": { "type": "Polygon", "coordinates": [ [ [ 677.004186579936572, 706.084176546379581 ], [ 695.218190599032596, 700.619975340929841 ], [ 699.901791630891012, 715.451378611117661 ], [ 700.422191746108183, 716.752378897886842 ], [ 703.804792492726506, 715.97177872888301 ], [ 706.146593007891283, 725.599180849955701 ], [ 702.503792206721982, 726.379781025074863 ], [ 708.228193467231108, 744.07338492003953 ], [ 708.748593584486684, 744.59378503882408 ], [ 687.672388932970193, 751.358986527985394 ], [ 685.590788473375596, 743.032584692662681 ], [ 685.590788476942862, 737.308183431897419 ], [ 685.070388358667969, 734.966382914693781 ], [ 677.004186579681686, 706.86477672047954 ], [ 677.004186579936572, 706.084176546379581 ] ] ] } },
{ "type": "Feature", "properties": { "feature_type": "building", "subtype": "no-damage", "uid": "2090d5be-8ef6-40c1-bd62-41915ecae33a" }, "geometry": { "type": "Polygon", "coordinates": [ [ [ 565.098034528349103, 743.911750343069798 ], [ 574.728602065954192, 743.579661811771302 ], [ 581.702461318518317, 737.602068165841388 ], [ 591.000940322276847, 759.519911526097303 ], [ 573.732336460847478, 766.16168224175874 ], [ 565.098034528349103, 743.911750343069798 ] ] ] } },
{ "type": "Feature", "properties": { "feature_type": "building", "subtype": "no-damage", "uid": "ba45936d-ff65-406b-a943-d05e4db1cbbd" }, "geometry": { "type": "Polygon", "coordinates": [ [ [ 935.12464602078569, 506.519063816275775 ], [ 942.792178686111583, 504.442440388949478 ], [ 946.146724224579884, 516.103479644113122 ], [ 938.958412354467896, 518.339843338294372 ], [ 935.12464602078569, 506.519063816275775 ] ] ] } },
{ "type": "Feature", "properties": { "feature_type": "building", "subtype": "no-damage", "uid": "09d7da19-82d0-4b67-8d97-70ff009ace91" }, "geometry": { "type": "Polygon", "coordinates": [ [ [ 978.861213555110908, 849.781705940388861 ], [ 984.371113735138692, 848.086352039860685 ], [ 988.185660012600238, 857.410798494294568 ], [ 982.251921359733728, 859.106152397880351 ], [ 978.861213555110908, 849.781705940388861 ] ] ] } },
{ "type": "Feature", "properties": { "feature_type": "building", "subtype": "no-damage", "uid": "db0f7907-00af-4450-a567-e79443056cb9" }, "geometry": { "type": "Polygon", "coordinates": [ [ [ 978.861213554856022, 901.489999928411521 ], [ 997.933944951082026, 895.556261279110913 ], [ 1014.913123554389017, 948.12505201450108 ], [ 974.22462991904456, 962.355690424565864 ], [ 966.569897767875773, 952.350616966679581 ], [ 968.26525166942281, 943.450008987122942 ], [ 993.695560194666427, 934.549401009604821 ], [ 983.099598308468785, 900.218484504798994 ], [ 978.861213554856022, 901.489999928411521 ] ] ] } },
{ "type": "Feature", "properties": { "feature_type": "building", "subtype": "no-damage", "uid": "7cad4a43-94a9-4198-914d-95c4fdc2cbad" }, "geometry": { "type": "Polygon", "coordinates": [ [ [ 997.933944951082026, 895.556261279110913 ], [ 1023.639660088848018, 883.490365479067577 ], [ 1023.639607781708946, 906.370340295141546 ], [ 1004.291522081883045, 914.628992671009428 ], [ 997.933944951082026, 895.556261279110913 ] ] ] } },
{ "type": "Feature", "properties": { "feature_type": "building", "subtype": "no-damage", "uid": "1fedd3cb-8e10-417c-bebc-ff7a95e62915" }, "geometry": { "type": "Polygon", "coordinates": [ [ [ 844.649605884381572, 997.698566060361713 ], [ 847.000533310830406, 1007.325119170199969 ], [ 851.576210512854914, 1017.218593128421048 ], [ 837.996358990253952, 1022.984202888412028 ], [ 818.968813361894377, 1022.984501545525973 ], [ 815.659943329672274, 1018.635297576866947 ], [ 816.118967606220053, 1008.718366419400013 ], [ 844.649605884381572, 997.698566060361713 ] ] ] } },
{ "type": "Feature", "properties": { "feature_type": "building", "subtype": "minor-damage", "uid": "ad78342f-eb91-42dd-a680-38a32c9b4081" }, "geometry": { "type": "Polygon", "coordinates": [ [ [ 514.067768240913324, 978.95199107355279 ], [ 530.340106497745523, 971.64604328510211 ], [ 535.321434531432942, 983.601230576961939 ], [ 519.713273349682936, 990.907178363374101 ], [ 514.067768240913324, 978.95199107355279 ] ] ] } },
{ "type": "Feature", "properties": { "feature_type": "building", "subtype": "minor-damage", "uid": "9032e607-aa18-41fa-a639-d1bec85e73f7" }, "geometry": { "type": "Polygon", "coordinates": [ [ [ 567.201933972308439, 931.463330461873284 ], [ 571.519084936519107, 929.470799247582477 ], [ 569.858642257349402, 926.814090958464135 ], [ 583.806360762477539, 924.157382674441806 ], [ 583.142183694529763, 920.504408780216522 ], [ 593.104839767255385, 917.847700491098067 ], [ 603.067495840745323, 944.74687189421536 ], [ 595.761548051531918, 947.071491644900675 ], [ 599.746610483170116, 955.705793577910526 ], [ 583.474272228885866, 962.679652825889775 ], [ 579.489209798011984, 953.049085288792185 ], [ 575.836235905571129, 954.045350892879924 ], [ 571.186996402672662, 954.045350893899126 ], [ 568.198199581491963, 944.746871891157753 ], [ 572.183262011601414, 944.082694822445433 ], [ 567.201933972308439, 931.463330461873284 ] ] ] } },
{ "type": "Feature", "properties": { "feature_type": "building", "subtype": "no-damage", "uid": "c4c0d55f-85d1-43aa-9cd7-250079fc824d" }, "geometry": { "type": "Polygon", "coordinates": [ [ [ 714.186895259936477, 148.197956428611292 ], [ 725.054223818528385, 139.281174023127704 ], [ 741.773190832883301, 137.330627874858408 ], [ 770.195434754432995, 129.249793821545012 ], [ 777.161671009607403, 146.804709184506805 ], [ 757.377560042731034, 154.328244335693796 ], [ 759.885405097712578, 159.065284989498792 ], [ 751.804571039814618, 162.130428943039988 ], [ 753.476467741097281, 165.75287179361149 ], [ 724.21827547119949, 174.669654196037612 ], [ 714.186895259936477, 148.197956428611292 ] ] ] } },
{ "type": "Feature", "properties": { "feature_type": "building", "subtype": "no-damage", "uid": "77aaa242-1d93-419c-bc3d-cf991aaef85d" }, "geometry": { "type": "Polygon", "coordinates": [ [ [ 840.742771208499676, 228.976222151210891 ], [ 849.538912988167453, 227.318741518183089 ], [ 865.979230549166118, 226.204143718007288 ], [ 872.945466808926994, 280.262137056093195 ], [ 846.752418483906467, 282.49133265338719 ], [ 840.742771208499676, 228.976222151210891 ] ] ] } },
{ "type": "Feature", "properties": { "feature_type": "building", "subtype": "no-damage", "uid": "48b023ca-55ee-4700-9bc7-4d7ccdf581e4" }, "geometry": { "type": "Polygon", "coordinates": [ [ [ 848.738359518185007, 467.708250636802006 ], [ 877.160603441263447, 459.348767131406191 ], [ 886.634684749890539, 491.672103355871002 ], [ 857.655141926979127, 500.031586859228298 ], [ 857.097843025362408, 498.08104070688222 ], [ 839.542927662659395, 503.375380258736584 ], [ 829.934811205386382, 470.949746338786724 ], [ 847.881252870447611, 465.778862785883518 ], [ 848.738359518185007, 467.708250636802006 ] ] ] } },
{ "type": "Feature", "properties": { "feature_type": "building", "subtype": "no-damage", "uid": "57e966cc-aed8-4b78-a2b5-faad0acc2875" }, "geometry": { "type": "Polygon", "coordinates": [ [ [ 916.147978447750688, 513.262059926607435 ], [ 921.10890957611764, 525.236721268993506 ], [ 899.383452570656118, 534.645383750112956 ], [ 894.764654624759487, 527.289520352095565 ], [ 895.619987578005293, 519.762590368830729 ], [ 916.147978447750688, 513.262059926607435 ] ] ] } },
{ "type": "Feature", "properties": { "feature_type": "building", "subtype": "no-damage", "uid": "44d2370a-e70b-4ba6-99e0-5cb819bfb7ef" }, "geometry": { "type": "Polygon", "coordinates": [ [ [ 661.05372403661238, 545.269083295014525 ], [ 660.540524263543716, 532.61015559329303 ], [ 690.477177620012071, 526.280691743451484 ], [ 692.104975188669869, 535.112670722897633 ], [ 697.833041012167428, 545.611216478758934 ], [ 669.264920386599897, 554.848812368515723 ], [ 661.05372403661238, 545.269083295014525 ] ] ] } },
{ "type": "Feature", "properties": { "feature_type": "building", "subtype": "no-damage", "uid": "b23e2c3c-0dc6-4687-96b5-9ddb09b16157" }, "geometry": { "type": "Polygon", "coordinates": [ [ [ 661.436363141329139, 509.217050267634193 ], [ 679.398355151337114, 502.203320058457507 ], [ 682.990753556192544, 502.716519828468506 ], [ 690.859816720397248, 523.244510694141582 ], [ 672.384624939613786, 529.060774772952868 ], [ 670.673959030574224, 525.297309780301248 ], [ 667.081560631324464, 525.981576142694166 ], [ 661.436363141329139, 509.217050267634193 ] ] ] } },
{ "type": "Feature", "properties": { "feature_type": "building", "subtype": "no-damage", "uid": "90d7a22b-2a4e-4bf2-85bb-1edde3a7d575" }, "geometry": { "type": "Polygon", "coordinates": [ [ [ 674.936970592317834, 660.502854529400906 ], [ 673.226304685316563, 655.370856812982538 ], [ 670.147106054294227, 656.055123174356368 ], [ 665.186174928984883, 646.475394101874258 ], [ 666.212574471809717, 640.659130023063085 ], [ 682.977100348904287, 635.184999125957916 ], [ 682.46390057761937, 632.276867091138797 ], [ 704.979444400983198, 626.147748784788291 ], [ 706.92642303265211, 630.053001411578066 ], [ 709.321355298733693, 629.53980164156701 ], [ 715.992952332063396, 654.857657045009887 ], [ 687.082698523770659, 664.950585883426243 ], [ 685.885232392386115, 657.93685566915326 ], [ 674.936970592317834, 660.502854529400906 ] ] ] } },
{ "type": "Feature", "properties": { "feature_type": "building", "subtype": "no-damage", "uid": "ca14810c-111f-4391-b12c-c263f544ad58" }, "geometry": { "type": "Polygon", "coordinates": [ [ [ 720.914279151364326, 786.064627302029749 ], [ 750.97438850423589, 775.901147041533704 ], [ 754.674369765734127, 788.667657603974817 ], [ 761.174900206936854, 786.785925106120203 ], [ 766.991164288040068, 804.234717341534747 ], [ 760.832767026250053, 806.116449841427766 ], [ 765.280498383841632, 818.604310951786601 ], [ 735.343845028647365, 828.01297342984833 ], [ 734.146378893950327, 824.420575027540167 ], [ 730.382913903338022, 825.44697457062 ], [ 728.159048225816264, 819.117510721797657 ], [ 732.264646398134573, 817.748977994973302 ], [ 730.725047084024823, 813.130180048566103 ], [ 724.73771641232338, 815.354045725069227 ], [ 716.184386885216327, 791.404723046412187 ], [ 722.000650963007047, 789.69405714297784 ], [ 720.914279151364326, 786.064627302029749 ] ] ] } },
{ "type": "Feature", "properties": { "feature_type": "building", "subtype": "no-damage", "uid": "73508630-30ed-4e88-80ce-dd4f68671b1f" }, "geometry": { "type": "Polygon", "coordinates": [ [ [ 933.910594921800453, 800.619571595395314 ], [ 926.806731975539151, 802.764133998190118 ], [ 922.115501727580295, 788.690443257877519 ], [ 929.621470121562652, 786.411845707455996 ], [ 925.46638047634076, 773.946576763124312 ], [ 934.84884096869132, 770.72973316606658 ], [ 938.333754868135998, 773.142365864114595 ], [ 940.612352416518547, 783.195002111417466 ], [ 950.530953510586983, 779.844123360617914 ], [ 955.356218908720507, 793.381673505327853 ], [ 945.571652966100828, 796.866587399677314 ], [ 948.922531715625723, 806.249047896616389 ], [ 937.127438520131477, 810.002032091315186 ], [ 933.910594921800453, 800.619571595395314 ] ] ] } },
{ "type": "Feature", "properties": { "feature_type": "building", "subtype": "no-damage", "uid": "132f2cb3-7353-4550-afbb-e5c13f05cb58" }, "geometry": { "type": "Polygon", "coordinates": [ [ [ 984.457090754663909, 982.450602371710147 ], [ 1008.473295658057964, 975.740957084470097 ], [ 1013.494865774880964, 993.425617061728872 ], [ 989.042002597466876, 999.320503718437067 ], [ 984.457090754663909, 982.450602371710147 ] ] ] } },
{ "type": "Feature", "properties": { "feature_type": "building", "subtype": "no-damage", "uid": "5c1c10ab-e8f0-4a75-8c2a-b98e033395c8" }, "geometry": { "type": "Polygon", "coordinates": [ [ [ 990.396539086026337, 431.033536911767499 ], [ 1009.595906595513043, 424.433754336065306 ], [ 1016.19568917274205, 439.433260198921516 ], [ 997.596301898962452, 444.233102075402428 ], [ 990.396539086026337, 431.033536911767499 ] ] ] } },
{ "type": "Feature", "properties": { "feature_type": "building", "subtype": "no-damage", "uid": "3c1df728-ca7c-4241-bf92-f27a4c24967f" }, "geometry": { "type": "Polygon", "coordinates": [ [ [ 347.314219916740683, 450.898141368142717 ], [ 370.755412015906813, 443.821555077303174 ], [ 375.620565093087407, 461.955307456561172 ], [ 351.737086351954304, 469.9164670303158 ], [ 345.987359988801188, 461.070734163454006 ], [ 347.314219916740683, 450.898141368142717 ] ] ] } }
]
}
