{
"type": "FeatureCollection",
"name": "hurricane-michael_00000148_post_disaster",
"features": [
{ "type": "Feature", "properties": { "feature_type": "building", "subtype": "major-damage", "uid": "99efe20a-dd6b-48a1-a0eb-cd19bc442932" }, "geometry": { "type": "Polygon", "coordinates": [ [ [ 838.116491547506598, 575.797001603928152 ], [ 839.116491551618424, 609.797001605344462 ], [ 831.11649154894701, 609.797001601348029 ], [ 831.116491547947817, 605.797001603884837 ], [ 797.116491552017806, 605.797001603884837 ], [ 797.116491549769762, 614.797001603172589 ], [ 786.116491548750446, 614.797001603172589 ], [ 786.116491548750446, 605.797001603884837 ], [ 778.116491551324202, 605.797001603884837 ], [ 778.116491550075352, 599.79700160369373 ], [ 786.116491547751366, 599.797001605691889 ], [ 786.116491548001136, 576.797001601295733 ], [ 838.116491547506598, 575.797001603928152 ] ] ] } },
{ "type": "Feature", "properties": { "feature_type": "building", "subtype": "minor-damage", "uid": "3034ee35-e047-4c5d-b7e7-0e316be6f904" }, "geometry": { "type": "Polygon", "coordinates": [ [ [ 972.650016180865805, 1022.978218146176005 ], [ 992.000000122199253, 1008.000000044106969 ], [ 1010.749886659375989, 1022.977444241696048 ], [ 972.650016180865805, 1022.978218146176005 ] ] ] } },
{ "type": "Feature", "properties": { "feature_type": "building", "subtype": "minor-damage", "uid": "c5325238-17da-4dfa-ac8a-c85fe4530c48" }, "geometry": { "type": "Polygon", "coordinates": [ [ [ 58.207995961955859, 923.29950030644909 ], [ 83.207995965589674, 925.299500303182526 ], [ 84.207995962457957, 919.299500305988659 ], [ 88.207995962669699, 920.2995003053544 ], [ 87.207995962304551, 928.299500302278943 ], [ 96.207995963093182, 928.299500304277217 ], [ 95.207995962728035, 938.29950030392979 ], [ 82.207995962227201, 937.299500301566695 ], [ 82.207995962476986, 940.299500305658626 ], [ 80.207995963495094, 940.299500302661386 ], [ 78.207995965262555, 966.299500304155799 ], [ 79.207995965377933, 966.299500304155799 ], [ 79.207995964129054, 971.299500303982086 ], [ 93.207995965494575, 972.299500304347021 ], [ 92.207995965379197, 981.299500303634659 ], [ 83.207995966338999, 980.299500303269838 ], [ 82.207995964225404, 988.299500302192541 ], [ 78.20799596176569, 988.299500302192541 ], [ 78.207995963514122, 981.299500303634659 ], [ 54.207995963992097, 979.299500302904903 ], [ 58.207995961955859, 923.29950030644909 ] ] ] } },
{ "type": "Feature", "properties": { "feature_type": "building", "subtype": "major-damage", "uid": "d54e2063-c7e2-41be-a56f-72b8dc8fe80a" }, "geometry": { "type": "Polygon", "coordinates": [ [ [ 950.000000121349785, 865.000000044879471 ], [ 972.000000122139681, 879.000000046990635 ], [ 973.000000121255994, 878.000000046625814 ], [ 977.000000122466759, 880.000000044358217 ], [ 985.000000122140932, 869.000000044340823 ], [ 992.000000125196607, 875.000000045531124 ], [ 988.000000121987568, 881.000000044723151 ], [ 994.000000123179348, 886.000000043550358 ], [ 992.000000120700633, 890.000000048007223 ], [ 987.000000121372636, 887.000000043915179 ], [ 973.000000121755534, 908.00000004358526 ], [ 925.000000120713253, 877.0000000452618 ], [ 946.000000120388677, 845.000000044575131 ], [ 955.000000122925712, 851.000000044766352 ], [ 947.000000125000042, 862.00000004578294 ], [ 951.000000124212647, 864.000000044514536 ], [ 950.000000121349785, 865.000000044879471 ] ] ] } },
{ "type": "Feature", "properties": { "feature_type": "building", "subtype": "minor-damage", "uid": "94031898-ea83-47d7-9678-35b53c8bd4a4" }, "geometry": { "type": "Polygon", "coordinates": [ [ [ 589.721402648732351, 591.021474876785987 ], [ 592.260585274981281, 599.040133271223681 ], [ 583.721402650537925, 600.021474878071899 ], [ 569.721402649671859, 606.021474876264847 ], [ 561.721402648249295, 585.02147487859304 ], [ 562.721402649363768, 585.02147487759396 ], [ 553.721402649574316, 560.021474878462527 ], [ 552.7214026487095, 561.021474876829302 ], [ 544.72140264978475, 541.021474875525882 ], [ 560.721402651630797, 535.021474876333855 ], [ 562.721402653609971, 540.021474876160141 ], [ 569.721402650671052, 537.021474879061884 ], [ 589.721402648732351, 591.021474876785987 ] ] ] } },
{ "type": "Feature", "properties": { "feature_type": "building", "subtype": "minor-damage", "uid": "a2819697-7a9f-4923-afb0-bf702defd139" }, "geometry": { "type": "Polygon", "coordinates": [ [ [ 214.541340603111792, 584.000000045250886 ], [ 211.541340602016305, 576.000000045328989 ], [ 205.541340602822686, 579.000000044425406 ], [ 199.541340602380188, 565.000000046310561 ], [ 219.541340604438005, 556.000000044025683 ], [ 219.54134060119091, 557.000000044390504 ], [ 244.541340603076293, 547.000000044737931 ], [ 244.541340604824711, 546.00000004537219 ], [ 263.541340601272111, 537.000000046084551 ], [ 270.541340602079686, 552.000000044564217 ], [ 263.541340604269408, 555.000000043660748 ], [ 267.072008022382818, 564.346662947464552 ], [ 214.541340603111792, 584.000000045250886 ] ] ] } },
{ "type": "Feature", "properties": { "feature_type": "building", "subtype": "minor-damage", "uid": "bacd5bd1-d713-4ece-8e3d-f34fbd8bd064" }, "geometry": { "type": "Polygon", "coordinates": [ [ [ 61.441295117626098, 121.122886220193806 ], [ 62.977613349834371, 145.659204456298397 ], [ 52.977613349929463, 146.659204455664195 ], [ 53.977613350294618, 151.65920445549051 ], [ 42.97761334902544, 152.6592044538572 ], [ 41.977613353406028, 149.659204452762509 ], [ 20.977613349484411, 151.659204453492293 ], [ 18.977613349503429, 121.659204453535494 ], [ 30.977613348889768, 120.659204455168805 ], [ 30.977613351137759, 118.659204452440804 ], [ 39.977613351426839, 117.659204456072302 ], [ 39.977613349678407, 123.659204454265307 ], [ 46.100499523414641, 123.391045338593599 ], [ 48.245772468021663, 121.586567982221595 ], [ 61.441295117626098, 121.122886220193806 ] ] ] } },
{ "type": "Feature", "properties": { "feature_type": "building", "subtype": "minor-damage", "uid": "dcd1c409-3686-48e3-a3b1-80c1b5a7eff4" }, "geometry": { "type": "Polygon", "coordinates": [ [ [ 225.415991809352192, 435.599000564609014 ], [ 233.898500899964205, 461.599000563106188 ], [ 225.801999082052504, 464.198001082613189 ], [ 224.801999080438492, 461.198001085514875 ], [ 201.801999080532312, 469.198001084437692 ], [ 201.801999081531392, 471.198001083169288 ], [ 197.801999084067205, 472.198001086531519 ], [ 201.801999082030989, 485.198001082283213 ], [ 192.801999079493896, 488.198001084376983 ], [ 189.801999081895303, 480.198001085454223 ], [ 182.801999082086809, 482.198001086183979 ], [ 180.801999080357291, 478.198001083725273 ], [ 176.61899024859639, 468.111494065515785 ], [ 174.908495704327095, 453.497501342983412 ], [ 225.415991809352192, 435.599000564609014 ] ] ] } },
{ "type": "Feature", "properties": { "feature_type": "building", "subtype": "minor-damage", "uid": "ca0ea2a6-bf17-4da1-9776-f11039d5834b" }, "geometry": { "type": "Polygon", "coordinates": [ [ [ 367.097165209526679, 812.000000045521915 ], [ 383.097165208875026, 812.000000045521915 ], [ 383.097165208875026, 819.000000045078878 ], [ 390.097165209682714, 819.000000045078878 ], [ 390.097165210182197, 870.000000042707484 ], [ 381.097165208144702, 870.000000042707484 ], [ 381.097165208394472, 877.000000043263526 ], [ 366.097165209161574, 877.0000000452618 ], [ 366.09716521265841, 855.000000048224138 ], [ 368.097165208892818, 855.000000045226898 ], [ 368.097165209392301, 833.000000044192802 ], [ 367.097165209776506, 833.000000046191076 ], [ 367.097165209526679, 812.000000045521915 ] ] ] } },
{ "type": "Feature", "properties": { "feature_type": "building", "subtype": "minor-damage", "uid": "b90785ae-459d-4168-ad17-01008395b299" }, "geometry": { "type": "Polygon", "coordinates": [ [ [ 539.213550088848365, 490.00000004492 ], [ 524.21355008736748, 509.000000044859291 ], [ 523.213550089000478, 508.000000044494413 ], [ 515.213550087577914, 519.000000045511001 ], [ 507.213550085655811, 514.000000044685635 ], [ 515.213550087328144, 503.000000044668127 ], [ 511.213550086366979, 500.00000004557171 ], [ 512.213550087231738, 499.000000045206718 ], [ 496.213550085635518, 486.000000041462215 ], [ 495.213550085520126, 487.000000041827093 ], [ 491.213550086057694, 484.000000044728779 ], [ 482.213550086018415, 496.000000043112891 ], [ 475.2135500897067, 490.00000004591908 ], [ 483.2135500873826, 479.000000044902492 ], [ 482.213550087267322, 478.000000044537614 ], [ 497.213550086250393, 459.000000044598323 ], [ 539.213550088848365, 490.00000004492 ] ] ] } },
{ "type": "Feature", "properties": { "feature_type": "building", "subtype": "minor-damage", "uid": "89add66b-2eab-481a-8447-47423fff42e2" }, "geometry": { "type": "Polygon", "coordinates": [ [ [ 639.445487329684966, 13.73909039855603 ], [ 646.904976881959328, 36.122886218151542 ], [ 637.441295114646891, 39.854727099943013 ], [ 635.441295115165417, 35.854727101480727 ], [ 625.441295115010803, 39.854727100942107 ], [ 626.441295116375045, 42.854727102036797 ], [ 615.441295118352969, 47.854727101863077 ], [ 612.441295116508172, 41.854727103670108 ], [ 609.441295114663376, 43.854727101402602 ], [ 602.441295117352524, 26.854727099195749 ], [ 618.441295116201331, 20.85472710100278 ], [ 616.441295117219397, 14.854727102809809 ], [ 629.441295114972718, 9.854727100985318 ], [ 631.441295115952812, 15.85472710017739 ], [ 639.445487329684966, 13.73909039855603 ] ] ] } },
{ "type": "Feature", "properties": { "feature_type": "building", "subtype": "minor-damage", "uid": "072e5878-1bff-435f-b07c-5a58235fc599" }, "geometry": { "type": "Polygon", "coordinates": [ [ [ 773.231650715441219, 1022.981266228753952 ], [ 775.000000122389338, 1018.000000045758043 ], [ 759.730767208387306, 1012.072873863879977 ], [ 766.730767208445627, 998.072873861768699 ], [ 795.00000012070052, 1009.00000004646995 ], [ 795.00000012294845, 1010.000000044836952 ], [ 820.000000121337052, 1021.000000044855028 ], [ 821.000000121452445, 1020.00000004448998 ], [ 827.067634508697665, 1022.980609255337981 ], [ 773.231650715441219, 1022.981266228753952 ] ] ] } },
{ "type": "Feature", "properties": { "feature_type": "building", "subtype": "minor-damage", "uid": "86206810-c71b-45f3-b237-ed215ce6bfb8" }, "geometry": { "type": "Polygon", "coordinates": [ [ [ 970.382246780723108, 711.293480002784236 ], [ 971.3822467808385, 717.293480002975343 ], [ 980.382246781876916, 715.293480003244667 ], [ 995.38224678185918, 769.293480001967964 ], [ 986.382246783818005, 772.293480004061735 ], [ 988.382246781301205, 778.293480003253876 ], [ 972.382246782452512, 782.293480003714308 ], [ 967.382246783873825, 761.293480003045261 ], [ 968.382246783989217, 761.293480003045261 ], [ 961.382246782182392, 736.293480000916475 ], [ 960.38224678156746, 736.293480000916475 ], [ 954.382246781374761, 715.293480002245587 ], [ 970.382246780723108, 711.293480002784236 ] ] ] } },
{ "type": "Feature", "properties": { "feature_type": "building", "subtype": "minor-damage", "uid": "b8a8389c-9816-4745-8ff6-df681aa7238f" }, "geometry": { "type": "Polygon", "coordinates": [ [ [ 700.000000119980314, 854.000000043862883 ], [ 691.000000124436951, 875.000000045531124 ], [ 691.000000120690288, 876.000000042898705 ], [ 696.000000120018285, 878.000000043628461 ], [ 695.000000122650476, 882.000000043089813 ], [ 689.000000121958237, 879.000000044992476 ], [ 685.000000121746439, 887.000000043915179 ], [ 674.000000121476432, 883.000000044453827 ], [ 677.000000124570079, 876.000000044896865 ], [ 647.000000121608196, 863.000000046147875 ], [ 644.000000124009603, 871.000000045070578 ], [ 633.000000123240056, 867.000000043610953 ], [ 637.000000121953121, 859.00000004468825 ], [ 630.00000012114549, 856.000000043593559 ], [ 632.000000124623284, 852.000000043133014 ], [ 638.00000012081955, 854.000000046860123 ], [ 647.000000121608196, 832.000000043827981 ], [ 700.000000119980314, 854.000000043862883 ] ] ] } },
{ "type": "Feature", "properties": { "feature_type": "building", "subtype": "no-damage", "uid": "84154a8b-dd22-4b70-a1e6-078fd4f10783" }, "geometry": { "type": "Polygon", "coordinates": [ [ [ 67.622552576591389, 1022.978533963753989 ], [ 66.806996485902445, 1018.202998485160947 ], [ 82.806996484501425, 1015.202998484066029 ], [ 84.079398469387584, 1022.978837754125038 ], [ 67.622552576591389, 1022.978533963753989 ] ] ] } },
{ "type": "Feature", "properties": { "feature_type": "building", "subtype": "no-damage", "uid": "d5844c84-2840-490a-8664-6914afc93d9a" }, "geometry": { "type": "Polygon", "coordinates": [ [ [ 406.428135463502315, 112.268574130133103 ], [ 405.428135464386003, 137.268574129264607 ], [ 395.428135462732712, 137.268574130263687 ], [ 395.428135463981619, 141.26857412972501 ], [ 384.428135465210119, 141.26857412972501 ], [ 384.428135464210982, 138.2685741296294 ], [ 362.428135463920682, 137.268574130263687 ], [ 363.428135463286708, 108.268574132669997 ], [ 376.428135463787612, 108.2685741296727 ], [ 376.428135463288015, 106.268574128942902 ], [ 384.428135464710579, 107.268574132305105 ], [ 384.428135463461672, 112.268574130133103 ], [ 393.428135462751698, 113.268574130497996 ], [ 393.428135465998821, 112.268574132131306 ], [ 406.428135463502315, 112.268574130133103 ] ] ] } },
{ "type": "Feature", "properties": { "feature_type": "building", "subtype": "minor-damage", "uid": "198c5f44-5197-4410-9ae1-92ed27e1dc84" }, "geometry": { "type": "Polygon", "coordinates": [ [ [ 299.79780640720378, 127.1090128726552 ], [ 299.797806406204586, 102.109012872524701 ], [ 311.797806405840788, 101.688793501320205 ], [ 311.797806405591018, 106.688793503144694 ], [ 322.797806407109874, 106.688793503144694 ], [ 322.797806407359815, 103.688793502050004 ], [ 335.797806405362792, 103.688793501050895 ], [ 335.797806407361008, 109.688793502241097 ], [ 338.797806406707991, 109.688793502241097 ], [ 338.797806409955115, 127.688793501815596 ], [ 321.797806409242583, 127.688793503813798 ], [ 321.797806407494079, 133.688793499009392 ], [ 307.797806406378413, 133.688793501007609 ], [ 307.797806408626286, 126.688793503448906 ], [ 299.79780640720378, 127.1090128726552 ] ] ] } },
{ "type": "Feature", "properties": { "feature_type": "building", "subtype": "minor-damage", "uid": "99710a57-3cdb-43b3-9570-a551bf6a006a" }, "geometry": { "type": "Polygon", "coordinates": [ [ [ 782.262027820598405, 114.262027741747204 ], [ 806.262027820120466, 95.26202773980971 ], [ 819.262027817374246, 111.262027740652599 ], [ 815.262027817412218, 115.262027743111204 ], [ 820.262027816490445, 122.262027741669101 ], [ 822.262027816721229, 121.262027740305101 ], [ 830.262027816894943, 130.262027741590998 ], [ 810.262027818333991, 146.262027742433787 ], [ 805.262027818006914, 138.262027740513787 ], [ 801.262027817795115, 142.26202773997511 ], [ 793.262027816122782, 133.2620277406875 ], [ 795.262027817352646, 131.262027739957688 ], [ 782.262027820598405, 114.262027741747204 ] ] ] } },
{ "type": "Feature", "properties": { "feature_type": "building", "subtype": "minor-damage", "uid": "fce1b2ba-b402-40c9-ab48-4e7e494a44ef" }, "geometry": { "type": "Polygon", "coordinates": [ [ [ 81.714672053762129, 586.642664078088956 ], [ 106.714672053899093, 588.642664076820552 ], [ 107.714672053764701, 581.642664077263589 ], [ 111.714672053227105, 582.642664078627604 ], [ 110.714672055109901, 590.642664077550421 ], [ 117.714672053919401, 590.642664079548581 ], [ 117.714672054668696, 599.642664076838059 ], [ 105.714672055532105, 598.642664076473125 ], [ 105.714672054782795, 603.642664076299411 ], [ 103.714672055301406, 602.64266407793275 ], [ 101.714672055070594, 624.642664076968572 ], [ 103.7146720540525, 624.642664076968572 ], [ 103.714672053303204, 629.642664076794858 ], [ 116.714672055052901, 630.64266407516152 ], [ 116.714672057550601, 639.642664076447431 ], [ 107.888003505023704, 638.877330365008561 ], [ 107.357336086756902, 647.111996657852842 ], [ 101.714672054571096, 646.642664080000827 ], [ 101.714672056569299, 640.642664077811446 ], [ 77.714672052801063, 638.642664078080657 ], [ 81.714672053762129, 586.642664078088956 ] ] ] } },
{ "type": "Feature", "properties": { "feature_type": "building", "subtype": "minor-damage", "uid": "57d3853b-c0cf-45db-8560-14a792aef299" }, "geometry": { "type": "Polygon", "coordinates": [ [ [ 855.208548587556379, 185.604274279546303 ], [ 830.208548587669156, 190.604274279372589 ], [ 828.208548588937106, 181.604274277087598 ], [ 822.208548588494637, 183.60427427781741 ], [ 819.208548591145814, 170.604274279068306 ], [ 826.208548589455631, 168.604274277339414 ], [ 822.208548591242106, 151.604274274133502 ], [ 840.208548588573194, 148.604274278034296 ], [ 840.208548588323424, 152.604274277495705 ], [ 847.208548589880479, 151.604274277130799 ], [ 849.20854858861253, 163.604274278512293 ], [ 845.208548589399925, 163.604274277513213 ], [ 847.208548591379099, 174.604274280527903 ], [ 852.208548589957786, 173.604274278164809 ], [ 855.208548587556379, 185.604274279546303 ] ] ] } },
{ "type": "Feature", "properties": { "feature_type": "building", "subtype": "minor-damage", "uid": "04304dde-4956-42de-9557-f73dd34fc6ef" }, "geometry": { "type": "Polygon", "coordinates": [ [ [ 557.513931587970319, 145.854727099657111 ], [ 556.513931587355387, 119.854727100160801 ], [ 568.513931591237679, 119.854727102159003 ], [ 569.513931588106061, 124.854727099987102 ], [ 580.513931591373421, 124.854727102984398 ], [ 580.513931587127217, 121.854727101889694 ], [ 592.513931588511809, 121.854727100890599 ], [ 592.513931588012269, 127.854727101081806 ], [ 596.513931590222114, 127.854727102080901 ], [ 596.513931586475564, 145.854727100656191 ], [ 579.513931587511365, 145.854727100656191 ], [ 579.513931586512285, 151.854727100847413 ], [ 565.513931588643572, 151.854727098849196 ], [ 565.513931586895183, 145.854727100656191 ], [ 557.513931587970319, 145.854727099657111 ] ] ] } },
{ "type": "Feature", "properties": { "feature_type": "building", "subtype": "minor-damage", "uid": "3ba330a0-c616-44db-bbb1-b5b0d20e7491" }, "geometry": { "type": "Polygon", "coordinates": [ [ [ 118.8547271755086, 145.58656798298631 ], [ 115.318408942570002, 121.391045336864707 ], [ 124.318408942859094, 120.391045335500706 ], [ 124.318408940611107, 117.391045336404204 ], [ 135.318408940131889, 116.391045336039298 ], [ 136.318408942745009, 119.391045336134894 ], [ 150.318408939864412, 117.391045336404204 ], [ 150.318408940863407, 120.391045335500706 ], [ 158.318408939038989, 119.391045336134894 ], [ 160.318408941517703, 142.391045337533797 ], [ 142.318408939690613, 143.391045336899595 ], [ 142.318408940939491, 149.391045338089896 ], [ 130.318408940554093, 150.391045336456614 ], [ 129.318408939689391, 145.391045338628487 ], [ 118.8547271755086, 145.58656798298631 ] ] ] } },
{ "type": "Feature", "properties": { "feature_type": "building", "subtype": "minor-damage", "uid": "ba9dafdb-d444-4b7e-ad19-a4f506d417a2" }, "geometry": { "type": "Polygon", "coordinates": [ [ [ 279.101624864664302, 436.966125132709919 ], [ 336.101624863497875, 437.966125130077501 ], [ 335.101624865130873, 446.966125130364219 ], [ 343.101624861807693, 446.966125130364219 ], [ 343.101624861058383, 462.966125130208013 ], [ 321.101624862516474, 461.966125130842215 ], [ 321.101624862016877, 460.966125127479984 ], [ 294.10162486314789, 460.966125129478201 ], [ 294.10162486314789, 461.966125129843078 ], [ 272.101624862108224, 461.966125129843078 ], [ 273.101624862723213, 446.966125130364219 ], [ 272.810024587202179, 435.955824650241084 ], [ 279.101624864664302, 436.966125132709919 ] ] ] } },
{ "type": "Feature", "properties": { "feature_type": "building", "subtype": "minor-damage", "uid": "365a3863-7099-4c4a-a174-50ac984725de" }, "geometry": { "type": "Polygon", "coordinates": [ [ [ 587.00000012117971, 950.000000044923468 ], [ 597.000000121084554, 928.000000043889486 ], [ 591.000000119892775, 925.000000045792149 ], [ 593.000000120623099, 919.000000044601848 ], [ 601.000000121296353, 922.000000045696538 ], [ 603.000000120777713, 916.00000004750359 ], [ 612.000000122315669, 920.000000044966669 ], [ 607.000000123986752, 932.000000043350838 ], [ 610.000000120586265, 934.000000045079787 ], [ 610.000000120586265, 935.000000044445528 ], [ 635.000000120473487, 946.000000044463036 ], [ 635.000000119973947, 944.00000004673052 ], [ 639.000000119935862, 946.000000044463036 ], [ 644.000000122261213, 934.000000045079787 ], [ 653.000000119802735, 937.000000046174478 ], [ 649.00000012009059, 945.000000045097181 ], [ 657.000000121762923, 948.000000046191872 ], [ 655.000000120782829, 952.000000043655064 ], [ 649.0000001208399, 950.000000046921741 ], [ 639.000000123682526, 972.000000044958483 ], [ 587.00000012117971, 950.000000044923468 ] ] ] } },
{ "type": "Feature", "properties": { "feature_type": "building", "subtype": "minor-damage", "uid": "671ddd08-5b72-4c17-880c-623ddd0714d4" }, "geometry": { "type": "Polygon", "coordinates": [ [ [ 942.28739434181, 614.693325853240935 ], [ 870.082681085759532, 607.693325852684779 ], [ 871.082681087373544, 593.693325852571775 ], [ 877.082681089064977, 594.693325850938436 ], [ 878.082681086682555, 585.693325851650798 ], [ 934.08268108689947, 591.693325854839259 ], [ 944.386357034581579, 594.149412499635218 ], [ 943.905147681727954, 600.31107919231556 ], [ 942.28739434181, 614.693325853240935 ] ] ] } },
{ "type": "Feature", "properties": { "feature_type": "building", "subtype": "minor-damage", "uid": "af077aa5-0ff5-448a-9439-979fb767de14" }, "geometry": { "type": "Polygon", "coordinates": [ [ [ 299.797806406204586, 102.109012872524701 ], [ 299.79780640720378, 127.1090128726552 ], [ 290.797806407414214, 127.1090128726552 ], [ 290.797806405665824, 134.109012871212997 ], [ 277.79780640916141, 134.109012873211213 ], [ 277.79780640741302, 127.1090128726552 ], [ 260.797806405951121, 127.1090128726552 ], [ 260.797806405951121, 109.109012873080701 ], [ 264.797806407161886, 109.109012873080701 ], [ 264.797806406412576, 103.109012874887796 ], [ 276.797806407047801, 103.109012874887796 ], [ 276.797806408546478, 107.109012874349105 ], [ 287.797806406568611, 107.109012872350903 ], [ 287.797806407317921, 102.109012872524701 ], [ 299.797806406204586, 102.109012872524701 ] ] ] } },
{ "type": "Feature", "properties": { "feature_type": "building", "subtype": "minor-damage", "uid": "495a27c5-792c-444f-8f69-4e43f7c9057c" }, "geometry": { "type": "Polygon", "coordinates": [ [ [ 579.000000120256573, 769.000000047815206 ], [ 595.00000012110354, 765.000000047354661 ], [ 597.000000119585934, 771.000000043549448 ], [ 606.00000012037458, 769.000000046816126 ], [ 621.000000122854544, 822.000000044175408 ], [ 611.000000122200277, 825.000000047268259 ], [ 613.000000119683591, 832.000000043827981 ], [ 598.000000121949256, 836.000000046286573 ], [ 592.000000123005407, 815.000000045617526 ], [ 593.000000124369649, 815.000000045617526 ], [ 586.000000121563858, 790.000000045487013 ], [ 585.000000121698235, 790.000000045487013 ], [ 579.000000120256573, 769.000000047815206 ] ] ] } },
{ "type": "Feature", "properties": { "feature_type": "building", "subtype": "minor-damage", "uid": "19e5fd0d-4991-45a5-817c-8b4b74bb72e0" }, "geometry": { "type": "Polygon", "coordinates": [ [ [ 852.000000120533173, 699.000000048249035 ], [ 875.000000124935355, 698.00000004488686 ], [ 875.000000121688231, 691.000000045329898 ], [ 882.000000122495862, 690.000000044964963 ], [ 882.000000122745632, 699.000000047249955 ], [ 880.000000124013582, 699.000000045251682 ], [ 880.000000122265192, 713.000000043366526 ], [ 876.000000122802703, 714.000000042732381 ], [ 877.000000121419475, 754.000000047337267 ], [ 854.000000121513267, 755.000000045703928 ], [ 852.000000120533173, 699.000000048249035 ] ] ] } },
{ "type": "Feature", "properties": { "feature_type": "building", "subtype": "no-damage", "uid": "23be89a8-972f-4a79-a482-a531bfad6683" }, "geometry": { "type": "Polygon", "coordinates": [ [ [ 1023.049557904703988, 814.406846249852833 ], [ 1006.675726738779986, 802.088766750530567 ], [ 1016.440220060193951, 789.617753386672916 ], [ 1021.44022005652505, 793.617753386134268 ], [ 1023.049574217813984, 791.891392103551425 ], [ 1023.049557904703988, 814.406846249852833 ] ] ] } },
{ "type": "Feature", "properties": { "feature_type": "building", "subtype": "major-damage", "uid": "4e19082f-b537-4c52-8a05-f7ee19d1b916" }, "geometry": { "type": "Polygon", "coordinates": [ [ [ 758.009994927851494, 613.502498744633044 ], [ 745.00999492660128, 614.502498744997979 ], [ 744.009994926985541, 607.502498747439176 ], [ 733.009994924717262, 608.502498743807678 ], [ 733.009994926215882, 605.502498745710341 ], [ 715.009994926387094, 607.502498747439176 ], [ 715.009994927386174, 608.502498744806758 ], [ 707.00999492821154, 609.502498745171692 ], [ 708.009994926328659, 616.502498745727735 ], [ 692.009994924732382, 618.502498745458524 ], [ 691.00999492461699, 602.50249874461565 ], [ 697.009994927307503, 601.502498747248069 ], [ 696.009994923945101, 586.502498746770129 ], [ 749.009994925314459, 581.502498746943843 ], [ 750.009994926678701, 597.502498746787523 ], [ 757.009994927236562, 597.502498744789364 ], [ 758.009994927851494, 613.502498744633044 ] ] ] } },
{ "type": "Feature", "properties": { "feature_type": "building", "subtype": "minor-damage", "uid": "3620c971-ab63-4f0e-9cc3-384afb30eca2" }, "geometry": { "type": "Polygon", "coordinates": [ [ [ 424.281299914772774, 474.606775027865694 ], [ 425.281299914388626, 460.606775027752576 ], [ 421.281299914676424, 460.606775028751827 ], [ 422.281299916290493, 459.606775029385972 ], [ 394.281299914558474, 457.606775026657886 ], [ 394.281299912560314, 458.60677502702282 ], [ 390.281299913347709, 458.60677502702282 ], [ 389.281299917978004, 471.606775028769221 ], [ 380.281299914192118, 471.606775027770084 ], [ 380.281299914941428, 462.606775028482389 ], [ 373.281299916132014, 461.606775029116591 ], [ 373.28129991438351, 457.606775026657886 ], [ 379.281299916074886, 457.606775023660589 ], [ 381.281299914806993, 433.606775028890524 ], [ 439.281299915004922, 437.606775026353716 ], [ 437.281299916272815, 461.606775029116591 ], [ 442.281299912853228, 462.606775028482389 ], [ 442.281299917099375, 466.606775028942877 ], [ 435.281299913544217, 466.606775027943797 ], [ 434.281299915426985, 475.606775027231492 ], [ 424.281299914772774, 474.606775027865694 ] ] ] } },
{ "type": "Feature", "properties": { "feature_type": "building", "subtype": "minor-damage", "uid": "6223f6e1-a26e-46ca-866b-b78029b52ce5" }, "geometry": { "type": "Polygon", "coordinates": [ [ [ 601.586568061863204, 114.441295037039495 ], [ 622.586568062537708, 110.441295040575397 ], [ 623.586568058906437, 113.441295038672806 ], [ 632.586568058196463, 112.441295037308805 ], [ 631.586568062826814, 108.441295040844807 ], [ 644.586568059581055, 106.441295040114994 ], [ 649.586568063405025, 130.4412950398806 ], [ 641.586568060483728, 132.441295040610413 ], [ 642.58656806034935, 138.441295040801492 ], [ 631.58656805932992, 140.441295040532196 ], [ 630.586568060963032, 138.441295040801492 ], [ 606.586568059692581, 142.441295037265604 ], [ 601.586568061863204, 114.441295037039495 ] ] ] } },
{ "type": "Feature", "properties": { "feature_type": "building", "subtype": "minor-damage", "uid": "44d67e23-23c3-4ef7-af44-21c992c9748d" }, "geometry": { "type": "Polygon", "coordinates": [ [ [ 606.942026843828558, 610.23550672548572 ], [ 667.942026845121859, 595.235506726006861 ], [ 672.942026843450776, 617.235506726041763 ], [ 635.466282755166731, 628.73737256379502 ], [ 623.42150261428776, 632.246701762829503 ], [ 605.942026843463395, 635.235506725616233 ], [ 602.942026845864802, 620.235506726137373 ], [ 600.410307576822788, 611.707519135758048 ], [ 606.942026843828558, 610.23550672548572 ] ] ] } },
{ "type": "Feature", "properties": { "feature_type": "building", "subtype": "minor-damage", "uid": "c2647119-1286-445e-b06c-aadfe4a924d7" }, "geometry": { "type": "Polygon", "coordinates": [ [ [ 66.954690514540474, 833.949451613914107 ], [ 74.954690515963051, 833.949451615912267 ], [ 75.954690514829551, 827.949451613722886 ], [ 91.954690516176072, 828.94945161608598 ], [ 89.954690515945316, 849.949451616755141 ], [ 87.954690515215006, 849.949451617754221 ], [ 86.954690517597385, 870.949451617424302 ], [ 88.954690514331276, 870.949451615426028 ], [ 86.954690514600074, 893.949451616824945 ], [ 70.954690514502431, 891.949451616095189 ], [ 70.954690516500634, 885.949451616903161 ], [ 62.954690516077157, 885.949451614904888 ], [ 66.954690514540474, 833.949451613914107 ] ] ] } },
{ "type": "Feature", "properties": { "feature_type": "building", "subtype": "minor-damage", "uid": "968e9558-944a-48f0-b74e-ddabdcefa408" }, "geometry": { "type": "Polygon", "coordinates": [ [ [ 154.837341734521601, 926.357336013414397 ], [ 155.837341730140992, 917.357336012128599 ], [ 164.837341730430097, 918.3573360134925 ], [ 165.837341731294799, 910.357336013570716 ], [ 170.837341734619287, 911.357336010938297 ], [ 169.837341731506598, 917.357336011129405 ], [ 193.8373417312784, 919.357336009861001 ], [ 188.837341731201008, 976.357336011677262 ], [ 163.837341730314705, 973.357336011581651 ], [ 163.837341730314705, 979.357336010773679 ], [ 158.837341732485413, 979.357336010773679 ], [ 159.8373417311021, 971.357336013849135 ], [ 150.837341734309888, 970.357336011486041 ], [ 151.83734173417551, 961.357336011199322 ], [ 165.837341731544598, 962.357336011564144 ], [ 165.837341730795288, 958.357336013101872 ], [ 166.83734173165999, 958.357336012102792 ], [ 169.837341734004298, 932.357336011607345 ], [ 168.837341731391206, 932.357336012606538 ], [ 168.837341734638301, 928.357336013145073 ], [ 154.837341734521601, 926.357336013414397 ] ] ] } },
{ "type": "Feature", "properties": { "feature_type": "building", "subtype": "no-damage", "uid": "a925b562-8d9b-448c-989d-99a8eb7fc94d" }, "geometry": { "type": "Polygon", "coordinates": [ [ [ 278.819650955215025, 1022.981562029296015 ], [ 263.806996482655393, 984.502498745131106 ], [ 278.806996483886621, 978.502498746938159 ], [ 275.806996483040905, 972.502498746747051 ], [ 290.80699648352271, 966.50249874555675 ], [ 293.806996482619979, 973.502498747111872 ], [ 295.806996482600994, 972.502498745747857 ], [ 298.806996482197803, 980.502498745669754 ], [ 295.806996483849787, 982.502498748397784 ], [ 292.806996486001481, 976.502498743211049 ], [ 286.806996482311888, 979.502498746304013 ], [ 291.806996484887009, 990.502498745322328 ], [ 289.806996481908698, 990.502498745322328 ], [ 297.806996483331318, 1009.50249874626104 ], [ 298.806996484945273, 1008.502498746894958 ], [ 300.811993884641709, 1012.918490430586985 ], [ 303.907323006880802, 1016.314262839169032 ], [ 308.806996485349828, 1018.502498746547985 ], [ 306.806996482371517, 1012.502498748355038 ], [ 310.806996485830325, 1011.502498745991034 ], [ 313.806996484178228, 1018.50249874354995 ], [ 311.806996485196407, 1019.502498746912011 ], [ 312.656996483358682, 1021.48249874711496 ], [ 307.981122233422582, 1022.981831768226016 ], [ 278.819650955215025, 1022.981562029296015 ] ] ] } },
{ "type": "Feature", "properties": { "feature_type": "building", "subtype": "no-damage", "uid": "b2080765-4bd4-455a-a3f5-cbada5a55cf8" }, "geometry": { "type": "Polygon", "coordinates": [ [ [ 207.377587035625112, 129.26857413034179 ], [ 205.377587038391596, 104.268574133208602 ], [ 213.377587034069393, 104.2685741312104 ], [ 213.377587034069393, 101.268574130115695 ], [ 225.377587034954388, 100.268574131749006 ], [ 225.37758703370551, 102.268574129481493 ], [ 239.377587033572411, 101.268574130115695 ], [ 240.377587035436193, 103.268574130845494 ], [ 247.377587033746096, 102.268574130480602 ], [ 249.3775870354755, 125.268574131879504 ], [ 231.37758703364841, 126.268574129247099 ], [ 231.377587034897289, 132.268574132435589 ], [ 219.377587034262092, 134.268574130167991 ], [ 218.377587034396498, 128.268574130975992 ], [ 207.377587035625112, 129.26857413034179 ] ] ] } },
{ "type": "Feature", "properties": { "feature_type": "building", "subtype": "minor-damage", "uid": "08ffa0ff-194b-47f6-8cbd-489c3af14232" }, "geometry": { "type": "Polygon", "coordinates": [ [ [ 115.318408942570002, 121.391045336864707 ], [ 118.8547271755086, 145.58656798298631 ], [ 107.854727174738997, 146.586567981352999 ], [ 107.854727174988795, 151.586567982178394 ], [ 95.854727176351744, 153.586567981909099 ], [ 95.854727177101068, 147.586567984715202 ], [ 77.854727175773576, 149.586567983446798 ], [ 75.854727177291238, 126.586567981048802 ], [ 83.854727177714722, 125.586567983681206 ], [ 83.854727175466749, 123.586567984949596 ], [ 96.854727176716906, 122.586567982586502 ], [ 96.854727175717798, 119.586567983489999 ], [ 107.854727178735402, 118.586567983125093 ], [ 107.854727178735402, 121.586567982221595 ], [ 115.318408942570002, 121.391045336864707 ] ] ] } },
{ "type": "Feature", "properties": { "feature_type": "building", "subtype": "major-damage", "uid": "9f3d82aa-c1ab-4df3-a8a6-be128395cfcc" }, "geometry": { "type": "Polygon", "coordinates": [ [ [ 72.133342859531126, 680.00000004531239 ], [ 97.133342861416509, 682.000000044043986 ], [ 98.133342858784346, 676.000000045851039 ], [ 102.1333428592459, 676.000000043852765 ], [ 102.133342860744506, 684.000000042775582 ], [ 110.133342863166206, 684.000000042775582 ], [ 109.133342860802799, 694.000000044426315 ], [ 96.133342859302914, 693.00000004206322 ], [ 96.133342859302914, 697.000000041524572 ], [ 95.133342858687982, 697.000000043522846 ], [ 93.13334285870701, 723.000000045017373 ], [ 94.133342860071267, 723.000000045017373 ], [ 94.133342859321928, 727.000000043479645 ], [ 108.133342859688398, 728.000000041846306 ], [ 107.133342858573897, 737.000000046129458 ], [ 98.133342860283008, 736.000000043766363 ], [ 98.133342862031441, 744.00000004468734 ], [ 92.133342859840496, 744.00000004268918 ], [ 93.133342859706104, 738.000000046494392 ], [ 68.13334285857006, 736.000000043766363 ], [ 72.133342859531126, 680.00000004531239 ] ] ] } },
{ "type": "Feature", "properties": { "feature_type": "building", "subtype": "minor-damage", "uid": "42b1a54d-6d36-4e44-b64a-360731314b5d" }, "geometry": { "type": "Polygon", "coordinates": [ [ [ 556.513931587355387, 119.854727100160801 ], [ 557.513931587970319, 145.854727099657111 ], [ 557.31840894236359, 145.58656798398539 ], [ 549.318408939941946, 145.58656798298631 ], [ 549.318408940691256, 151.586567984176611 ], [ 536.318408941189546, 151.586567985175691 ], [ 536.318408944436555, 145.58656798298631 ], [ 518.318408939862024, 145.586567980988093 ], [ 518.318408941110874, 127.586567984411005 ], [ 522.318408941822213, 127.586567982412802 ], [ 522.318408941322673, 121.586567982221595 ], [ 534.318408940708991, 121.586567982221595 ], [ 534.318408944705425, 125.586567985679395 ], [ 545.318408943976351, 125.586567981683004 ], [ 545.318408940729228, 120.586567985853094 ], [ 556.513931587355387, 119.854727100160801 ] ] ] } },
{ "type": "Feature", "properties": { "feature_type": "building", "subtype": "minor-damage", "uid": "d4311468-100b-46cd-b24a-ee4ef45985af" }, "geometry": { "type": "Polygon", "coordinates": [ [ [ 462.696709550236278, 107.848354759467298 ], [ 460.696709551004574, 132.848354758598703 ], [ 455.696709549678417, 132.848354759597811 ], [ 454.696709551811011, 138.84835475978889 ], [ 432.696709549772208, 137.848354761422314 ], [ 432.696709550521518, 130.848354760866187 ], [ 418.696709549655623, 129.848354757504012 ], [ 420.696709548637386, 106.848354759102406 ], [ 428.696709552058223, 107.848354761465501 ], [ 428.696709548311617, 105.8483547587375 ], [ 442.696709551925096, 106.848354759102406 ], [ 442.696709551425613, 108.848354759832205 ], [ 451.696709550965295, 108.848354761830393 ], [ 451.696709552713685, 106.848354759102406 ], [ 462.696709550236278, 107.848354759467298 ] ] ] } },
{ "type": "Feature", "properties": { "feature_type": "building", "subtype": "major-damage", "uid": "68b0c34e-d952-4167-9137-aa0c0468b43c" }, "geometry": { "type": "Polygon", "coordinates": [ [ [ 644.000000120013169, 700.000000044617536 ], [ 648.000000119725428, 715.000000045095476 ], [ 641.000000123164, 716.000000045460411 ], [ 643.000000121646281, 725.000000045747129 ], [ 588.000000120795448, 739.000000044861054 ], [ 586.000000122562938, 730.000000042576062 ], [ 579.000000119757033, 731.00000004593835 ], [ 575.000000119795118, 716.000000045460411 ], [ 597.000000123582367, 711.00000004363585 ], [ 597.000000124581447, 712.000000045998945 ], [ 623.000000124334179, 706.000000043809564 ], [ 623.000000121336939, 705.000000044443823 ], [ 644.000000120013169, 700.000000044617536 ] ] ] } },
{ "type": "Feature", "properties": { "feature_type": "building", "subtype": "minor-damage", "uid": "fa5ba707-fe87-4c09-b892-125f52d0e3e1" }, "geometry": { "type": "Polygon", "coordinates": [ [ [ 0.072670959113748, 118.394194553587496 ], [ 6.000000120085129, 121.0000000441526 ], [ 6.000000118086922, 123.000000045881507 ], [ 14.00000011975929, 125.000000041615806 ], [ 7.000000119950733, 147.000000045647113 ], [ 0.072695482356011, 144.063066870891902 ], [ 0.072670959113748, 118.394194553587496 ] ] ] } },
{ "type": "Feature", "properties": { "feature_type": "building", "subtype": "minor-damage", "uid": "706ee783-d4b3-42d8-a681-aa1d289ba643" }, "geometry": { "type": "Polygon", "coordinates": [ [ [ 375.000000121197274, 687.000000043870273 ], [ 378.000000121543508, 700.000000044617536 ], [ 368.00000012363671, 703.000000046711307 ], [ 366.000000123655809, 694.000000042428155 ], [ 360.00000012121501, 695.000000042792976 ], [ 359.000000120100481, 691.000000045329898 ], [ 364.000000120927211, 690.000000044964963 ], [ 358.000000119485605, 666.000000045199386 ], [ 409.000000121373489, 654.000000042818783 ], [ 415.000000121316475, 678.000000044582634 ], [ 421.000000122758081, 676.000000042853685 ], [ 422.000000121624623, 681.000000045677325 ], [ 415.000000121566188, 683.000000046407081 ], [ 417.000000120298409, 691.000000045329898 ], [ 407.000000120393508, 693.00000004206322 ], [ 404.000000123294399, 680.000000048309744 ], [ 399.000000120719278, 681.000000045677325 ], [ 399.000000121968185, 680.00000004631147 ], [ 379.000000121658786, 685.000000045138677 ], [ 379.000000119160973, 686.000000043505338 ], [ 375.000000121197274, 687.000000043870273 ] ] ] } },
{ "type": "Feature", "properties": { "feature_type": "building", "subtype": "minor-damage", "uid": "dce30cda-f651-4009-a944-2bfa1abc6187" }, "geometry": { "type": "Polygon", "coordinates": [ [ [ 915.288767432448026, 163.262027740644299 ], [ 940.288767432085365, 158.262027741817093 ], [ 942.631013970184199, 167.235288128864795 ], [ 948.631013970377012, 166.235288125502592 ], [ 951.631013970723075, 178.235288126884001 ], [ 946.631013970645768, 179.23528812525069 ], [ 950.631013969858373, 198.262027741426408 ], [ 929.31550704405538, 203.262027740253586 ], [ 926.631013969587116, 194.235288126727795 ], [ 924.631013971854031, 195.235288127092588 ], [ 921.631013972507048, 182.235288125346301 ], [ 918.631013968164439, 183.235288128708504 ], [ 915.631013970316076, 172.23528812969019 ], [ 917.63101397304456, 171.235288126327902 ], [ 915.288767432448026, 163.262027740644299 ] ] ] } },
{ "type": "Feature", "properties": { "feature_type": "building", "subtype": "minor-damage", "uid": "dc6f1535-9b04-45a5-920f-5ca7378f935c" }, "geometry": { "type": "Polygon", "coordinates": [ [ [ 172.033445559527507, 1022.980266977505948 ], [ 167.413040204993592, 1006.08876674704004 ], [ 182.413040206224792, 1002.08876674657904 ], [ 184.413040206955088, 1009.088766746136002 ], [ 192.413040206379492, 1007.088766747404975 ], [ 196.76332630956361, 1022.98060984480901 ], [ 172.033445559527507, 1022.980266977505948 ] ] ] } },
{ "type": "Feature", "properties": { "feature_type": "building", "subtype": "minor-damage", "uid": "78696637-778a-4e10-b588-def29248a09d" }, "geometry": { "type": "Polygon", "coordinates": [ [ [ 460.696709551004574, 132.848354758598703 ], [ 462.696709550236278, 107.848354759467298 ], [ 470.856270806867315, 107.848354761465501 ], [ 474.856270807328826, 108.848354759832205 ], [ 474.85627080607992, 110.848354760562003 ], [ 484.856270810231024, 111.848354760926895 ], [ 484.856270806734187, 109.848354760197097 ], [ 498.856270805851693, 110.848354757564607 ], [ 497.856270808983425, 112.848354758294406 ], [ 505.856270807908174, 113.848354759658406 ], [ 504.856270808042723, 136.848354759059191 ], [ 489.856270805562588, 135.848354760692501 ], [ 489.856270806312011, 141.848354760883609 ], [ 467.856270806770908, 139.84835476015391 ], [ 467.856270807769988, 133.848354759962689 ], [ 460.696709551004574, 132.848354758598703 ] ] ] } },
{ "type": "Feature", "properties": { "feature_type": "building", "subtype": "minor-damage", "uid": "88ff54c5-4461-4cd8-a47f-0024b6a49d93" }, "geometry": { "type": "Polygon", "coordinates": [ [ [ 179.585019574778414, 826.365205577559095 ], [ 189.5850195724353, 827.36520557892311 ], [ 189.585019571935703, 819.365205578002133 ], [ 194.585019572262894, 819.365205578002133 ], [ 193.585019572397186, 826.365205578558175 ], [ 218.585019573033691, 828.365205579287931 ], [ 214.853178691241311, 881.510478524270525 ], [ 191.121337808140396, 880.851274112889541 ], [ 185.585019573972005, 876.3652055788192 ], [ 176.585019574931806, 875.365205578454265 ], [ 177.585019571800103, 866.365205579166627 ], [ 190.585019572550692, 867.365205578532368 ], [ 191.585019572666113, 862.365205578706082 ], [ 192.585019572531593, 862.365205579705275 ], [ 194.585019571513499, 841.365205578037035 ], [ 192.585019573530786, 841.365205578037035 ], [ 193.585019575894108, 837.365205581572923 ], [ 179.585019574778414, 836.365205576212475 ], [ 179.585019574778414, 826.365205577559095 ] ] ] } },
{ "type": "Feature", "properties": { "feature_type": "building", "subtype": "minor-damage", "uid": "759531a6-51d2-454c-ad7e-2798bfb3df12" }, "geometry": { "type": "Polygon", "coordinates": [ [ [ 127.908495704149601, 485.202998484496277 ], [ 135.908495704822798, 490.202998485321814 ], [ 139.908495704035488, 485.202998484496277 ], [ 152.9084957032874, 494.202998484783109 ], [ 142.1064967439535, 511.903498227966281 ], [ 137.111494144340895, 517.792004200532915 ], [ 130.198001158093803, 526.314492511095978 ], [ 122.301910230462596, 537.942072644868631 ], [ 120.415991805729703, 548.477511734826635 ], [ 112.908495702918401, 556.893503420977368 ], [ 99.908495703166921, 543.202998486677416 ], [ 103.908495702129798, 538.202998483853889 ], [ 95.908495703704503, 533.202998484027603 ], [ 127.908495704149601, 485.202998484496277 ] ] ] } },
{ "type": "Feature", "properties": { "feature_type": "building", "subtype": "minor-damage", "uid": "1d65d0dc-20a7-4f3f-8f5b-6e80545b8ca7" }, "geometry": { "type": "Polygon", "coordinates": [ [ [ 656.914095366970173, 0.006267709209619 ], [ 662.122886296382831, 3.586567983124217 ], [ 674.883057316828626, 0.006150534365094 ], [ 674.908025278739501, 0.006150361520209 ], [ 681.904976882250935, 14.122886219115729 ], [ 677.90497688303833, 16.122886220844631 ], [ 680.904976881386233, 22.122886218038499 ], [ 668.904976880501295, 26.12288622049719 ], [ 667.904976879386822, 23.122886218403391 ], [ 656.904976879616243, 27.122886217864782 ], [ 658.904976880596337, 32.122886218690162 ], [ 646.904976881959328, 36.122886218151542 ], [ 639.445487329684966, 13.73909039855603 ], [ 646.904976882958408, 9.122886221287654 ], [ 643.904976879864762, 3.122886221096475 ], [ 656.878884888685548, 0.00626792501595 ], [ 656.914095366970173, 0.006267709209619 ] ] ] } },
{ "type": "Feature", "properties": { "feature_type": "building", "subtype": "minor-damage", "uid": "e9224860-de64-44eb-8486-ea5c35de992a" }, "geometry": { "type": "Polygon", "coordinates": [ [ [ 460.553602119995503, 1021.516436952167965 ], [ 434.633602117604312, 1014.536436950141024 ], [ 433.633602117988517, 1015.536436955501017 ], [ 411.633602117698103, 1009.536436953311977 ], [ 416.633602118275007, 994.536436952833697 ], [ 422.633602117718397, 996.536436953563452 ], [ 424.633602118199008, 988.536436952642475 ], [ 479.633602118300416, 1003.536436951122027 ], [ 477.633602118818999, 1011.536436953041971 ], [ 483.633602117762791, 1013.536436953771954 ], [ 481.503602117354717, 1021.516436952167965 ], [ 460.553602119995503, 1021.516436952167965 ] ] ] } },
{ "type": "Feature", "properties": { "feature_type": "building", "subtype": "minor-damage", "uid": "6377da14-4e85-40e1-820b-65f72c818641" }, "geometry": { "type": "Polygon", "coordinates": [ [ [ 183.199454289639789, 675.167503206190759 ], [ 167.199454286295094, 674.167503206825018 ], [ 168.199454286909997, 666.1675032079022 ], [ 166.199454286179702, 666.16750320690312 ], [ 166.199454286179702, 659.167503207346158 ], [ 171.199454288754794, 659.167503209344318 ], [ 171.199454288255311, 665.167503207537379 ], [ 176.199454286833998, 666.1675032079022 ], [ 177.199454286449793, 653.16750320815413 ], [ 179.199454286430807, 654.167503208518951 ], [ 180.199454286546114, 632.16750320848405 ], [ 178.199454285316307, 632.16750320848405 ], [ 179.19945428693029, 620.167503208101721 ], [ 174.199454285104508, 620.167503207102641 ], [ 173.199454287486901, 626.167503208292828 ], [ 169.19945428602631, 626.167503208292828 ], [ 169.199454287524986, 617.16750320800611 ], [ 171.199454287256202, 617.16750320800611 ], [ 172.199454287871106, 610.167503207450068 ], [ 187.199454287104004, 611.167503209813162 ], [ 187.199454285605412, 617.16750320900519 ], [ 203.199454285203501, 618.167503208371045 ], [ 200.199454285356893, 670.167503207363666 ], [ 183.199454287142089, 669.167503205999651 ], [ 183.199454289639789, 675.167503206190759 ] ] ] } },
{ "type": "Feature", "properties": { "feature_type": "building", "subtype": "minor-damage", "uid": "2d36b030-ec63-475d-8c89-248a1c53934c" }, "geometry": { "type": "Polygon", "coordinates": [ [ [ 264.559780184269982, 683.000000043409727 ], [ 316.559780186273315, 671.000000046024752 ], [ 321.559780183103612, 694.000000044426315 ], [ 327.559780186293608, 693.00000004406138 ], [ 328.559780185659577, 697.000000043522846 ], [ 321.559780184851888, 699.000000045251682 ], [ 323.559780185082673, 707.000000044174499 ], [ 314.559780186042474, 709.000000044904255 ], [ 311.559780184197677, 697.000000043522846 ], [ 305.559780183255725, 698.00000004688502 ], [ 305.559780184004978, 697.000000044521926 ], [ 286.559780188306888, 701.000000044982357 ], [ 286.559780183810972, 702.000000046346372 ], [ 280.559780187364879, 704.000000045077968 ], [ 284.559780183330474, 717.000000045825232 ], [ 275.559780184539989, 720.000000042923489 ], [ 272.559780186192086, 711.000000042636771 ], [ 265.559780183636008, 712.000000045998945 ], [ 264.559780184269982, 708.000000044539433 ], [ 270.559780184712508, 707.000000046172659 ], [ 264.559780184269982, 683.000000043409727 ] ] ] } },
{ "type": "Feature", "properties": { "feature_type": "building", "subtype": "minor-damage", "uid": "7131ab42-3814-4eec-ba83-94c87b6fa755" }, "geometry": { "type": "Polygon", "coordinates": [ [ [ 830.208548587669156, 190.604274279372589 ], [ 855.208548587556379, 185.604274279546303 ], [ 858.23528820563763, 196.919781203193509 ], [ 853.2352882023132, 197.919781201560198 ], [ 855.235288204042604, 208.919781204575003 ], [ 858.235288202640277, 207.919781202211908 ], [ 861.235288203485993, 219.919781203593402 ], [ 854.235288202178708, 220.91978119996179 ], [ 855.23528820204433, 224.919781202420609 ], [ 838.235288201831395, 228.919781202881012 ], [ 835.235288202983838, 211.919781203671505 ], [ 829.235288202791139, 212.919781204036411 ], [ 826.235288202944503, 198.919781201925105 ], [ 832.235288205635015, 197.919781201560198 ], [ 830.208548587669156, 190.604274279372589 ] ] ] } },
{ "type": "Feature", "properties": { "feature_type": "building", "subtype": "minor-damage", "uid": "5a70701a-a826-442d-a7bd-2bc2a9ff0001" }, "geometry": { "type": "Polygon", "coordinates": [ [ [ 496.513931587426384, 49.586567982924748 ], [ 497.513931587541776, 24.586567983793341 ], [ 504.173135998616203, 24.58656798579155 ], [ 504.636817762142698, 19.122886219941108 ], [ 519.782090708499481, 19.122886221939321 ], [ 519.854727176316487, 25.586567983159139 ], [ 536.513931586546505, 27.391045339531111 ], [ 536.318408939940696, 45.391045336108228 ], [ 530.977613350879437, 45.12288622043652 ], [ 529.977613354510595, 51.122886219628597 ], [ 517.977613351627497, 50.122886219263698 ], [ 517.977613350378533, 46.122886217804108 ], [ 506.977613350108527, 45.122886219437419 ], [ 506.977613353855077, 50.122886217265489 ], [ 496.513931587426384, 49.586567982924748 ] ] ] } },
{ "type": "Feature", "properties": { "feature_type": "building", "subtype": "minor-damage", "uid": "e172963f-d664-418e-a00e-306ee27d2c09" }, "geometry": { "type": "Polygon", "coordinates": [ [ [ 499.000000121766618, 635.000000044877652 ], [ 501.000000121747576, 643.000000044799549 ], [ 507.000000120941309, 641.000000046067953 ], [ 511.000000119904087, 657.000000042914394 ], [ 448.000000122376491, 672.000000044391413 ], [ 444.000000119167396, 656.000000045546813 ], [ 439.966415012274183, 647.973878294901397 ], [ 447.000000120013112, 647.000000043261821 ], [ 499.000000121766618, 635.000000044877652 ] ] ] } },
{ "type": "Feature", "properties": { "feature_type": "building", "subtype": "minor-damage", "uid": "076db9e4-a709-4f13-ba68-674c8ae3aa3c" }, "geometry": { "type": "Polygon", "coordinates": [ [ [ 267.560728301503616, 918.000000043237833 ], [ 268.560728301119411, 862.000000043784667 ], [ 293.560728304503527, 863.000000043150521 ], [ 293.560728302255484, 857.000000043958494 ], [ 298.560728301083884, 857.000000045956654 ], [ 298.560728301333711, 865.000000044879471 ], [ 307.560728300124083, 865.000000041882117 ], [ 307.56072830137299, 874.000000044167109 ], [ 293.560728299757727, 873.000000045800334 ], [ 293.56072830125629, 878.000000044627541 ], [ 291.56072830127539, 878.000000044627541 ], [ 290.560728304157294, 904.000000045122988 ], [ 292.560728299642278, 904.000000042125635 ], [ 292.560728300891185, 909.000000043950195 ], [ 305.560728301891572, 909.000000044949275 ], [ 305.560728301891572, 918.000000044236913 ], [ 295.560728300737821, 918.000000044236913 ], [ 295.560728300987591, 925.000000045792149 ], [ 292.560728302889402, 925.000000044792955 ], [ 292.560728302889402, 919.000000043602768 ], [ 267.560728301503616, 918.000000043237833 ] ] ] } },
{ "type": "Feature", "properties": { "feature_type": "building", "subtype": "minor-damage", "uid": "da53ebb0-ac84-42a3-9256-3358a5d45861" }, "geometry": { "type": "Polygon", "coordinates": [ [ [ 514.71135171501669, 1022.982711745513029 ], [ 520.266300226933481, 1013.00000004693095 ], [ 556.072052855273228, 1022.982670599438961 ], [ 514.71135171501669, 1022.982711745513029 ] ] ] } },
{ "type": "Feature", "properties": { "feature_type": "building", "subtype": "no-damage", "uid": "1ad54e3d-3504-43a0-9584-7914c1044a48" }, "geometry": { "type": "Polygon", "coordinates": [ [ [ 205.377587038391596, 104.268574133208602 ], [ 207.377587035625112, 129.26857413034179 ], [ 197.007916092411705, 130.0584644461035 ], [ 198.007916092527097, 136.058464444296504 ], [ 185.00791609252579, 137.058464444661411 ], [ 185.007916091027113, 132.058464446833312 ], [ 167.007916090698814, 133.058464444200894 ], [ 165.007916095463486, 111.058464446164194 ], [ 173.007916094388293, 110.058464445799302 ], [ 173.007916094138608, 108.058464445069504 ], [ 186.007916091891786, 107.058464443705503 ], [ 186.007916093390492, 104.058464444609001 ], [ 197.00791609490949, 103.058464445243203 ], [ 197.007916093660612, 105.058464443974799 ], [ 205.377587038391596, 104.268574133208602 ] ] ] } },
{ "type": "Feature", "properties": { "feature_type": "building", "subtype": "minor-damage", "uid": "709d0c91-e7a5-4cb1-b294-535da74008a7" }, "geometry": { "type": "Polygon", "coordinates": [ [ [ 877.000000124166945, 924.000000044428134 ], [ 868.00000012162991, 945.000000045097181 ], [ 875.000000121938001, 948.000000046191872 ], [ 872.000000121342168, 953.000000046018158 ], [ 865.000000121033963, 950.000000046921741 ], [ 861.000000122570668, 958.000000042847205 ], [ 853.000000123895688, 955.000000044749754 ], [ 858.000000120725872, 942.000000044002491 ], [ 854.000000121263497, 940.000000044271815 ], [ 855.000000124126359, 939.000000047903313 ], [ 830.000000121991206, 929.000000044254421 ], [ 830.000000120992127, 930.000000045618435 ], [ 826.000000124027451, 928.000000043889486 ], [ 820.000000122835672, 941.000000044636749 ], [ 811.000000121547487, 937.000000046174478 ], [ 815.000000122258825, 930.000000047616595 ], [ 807.000000121585458, 926.00000004615697 ], [ 809.000000121316702, 921.000000045331603 ], [ 815.000000120260552, 924.000000044428134 ], [ 825.00000012016551, 902.000000043394039 ], [ 877.000000124166945, 924.000000044428134 ] ] ] } },
{ "type": "Feature", "properties": { "feature_type": "building", "subtype": "minor-damage", "uid": "8e535ee2-539b-47c8-a0e1-1b81648cda05" }, "geometry": { "type": "Polygon", "coordinates": [ [ [ 742.737313589297173, 987.088766748099374 ], [ 736.737313590353324, 1001.088766747212958 ], [ 730.737313589411315, 999.088766748481817 ], [ 727.737313593561112, 1007.088766747404975 ], [ 676.737313589674955, 986.088766746735473 ], [ 680.737313590136523, 979.088766748177591 ], [ 671.737313591346037, 975.088766748716125 ], [ 677.737313588791267, 960.088766747239106 ], [ 742.737313589297173, 987.088766748099374 ] ] ] } },
{ "type": "Feature", "properties": { "feature_type": "building", "subtype": "minor-damage", "uid": "69a939f8-5f54-40bd-a6c4-4605e90ccfa5" }, "geometry": { "type": "Polygon", "coordinates": [ [ [ 891.000000122035658, 785.000000044661647 ], [ 896.000000122112965, 793.000000046581704 ], [ 884.000000121727567, 800.000000047137746 ], [ 887.000000121823973, 804.000000046599098 ], [ 885.000000120594109, 805.000000042967599 ], [ 900.000000123323844, 831.000000045461206 ], [ 914.000000123690256, 823.000000044540229 ], [ 919.000000121769403, 831.000000045461206 ], [ 907.000000122632855, 838.000000044019089 ], [ 908.000000121249627, 841.000000046112859 ], [ 887.000000121823973, 853.000000043497948 ], [ 857.00000012036071, 803.000000046234277 ], [ 878.000000120535788, 791.000000045851834 ], [ 875.000000121938001, 785.000000044661647 ], [ 879.000000120900836, 783.000000044930857 ], [ 883.000000121612175, 789.000000045122079 ], [ 891.000000122035658, 785.000000044661647 ] ] ] } },
{ "type": "Feature", "properties": { "feature_type": "building", "subtype": "minor-damage", "uid": "6abda5e2-077d-4376-b75d-5516693ef806" }, "geometry": { "type": "Polygon", "coordinates": [ [ [ 406.000000119528693, 784.000000044296712 ], [ 404.000000120047275, 776.000000043375735 ], [ 398.000000119105323, 778.000000044105491 ], [ 394.000000120142374, 763.000000044626631 ], [ 415.000000120567222, 757.000000044435524 ], [ 415.000000122565382, 759.00000004516528 ], [ 436.000000119992819, 753.000000043974978 ], [ 436.000000121741323, 752.000000043610157 ], [ 457.00000012116692, 746.000000045417096 ], [ 461.000000120379525, 761.000000045895149 ], [ 454.000000120820687, 763.000000043627551 ], [ 456.000000120052391, 771.000000043549448 ], [ 406.000000119528693, 784.000000044296712 ] ] ] } },
{ "type": "Feature", "properties": { "feature_type": "building", "subtype": "minor-damage", "uid": "5af8d66a-7910-428b-a5b1-7e8d821415c9" }, "geometry": { "type": "Polygon", "coordinates": [ [ [ 699.368658646240306, 115.9273635730124 ], [ 689.368658644087418, 91.927363575245025 ], [ 700.368658643608114, 86.927363572421442 ], [ 702.368658644588209, 91.927363575245025 ], [ 712.368658643493973, 87.927363572786334 ], [ 711.368658643378694, 84.927363571691643 ], [ 723.368658644763173, 79.927363571865357 ], [ 725.368658643245567, 85.927363575053846 ], [ 729.368658644456332, 84.927363571691643 ], [ 735.368658644399261, 100.927363574532706 ], [ 719.368658644551488, 106.927363572725696 ], [ 722.368658646146514, 112.927363570918601 ], [ 709.368658647893653, 117.927363573742198 ], [ 706.368658645299547, 111.927363575549293 ], [ 699.368658646240306, 115.9273635730124 ] ] ] } },
{ "type": "Feature", "properties": { "feature_type": "building", "subtype": "minor-damage", "uid": "0b4bdc97-b1b3-4aaa-ae6b-0ef59af7f0e7" }, "geometry": { "type": "Polygon", "coordinates": [ [ [ 734.000000120905838, 875.000000045531124 ], [ 786.000000121410494, 897.000000045566026 ], [ 782.000000121698349, 906.000000045852744 ], [ 790.000000121372523, 909.000000043950195 ], [ 784.000000121929133, 924.000000044428134 ], [ 765.000000123733344, 916.000000045505317 ], [ 765.00000012073599, 914.000000044775561 ], [ 739.000000124729809, 903.000000041760813 ], [ 738.000000121117637, 904.000000044123908 ], [ 718.000000124305075, 896.000000045201091 ], [ 724.000000120751224, 881.000000042724992 ], [ 730.000000121693233, 884.000000046816922 ], [ 734.000000120905838, 875.000000045531124 ] ] ] } },
{ "type": "Feature", "properties": { "feature_type": "building", "subtype": "major-damage", "uid": "7fc74140-a4d6-4892-b037-5c8282d95846" }, "geometry": { "type": "Polygon", "coordinates": [ [ [ 833.000000123836003, 675.000000045486104 ], [ 833.000000123336463, 690.000000045964043 ], [ 827.000000124392614, 690.000000044964963 ], [ 827.000000124392614, 700.000000045616616 ], [ 769.000000124194798, 701.000000044982357 ], [ 769.000000122945949, 692.000000043696559 ], [ 762.000000122887627, 692.000000043696559 ], [ 761.000000121523385, 677.00000004621586 ], [ 784.00000012068017, 677.0000000442177 ], [ 811.000000121047947, 677.00000004621586 ], [ 811.000000120298637, 675.000000045486104 ], [ 833.000000123836003, 675.000000045486104 ] ] ] } },
{ "type": "Feature", "properties": { "feature_type": "building", "subtype": "no-damage", "uid": "22179a77-94df-48b3-b782-6e68f68f2ad9" }, "geometry": { "type": "Polygon", "coordinates": [ [ [ 237.73817382598159, 824.512145680307526 ], [ 233.738173825769906, 809.512145680828667 ], [ 254.738173825944813, 804.51214568100238 ], [ 254.738173827443489, 805.512145681367315 ], [ 276.738173827983587, 800.512145680541948 ], [ 275.738173825620322, 798.512145682809432 ], [ 296.738173825295689, 792.512145677622698 ], [ 300.738173827505591, 807.512145680098911 ], [ 294.738173827312892, 809.512145680828667 ], [ 296.738173825545516, 818.512145680116305 ], [ 245.738173825156196, 830.512145680498634 ], [ 243.738173826673886, 822.51214568057685 ], [ 237.73817382598159, 824.512145680307526 ] ] ] } },
{ "type": "Feature", "properties": { "feature_type": "building", "subtype": "minor-damage", "uid": "5f592814-e060-428b-aac3-1e7f35ff33f1" }, "geometry": { "type": "Polygon", "coordinates": [ [ [ 455.705497261628011, 560.299500305872925 ], [ 443.705497261492326, 566.299500304065873 ], [ 445.705497265469717, 570.299500301529065 ], [ 443.705497262991003, 571.29950030389216 ], [ 455.705497262627091, 594.299500305291076 ], [ 456.705497263491793, 593.299500304926255 ], [ 458.705497264971427, 597.299500307384847 ], [ 470.705497265356883, 591.299500306194659 ], [ 475.705497262436893, 600.299500305482297 ], [ 467.705497265510303, 604.299500304943649 ], [ 470.705497262109816, 611.299500303501532 ], [ 463.705497261801725, 615.299500303962077 ], [ 460.705497263953305, 608.299500305404194 ], [ 439.13259719334178, 618.872400372995344 ], [ 413.346147159802172, 566.513050270278995 ], [ 437.705497262548477, 556.299500306411574 ], [ 434.705497263950804, 550.299500304222192 ], [ 439.705497262029894, 548.299500304491517 ], [ 443.705497262241579, 555.299500304048479 ], [ 451.705497263914026, 551.299500303587934 ], [ 455.705497261628011, 560.299500305872925 ] ] ] } },
{ "type": "Feature", "properties": { "feature_type": "building", "subtype": "minor-damage", "uid": "ceab9ab5-0be9-4c43-8a59-55cef11c9df1" }, "geometry": { "type": "Polygon", "coordinates": [ [ [ 569.977613351382729, 14.85472710380891 ], [ 591.977613352422509, 13.85472710144581 ], [ 593.977613351404329, 44.854727100768393 ], [ 571.977613354361097, 45.854727101133292 ], [ 571.977613351363743, 40.854727100307898 ], [ 562.977613350575098, 40.854727100307898 ], [ 562.977613350075558, 43.854727101402602 ], [ 549.977613351572927, 44.854727100768393 ], [ 547.977613353839956, 18.854727102271191 ], [ 558.977613352361573, 17.854727098908981 ], [ 557.977613350248021, 12.854727101080909 ], [ 569.977613351132959, 11.85472710171511 ], [ 569.977613351382729, 14.85472710380891 ] ] ] } },
{ "type": "Feature", "properties": { "feature_type": "building", "subtype": "minor-damage", "uid": "3ee79efa-0e9a-4e45-8f52-93a48963a20e" }, "geometry": { "type": "Polygon", "coordinates": [ [ [ 859.898903265663989, 59.218025701131097 ], [ 879.898903266472871, 45.21802570101805 ], [ 884.898903264302248, 52.218025704571431 ], [ 889.898903263880015, 48.218025703111842 ], [ 897.898903265802232, 59.2180257031293 ], [ 892.898903264475962, 63.218025703589788 ], [ 903.898903265994932, 78.218025702069525 ], [ 888.898903267261517, 88.218025702721192 ], [ 885.89890326616603, 84.218025703259812 ], [ 880.898903265589183, 87.2180257023563 ], [ 874.898903263398211, 78.218025702069525 ], [ 878.898903265857939, 75.218025703972145 ], [ 871.898903265549848, 65.218025703320478 ], [ 866.898903264973001, 69.218025702781858 ], [ 859.898903265663989, 59.218025701131097 ] ] ] } },
{ "type": "Feature", "properties": { "feature_type": "building", "subtype": "minor-damage", "uid": "6c82e8b7-c864-45a9-afdb-7bbb762bc65f" }, "geometry": { "type": "Polygon", "coordinates": [ [ [ 940.288767432085365, 158.262027741817093 ], [ 915.288767432448026, 163.262027740644299 ], [ 913.288767430219082, 156.2620277400882 ], [ 910.288767431621295, 156.2620277400882 ], [ 908.288767430891085, 145.262027742068909 ], [ 910.288767430871985, 144.262027741704003 ], [ 907.288767430276152, 130.26202773959281 ], [ 909.288767431006363, 130.26202773959281 ], [ 907.288767430775692, 122.262027741669101 ], [ 929.288767430566509, 117.262027740843706 ], [ 933.288767434025317, 135.262027739419096 ], [ 939.288767430471353, 133.2620277406875 ], [ 942.288767431816609, 146.262027742433787 ], [ 937.288767433487692, 147.262027742798693 ], [ 940.288767432085365, 158.262027741817093 ] ] ] } },
{ "type": "Feature", "properties": { "feature_type": "building", "subtype": "minor-damage", "uid": "525d1635-6f0e-4339-98b9-fa8d7b86a3b1" }, "geometry": { "type": "Polygon", "coordinates": [ [ [ 404.585019573013597, 964.048582588913405 ], [ 379.585019573376201, 965.04858258927834 ], [ 379.585019573626028, 971.048582589469561 ], [ 375.585019574663079, 971.048582588470367 ], [ 375.585019572165322, 964.048582588913405 ], [ 366.585019572125987, 964.048582587914325 ], [ 365.585019572760018, 955.048582589625767 ], [ 379.585019573626028, 954.048582588261752 ], [ 379.585019571877524, 951.048582589165335 ], [ 381.585019572607791, 951.048582589165335 ], [ 379.585019574625107, 925.048582589668968 ], [ 378.585019571762075, 925.048582589668968 ], [ 378.585019574259888, 919.048582587479586 ], [ 363.585019572529177, 920.048582588843601 ], [ 363.58501957652561, 911.048582589555963 ], [ 372.585019572818283, 911.048582591554123 ], [ 372.585019574067189, 903.048582588634986 ], [ 377.585019572645876, 903.048582587635906 ], [ 377.585019573894726, 909.048582587827013 ], [ 402.585019576029879, 908.048582590459432 ], [ 404.585019573013597, 964.048582588913405 ] ] ] } },
{ "type": "Feature", "properties": { "feature_type": "building", "subtype": "minor-damage", "uid": "6c2250e2-f32e-49eb-9435-2954d7e01e23" }, "geometry": { "type": "Polygon", "coordinates": [ [ [ 497.513931587541776, 24.586567983793341 ], [ 496.513931587426384, 49.586567982924748 ], [ 483.513931590922027, 48.586567980561647 ], [ 483.513931586425997, 43.586567984731779 ], [ 472.513931588154207, 43.586567984731779 ], [ 472.513931587904381, 46.58656798382826 ], [ 460.513931588268179, 45.586567983463368 ], [ 460.513931588268179, 39.58656798327219 ], [ 456.513931586557874, 38.5865679849055 ], [ 457.513931587422576, 21.58656798469686 ], [ 474.173135997402824, 22.31840886639273 ], [ 474.173135998401904, 16.586567983871468 ], [ 489.513931587867603, 16.586567983871468 ], [ 488.513931587002901, 23.586567985426651 ], [ 497.513931587541776, 24.586567983793341 ] ] ] } },
{ "type": "Feature", "properties": { "feature_type": "building", "subtype": "minor-damage", "uid": "0629d3e9-8926-4ee7-92b8-ba8942ab78a8" }, "geometry": { "type": "Polygon", "coordinates": [ [ [ 879.898903266472871, 45.21802570101805 ], [ 859.898903265663989, 59.218025701131097 ], [ 853.89890326472198, 50.848354760648377 ], [ 858.898903265548597, 47.848354761551889 ], [ 851.898903263991656, 37.84835475990112 ], [ 848.898903263145939, 39.84835475963181 ], [ 841.898903263337388, 29.848354762976559 ], [ 847.898903265278477, 25.848354760517861 ], [ 844.898903267679884, 22.84835475942317 ], [ 858.898903263550437, 13.8483547591364 ], [ 868.898903266952175, 26.84835476088276 ], [ 873.898903266030402, 22.84835476142138 ], [ 881.898903265454805, 34.848354759805531 ], [ 875.898903265262106, 39.84835475963181 ], [ 879.898903266472871, 45.21802570101805 ] ] ] } },
{ "type": "Feature", "properties": { "feature_type": "building", "subtype": "minor-damage", "uid": "0796a392-74b4-4913-8431-8d7f951c924d" }, "geometry": { "type": "Polygon", "coordinates": [ [ [ 699.368658646240306, 115.9273635730124 ], [ 691.636817762737451, 119.195522692776194 ], [ 693.636817762218925, 125.195522691968193 ], [ 681.636817761833413, 130.1955226907954 ], [ 678.63681776498413, 124.195522690604193 ], [ 662.636817761639463, 130.1955226907954 ], [ 656.636817762695614, 113.195522690586799 ], [ 659.636817761792827, 112.195522690221907 ], [ 657.636817762311466, 106.195522692028902 ], [ 668.636817761082852, 102.195522692567494 ], [ 670.636817762812257, 105.195522690664902 ], [ 680.636817764215834, 101.195522689205305 ], [ 678.63681776473436, 96.195522691377235 ], [ 689.368658644087418, 91.927363575245025 ], [ 699.368658646240306, 115.9273635730124 ] ] ] } },
{ "type": "Feature", "properties": { "feature_type": "building", "subtype": "minor-damage", "uid": "c9c73aab-5eee-4767-b77a-29b0fdb5e1ab" }, "geometry": { "type": "Polygon", "coordinates": [ [ [ 957.000000124155576, 985.000000044706553 ], [ 951.000000123463337, 993.00000004362937 ], [ 957.000000122906727, 996.000000045723141 ], [ 948.000000121868311, 1009.000000044472017 ], [ 929.000000120675281, 996.000000044724061 ], [ 930.00000012054079, 995.000000044359126 ], [ 909.000000120365826, 980.000000044880267 ], [ 908.000000124996177, 981.000000045245201 ], [ 890.000000121420726, 970.000000047225967 ], [ 900.000000121575454, 956.000000046113769 ], [ 905.000000121902531, 959.000000046209379 ], [ 910.000000120980758, 953.000000044019998 ], [ 957.000000124155576, 985.000000044706553 ] ] ] } },
{ "type": "Feature", "properties": { "feature_type": "building", "subtype": "minor-damage", "uid": "09317eeb-b819-487a-8dd4-73e3bb75c0dc" }, "geometry": { "type": "Polygon", "coordinates": [ [ [ 386.000000123465611, 537.000000046084551 ], [ 386.000000120468314, 553.000000046927312 ], [ 379.000000122657923, 553.000000046927312 ], [ 379.000000119660626, 561.000000043851969 ], [ 322.000000122325673, 561.000000043851969 ], [ 322.000000120577283, 552.000000044564217 ], [ 315.000000120269078, 552.000000044564217 ], [ 315.000000122517122, 536.000000045719617 ], [ 338.0000001226731, 536.000000045719617 ], [ 338.000000122173617, 538.000000042452939 ], [ 364.000000120677385, 538.000000044451212 ], [ 364.000000123175198, 537.000000046084551 ], [ 386.000000123465611, 537.000000046084551 ] ] ] } },
{ "type": "Feature", "properties": { "feature_type": "building", "subtype": "major-damage", "uid": "c518f947-ebd1-449c-b847-39922f315775" }, "geometry": { "type": "Polygon", "coordinates": [ [ [ 1023.049653904051979, 630.715160334305097 ], [ 1021.159975620754949, 630.263327562713357 ], [ 1022.078433769455046, 612.367252019875195 ], [ 991.682818080859647, 610.539587404297663 ], [ 991.448151794431283, 614.763580630942897 ], [ 989.10148888668698, 616.171578372491922 ], [ 988.632156306087268, 623.915565956007072 ], [ 974.786845173025313, 622.507568215457241 ], [ 976.664175495424161, 598.571606594137279 ], [ 977.36817436594913, 587.776957235600662 ], [ 1023.049663372054965, 591.879816188006657 ], [ 1023.049653904051979, 630.715160334305097 ] ] ] } },
{ "type": "Feature", "properties": { "feature_type": "building", "subtype": "minor-damage", "uid": "010c4aa8-8176-4f12-a683-720aff473873" }, "geometry": { "type": "Polygon", "coordinates": [ [ [ 177.481892813939908, 715.164131907283149 ], [ 227.198935938151891, 702.585120994977956 ], [ 229.295437756870001, 705.280623334470874 ], [ 230.792939053313887, 710.671628011458552 ], [ 238.28044555002009, 709.17412670952001 ], [ 240.376947367739092, 716.36213294883396 ], [ 241.591140848562503, 723.671562517981897 ], [ 238.579945809658597, 725.646641000870773 ], [ 176.882892296910995, 742.71815580500413 ], [ 173.588389435642711, 725.047640478097151 ], [ 177.481892813190598, 723.849639441541854 ], [ 177.481892813939908, 715.164131907283149 ] ] ] } },
{ "type": "Feature", "properties": { "feature_type": "building", "subtype": "minor-damage", "uid": "09debcd1-d854-4a57-b943-274c6b886fc6" }, "geometry": { "type": "Polygon", "coordinates": [ [ [ 1023.049428101442004, 954.28721899231266 ], [ 991.713538608781846, 933.159218018741853 ], [ 1006.621158332008008, 909.07767846749698 ], [ 1010.443624928391955, 910.988911764564591 ], [ 1013.883844864962953, 909.07767846749698 ], [ 1021.146531391673989, 913.664638381258555 ], [ 1018.853051434791951, 922.074064890154546 ], [ 1023.049457986872994, 926.308890047968816 ], [ 1023.049428101442004, 954.28721899231266 ] ] ] } },
{ "type": "Feature", "properties": { "feature_type": "building", "subtype": "minor-damage", "uid": "15b3f8dd-0e29-4133-802f-62047f9ce008" }, "geometry": { "type": "Polygon", "coordinates": [ [ [ 0.072563067438288, 21.10718006674465 ], [ 4.541064371007594, 24.801417838455841 ], [ 0.072575917156647, 31.662125473273079 ], [ 0.072563067438288, 21.10718006674465 ] ] ] } },
{ "type": "Feature", "properties": { "feature_type": "building", "subtype": "minor-damage", "uid": "a2d4a633-3f7f-4edd-8421-c42ee45df3d4" }, "geometry": { "type": "Polygon", "coordinates": [ [ [ 13.241647429137149, 20.856983589976242 ], [ 22.17660804405784, 20.85698359097535 ], [ 22.484710134210289, 15.92735014653916 ], [ 36.041202105414193, 15.92735014653916 ], [ 36.041202105663963, 18.392166869756359 ], [ 56.067837973816019, 18.084064777855549 ], [ 56.992144244273383, 42.1160278242277 ], [ 56.992144244273383, 48.586171716178669 ], [ 37.889814647827563, 48.894273806081273 ], [ 37.27361046627378, 44.580844541450283 ], [ 24.64142476527746, 44.27274245254678 ], [ 24.333322678871649, 48.894273805082157 ], [ 12.31734115493315, 49.51047798588646 ], [ 12.625443247583361, 20.856983589976242 ], [ 13.241647429137149, 20.856983589976242 ] ] ] } },
{ "type": "Feature", "properties": { "feature_type": "building", "subtype": "no-damage", "uid": "5bc8a92b-f548-4af3-ab2e-d7876408a11c" }, "geometry": { "type": "Polygon", "coordinates": [ [ [ 74.553963390956028, 18.084064776856451 ], [ 86.56994491164744, 17.467860598050361 ], [ 86.87804700504698, 20.85698359097535 ], [ 107.828989139659996, 19.008371050560651 ], [ 109.061397501768397, 41.499823641425188 ], [ 105.672274508842605, 41.499823641425188 ], [ 105.980376598245698, 50.742886346495958 ], [ 91.191476265432883, 51.975294709103657 ], [ 90.575272086376856, 47.353763353570969 ], [ 80.71600519550374, 47.661865443473573 ], [ 80.716005197501943, 49.818580075789058 ], [ 68.083819497754519, 51.050988438396757 ], [ 66.851411134397168, 25.170412854607228 ], [ 73.32155502934711, 24.862310764704631 ], [ 73.321555028597786, 17.467860598050361 ], [ 74.553963390956028, 18.084064776856451 ] ] ] } },
{ "type": "Feature", "properties": { "feature_type": "building", "subtype": "minor-damage", "uid": "181a9a79-70df-42e8-85ba-6df2412701b9" }, "geometry": { "type": "Polygon", "coordinates": [ [ [ 121.385481116109204, 15.31114596473576 ], [ 134.017666816605896, 14.386839694028859 ], [ 133.401462635801494, 7.916695802077892 ], [ 155.892915226671789, 6.684287437471983 ], [ 156.509119405727802, 12.538227153614169 ], [ 169.757509287278793, 11.61392088090907 ], [ 169.141305107723213, 3.911368626350396 ], [ 193.173268148107013, 2.987062355643499 ], [ 193.173268147607388, 8.532899981883087 ], [ 206.421658028658896, 7.608593712175294 ], [ 207.654066389518391, 32.564863022260617 ], [ 122.925991566621605, 38.726904826307191 ], [ 121.385481115859406, 16.23545223744086 ], [ 121.385481116109204, 15.31114596473576 ] ] ] } },
{ "type": "Feature", "properties": { "feature_type": "building", "subtype": "minor-damage", "uid": "5405cccf-d3e2-4945-9e83-cfe5d8ff21b7" }, "geometry": { "type": "Polygon", "coordinates": [ [ [ 232.610335706853704, 12.23012506371157 ], [ 232.610335704855487, 4.835674897057293 ], [ 249.247848581580314, 4.527572806155591 ], [ 248.939746487181708, 10.99771670310208 ], [ 262.804340553533621, 10.689614613199479 ], [ 262.80434055078598, 3.911368628348603 ], [ 279.133751339106823, 3.603266536447798 ], [ 279.441853426511784, 9.457206252589984 ], [ 295.463162121932612, 9.149104159690076 ], [ 296.079366300988625, 29.48384212023733 ], [ 292.690243307812977, 29.483842118239121 ], [ 292.690243309311711, 32.872965112163207 ], [ 279.441853425013107, 32.564863022260617 ], [ 279.133751335360216, 31.024352570749421 ], [ 268.042076085375925, 31.33245466165112 ], [ 268.658280266430211, 35.337781835380412 ], [ 257.874707105848984, 35.645883924283908 ], [ 257.258502928791188, 33.181067204064021 ], [ 253.253175751563987, 32.872965114161417 ], [ 253.561277841966188, 36.262088107086413 ], [ 240.620990051816591, 36.262088107086413 ], [ 240.620990053814808, 32.564863021261509 ], [ 231.686029432899488, 32.564863021261509 ], [ 231.686029434398108, 35.337781834381303 ], [ 220.594354186162292, 35.337781834381303 ], [ 220.902456274066793, 32.256760931358912 ], [ 216.589027009934199, 32.256760931358912 ], [ 216.589027011183106, 11.613920883906379 ], [ 232.513661127156411, 12.23012506371157 ], [ 232.610335706853704, 12.23012506371157 ] ] ] } },
{ "type": "Feature", "properties": { "feature_type": "building", "subtype": "minor-damage", "uid": "fd9082a6-a16b-4124-822b-afaa37cd4a35" }, "geometry": { "type": "Polygon", "coordinates": [ [ [ 350.575405762937919, 0.006162013063839 ], [ 349.610075607284728, 20.235433792454732 ], [ 344.299142515412711, 20.476839844957631 ], [ 344.057736465407515, 28.443239481639608 ], [ 329.573373483078683, 28.443239481639608 ], [ 329.814779533333706, 24.82214873905567 ], [ 318.710101249579282, 24.339336639045381 ], [ 318.710101248580088, 26.029178985584551 ], [ 308.571047165595928, 25.78777293707806 ], [ 308.812453211854518, 22.890900341012699 ], [ 305.674174568031106, 22.890900343010909 ], [ 306.398208620510218, 0.00581894194397 ], [ 350.575405762937919, 0.006162013063839 ] ] ] } },
{ "type": "Feature", "properties": { "feature_type": "building", "subtype": "minor-damage", "uid": "e7a34c3a-66f9-4ee7-8418-290f8efb9415" }, "geometry": { "type": "Polygon", "coordinates": [ [ [ 358.02452492059939, 5.961869830107011 ], [ 356.81749467057341, 5.720463782599621 ], [ 373.474512095206023, 7.168900083629611 ], [ 373.715918145211219, 2.340779088522173 ], [ 396.649492868980076, 4.51343353207433 ], [ 396.408086814978503, 9.100148476677068 ], [ 410.168231647291577, 10.30717872520415 ], [ 410.168231650538701, 4.754839581579927 ], [ 432.618994268052802, 6.444681931116409 ], [ 432.377588218047606, 13.20405132226862 ], [ 445.413514900844575, 13.92826947278361 ], [ 443.72367255280642, 37.827468390822368 ], [ 436.240085014384306, 37.827468390822368 ], [ 436.240085012136319, 39.758716783869843 ], [ 424.894000676878022, 39.034498638350357 ], [ 424.894000680874399, 35.654813941275599 ], [ 422.238534129817992, 35.654813943273801 ], [ 421.99712808231061, 38.551686540338267 ], [ 415.479164742660487, 37.827468390822368 ], [ 415.961976840173122, 32.999347394715826 ], [ 412.582292143846814, 33.240753445220527 ], [ 412.582292147843191, 36.861844191800877 ], [ 403.167456207880889, 36.379032091790592 ], [ 402.684644109618887, 32.999347392717617 ], [ 400.511989661070572, 33.240753447218736 ], [ 400.511989660321319, 35.65481394027649 ], [ 392.304183970634824, 35.654813941275599 ], [ 392.545590019640883, 33.723565546229928 ], [ 380.716693587619204, 32.516535297702852 ], [ 380.475287536365215, 34.447783695745827 ], [ 368.16357900283441, 33.964971594736433 ], [ 368.404985053089376, 32.999347394715826 ], [ 356.576088622316718, 32.275129246199043 ], [ 358.02452492059939, 5.961869830107011 ] ] ] } }
]
}
