{
"type": "FeatureCollection",
"name": "hurricane-michael_00000111_post_disaster",
"features": [
{ "type": "Feature", "properties": { "feature_type": "building", "subtype": "minor-damage", "uid": "834eb8f4-c6ca-48cd-9a4e-d6a50804034d" }, "geometry": { "type": "Polygon", "coordinates": [ [ [ 200.009292253138312, 957.586309786478751 ], [ 67.176273722812795, 947.837097420304303 ], [ 66.770056540805655, 912.089985395672898 ], [ 81.393875091063521, 910.871333849651251 ], [ 81.39387509131339, 854.407145544650348 ], [ 68.394925269084069, 852.782276815622026 ], [ 70.019793994364036, 808.098386789830101 ], [ 200.821726618901607, 811.754341429893998 ], [ 202.446595347179993, 820.691119435052428 ], [ 211.789590537342008, 820.691119435052428 ], [ 205.696332801488012, 931.588410137016922 ], [ 197.978206345351396, 930.775975772002994 ], [ 200.009292253138312, 957.586309786478751 ] ] ] } },
{ "type": "Feature", "properties": { "feature_type": "building", "subtype": "no-damage", "uid": "6496cc2c-304c-41d9-a823-fcc6fa235ba1" }, "geometry": { "type": "Polygon", "coordinates": [ [ [ 392.522147738235617, 1022.982396111803041 ], [ 392.520765761240511, 1019.906936208984007 ], [ 399.204683383357008, 1009.403637093795965 ], [ 386.473411725133587, 997.308929020580422 ], [ 417.346745492427317, 968.027004211057942 ], [ 442.172725223364182, 990.306729606457111 ], [ 445.673824927926375, 987.442193487404097 ], [ 458.086814794394286, 997.627210810586803 ], [ 453.949151504822112, 1000.173465143631006 ], [ 468.271832118324426, 1012.904736797859982 ], [ 469.54495928784479, 1019.588654419977956 ], [ 472.630424225167189, 1022.982665880717036 ], [ 392.522147738235617, 1022.982396111803041 ] ] ] } },
{ "type": "Feature", "properties": { "feature_type": "building", "subtype": "no-damage", "uid": "86b6e1eb-5367-465c-be2e-e11ffcd8e5cd" }, "geometry": { "type": "Polygon", "coordinates": [ [ [ 764.085556094580738, 954.90135379349249 ], [ 778.602086091774595, 919.128476304843957 ], [ 848.074051068421682, 949.716878794529293 ], [ 855.850763567114655, 934.163453800637967 ], [ 875.033321060675803, 942.977061296276815 ], [ 863.871061266101947, 962.678007716571415 ], [ 878.262365731524596, 969.567461980855683 ], [ 864.330358220119251, 995.134992253575433 ], [ 764.085556094580738, 954.90135379349249 ] ] ] } },
{ "type": "Feature", "properties": { "feature_type": "building", "subtype": "no-damage", "uid": "37d254a6-2c69-4295-ac80-29d3b4b5b0ab" }, "geometry": { "type": "Polygon", "coordinates": [ [ [ 882.135826949142597, 858.423292000354422 ], [ 877.361600075809633, 863.515800662445486 ], [ 826.754795242417572, 840.599511679037732 ], [ 833.12043106853082, 824.36714031774784 ], [ 846.806548098772168, 803.997105668383938 ], [ 893.593971438345307, 826.595112859786354 ], [ 889.456308149772553, 832.960748686900502 ], [ 905.370397721552308, 840.599511679037732 ], [ 905.052115929047204, 842.190920637065574 ], [ 918.419951167783097, 849.511401840195731 ], [ 910.14462459013771, 866.062054992491539 ], [ 898.049916519423164, 862.242673494424025 ], [ 896.776789351152047, 863.834082453451401 ], [ 882.135826949142597, 858.423292000354422 ] ] ] } },
{ "type": "Feature", "properties": { "feature_type": "building", "subtype": "no-damage", "uid": "8086d3a8-9bed-4e38-8563-a572e5936acd" }, "geometry": { "type": "Polygon", "coordinates": [ [ [ 938.84860757527008, 760.421365906262849 ], [ 902.289061185882588, 745.39133016999665 ], [ 898.633106546818908, 747.828633265038434 ], [ 866.948166347264078, 734.829683436809319 ], [ 880.759550538505096, 705.175829146284173 ], [ 912.03827355955093, 721.424516430570975 ], [ 914.475576649594814, 712.08152124240587 ], [ 884.415505176319357, 697.05148550613967 ], [ 895.789586273268696, 669.022499943643425 ], [ 953.472426127277004, 694.614182415095797 ], [ 951.441340215742116, 700.301222963197006 ], [ 969.721113409311442, 707.206915056320327 ], [ 963.627855677205503, 720.612082066556582 ], [ 966.877593134012159, 725.892905432650423 ], [ 964.440290040969899, 730.361294434729871 ], [ 977.033022686939148, 735.642117800823826 ], [ 967.283810317018833, 748.641067629052827 ], [ 956.315946399328027, 745.391330168997115 ], [ 953.878643307535071, 749.859719174075053 ], [ 950.222688670720231, 749.453501993067334 ], [ 943.316996574600012, 761.640017454283452 ], [ 938.84860757527008, 760.421365906262849 ] ] ] } },
{ "type": "Feature", "properties": { "feature_type": "building", "subtype": "minor-damage", "uid": "04a4efc2-1506-4817-87b9-bb8c239972e2" }, "geometry": { "type": "Polygon", "coordinates": [ [ [ 940.817905271690734, 632.919661676938404 ], [ 887.983127894011659, 626.23574405781892 ], [ 892.757354766345202, 592.816155959223011 ], [ 952.59433155089971, 601.728046116383211 ], [ 940.817905271690734, 632.919661676938404 ] ] ] } },
{ "type": "Feature", "properties": { "feature_type": "building", "subtype": "no-damage", "uid": "2fa034c7-938c-4985-9dbd-faf607aeb18a" }, "geometry": { "type": "Polygon", "coordinates": [ [ [ 809.264929966883642, 606.866458475472882 ], [ 772.980805745494649, 605.593331308450843 ], [ 774.890496494527952, 571.537179627843216 ], [ 779.983005156867875, 564.853262010722688 ], [ 780.301286949872633, 554.031681097532328 ], [ 804.490703094300216, 555.623090057559239 ], [ 802.899294139271092, 585.223296657088099 ], [ 812.447747880689803, 585.541578448094015 ], [ 809.264929966883642, 606.866458475472882 ] ] ] } },
{ "type": "Feature", "properties": { "feature_type": "building", "subtype": "no-damage", "uid": "24328a6e-135b-47d1-83f2-901c6c0a0df6" }, "geometry": { "type": "Polygon", "coordinates": [ [ [ 737.334599168211525, 550.618062905842748 ], [ 720.465664220915642, 550.936344695849129 ], [ 719.829100641152763, 514.652220477200785 ], [ 740.199135290762001, 514.333938682196958 ], [ 737.334599168211525, 550.618062905842748 ] ] ] } },
{ "type": "Feature", "properties": { "feature_type": "building", "subtype": "no-damage", "uid": "b3f1694e-59e2-4a9a-af0e-2034f3bb8daf" }, "geometry": { "type": "Polygon", "coordinates": [ [ [ 615.737875583595269, 607.955770391340138 ], [ 587.034809382747312, 609.9967873425785 ], [ 585.711439408521983, 533.241329065372156 ], [ 546.010340299949689, 532.57964408050816 ], [ 545.34865531433627, 498.833709836452726 ], [ 574.127687907057179, 499.470273419463979 ], [ 573.809406117300682, 483.556183847180989 ], [ 583.994423440980995, 484.192747431191776 ], [ 584.040087950821089, 473.226055736941873 ], [ 557.856834997590681, 473.421453143788597 ], [ 557.661437587245814, 445.284226088102798 ], [ 583.063100900595941, 444.111841628032323 ], [ 583.440993813056025, 427.757706299620622 ], [ 547.529969704695304, 426.261413629084018 ], [ 547.529969700697393, 392.096064299343311 ], [ 582.942229589627232, 392.345446414930677 ], [ 583.191611700716976, 321.214581795689185 ], [ 548.455629211268956, 321.733029294785922 ], [ 549.492524210711622, 285.441704307040709 ], [ 638.665494183514625, 286.478599307233083 ], [ 638.147046682169162, 317.067001797917783 ], [ 620.001384189549867, 317.585449294016087 ], [ 620.001384193048011, 392.241889271890614 ], [ 696.731614164294115, 393.278784272082987 ], [ 696.662018393673861, 428.394022717895609 ], [ 619.001261291554556, 426.610829696292228 ], [ 619.637824873816044, 443.161482853585312 ], [ 647.010058933299206, 444.434610016609383 ], [ 646.373495348538995, 474.034816617137778 ], [ 619.637824869818132, 474.671380201148509 ], [ 620.910952037589482, 480.718734238256218 ], [ 628.86799682173023, 480.718734239255696 ], [ 629.504560403242067, 497.269387394549881 ], [ 694.115764062129188, 498.542514557574009 ], [ 694.115764060380002, 534.190075194210522 ], [ 616.773288746518006, 532.916948032185928 ], [ 615.737875583595269, 607.955770391340138 ] ] ] } },
{ "type": "Feature", "properties": { "feature_type": "building", "subtype": "no-damage", "uid": "70dc36b9-5a21-40bb-ba9c-40a142fe1844" }, "geometry": { "type": "Polygon", "coordinates": [ [ [ 1016.24307725754295, 536.491474343144773 ], [ 956.935368676006306, 538.116343069174718 ], [ 956.529151494249049, 503.994099776570124 ], [ 1013.399556984492961, 502.775448231547898 ], [ 1016.24307725754295, 536.491474343144773 ] ] ] } },
{ "type": "Feature", "properties": { "feature_type": "building", "subtype": "no-damage", "uid": "8943e22b-f912-4136-8841-5dda1727c822" }, "geometry": { "type": "Polygon", "coordinates": [ [ [ 920.644603136185424, 492.842388964770976 ], [ 859.986245653925948, 492.842388964770976 ], [ 858.430903153387817, 459.143301478506373 ], [ 917.533918139106959, 458.624853979409579 ], [ 920.644603136185424, 492.842388964770976 ] ] ] } },
{ "type": "Feature", "properties": { "feature_type": "building", "subtype": "no-damage", "uid": "6e1bff88-57a4-4c99-94d5-7af7e73fcd39" }, "geometry": { "type": "Polygon", "coordinates": [ [ [ 840.284323371747973, 492.918909329673909 ], [ 806.585235885490647, 493.437356830769488 ], [ 804.511445883607053, 432.778999351495202 ], [ 840.802770871344364, 433.815894348689199 ], [ 840.284323371747973, 492.918909329673909 ] ] ] } },
{ "type": "Feature", "properties": { "feature_type": "building", "subtype": "no-damage", "uid": "a4d81ee4-780a-4025-9d34-d93e068642d9" }, "geometry": { "type": "Polygon", "coordinates": [ [ [ 967.860117779151437, 464.769345721835009 ], [ 947.440499576307843, 460.149301392403515 ], [ 950.551184576634569, 443.92324635676232 ], [ 971.289084569484544, 447.424346062824384 ], [ 967.860117779151437, 464.769345721835009 ] ] ] } },
{ "type": "Feature", "properties": { "feature_type": "building", "subtype": "no-damage", "uid": "f7ceaf07-fa76-421e-947b-77d7945037aa" }, "geometry": { "type": "Polygon", "coordinates": [ [ [ 1023.047777993504042, 448.589402680255773 ], [ 989.874745321322735, 443.821363313191227 ], [ 998.468353692722417, 385.894077274159088 ], [ 1023.047764141998982, 389.877421546953087 ], [ 1023.047777993504042, 448.589402680255773 ] ] ] } },
{ "type": "Feature", "properties": { "feature_type": "building", "subtype": "no-damage", "uid": "54457096-ce24-4a5f-8939-d68944e07d86" }, "geometry": { "type": "Polygon", "coordinates": [ [ [ 1023.047759485933966, 375.627069464871624 ], [ 1000.76542934353597, 358.533774143958112 ], [ 1008.085910546914988, 350.576729358816124 ], [ 1006.176219799629962, 348.985320403786716 ], [ 1013.178419210753987, 342.30140278566671 ], [ 1015.088109958787982, 343.574529948690781 ], [ 1023.04774140089205, 330.497993662111128 ], [ 1023.047759485933966, 375.627069464871624 ] ] ] } },
{ "type": "Feature", "properties": { "feature_type": "building", "subtype": "no-damage", "uid": "c6926d7e-6b4a-476c-9073-775957681d5c" }, "geometry": { "type": "Polygon", "coordinates": [ [ [ 1023.047690453287032, 240.888181310087703 ], [ 984.638035313800856, 241.592048123436314 ], [ 986.27542744026448, 208.855006775288189 ], [ 1023.047668877071033, 210.819844395267808 ], [ 1023.047690453287032, 240.888181310087703 ] ] ] } },
{ "type": "Feature", "properties": { "feature_type": "building", "subtype": "un-classified", "uid": "99d29069-826c-4b8c-8555-cebf60873a6e" }, "geometry": { "type": "Polygon", "coordinates": [ [ [ 1023.047650895475044, 187.876101507873813 ], [ 1006.303307818096982, 178.586338583967489 ], [ 1023.04761361222404, 144.814938429232711 ], [ 1023.047650895475044, 187.876101507873813 ] ] ] } },
{ "type": "Feature", "properties": { "feature_type": "building", "subtype": "no-damage", "uid": "9561c94a-d10b-43f3-a122-5de0a9ff172f" }, "geometry": { "type": "Polygon", "coordinates": [ [ [ 242.713491018440607, 361.025853885567983 ], [ 204.837957841522808, 359.434444930538575 ], [ 205.15623963252861, 320.60406637584731 ], [ 244.941463560228897, 321.240629961856882 ], [ 242.713491018440607, 361.025853885567983 ] ] ] } },
{ "type": "Feature", "properties": { "feature_type": "building", "subtype": "minor-damage", "uid": "c1827024-9e24-4d51-9385-68990b99d5aa" }, "geometry": { "type": "Polygon", "coordinates": [ [ [ 66.908749304649874, 315.804210514371107 ], [ 35.223809104595261, 316.210427696378417 ], [ 34.817591925086823, 289.400093678904227 ], [ 66.502532121143517, 289.400093682902082 ], [ 66.908749304649874, 315.804210514371107 ] ] ] } },
{ "type": "Feature", "properties": { "feature_type": "building", "subtype": "no-damage", "uid": "e8de333d-e3f9-4f42-ab20-193bbe572503" }, "geometry": { "type": "Polygon", "coordinates": [ [ [ 128.099954342474689, 280.531027750262183 ], [ 46.795663205486747, 278.138955956872508 ], [ 48.905519662860783, 223.347620228008708 ], [ 127.709539639488696, 222.829172728911914 ], [ 127.709539638239306, 240.97483522228481 ], [ 146.892097130051411, 241.493282721381604 ], [ 145.855202130608802, 263.786525213525294 ], [ 128.227987135586886, 263.268077714428614 ], [ 128.099954342474689, 280.531027750262183 ] ] ] } },
{ "type": "Feature", "properties": { "feature_type": "building", "subtype": "no-damage", "uid": "45f5ccc4-995c-401d-b5e9-9f315823aa7d" }, "geometry": { "type": "Polygon", "coordinates": [ [ [ 285.114181409443688, 0.005607658271938 ], [ 284.440377799453927, 15.37161239737579 ], [ 177.605258921083191, 11.715657761309741 ], [ 177.72837671692119, 0.004328592205879 ], [ 285.114181409443688, 0.005607658271938 ] ] ] } },
{ "type": "Feature", "properties": { "feature_type": "building", "subtype": "no-damage", "uid": "a5b80e64-a48d-47bb-b79e-5702a4878250" }, "geometry": { "type": "Polygon", "coordinates": [ [ [ 18.89409527482961, 0.001538835210374 ], [ 18.89409527607895, 14.148593410465571 ], [ 2.684258003024754, 12.901682850519069 ], [ 2.933640115613686, 25.620170554577221 ], [ 0.070697549405116, 25.863542845220341 ], [ 0.070665396470658, 0.001137210254696 ], [ 18.89409527482961, 0.001538835210374 ] ] ] } },
{ "type": "Feature", "properties": { "feature_type": "building", "subtype": "no-damage", "uid": "29347ac2-4aa8-4468-b130-379c40139819" }, "geometry": { "type": "Polygon", "coordinates": [ [ [ 224.238121813392098, 13.82141976977463 ], [ 240.260709443681208, 14.016817178620331 ], [ 240.651504263371407, 22.028110993266878 ], [ 224.433519227984704, 22.028110993266878 ], [ 224.238121813392098, 13.82141976977463 ] ] ] } },
{ "type": "Feature", "properties": { "feature_type": "building", "subtype": "no-damage", "uid": "774e53c3-9899-43bb-81aa-06cb5b923630" }, "geometry": { "type": "Polygon", "coordinates": [ [ [ 190.867949244661787, 89.705237853799886 ], [ 194.608680924000794, 86.712652511727356 ], [ 253.462859326076909, 88.208945184262845 ], [ 250.470273984005104, 135.591546442240286 ], [ 228.524648139146194, 135.591546442240286 ], [ 227.77650180037989, 126.115026189845196 ], [ 189.621038683716108, 124.618733517309707 ], [ 190.369185019484007, 90.952148416744819 ], [ 190.867949244661787, 89.705237853799886 ] ] ] } },
{ "type": "Feature", "properties": { "feature_type": "building", "subtype": "no-damage", "uid": "55238a19-8af0-498e-bf3e-3cd82d59e771" }, "geometry": { "type": "Polygon", "coordinates": [ [ [ 205.475311289695412, 269.916611798649626 ], [ 205.724693401034898, 226.773506446689112 ], [ 211.460481976337803, 223.531538992027606 ], [ 217.445652660231701, 223.780921101618105 ], [ 218.443181108088709, 217.296986192295094 ], [ 236.648075273858609, 218.045132530062006 ], [ 237.146839498786591, 228.020417005636091 ], [ 243.880156517698708, 228.519181229814592 ], [ 243.880156521696591, 274.15610770466651 ], [ 238.892514280912195, 277.896839381507618 ], [ 207.969132408088598, 273.657343478489111 ], [ 205.475311289695412, 269.916611798649626 ] ] ] } }
]
}
