{
"type": "FeatureCollection",
"name": "hurricane-harvey_00000414_post_disaster",
"features": [
{ "type": "Feature", "properties": { "feature_type": "building", "subtype": "major-damage", "uid": "5c4783ba-3a4a-49ab-b572-a1226270496a" }, "geometry": { "type": "Polygon", "coordinates": [ [ [ 43.615425702136093, 206.281599271810705 ], [ 52.461871173026211, 218.974325377845503 ], [ 64.00071308542276, 212.051020231002695 ], [ 73.424100647396074, 229.936225196421788 ], [ 65.154597275565649, 237.43647244307229 ], [ 72.270216456193808, 250.129198546115902 ], [ 57.0774079356542, 258.206387886591813 ], [ 55.350602289993297, 261.516146548498909 ], [ 66.49982670028696, 279.13242935667779 ], [ -0.000004075614737, 325.619299596792814 ], [ -0.000004073433664, 213.880788509335304 ], [ 35.53823636278549, 191.66573284571291 ], [ 43.615425702136093, 206.281599271810705 ] ] ] } },
{ "type": "Feature", "properties": { "feature_type": "building", "subtype": "major-damage", "uid": "048f2f24-a2ef-4336-8f42-e81183a50079" }, "geometry": { "type": "Polygon", "coordinates": [ [ [ 167.297175782455497, 217.847993377774486 ], [ 169.696018142225313, 212.250694534923298 ], [ 183.689265252400702, 208.252623933456391 ], [ 188.486949975180806, 223.045485160778213 ], [ 205.678653565568709, 217.847993377774486 ], [ 225.669006578502604, 289.413457159286281 ], [ 207.677688866550511, 295.410563065973406 ], [ 205.278846504724214, 289.013650100435882 ], [ 197.682512361392213, 289.013650100435882 ], [ 186.487914673015013, 292.611913644049309 ], [ 167.297175782455497, 217.847993377774486 ] ] ] } },
{ "type": "Feature", "properties": { "feature_type": "building", "subtype": "destroyed", "uid": "ecf7bd65-98dc-465b-b35d-7f1e365d7852" }, "geometry": { "type": "Polygon", "coordinates": [ [ [ 183.2108205211442, 305.467387734672116 ], [ 203.100986575137313, 304.563289281606501 ], [ 203.251669652496901, 318.426132290763519 ], [ 183.060137443348395, 318.124766134423908 ], [ 182.156038985297812, 308.481049261176281 ], [ 182.608088215257908, 308.481049263170519 ], [ 183.2108205211442, 305.467387734672116 ] ] ] } },
{ "type": "Feature", "properties": { "feature_type": "building", "subtype": "major-damage", "uid": "a11c6077-01af-410b-8f0d-32759807ad2c" }, "geometry": { "type": "Polygon", "coordinates": [ [ [ 99.600493546223149, 882.7233123737916 ], [ 163.505389369136992, 890.241535410318534 ], [ 158.493240676999591, 931.27850282326267 ], [ 140.010942377819703, 929.712206357568789 ], [ 140.637460960333101, 917.808353217896752 ], [ 102.733086479541299, 911.856426644072485 ], [ 101.480049305665602, 906.531018662109318 ], [ 96.154641318781799, 905.277981488357682 ], [ 98.973974961715669, 883.349830959670385 ], [ 99.600493546223149, 882.7233123737916 ] ] ] } },
{ "type": "Feature", "properties": { "feature_type": "building", "subtype": "major-damage", "uid": "de011a41-6ab1-4180-94ad-5f2e34bb56cc" }, "geometry": { "type": "Polygon", "coordinates": [ [ [ 296.063299681750607, 937.252331826708428 ], [ 323.63011748644999, 887.444104200494735 ], [ 360.281454797852916, 903.73358744630309 ], [ 338.040044981158985, 949.156184966380579 ], [ 330.521821938777691, 946.023592032998749 ], [ 325.196413957190828, 957.300926589783217 ], [ 296.063299684617107, 939.758406171220372 ], [ 296.063299681750607, 937.252331826708428 ] ] ] } },
{ "type": "Feature", "properties": { "feature_type": "building", "subtype": "major-damage", "uid": "c00d298f-ea1d-4cdb-9887-4958d49414ec" }, "geometry": { "type": "Polygon", "coordinates": [ [ [ 374.470993009021925, 886.220543043070393 ], [ 434.930036609168212, 886.220543042073245 ], [ 433.363740140359198, 894.991803251354668 ], [ 420.338012270549712, 900.064650893105181 ], [ 418.640553358817897, 910.028249328396782 ], [ 423.965961342274284, 908.77521215464526 ], [ 421.77314628914479, 982.391146064191389 ], [ 401.724551520906687, 982.077886771251997 ], [ 402.037810814095224, 973.933145148846393 ], [ 389.194179790874728, 972.053589388219052 ], [ 387.941142618619324, 982.391146064191389 ], [ 371.338400076887808, 980.198331014612904 ], [ 373.217955835083899, 887.160320921888456 ], [ 374.470993009021925, 886.220543043070393 ] ] ] } },
{ "type": "Feature", "properties": { "feature_type": "building", "subtype": "major-damage", "uid": "4f6faa42-c189-4e28-9a87-d6306c5ef4f7" }, "geometry": { "type": "Polygon", "coordinates": [ [ [ 484.341979192374311, 880.129047989917353 ], [ 485.281757071316576, 894.538975478089583 ], [ 489.04086858976541, 892.346160427514064 ], [ 488.414350006940424, 937.142239359718701 ], [ 488.414350004323126, 963.456019992548249 ], [ 456.461902092741582, 966.588612924932931 ], [ 461.924660760743279, 983.50461476060832 ], [ 445.102464067020492, 983.497900698006106 ], [ 442.695031879389774, 977.254138688150533 ], [ 441.66802444062472, 972.05088780640051 ], [ 439.315773075997527, 966.551485886092678 ], [ 435.964960011328003, 959.058311562532936 ], [ 433.253196326487682, 947.021584327125652 ], [ 438.058959515850916, 943.841317344459299 ], [ 436.444901690414895, 918.452734112066196 ], [ 428.895084287792884, 906.12956933180169 ], [ 434.220492275175218, 901.743939225665372 ], [ 441.112196724387104, 893.912456895202013 ], [ 440.172418843076798, 891.719641841635394 ], [ 442.051974602083078, 879.815788695980928 ], [ 484.341979192374311, 880.129047989917353 ] ] ] } },
{ "type": "Feature", "properties": { "feature_type": "building", "subtype": "major-damage", "uid": "11d0ce9b-89fa-4a77-b986-4d213bca5980" }, "geometry": { "type": "Polygon", "coordinates": [ [ [ 531.40998445881155, 936.844917471490021 ], [ 583.523029666939124, 937.743418247123486 ], [ 587.11703278517507, 942.535422406102953 ], [ 590.112035381357828, 943.134422925850799 ], [ 591.010536157614069, 945.829925265712973 ], [ 605.087048369250851, 947.027926302217338 ], [ 605.087048370310185, 973.383949162147132 ], [ 585.320031221944191, 972.784948642399399 ], [ 583.223529405507406, 968.891445267029781 ], [ 528.714482122004142, 969.190945526903761 ], [ 531.40998445881155, 936.844917471490021 ] ] ] } },
{ "type": "Feature", "properties": { "feature_type": "building", "subtype": "major-damage", "uid": "e598f737-0f36-4155-b9cf-dcf4013902d7" }, "geometry": { "type": "Polygon", "coordinates": [ [ [ 606.561272592138948, 889.285646539327558 ], [ 606.261772333511544, 928.220680312964191 ], [ 587.093755707510354, 927.022679274465645 ], [ 531.08720712526133, 925.824678238958313 ], [ 529.889206085392402, 888.087645505814407 ], [ 581.103750513711702, 888.38714576269706 ], [ 586.19525492757748, 891.981148878192698 ], [ 588.189995951439755, 890.740002070206287 ], [ 591.033425879573997, 890.893593245622583 ], [ 591.430614019696804, 889.702028828307107 ], [ 591.742925590439995, 887.672003598035644 ], [ 597.489995951073638, 885.190002069322645 ], [ 606.561272592138948, 889.285646539327558 ] ] ] } },
{ "type": "Feature", "properties": { "feature_type": "building", "subtype": "major-damage", "uid": "f5e637af-b3ad-4dee-bd95-4647f904eae0" }, "geometry": { "type": "Polygon", "coordinates": [ [ [ 599.073766099220734, 881.199139527717534 ], [ 597.479995951540332, 884.64000206993569 ], [ 591.290769197586428, 887.322783542404295 ], [ 590.9428717975876, 889.584116663865416 ], [ 590.679850955003758, 890.373179180649686 ], [ 588.48999595108819, 890.250002071260042 ], [ 582.900752069963119, 877.605136410227828 ], [ 591.885759861938595, 870.117629913380256 ], [ 599.073766099220734, 881.199139527717534 ] ] ] } },
{ "type": "Feature", "properties": { "feature_type": "building", "subtype": "major-damage", "uid": "59e61581-b7fd-4a92-aa84-c509ccadab13" }, "geometry": { "type": "Polygon", "coordinates": [ [ [ 422.66956129904861, 800.273264711513207 ], [ 448.037988219495787, 792.955449251056962 ], [ 474.869978234177324, 861.255060192382643 ], [ 475.357832601310918, 867.109312558354645 ], [ 447.062279493267511, 876.866399839959968 ], [ 422.66956129904861, 800.273264711513207 ] ] ] } },
{ "type": "Feature", "properties": { "feature_type": "building", "subtype": "major-damage", "uid": "467549b7-651c-42f3-8e27-7cfdd7a5843a" }, "geometry": { "type": "Polygon", "coordinates": [ [ [ 399.833015108201209, 829.408586058848414 ], [ 411.096997048761978, 824.480593957202473 ], [ 424.238309315367019, 858.741872357326429 ], [ 412.50499479064672, 861.79253413130732 ], [ 399.833015108201209, 829.408586058848414 ] ] ] } },
{ "type": "Feature", "properties": { "feature_type": "building", "subtype": "major-damage", "uid": "0073395c-f7e0-482e-a2b2-50d8424bf547" }, "geometry": { "type": "Polygon", "coordinates": [ [ [ 393.732523633738708, 847.192910352413492 ], [ 404.764554372792418, 849.031582141353056 ], [ 403.109749760716113, 867.418300033739229 ], [ 389.165995381363985, 865.311365284000544 ], [ 391.526117490202921, 856.018534941516691 ], [ 379.390883679194417, 852.341191362640643 ], [ 388.400375445467489, 811.338810464104881 ], [ 401.822679506103384, 813.361349431340159 ], [ 393.732523633738708, 847.192910352413492 ] ] ] } },
{ "type": "Feature", "properties": { "feature_type": "building", "subtype": "major-damage", "uid": "923b1772-615f-462f-b5ac-96e225b773b1" }, "geometry": { "type": "Polygon", "coordinates": [ [ [ 384.043265291546675, 754.207285653304666 ], [ 361.108465715850286, 858.560623703607234 ], [ 331.675472931121703, 847.857717235068776 ], [ 335.880186186261028, 816.131244494314387 ], [ 343.907366037474276, 816.131244493317354 ], [ 352.699039209123782, 781.346798477546827 ], [ 347.347585975480115, 779.435565179166247 ], [ 351.552299228999175, 758.41199890794735 ], [ 354.992519163577583, 758.029752249068792 ], [ 357.285999121645773, 746.56235246377048 ], [ 384.043265291546675, 754.207285653304666 ] ] ] } },
{ "type": "Feature", "properties": { "feature_type": "building", "subtype": "major-damage", "uid": "462f82c9-8125-486f-af6d-ad6374caa679" }, "geometry": { "type": "Polygon", "coordinates": [ [ [ 424.941110571199999, 707.79722939319845 ], [ 441.303113084298786, 705.320818194569256 ], [ 442.895091709032783, 706.912796821547317 ], [ 447.317254549526581, 706.293694023385569 ], [ 450.058995511673515, 718.852636494967669 ], [ 425.648656625217825, 722.213480255277432 ], [ 424.941110571199999, 707.79722939319845 ] ] ] } },
{ "type": "Feature", "properties": { "feature_type": "building", "subtype": "major-damage", "uid": "e3c83f99-f2e5-4f87-b4ad-342d30ccc7fb" }, "geometry": { "type": "Polygon", "coordinates": [ [ [ 457.014433605738816, 720.659645840672511 ], [ 453.412814962321477, 708.414142447228073 ], [ 498.072886175929227, 693.575473621453739 ], [ 525.523681372430701, 780.625398788928123 ], [ 511.549775776160118, 788.899421842147149 ], [ 480.660089712443209, 799.931452575784078 ], [ 476.982746135002003, 783.567273653624284 ], [ 470.731262049831173, 788.531687483561541 ], [ 466.502316935820488, 777.867391106515925 ], [ 472.937668196981292, 774.557781886225371 ], [ 460.022701379185492, 734.684820999823614 ], [ 453.395723070284987, 738.142374901952621 ], [ 449.65003967635522, 727.625648452094651 ], [ 457.014433605738816, 720.659645840672511 ] ] ] } },
{ "type": "Feature", "properties": { "feature_type": "building", "subtype": "major-damage", "uid": "1b6a356c-6788-421a-b755-029efb49dba0" }, "geometry": { "type": "Polygon", "coordinates": [ [ [ 497.742994103575711, 806.624135360280093 ], [ 532.310023741929513, 778.676324161619618 ], [ 543.295008843295705, 793.282559906978463 ], [ 549.914227280571026, 784.640802499162191 ], [ 555.06250829079579, 790.892286581157691 ], [ 552.120633428468977, 799.166309636370784 ], [ 597.884262390225672, 859.132144564044665 ], [ 564.202130131798071, 887.254864714633527 ], [ 557.31654175039489, 884.094266772073411 ], [ 545.059938025072142, 872.150255179711166 ], [ 540.737995648970696, 878.489103996126573 ], [ 533.1025641205689, 870.133348740209271 ], [ 536.271988528338966, 860.625075514589071 ], [ 531.085657681254816, 858.464104327627979 ], [ 527.051844795709485, 861.633528732844525 ], [ 520.136736993822637, 852.269320254683521 ], [ 522.441772929114336, 849.099895847472908 ], [ 518.696089537864054, 844.057629744231235 ], [ 512.501305463613676, 850.396478560646642 ], [ 506.450586141371502, 843.481370762370943 ], [ 510.772528513858617, 830.371478890153867 ], [ 507.026845124290787, 826.049536515234536 ], [ 501.696449527753373, 828.066442953739397 ], [ 501.264255289426615, 820.43101142714147 ], [ 497.742994103575711, 806.624135360280093 ] ] ] } },
{ "type": "Feature", "properties": { "feature_type": "building", "subtype": "major-damage", "uid": "d232ba01-6622-4a3a-9ecb-762102fa551a" }, "geometry": { "type": "Polygon", "coordinates": [ [ [ 377.052253268781612, 637.051787469648502 ], [ 407.60127977017288, 641.544291367757069 ], [ 395.321769120956787, 695.753838387983137 ], [ 368.965746254557814, 689.464332930631258 ], [ 371.661248592923187, 672.991818646540196 ], [ 368.366745735558084, 671.494317345176569 ], [ 371.361748335168215, 654.422802537349526 ], [ 375.554751970970585, 654.722302796226359 ], [ 377.052253268781612, 637.051787469648502 ] ] ] } },
{ "type": "Feature", "properties": { "feature_type": "building", "subtype": "major-damage", "uid": "1d2e23ec-5111-4720-bb64-31bb058ab0af" }, "geometry": { "type": "Polygon", "coordinates": [ [ [ 451.169031009991727, 631.647392956878207 ], [ 490.540436942256974, 625.53144640285791 ], [ 503.154576707861793, 675.605758800687909 ], [ 490.922683602568611, 680.192718713211889 ], [ 490.540436944998874, 687.455405245861698 ], [ 464.634293510836017, 694.91516993890184 ], [ 451.169031009991727, 631.647392956878207 ] ] ] } },
{ "type": "Feature", "properties": { "feature_type": "building", "subtype": "major-damage", "uid": "aadc4a2d-dd46-422f-9fe5-bad8e3011c95" }, "geometry": { "type": "Polygon", "coordinates": [ [ [ 470.701681426702976, 574.659236327220015 ], [ 455.984190852053985, 606.878445327545592 ], [ 452.936215245068411, 614.833942965347205 ], [ 450.48245060552938, 620.528368160503987 ], [ 447.756276359834374, 627.270447846281968 ], [ 444.944659085597721, 634.559288285050343 ], [ 432.066147914764599, 674.392822836314508 ], [ 419.187636743433018, 671.697320497449368 ], [ 420.385637781993296, 666.905316340464083 ], [ 431.167647134520109, 630.366284646815757 ], [ 456.625169217745793, 569.268231650486882 ], [ 469.803180651070022, 568.96873139360423 ], [ 470.701681426702976, 574.659236327220015 ] ] ] } },
{ "type": "Feature", "properties": { "feature_type": "building", "subtype": "major-damage", "uid": "feb72ae7-607a-4b99-9f30-d8afbd148cf1" }, "geometry": { "type": "Polygon", "coordinates": [ [ [ 498.55063121246269, 550.795031224957711 ], [ 535.393238805818896, 549.152367191740382 ], [ 541.494562356893653, 603.594946564411657 ], [ 543.606558971029244, 609.696270114367394 ], [ 509.345280570047976, 620.256253185050014 ], [ 506.294618796380121, 610.634935278200032 ], [ 498.785297503669995, 604.064279145330829 ], [ 496.673300887976495, 551.264363805876883 ], [ 498.55063121246269, 550.795031224957711 ] ] ] } },
{ "type": "Feature", "properties": { "feature_type": "building", "subtype": "major-damage", "uid": "93410b0b-6f3d-4dca-86df-7c84c7bf0cc4" }, "geometry": { "type": "Polygon", "coordinates": [ [ [ 374.856287070072312, 615.826062161667096 ], [ 394.793136540792091, 574.016518937935757 ], [ 429.479507497073314, 587.98803279738695 ], [ 408.035651668866024, 634.109742689668792 ], [ 375.455287589944419, 622.415067875901741 ], [ 374.856287070072312, 615.826062161667096 ] ] ] } },
{ "type": "Feature", "properties": { "feature_type": "building", "subtype": "major-damage", "uid": "48ef83a6-32c6-4704-9d47-dfe6519fa160" }, "geometry": { "type": "Polygon", "coordinates": [ [ [ 397.781895345487385, 563.578234051826257 ], [ 418.901861480175285, 517.818307423169585 ], [ 420.544525511647009, 511.951650165667502 ], [ 453.397806171927584, 526.266293880712624 ], [ 431.104508582075596, 582.820869866523253 ], [ 407.637879538866684, 575.311548571815706 ], [ 406.464548088376318, 566.863562118260802 ], [ 397.781895345487385, 563.578234051826257 ] ] ] } },
{ "type": "Feature", "properties": { "feature_type": "building", "subtype": "major-damage", "uid": "e01206b1-c105-4705-8fa8-55210c28fe75" }, "geometry": { "type": "Polygon", "coordinates": [ [ [ 464.743360594922422, 499.526088040969682 ], [ 495.591887354567291, 451.606046477098516 ], [ 526.73991437271502, 470.774063100054605 ], [ 494.992886834819785, 526.481111419650233 ], [ 474.926369429384181, 515.699102068178036 ], [ 475.824870208382379, 508.8105960920754 ], [ 464.743360594922422, 499.526088040969682 ] ] ] } },
{ "type": "Feature", "properties": { "feature_type": "building", "subtype": "major-damage", "uid": "c9bc54e5-c017-43bd-8dca-5edf58bdf6cf" }, "geometry": { "type": "Polygon", "coordinates": [ [ [ 505.663528889665997, 530.527618904437077 ], [ 535.861014994519337, 477.77757988947252 ], [ 569.880967689651243, 497.654406185053119 ], [ 541.212468225047132, 545.817485286496549 ], [ 518.277668655769389, 540.848278713099944 ], [ 505.663528889665997, 530.527618904437077 ] ] ] } },
{ "type": "Feature", "properties": { "feature_type": "building", "subtype": "major-damage", "uid": "fc0fcbf4-5c12-49a0-91a7-e25d41644a83" }, "geometry": { "type": "Polygon", "coordinates": [ [ [ 765.353369093759852, 792.096452502613602 ], [ 777.967508859738587, 769.926146246782764 ], [ 813.89869485574286, 788.656232560742637 ], [ 782.936715436124246, 837.96605164380685 ], [ 753.88596930952599, 820.764951967354932 ], [ 760.766409180490086, 811.973278797197167 ], [ 755.032709288653564, 804.328345605668801 ], [ 765.353369093759852, 792.096452502613602 ] ] ] } },
{ "type": "Feature", "properties": { "feature_type": "building", "subtype": "major-damage", "uid": "ed2da5d2-7840-46b9-adf6-730da5ba5dec" }, "geometry": { "type": "Polygon", "coordinates": [ [ [ 746.142114920290055, 856.2025300508177 ], [ 770.223654473867782, 860.024996645584793 ], [ 789.718234109938066, 854.291296751440086 ], [ 801.567880555418242, 856.967023367577667 ], [ 801.976189913563871, 879.280337920079432 ], [ 784.366780875484324, 882.577549556305939 ], [ 783.724580317608343, 904.651625746600303 ], [ 747.062228962168547, 905.124324481936128 ], [ 747.671101561037858, 877.608342984903402 ], [ 745.377621602408908, 872.256889747642958 ], [ 746.142114920290055, 856.2025300508177 ] ] ] } },
{ "type": "Feature", "properties": { "feature_type": "building", "subtype": "major-damage", "uid": "a9bf4662-29a8-455e-b267-f43d992b51e2" }, "geometry": { "type": "Polygon", "coordinates": [ [ [ 747.280127416332334, 932.350238003479944 ], [ 772.50840694735507, 939.230677873262948 ], [ 798.883426453143102, 925.852044789584056 ], [ 801.941399729466411, 952.609310957938987 ], [ 790.091753286042604, 977.837590484797602 ], [ 760.276513842934264, 977.837590486791669 ], [ 758.747527203806612, 962.165477445853753 ], [ 746.897880756768586, 966.752437362365981 ], [ 747.280127416332334, 932.350238003479944 ] ] ] } },
{ "type": "Feature", "properties": { "feature_type": "building", "subtype": "major-damage", "uid": "aa967dfd-2b16-4469-979a-cb55fa907249" }, "geometry": { "type": "Polygon", "coordinates": [ [ [ 748.049307921606783, 980.806607533296983 ], [ 773.207329741531339, 980.507107273423117 ], [ 772.308828960601431, 989.192614808769122 ], [ 792.97434688752935, 989.791615327519935 ], [ 794.771348450261712, 1005.066128575106973 ], [ 795.58348828811495, 1022.987159116593944 ], [ 765.429768997555357, 1022.987499633139009 ], [ 767.516824807917942, 1016.147638185456003 ], [ 746.851306880429206, 1016.746638707197008 ], [ 748.049307921606783, 980.806607533296983 ] ] ] } },
{ "type": "Feature", "properties": { "feature_type": "building", "subtype": "major-damage", "uid": "6f888881-293f-4b7a-b6a5-72d2391a6764" }, "geometry": { "type": "Polygon", "coordinates": [ [ [ 902.47549938920622, 943.233712907245717 ], [ 912.65850822460277, 940.837710831245658 ], [ 914.156009522289082, 959.706227196322061 ], [ 903.374000171257876, 965.995732652676907 ], [ 903.673500429698265, 980.970745640389623 ], [ 897.683495234154748, 1001.935763824582978 ], [ 863.564438696851767, 1004.240002062702047 ], [ 863.564438697225683, 937.190002064747205 ], [ 903.074499908704411, 935.746206411395292 ], [ 902.47549938920622, 943.233712907245717 ] ] ] } },
{ "type": "Feature", "properties": { "feature_type": "building", "subtype": "major-damage", "uid": "26332362-8b9e-4a4e-a462-4a45d956cdb0" }, "geometry": { "type": "Polygon", "coordinates": [ [ [ 873.752542472738128, 911.630302040463562 ], [ 877.646045851097142, 894.259286973759572 ], [ 873.453042214858442, 880.781775282425201 ], [ 879.443047410464374, 876.888271907055696 ], [ 880.641048448837751, 864.009760734472025 ], [ 885.732552866816491, 862.212759176225632 ], [ 886.331553386314681, 853.826751903744707 ], [ 899.509564816336137, 858.319255797864912 ], [ 915.083578326157749, 858.319255797864912 ], [ 915.982079105966022, 863.111259957841526 ], [ 927.962089499608169, 862.811759695973478 ], [ 923.170085340630749, 880.781775280431134 ], [ 913.885577288469904, 880.781775282425201 ], [ 913.586077027287502, 882.878277100545461 ], [ 913.586077027786018, 900.54879242812035 ], [ 908.195072350743658, 912.528802822079342 ], [ 873.752542472738128, 911.630302040463562 ] ] ] } },
{ "type": "Feature", "properties": { "feature_type": "building", "subtype": "major-damage", "uid": "a02df02a-4666-4aef-b046-4e9c4935bfbc" }, "geometry": { "type": "Polygon", "coordinates": [ [ [ 907.296571570436868, 806.206210595758989 ], [ 918.67758144601396, 788.835195529055113 ], [ 939.34309937175783, 784.642191891817561 ], [ 951.023609501724877, 841.247740990037869 ], [ 917.779080664398521, 848.136246968134628 ], [ 911.789075468667988, 829.866731118817825 ], [ 917.779080663276773, 826.572228257213737 ], [ 915.083578325285316, 819.084721767345627 ], [ 912.687576245983564, 821.181223585465887 ], [ 907.296571570436868, 806.206210595758989 ] ] ] } },
{ "type": "Feature", "properties": { "feature_type": "building", "subtype": "major-damage", "uid": "247fed98-0873-4b6f-9c74-1f8416bb5146" }, "geometry": { "type": "Polygon", "coordinates": [ [ [ 837.118305423767765, 758.559764773731558 ], [ 841.342298653285297, 759.029097351659516 ], [ 844.158294137054554, 756.917100738520162 ], [ 847.443622201992071, 745.887785093897719 ], [ 865.278260277039294, 747.765115413586386 ], [ 864.33959511451576, 761.375760256255717 ], [ 870.440918662973331, 761.84509283916907 ], [ 865.982259145239709, 790.474380270256461 ], [ 836.648972845216804, 784.607723005774915 ], [ 837.118305423767765, 758.559764773731558 ] ] ] } },
{ "type": "Feature", "properties": { "feature_type": "building", "subtype": "destroyed", "uid": "c09ee36c-0af1-46b9-a551-515aae25b2e7" }, "geometry": { "type": "Polygon", "coordinates": [ [ [ 966.485197764680834, 120.012822766137802 ], [ 980.565175188948615, 120.951487927976203 ], [ 997.461148100911601, 123.298150831575299 ], [ 992.767822290101094, 150.988773099827199 ], [ 979.861176316635351, 148.642110192239898 ], [ 962.498004969476256, 147.317845267648295 ], [ 964.373201148488874, 134.796799062102195 ], [ 966.485197764680834, 120.012822766137802 ] ] ] } },
{ "type": "Feature", "properties": { "feature_type": "building", "subtype": "destroyed", "uid": "66decd9c-daaf-45b2-bfe0-afeb4ca7b26f" }, "geometry": { "type": "Polygon", "coordinates": [ [ [ 826.572939396781294, 29.882550773352161 ], [ 828.070440698891957, 76.005590779974156 ], [ 850.233459922883071, 76.904091559595855 ], [ 849.334959143199512, 96.970608961176652 ], [ 793.92741108113421, 89.483102470311479 ], [ 799.61791601568234, 27.18704843648117 ], [ 826.572939396781294, 29.882550773352161 ] ] ] } },
{ "type": "Feature", "properties": { "feature_type": "building", "subtype": "destroyed", "uid": "c9fa47be-2d84-412c-b855-4d32257abb2c" }, "geometry": { "type": "Polygon", "coordinates": [ [ [ 863.383631979932147, 41.084589930086551 ], [ 889.758651490393959, 41.084589927095372 ], [ 911.835401262883011, 42.657681223379491 ], [ 911.928957744719355, 57.521196281802041 ], [ 912.693451061478868, 90.77665566405274 ], [ 899.697064636808818, 89.6299156854232 ], [ 898.932571317743623, 79.6915025376329 ], [ 864.530371958872706, 80.073749197508434 ], [ 863.383631979932147, 41.084589930086551 ] ] ] } }
]
}
