{
"type": "FeatureCollection",
"name": "hurricane-michael_00000055_post_disaster",
"features": [
{ "type": "Feature", "properties": { "feature_type": "building", "subtype": "destroyed", "uid": "54307cb7-8ac8-4653-9ae5-5c90fd251056" }, "geometry": { "type": "Polygon", "coordinates": [ [ [ 937.675164045329552, 883.766157459679675 ], [ 938.652151099302728, 860.904660475810488 ], [ 963.663019590713702, 861.100057888654078 ], [ 962.490635129893803, 885.13393933159432 ], [ 1023.052468773792043, 887.634976463612361 ], [ 1023.052395365682969, 958.147086038222369 ], [ 932.929396788009285, 956.213441545666683 ], [ 937.675164045329552, 883.766157459679675 ] ] ] } },
{ "type": "Feature", "properties": { "feature_type": "building", "subtype": "destroyed", "uid": "4846b90a-3a4a-4e82-8057-fdf50a66fe69" }, "geometry": { "type": "Polygon", "coordinates": [ [ [ 744.600648569423583, 907.75826059210101 ], [ 750.59850155314939, 907.998174711320189 ], [ 750.598501553649044, 901.16062230307989 ], [ 792.3435583584901, 901.760407600628014 ], [ 792.4635154185994, 909.917487667072351 ], [ 799.061153703121477, 909.797530607962472 ], [ 797.621668985807901, 939.067053192677804 ], [ 790.544202457850247, 939.786795549335807 ], [ 790.544202458599898, 951.06275917062635 ], [ 749.758802136632085, 949.863188572531726 ], [ 750.478544495788583, 938.107396713802245 ], [ 744.360734448455446, 936.188083756051128 ], [ 744.600648569423583, 907.75826059210101 ] ] ] } },
{ "type": "Feature", "properties": { "feature_type": "building", "subtype": "no-damage", "uid": "e641c638-5829-4624-b904-ddea7116f743" }, "geometry": { "type": "Polygon", "coordinates": [ [ [ 602.582148895758451, 892.005304349305447 ], [ 638.730669762584739, 892.78689399368352 ], [ 636.776695661384792, 950.038335152282116 ], [ 600.237379974118653, 948.670553285364917 ], [ 602.582148895758451, 892.005304349305447 ] ] ] } },
{ "type": "Feature", "properties": { "feature_type": "building", "subtype": "no-damage", "uid": "ec05fa0c-b743-4b49-933b-d0e77c4cf633" }, "geometry": { "type": "Polygon", "coordinates": [ [ [ 604.762365131437264, 859.404924066301987 ], [ 630.802628084219009, 859.616416199828336 ], [ 630.718031227460187, 878.205373865929914 ], [ 638.678153485374537, 878.398552991906968 ], [ 638.318282305296634, 887.875160715555808 ], [ 601.731379072911295, 885.476019516367955 ], [ 602.571078493426398, 859.685251665827423 ], [ 604.762365131437264, 859.404924066301987 ] ] ] } },
{ "type": "Feature", "properties": { "feature_type": "building", "subtype": "no-damage", "uid": "4e8a2bbf-0a18-4621-84e7-c907226d4b6c" }, "geometry": { "type": "Polygon", "coordinates": [ [ [ 510.506907412742976, 940.944558892049372 ], [ 513.053161745037301, 885.563527184062764 ], [ 539.152268639497834, 887.154936143090026 ], [ 535.651168933436338, 943.490813222095426 ], [ 510.506907412742976, 940.944558892049372 ] ] ] } },
{ "type": "Feature", "properties": { "feature_type": "building", "subtype": "no-damage", "uid": "04cf5af1-3859-4579-9a24-1fa5dd533e1b" }, "geometry": { "type": "Polygon", "coordinates": [ [ [ 546.472749843126167, 912.299197665538145 ], [ 586.257973770076774, 912.617479457543482 ], [ 587.849382725605665, 918.983115282658673 ], [ 600.26237259082427, 919.3013970776625 ], [ 599.307527217057213, 933.624077688919101 ], [ 590.395637057899989, 933.942359480924551 ], [ 587.212819143593947, 940.307995310037541 ], [ 545.517904466610503, 939.03486814501457 ], [ 546.472749843126167, 912.299197665538145 ] ] ] } },
{ "type": "Feature", "properties": { "feature_type": "building", "subtype": "no-damage", "uid": "93ee77c6-da3d-482e-ae86-01fdd7fccf21" }, "geometry": { "type": "Polygon", "coordinates": [ [ [ 343.597864382527973, 845.426137823026124 ], [ 383.249620175225175, 847.17181260515224 ], [ 377.513831597923286, 946.176511023126295 ], [ 336.86454736286629, 940.690104561160751 ], [ 343.597864382527973, 845.426137823026124 ] ] ] } },
{ "type": "Feature", "properties": { "feature_type": "building", "subtype": "no-damage", "uid": "2015b7ec-a3ab-49bc-8134-80d608a9d327" }, "geometry": { "type": "Polygon", "coordinates": [ [ [ 263.77785409634248, 869.000065484460833 ], [ 312.157983798168686, 870.745740266586836 ], [ 310.162926905702875, 942.56778848932106 ], [ 258.291447631879521, 940.822113707195058 ], [ 263.77785409634248, 869.000065484460833 ] ] ] } },
{ "type": "Feature", "properties": { "feature_type": "building", "subtype": "no-damage", "uid": "5045d1d8-a52d-4539-b28c-4bada655549a" }, "geometry": { "type": "Polygon", "coordinates": [ [ [ 0.075719629426416, 796.521859920980773 ], [ 5.095645062045986, 797.432492189843174 ], [ 6.930596743582532, 811.239674530597085 ], [ 24.47182136788431, 811.816688498237227 ], [ 27.227603074996651, 796.293823885687289 ], [ 37.729257286944183, 796.351525281651675 ], [ 37.556153097301838, 790.408281415358147 ], [ 43.961008141554032, 790.408281413359191 ], [ 44.018709537018701, 798.08256718857001 ], [ 76.976549497275684, 798.978648993124807 ], [ 77.353961792092193, 848.245924888218156 ], [ 77.917898765570087, 850.877630753288031 ], [ 54.138556482409413, 850.407683277347019 ], [ 48.499186768119849, 850.971620247076999 ], [ 48.217218283005053, 856.329021472005138 ], [ 40.416090186333577, 856.61098996136775 ], [ 38.846356871243259, 871.009745640411552 ], [ 0.075658928672075, 871.312008035341023 ], [ 0.075719629426416, 796.521859920980773 ] ] ] } },
{ "type": "Feature", "properties": { "feature_type": "building", "subtype": "minor-damage", "uid": "0e876730-2b6d-4faa-9c70-3022add9ff48" }, "geometry": { "type": "Polygon", "coordinates": [ [ [ 681.371530163979287, 628.88881138513932 ], [ 748.016756637191634, 632.408805745557402 ], [ 743.558097119976537, 735.661973521556547 ], [ 674.800874029914212, 733.54997690770449 ], [ 681.371530163979287, 628.88881138513932 ] ] ] } },
{ "type": "Feature", "properties": { "feature_type": "building", "subtype": "no-damage", "uid": "f3ea050f-ba68-4c87-a772-1eed78427a3e" }, "geometry": { "type": "Polygon", "coordinates": [ [ [ 745.537702404420543, 602.200017211000613 ], [ 823.916243401196425, 603.842681241331434 ], [ 821.56958049458467, 632.471968671217041 ], [ 744.364370953363505, 630.594638350125024 ], [ 745.537702404420543, 602.200017211000613 ] ] ] } },
{ "type": "Feature", "properties": { "feature_type": "building", "subtype": "destroyed", "uid": "819fd677-e4f3-4747-b9ed-486f99dd35e8" }, "geometry": { "type": "Polygon", "coordinates": [ [ [ 874.850678246103712, 637.695095587759624 ], [ 894.327980351541328, 638.399094456045191 ], [ 894.327980348292954, 662.56972236946433 ], [ 875.320010828625414, 660.927058335135598 ], [ 874.850678246103712, 637.695095587759624 ] ] ] } },
{ "type": "Feature", "properties": { "feature_type": "building", "subtype": "no-damage", "uid": "47f80307-c174-4b68-89b8-e51c1c0612ff" }, "geometry": { "type": "Polygon", "coordinates": [ [ [ 145.369616789056408, 95.626507467325183 ], [ 162.752905483924593, 95.400750469126677 ], [ 163.543054971372413, 107.027235769405706 ], [ 171.670306827058397, 107.365871262705497 ], [ 172.121820823205496, 119.105235058085896 ], [ 163.317297975922486, 119.782506045685096 ], [ 163.317297972924109, 135.585495771657889 ], [ 146.272644771105803, 136.037009762058005 ], [ 145.369616789056408, 95.626507467325183 ] ] ] } },
{ "type": "Feature", "properties": { "feature_type": "building", "subtype": "no-damage", "uid": "2718985c-1200-4112-8108-467d235d20b3" }, "geometry": { "type": "Polygon", "coordinates": [ [ [ 265.934577803540208, 154.630223257419487 ], [ 317.294294404944708, 153.501438275422288 ], [ 317.520051401644025, 166.369587052799886 ], [ 262.773979858246378, 167.046858040399002 ], [ 262.7739798572469, 154.178709266019894 ], [ 265.934577803540208, 154.630223257419487 ] ] ] } },
{ "type": "Feature", "properties": { "feature_type": "building", "subtype": "minor-damage", "uid": "d84fb29e-7a8a-43a9-bfcf-1a3296bfc51a" }, "geometry": { "type": "Polygon", "coordinates": [ [ [ 300.613846490026219, 125.125453668648106 ], [ 307.838070365661679, 125.3512106628487 ], [ 307.950948862512121, 134.720126003131099 ], [ 286.504034235802976, 134.945882995332795 ], [ 283.004800796709674, 129.527715090541392 ], [ 276.006333923270574, 127.157266633444607 ], [ 276.344969413821786, 114.0633608618664 ], [ 283.004800797958978, 113.386089872268201 ], [ 283.230557794158528, 96.680072163496163 ], [ 283.343436294507114, 83.134652400518348 ], [ 300.162332502124912, 84.037680385316548 ], [ 300.613846490026219, 125.125453668648106 ] ] ] } },
{ "type": "Feature", "properties": { "feature_type": "building", "subtype": "minor-damage", "uid": "8d30debb-e8c8-4546-997a-d85c0ea1660e" }, "geometry": { "type": "Polygon", "coordinates": [ [ [ 376.755142423664779, 79.871233377731571 ], [ 397.356401079052887, 80.015298123853043 ], [ 398.652983792896578, 86.354146941204448 ], [ 403.983379391144524, 87.218535415934369 ], [ 404.127444132768176, 98.887779829785757 ], [ 397.932660065037908, 99.752168305515156 ], [ 398.652983792146927, 124.099110349072006 ], [ 377.043271916907202, 124.963498826800304 ], [ 377.475466153772288, 120.6415564511517 ], [ 371.712876322407283, 119.489038483179399 ], [ 372.289135302395493, 114.734901871165306 ], [ 372.289135301645899, 113.294254414947901 ], [ 375.746689202813684, 113.294254414947901 ], [ 375.746689201814206, 103.209722206433796 ], [ 373.153523777125315, 102.489398474826899 ], [ 372.145070556024223, 95.574290675988053 ], [ 377.619530899394078, 94.565837453137689 ], [ 376.755142423664779, 79.871233377731571 ] ] ] } },
{ "type": "Feature", "properties": { "feature_type": "building", "subtype": "no-damage", "uid": "86ac9d34-b6df-4edd-93ee-b3696bc26039" }, "geometry": { "type": "Polygon", "coordinates": [ [ [ 376.471129243147573, 129.398192334159489 ], [ 405.716272647582116, 130.118516062768009 ], [ 405.716272648831421, 138.474271319823202 ], [ 376.327064497276012, 137.465818097972402 ], [ 376.471129243147573, 129.398192334159489 ] ] ] } },
{ "type": "Feature", "properties": { "feature_type": "building", "subtype": "no-damage", "uid": "580b2513-3d58-42d8-90d7-9b17a9deb1fa" }, "geometry": { "type": "Polygon", "coordinates": [ [ [ 447.196768208810681, 79.538125946331462 ], [ 469.433832322717819, 78.860854957732812 ], [ 471.014131295614618, 120.5130207335622 ], [ 445.052076748413583, 120.625899231661904 ], [ 444.713441254364227, 79.199490452032137 ], [ 447.196768208810681, 79.538125946331462 ] ] ] } },
{ "type": "Feature", "properties": { "feature_type": "building", "subtype": "minor-damage", "uid": "70a30543-dfb5-45e7-964d-e0e6c173ab91" }, "geometry": { "type": "Polygon", "coordinates": [ [ [ 512.153785676337407, 79.828529684175294 ], [ 525.392222560131131, 80.012396864171905 ], [ 525.759956920624063, 94.53790399994908 ], [ 529.621167674315984, 95.641107069934051 ], [ 529.805034853313146, 106.305403446771194 ], [ 526.679292812861036, 106.673137804765403 ], [ 525.759956919874412, 134.437081822340303 ], [ 509.947379530371222, 133.517745930352987 ], [ 512.153785676337407, 79.828529684175294 ] ] ] } },
{ "type": "Feature", "properties": { "feature_type": "building", "subtype": "no-damage", "uid": "768bd4cc-0b1f-4ae8-ab7c-39c092870ec2" }, "geometry": { "type": "Polygon", "coordinates": [ [ [ 577.232553304206817, 76.451676926669833 ], [ 590.774639413136811, 77.604194894642205 ], [ 590.486509922642995, 130.043762381913808 ], [ 576.656294321470114, 127.450596952726599 ], [ 577.232553304206817, 76.451676926669833 ] ] ] } },
{ "type": "Feature", "properties": { "feature_type": "building", "subtype": "no-damage", "uid": "97665701-1d2e-4b22-a746-fec6e8ac0f7d" }, "geometry": { "type": "Polygon", "coordinates": [ [ [ 645.012631172265628, 76.383289634282093 ], [ 659.905872663535092, 76.383289633282615 ], [ 660.641341379023856, 125.6596935825293 ], [ 647.770638855223297, 127.682232550498497 ], [ 645.012631172265628, 76.383289634282093 ] ] ] } },
{ "type": "Feature", "properties": { "feature_type": "building", "subtype": "minor-damage", "uid": "20b1fe49-0797-44d9-912a-e42875453a0c" }, "geometry": { "type": "Polygon", "coordinates": [ [ [ 704.938066827798707, 74.036441079761147 ], [ 722.589316005274213, 72.749370825781639 ], [ 725.163456512233097, 124.599915282987396 ], [ 706.409004260025426, 125.519251174974698 ], [ 704.938066827798707, 74.036441079761147 ] ] ] } },
{ "type": "Feature", "properties": { "feature_type": "building", "subtype": "no-damage", "uid": "7f64589c-e195-4b7b-bf30-3ff010113144" }, "geometry": { "type": "Polygon", "coordinates": [ [ [ 752.101291013453988, 79.28523704574431 ], [ 773.062149407130278, 79.469104222742502 ], [ 772.510547870388791, 90.685002137570521 ], [ 781.520039636249635, 90.501134957573896 ], [ 782.439375530735447, 101.165431334410997 ], [ 774.349219659610299, 101.900900051399105 ], [ 774.349219657611343, 112.749063606233804 ], [ 748.607814610759874, 112.932930788229399 ], [ 747.688478715024758, 84.617385232663651 ], [ 752.469025366200867, 84.433518055665459 ], [ 752.101291013453988, 79.28523704574431 ] ] ] } },
{ "type": "Feature", "properties": { "feature_type": "building", "subtype": "no-damage", "uid": "334793dc-653b-458e-af61-9a633ee2705f" }, "geometry": { "type": "Polygon", "coordinates": [ [ [ 753.756095618930772, 117.161875902165306 ], [ 779.313633491032988, 116.6102743661734 ], [ 779.865235025775405, 133.709922004912187 ], [ 753.572228441183029, 133.709922004912187 ], [ 753.756095618930772, 117.161875902165306 ] ] ] } },
{ "type": "Feature", "properties": { "feature_type": "building", "subtype": "minor-damage", "uid": "4abe767d-d1d5-48f0-a0f0-0e39be36402f" }, "geometry": { "type": "Polygon", "coordinates": [ [ [ 724.308776614551221, 147.567719526623392 ], [ 776.604279354940218, 146.991460543137009 ], [ 778.188991559527608, 158.948834450230805 ], [ 724.452841361672199, 159.66915817783979 ], [ 724.308776614551221, 147.567719526623392 ] ] ] } },
{ "type": "Feature", "properties": { "feature_type": "building", "subtype": "minor-damage", "uid": "d5dff008-4ae3-4f9b-b803-10b96bf13e3f" }, "geometry": { "type": "Polygon", "coordinates": [ [ [ 724.48313133593274, 179.548681411919802 ], [ 778.795540516025085, 178.108033952703892 ], [ 778.939605262396412, 192.514508537865993 ], [ 724.915325572547999, 193.522961755718995 ], [ 724.48313133593274, 179.548681411919802 ] ] ] } },
{ "type": "Feature", "properties": { "feature_type": "building", "subtype": "minor-damage", "uid": "61164833-305b-4050-ac2f-bbb93e3845c4" }, "geometry": { "type": "Polygon", "coordinates": [ [ [ 723.406453504363526, 212.639833651947413 ], [ 779.015445398549446, 212.207639412583404 ], [ 779.73576912715771, 226.181919759381088 ], [ 722.830194522376473, 225.893790269137099 ], [ 723.406453504363526, 212.639833651947413 ] ] ] } },
{ "type": "Feature", "properties": { "feature_type": "building", "subtype": "minor-damage", "uid": "51894c15-330a-415c-b114-5b57da3351b0" }, "geometry": { "type": "Polygon", "coordinates": [ [ [ 742.893140841953937, 239.060585407580106 ], [ 777.460170480166767, 237.773515154600091 ], [ 778.379506375402116, 262.043982771229082 ], [ 743.99634391868517, 261.492381236236611 ], [ 742.893140841953937, 239.060585407580106 ] ] ] } },
{ "type": "Feature", "properties": { "feature_type": "building", "subtype": "minor-damage", "uid": "bc6a66a4-d765-493d-a556-cc61f35c53b8" }, "geometry": { "type": "Polygon", "coordinates": [ [ [ 724.416273057391777, 276.958619592538923 ], [ 780.495762630020295, 277.142486771536028 ], [ 780.495762628021339, 290.19705647633549 ], [ 725.519476131874171, 289.461587761346379 ], [ 724.416273057391777, 276.958619592538923 ] ] ] } },
{ "type": "Feature", "properties": { "feature_type": "building", "subtype": "minor-damage", "uid": "2fdba7dd-3e1c-4ea3-8e19-4034c5fdc595" }, "geometry": { "type": "Polygon", "coordinates": [ [ [ 717.507816111000238, 310.711193350220185 ], [ 777.816250797313842, 310.15959181222928 ], [ 776.89691490282803, 323.030294337032103 ], [ 718.427152005485937, 321.007755367064021 ], [ 717.507816111000238, 310.711193350220185 ] ] ] } },
{ "type": "Feature", "properties": { "feature_type": "building", "subtype": "no-damage", "uid": "a1411ea2-614c-48c8-b15a-bc7406a7a7e0" }, "geometry": { "type": "Polygon", "coordinates": [ [ [ 723.98727172018414, 375.024041686097178 ], [ 779.164069375755844, 374.015588465245798 ], [ 779.452198866999197, 390.438969490111788 ], [ 722.258494769475305, 389.718645762502774 ], [ 723.98727172018414, 375.024041686097178 ] ] ] } },
{ "type": "Feature", "properties": { "feature_type": "building", "subtype": "no-damage", "uid": "50d79886-f225-4b03-b914-5c20546bc0b0" }, "geometry": { "type": "Polygon", "coordinates": [ [ [ 724.442728110763142, 405.862761051503298 ], [ 779.075921155061565, 406.314275041903386 ], [ 778.060014675162165, 419.521059311581382 ], [ 723.878335620264465, 418.843788325981222 ], [ 724.442728110763142, 405.862761051503298 ] ] ] } },
{ "type": "Feature", "properties": { "feature_type": "building", "subtype": "minor-damage", "uid": "f112dc4e-2061-493e-8f4b-423deff67cb0" }, "geometry": { "type": "Polygon", "coordinates": [ [ [ 738.859645946995556, 438.13291822564571 ], [ 780.737568717765953, 437.004133244647903 ], [ 781.189082708415867, 459.692711350709089 ], [ 738.746767447646562, 459.579832851609922 ], [ 738.859645946995556, 438.13291822564571 ] ] ] } },
{ "type": "Feature", "properties": { "feature_type": "building", "subtype": "minor-damage", "uid": "6a16cae4-12f8-4eac-9773-2b997f0be071" }, "geometry": { "type": "Polygon", "coordinates": [ [ [ 727.16504174771535, 464.646774199054391 ], [ 736.241120736125595, 464.214579962689015 ], [ 735.808926498760798, 474.299112169204079 ], [ 779.748673980097351, 472.858464710987676 ], [ 780.180868216962494, 488.417457263122685 ], [ 722.410905138700741, 487.985263024758297 ], [ 727.16504174771535, 464.646774199054391 ] ] ] } },
{ "type": "Feature", "properties": { "feature_type": "building", "subtype": "minor-damage", "uid": "36b3cd55-0e4f-481a-8c17-19b5a3d0ca60" }, "geometry": { "type": "Polygon", "coordinates": [ [ [ 744.834871910091579, 502.187720744931596 ], [ 782.003576335713774, 502.043656002808007 ], [ 780.562928877247828, 526.67872753960728 ], [ 741.377318008424027, 524.949950590147409 ], [ 744.834871910091579, 502.187720744931596 ] ] ] } },
{ "type": "Feature", "properties": { "feature_type": "building", "subtype": "no-damage", "uid": "59a102ed-31ab-41d4-9cf7-48c677a8dbcd" }, "geometry": { "type": "Polygon", "coordinates": [ [ [ 738.207893604746459, 532.297252627350758 ], [ 779.554475657396097, 532.009123136107291 ], [ 778.834151926538993, 558.949230609850702 ], [ 724.809872237939999, 557.796712638879853 ], [ 724.665807491318787, 539.932684158795951 ], [ 734.318145462215853, 539.356425174310061 ], [ 735.326598685066074, 531.576928898742267 ], [ 738.207893604746459, 532.297252627350758 ] ] ] } },
{ "type": "Feature", "properties": { "feature_type": "building", "subtype": "minor-damage", "uid": "e430efd0-6d72-4e8b-b21c-7a7b7b6bd22e" }, "geometry": { "type": "Polygon", "coordinates": [ [ [ 654.696683512734126, 540.91190325169373 ], [ 714.307438618861624, 539.939027424355459 ], [ 714.838098159478704, 554.266835031264009 ], [ 636.649607606687482, 555.362324603302113 ], [ 636.050607087711114, 545.77831628568515 ], [ 653.122121894279985, 543.981314731753969 ], [ 654.696683512734126, 540.91190325169373 ] ] ] } },
{ "type": "Feature", "properties": { "feature_type": "building", "subtype": "minor-damage", "uid": "0e4c82a7-a8e6-4ec2-a240-1be2a133508d" }, "geometry": { "type": "Polygon", "coordinates": [ [ [ 654.919123457455839, 501.751778102930587 ], [ 699.544662160926123, 502.051278360419872 ], [ 699.844162422663203, 527.808300702396764 ], [ 653.122121895029636, 528.407301218374869 ], [ 654.919123457455839, 501.751778102930587 ] ] ] } },
{ "type": "Feature", "properties": { "feature_type": "building", "subtype": "no-damage", "uid": "1a45ec4b-706e-4809-8052-52798d751785" }, "geometry": { "type": "Polygon", "coordinates": [ [ [ 251.849045944004899, 792.451604102728311 ], [ 313.84559971528131, 796.34510748007358 ], [ 311.150097377888585, 829.589636315253756 ], [ 247.955542565411093, 824.198631638468214 ], [ 251.849045944004899, 792.451604102728311 ] ] ] } },
{ "type": "Feature", "properties": { "feature_type": "building", "subtype": "minor-damage", "uid": "d58111bf-784a-4197-ab6b-0fe6e7cacfef" }, "geometry": { "type": "Polygon", "coordinates": [ [ [ 836.65991255170195, 561.770324331679262 ], [ 835.740576660214629, 524.629154190247391 ], [ 849.530615079500421, 524.077552653255907 ], [ 848.427412002769302, 566.367003805608419 ], [ 836.659912551951834, 566.918605342599903 ], [ 836.65991255170195, 561.770324331679262 ] ] ] } },
{ "type": "Feature", "properties": { "feature_type": "building", "subtype": "minor-damage", "uid": "77967d26-c7c8-436c-b3c7-108aa241b2e1" }, "geometry": { "type": "Polygon", "coordinates": [ [ [ 875.272020127351425, 524.077552655254863 ], [ 891.268464691604095, 524.445287012249651 ], [ 890.716863153613303, 584.202120159336346 ], [ 876.742957558078956, 583.834385801342023 ], [ 874.904285767858028, 582.17958119136722 ], [ 875.272020127351425, 524.077552655254863 ] ] ] } },
{ "type": "Feature", "properties": { "feature_type": "building", "subtype": "minor-damage", "uid": "c18c4b37-f124-49b3-82d0-ef944686367f" }, "geometry": { "type": "Polygon", "coordinates": [ [ [ 909.103581047826765, 525.916224442227872 ], [ 923.629088181601674, 525.916224443227406 ], [ 922.893619468111979, 584.202120161335301 ], [ 907.632643614600511, 584.202120159336346 ], [ 909.103581047826765, 525.916224442227872 ] ] ] } },
{ "type": "Feature", "properties": { "feature_type": "building", "subtype": "minor-damage", "uid": "cc0d59e8-ff87-48f1-80ce-a0bdc4deb86b" }, "geometry": { "type": "Polygon", "coordinates": [ [ [ 938.706196853867255, 526.651693158216517 ], [ 962.241195757750916, 527.754896231199837 ], [ 960.586391143528658, 572.986222249505659 ], [ 938.338462496122929, 570.963683279537577 ], [ 938.706196853867255, 526.651693158216517 ] ] ] } },
{ "type": "Feature", "properties": { "feature_type": "building", "subtype": "no-damage", "uid": "0b2e328b-74de-412c-ba02-88e814e0d390" }, "geometry": { "type": "Polygon", "coordinates": [ [ [ 996.39239168926656, 399.311522519048424 ], [ 1002.963047823081979, 398.607523648763788 ], [ 1002.963047824331056, 453.988768182445597 ], [ 974.33376039295274, 454.223434474206215 ], [ 975.976424425282175, 400.484853972854296 ], [ 996.39239168926656, 399.311522519048424 ] ] ] } },
{ "type": "Feature", "properties": { "feature_type": "building", "subtype": "no-damage", "uid": "8d5c34a6-6fe9-440a-8919-cab4b6c4fb0c" }, "geometry": { "type": "Polygon", "coordinates": [ [ [ 937.021820218904736, 414.095498816013276 ], [ 960.019116676513931, 413.626166233491517 ], [ 959.080451516217977, 453.988768184444609 ], [ 937.49115279767841, 453.284769312161018 ], [ 937.256486510415471, 446.244780601319576 ], [ 932.563160699190917, 446.24478059932062 ], [ 933.736492151497259, 431.460804305354202 ], [ 937.021820218654852, 430.522139143308891 ], [ 937.021820218904736, 414.095498816013276 ] ] ] } },
{ "type": "Feature", "properties": { "feature_type": "building", "subtype": "no-damage", "uid": "5c43f101-9f7a-41be-82c9-14bc8143d352" }, "geometry": { "type": "Polygon", "coordinates": [ [ [ 912.009246969808487, 446.559841855621812 ], [ 912.297376459052998, 438.924410327174996 ], [ 919.932807989746948, 438.780345580054018 ], [ 919.788743242126202, 459.237539489325115 ], [ 913.017700190159871, 458.949409999081126 ], [ 910.56859951034312, 454.627467622433073 ], [ 908.407628326017402, 453.474949657459092 ], [ 908.119498829776603, 446.55984185662129 ], [ 912.009246969808487, 446.559841855621812 ] ] ] } },
{ "type": "Feature", "properties": { "feature_type": "building", "subtype": "no-damage", "uid": "adc5b2b1-87ab-46ed-ad07-349f4c7f8d77" }, "geometry": { "type": "Polygon", "coordinates": [ [ [ 889.679211362962064, 406.22171302156562 ], [ 889.823276111582118, 451.313978468635412 ], [ 884.781010003578217, 453.619014402581115 ], [ 876.713384238517847, 450.737719484149409 ], [ 877.145578474133572, 406.509842510810074 ], [ 889.679211362962064, 406.22171302156562 ] ] ] } },
{ "type": "Feature", "properties": { "feature_type": "building", "subtype": "no-damage", "uid": "2f297256-cb65-4158-9a9e-12359fef867b" }, "geometry": { "type": "Polygon", "coordinates": [ [ [ 843.722557441672166, 399.162540474606317 ], [ 855.968060838007887, 399.450669966849205 ], [ 855.247737108150204, 437.483762867959172 ], [ 862.739103891723175, 437.627827614080616 ], [ 861.44252117962867, 451.025848978391423 ], [ 840.985327270611947, 451.458043214756913 ], [ 841.849715744841887, 440.365057784391922 ], [ 837.959967605809538, 438.780345580054018 ], [ 838.104032351681099, 427.111101169201106 ], [ 842.137845235835471, 426.390777437594181 ], [ 843.722557441672166, 399.162540474606317 ] ] ] } },
{ "type": "Feature", "properties": { "feature_type": "building", "subtype": "no-damage", "uid": "ce1f20de-b18e-4a6b-b115-875376c5c603" }, "geometry": { "type": "Polygon", "coordinates": [ [ [ 839.109287061309601, 268.619366302182186 ], [ 861.684986666267719, 267.490581321184493 ], [ 862.13650065766717, 302.144280217826179 ], [ 847.236538919244481, 310.49728907121272 ], [ 839.560801053708587, 310.158653576913423 ], [ 838.770651565511116, 289.614766933748513 ], [ 834.707025636418848, 288.59886045484842 ], [ 833.803997654119485, 277.649646144167491 ], [ 839.899436548507651, 277.536767643069311 ], [ 839.109287061309601, 268.619366302182186 ] ] ] } },
{ "type": "Feature", "properties": { "feature_type": "building", "subtype": "no-damage", "uid": "aa30878f-b404-4364-b381-61d61ea850bb" }, "geometry": { "type": "Polygon", "coordinates": [ [ [ 871.662539413314789, 267.697358339651089 ], [ 894.915510005122314, 268.148872330051177 ], [ 893.786725025124269, 303.592720712391781 ], [ 869.292090953220054, 303.592720712391781 ], [ 870.195118937268489, 267.697358340650624 ], [ 871.662539413314789, 267.697358339651089 ] ] ] } },
{ "type": "Feature", "properties": { "feature_type": "building", "subtype": "no-damage", "uid": "3abc0bd3-8ead-4786-8b40-151576256d4a" }, "geometry": { "type": "Polygon", "coordinates": [ [ [ 908.066416124800412, 268.275866246981309 ], [ 923.14352479456727, 268.275866246981309 ], [ 922.408056081327459, 314.426528154276014 ], [ 909.1696191965342, 313.691059440286381 ], [ 908.066416124800412, 268.275866246981309 ] ] ] } },
{ "type": "Feature", "properties": { "feature_type": "building", "subtype": "no-damage", "uid": "a3067b23-ec04-4bbe-afe6-7fab2916bdb7" }, "geometry": { "type": "Polygon", "coordinates": [ [ [ 943.368914476502937, 267.35653035299498 ], [ 956.42348418104973, 267.908131888986986 ], [ 956.423484181299614, 305.968637925404721 ], [ 940.42703961379857, 304.86543485142181 ], [ 941.346375507784728, 266.804928814004711 ], [ 943.368914476502937, 267.35653035299498 ] ] ] } },
{ "type": "Feature", "properties": { "feature_type": "building", "subtype": "no-damage", "uid": "5b8eb830-a406-4d86-a2ad-5b1765abda97" }, "geometry": { "type": "Polygon", "coordinates": [ [ [ 969.29418670485029, 266.988795993001816 ], [ 984.55516255461373, 267.172663173997876 ], [ 986.393834344334891, 323.619887102134385 ], [ 972.052194387557961, 322.148949669157673 ], [ 969.29418670485029, 266.988795993001816 ] ] ] } },
{ "type": "Feature", "properties": { "feature_type": "building", "subtype": "minor-damage", "uid": "6a6695f4-14b6-41c8-915f-435e0a64c38c" }, "geometry": { "type": "Polygon", "coordinates": [ [ [ 661.353236992920074, 433.885207124062788 ], [ 701.481172650854319, 435.527871153394187 ], [ 699.838508622023028, 457.82116874372241 ], [ 659.006574089306696, 458.290501325244691 ], [ 661.353236992920074, 433.885207124062788 ] ] ] } },
{ "type": "Feature", "properties": { "feature_type": "building", "subtype": "minor-damage", "uid": "df0e8356-818b-4eaf-8dc1-e682e36e3f71" }, "geometry": { "type": "Polygon", "coordinates": [ [ [ 659.475906668830021, 376.861298554053405 ], [ 697.257179427648566, 377.09596484581408 ], [ 697.25717942789845, 389.533278237166087 ], [ 659.475906672827932, 390.706609688973117 ], [ 659.475906668830021, 376.861298554053405 ] ] ] } },
{ "type": "Feature", "properties": { "feature_type": "building", "subtype": "minor-damage", "uid": "88f6e3d2-92a1-4495-913f-179a8eef0643" }, "geometry": { "type": "Polygon", "coordinates": [ [ [ 659.241240379568126, 340.722689833802974 ], [ 695.849181681332766, 340.722689831804018 ], [ 697.257179423151001, 363.250653710894426 ], [ 655.721246021899333, 362.311988550848127 ], [ 659.241240379568126, 340.722689833802974 ] ] ] } },
{ "type": "Feature", "properties": { "feature_type": "building", "subtype": "minor-damage", "uid": "91369e04-3fbf-48b9-91f2-08ad56a63192" }, "geometry": { "type": "Polygon", "coordinates": [ [ [ 655.853822056208855, 276.002297026073109 ], [ 701.234216994512167, 276.290426517316519 ], [ 700.081699031037715, 295.451037714492713 ], [ 655.7097573115866, 295.306972971369589 ], [ 655.853822056208855, 276.002297026073109 ] ] ] } },
{ "type": "Feature", "properties": { "feature_type": "building", "subtype": "minor-damage", "uid": "0c643b67-3c5a-411c-b442-d4198fea673a" }, "geometry": { "type": "Polygon", "coordinates": [ [ [ 653.615334720762917, 246.471015955441601 ], [ 697.743457661078196, 244.816211347465696 ], [ 697.375723302584333, 258.790116945252009 ], [ 654.902404973992475, 260.444921553227914 ], [ 653.615334720762917, 246.471015955441601 ] ] ] } },
{ "type": "Feature", "properties": { "feature_type": "building", "subtype": "no-damage", "uid": "d2754480-8537-45bc-8f6b-519d6b1a51fb" }, "geometry": { "type": "Polygon", "coordinates": [ [ [ 648.650920889839995, 212.82332221395589 ], [ 710.062558652385064, 211.352384783977811 ], [ 710.062558648387153, 225.510157558762188 ], [ 650.673459858808201, 228.268165244718887 ], [ 648.650920889839995, 212.82332221395589 ] ] ] } },
{ "type": "Feature", "properties": { "feature_type": "building", "subtype": "minor-damage", "uid": "d1f712b0-05eb-499c-a4fe-7e3a69aac2cf" }, "geometry": { "type": "Polygon", "coordinates": [ [ [ 653.04927171891859, 177.248158340808914 ], [ 708.370134124609649, 174.366863423376714 ], [ 710.098911072070223, 184.163266138648311 ], [ 701.455026321274659, 184.019201393526288 ], [ 701.743155814267197, 195.688445806378212 ], [ 651.176430026336106, 200.010388183026294 ], [ 650.74423578697224, 176.960028846567013 ], [ 653.04927171891859, 177.248158340808914 ] ] ] } },
{ "type": "Feature", "properties": { "feature_type": "building", "subtype": "minor-damage", "uid": "2ac257ca-c4c4-4f1c-b340-90c257d6c580" }, "geometry": { "type": "Polygon", "coordinates": [ [ [ 540.75566059958021, 150.027747002127086 ], [ 584.983537572410114, 150.027747005125605 ], [ 584.551343333546015, 164.002027348924798 ], [ 540.035336868223339, 163.569833112559309 ], [ 540.75566059958021, 150.027747002127086 ] ] ] } },
{ "type": "Feature", "properties": { "feature_type": "building", "subtype": "no-damage", "uid": "2900f97a-38cb-43d4-b318-df031f8ed110" }, "geometry": { "type": "Polygon", "coordinates": [ [ [ 536.406213076495987, 181.431010604670689 ], [ 583.702303749557814, 181.769646098969986 ], [ 583.58942525145801, 195.766579853347508 ], [ 536.406213075246683, 195.427944359048212 ], [ 536.406213076495987, 181.431010604670689 ] ] ] } },
{ "type": "Feature", "properties": { "feature_type": "building", "subtype": "no-damage", "uid": "36e314ac-7a4d-4a8f-9352-60fee4a065e7" }, "geometry": { "type": "Polygon", "coordinates": [ [ [ 540.630152253716915, 210.727287344331387 ], [ 585.434288208034218, 209.862898869601509 ], [ 586.154611936892366, 231.760740235089997 ], [ 539.477634287244086, 231.616675490967395 ], [ 540.630152253716915, 210.727287344331387 ] ] ] } },
{ "type": "Feature", "properties": { "feature_type": "building", "subtype": "no-damage", "uid": "37ecda43-42aa-4249-b7a1-07b306d59ff9" }, "geometry": { "type": "Polygon", "coordinates": [ [ [ 528.100909814244005, 249.419396012269601 ], [ 583.628797846383009, 247.580724221298709 ], [ 584.364266561871659, 261.003028283092988 ], [ 528.100909813744238, 263.025567251062114 ], [ 528.100909814244005, 249.419396012269601 ] ] ] } },
{ "type": "Feature", "properties": { "feature_type": "building", "subtype": "minor-damage", "uid": "76ef989a-ad96-4634-89ee-1b5ab410f1b9" }, "geometry": { "type": "Polygon", "coordinates": [ [ [ 534.720128253891971, 273.138262091907222 ], [ 585.835203992349307, 274.425332342888282 ], [ 584.548133740618937, 296.121659457555211 ], [ 531.226651853196813, 295.570057919564306 ], [ 531.042784675948838, 273.138262091907222 ], [ 534.720128253891971, 273.138262091907222 ] ] ] } },
{ "type": "Feature", "properties": { "feature_type": "building", "subtype": "destroyed", "uid": "326cd22f-40b3-4ac2-9584-608009538d5a" }, "geometry": { "type": "Polygon", "coordinates": [ [ [ 532.589694310010032, 348.118227545412822 ], [ 587.766491967580691, 347.397903814805375 ], [ 586.758038744730584, 361.660313653846117 ], [ 532.157500073394772, 359.787471955266312 ], [ 532.589694310010032, 348.118227545412822 ] ] ] } },
{ "type": "Feature", "properties": { "feature_type": "building", "subtype": "minor-damage", "uid": "80b8d27a-dc6d-49cb-af1e-47f63e8e5da7" }, "geometry": { "type": "Polygon", "coordinates": [ [ [ 545.341009653662013, 401.861271987185376 ], [ 582.077519840170226, 402.869725207037277 ], [ 581.933455096047737, 422.462530641578496 ], [ 542.891908972845613, 422.318465896456473 ], [ 545.341009653662013, 401.861271987185376 ] ] ] } },
{ "type": "Feature", "properties": { "feature_type": "building", "subtype": "minor-damage", "uid": "eacf880e-92c2-4333-9c5e-cd11bf87a4d2" }, "geometry": { "type": "Polygon", "coordinates": [ [ [ 535.707749305430866, 438.782455871400714 ], [ 581.184801024318858, 438.255121056247901 ], [ 581.047274459568598, 462.352119047102576 ], [ 535.76432695834751, 461.467686478157987 ], [ 535.707749305430866, 438.782455871400714 ] ] ] } },
{ "type": "Feature", "properties": { "feature_type": "building", "subtype": "minor-damage", "uid": "6c272a9e-1414-4c06-aa88-6a40fc05a509" }, "geometry": { "type": "Polygon", "coordinates": [ [ [ 530.45940567788216, 543.408522903992889 ], [ 582.157757775085088, 542.50549492019411 ], [ 582.60927176948303, 553.793344723175323 ], [ 528.653349709785289, 554.696372703975612 ], [ 528.653349708785868, 543.521401400093623 ], [ 530.45940567788216, 543.408522903992889 ] ] ] } },
{ "type": "Feature", "properties": { "feature_type": "building", "subtype": "minor-damage", "uid": "4dcf4c32-88f1-4b11-b062-b6c91ce50f1f" }, "geometry": { "type": "Polygon", "coordinates": [ [ [ 461.233697710709805, 506.896352815194405 ], [ 501.192686017282483, 506.783474319093614 ], [ 500.966929018334497, 527.77887495065977 ], [ 458.411735260464923, 527.891753448759573 ], [ 461.233697710709805, 506.896352815194405 ] ] ] } },
{ "type": "Feature", "properties": { "feature_type": "building", "subtype": "minor-damage", "uid": "cd72a860-1f51-4aba-9b8a-c0fb0b8df7ad" }, "geometry": { "type": "Polygon", "coordinates": [ [ [ 465.230856875754625, 545.587695634660804 ], [ 504.272402997707275, 543.570789194957001 ], [ 506.865568425144772, 562.731400388135285 ], [ 458.892008062152627, 561.578882423161303 ], [ 458.603878566661422, 545.87582512790334 ], [ 465.230856875754625, 545.587695634660804 ] ] ] } },
{ "type": "Feature", "properties": { "feature_type": "building", "subtype": "no-damage", "uid": "28052e4e-ebf5-4971-a02e-ec7fb72967b4" }, "geometry": { "type": "Polygon", "coordinates": [ [ [ 460.240937864689727, 438.878567921122112 ], [ 517.290577219840202, 437.726049954149175 ], [ 517.290577219840202, 463.369574709800872 ], [ 458.368096170108174, 464.23396318652982 ], [ 458.800290407972909, 439.31076215848708 ], [ 460.240937864689727, 438.878567921122112 ] ] ] } },
{ "type": "Feature", "properties": { "feature_type": "building", "subtype": "no-damage", "uid": "f477a5c4-f7a9-4691-a7fa-1057fee81731" }, "geometry": { "type": "Polygon", "coordinates": [ [ [ 458.610944003035513, 373.584492343581474 ], [ 501.542238258273585, 371.423521158755591 ], [ 503.559144702474725, 394.329815745095516 ], [ 461.348174171597009, 397.643304899892712 ], [ 458.610944003035513, 373.584492343581474 ] ] ] } },
{ "type": "Feature", "properties": { "feature_type": "building", "subtype": "minor-damage", "uid": "94e2aaf7-b5af-4029-bfe2-af1811c1cd98" }, "geometry": { "type": "Polygon", "coordinates": [ [ [ 481.127499048783591, 315.227188328029911 ], [ 508.643865506507211, 314.362799852300384 ], [ 509.652318726858596, 325.599850030785774 ], [ 458.365269206321386, 326.752367995759812 ], [ 457.933074970955374, 316.667835787245679 ], [ 465.712571245022275, 315.227188329029275 ], [ 465.712571244022797, 307.735821545704482 ], [ 481.271563795404802, 308.600210020434417 ], [ 481.127499048783591, 315.227188328029911 ] ] ] } },
{ "type": "Feature", "properties": { "feature_type": "building", "subtype": "minor-damage", "uid": "3c492248-5547-4c88-9f35-7a2456355d80" }, "geometry": { "type": "Polygon", "coordinates": [ [ [ 456.204298018997292, 247.228628293620687 ], [ 508.499800760135827, 248.669275751837006 ], [ 509.940448218102006, 252.99121812748561 ], [ 517.287750253804461, 253.855606599217111 ], [ 518.29620347490561, 261.635102877783311 ], [ 456.34836276536862, 260.338520161690496 ], [ 456.204298018997292, 247.228628293620687 ] ] ] } },
{ "type": "Feature", "properties": { "feature_type": "building", "subtype": "no-damage", "uid": "54dc4a68-6b6c-4c79-8fa6-e2dcd48f51c6" }, "geometry": { "type": "Polygon", "coordinates": [ [ [ 840.249311557445481, 73.343797760679664 ], [ 864.887513535311655, 73.159930583681472 ], [ 865.071380710560788, 127.768482720847004 ], [ 839.146108482213549, 128.320084258837909 ], [ 838.962241303466271, 105.3366868921904 ], [ 831.607554146830353, 103.681882282215597 ], [ 830.872085431591472, 93.569187442369937 ], [ 839.513842841207179, 90.259578219421826 ], [ 840.249311557445481, 73.343797760679664 ] ] ] } },
{ "type": "Feature", "properties": { "feature_type": "building", "subtype": "minor-damage", "uid": "e5e7ec47-1d9e-4f50-b983-ce5578747e34" }, "geometry": { "type": "Polygon", "coordinates": [ [ [ 871.322864795712803, 73.159930581682517 ], [ 889.157981152435127, 72.792196223688222 ], [ 888.790246791942309, 112.507506870080704 ], [ 869.851927361737012, 110.852702258106902 ], [ 871.322864795712803, 73.159930581682517 ] ] ] } },
{ "type": "Feature", "properties": { "feature_type": "building", "subtype": "no-damage", "uid": "0948e8dd-f397-4273-aa56-ea4451455438" }, "geometry": { "type": "Polygon", "coordinates": [ [ [ 907.198396573823516, 71.268222878763254 ], [ 921.759722819446324, 71.155344380663479 ], [ 920.179423848048714, 116.6453790868878 ], [ 908.891574045319885, 116.080986596388897 ], [ 907.198396573823516, 71.268222878763254 ] ] ] } },
{ "type": "Feature", "properties": { "feature_type": "building", "subtype": "no-damage", "uid": "4a416686-dc26-4214-9755-c31f08e21fac" }, "geometry": { "type": "Polygon", "coordinates": [ [ [ 939.166003666985262, 71.87203911818429 ], [ 953.953086910056754, 71.420525122786756 ], [ 954.17884390550671, 121.087064257703304 ], [ 941.310695130880504, 120.748428763403993 ], [ 939.166003666985262, 71.87203911818429 ] ] ] } },
{ "type": "Feature", "properties": { "feature_type": "building", "subtype": "minor-damage", "uid": "2bbd8204-4d1f-40bb-8821-97044ae4e19e" }, "geometry": { "type": "Polygon", "coordinates": [ [ [ 838.327713925298099, 162.335030967078808 ], [ 860.903413532255058, 162.335030967078808 ], [ 859.774628551757246, 196.988729861721509 ], [ 839.343620406696573, 196.762972865521988 ], [ 838.327713925797752, 185.588001563638898 ], [ 836.973171946351954, 178.702413181551492 ], [ 838.327713924548448, 174.977422744258888 ], [ 838.327713925298099, 162.335030967078808 ] ] ] } },
{ "type": "Feature", "properties": { "feature_type": "building", "subtype": "minor-damage", "uid": "0573a504-f54f-4da1-8ba6-f5c5aefc833b" }, "geometry": { "type": "Polygon", "coordinates": [ [ [ 874.870183218521674, 143.747527712340087 ], [ 887.964088992095981, 143.408892220039803 ], [ 889.205752470943366, 195.89739380045441 ], [ 875.998968204016819, 196.010272303551602 ], [ 874.870183218521674, 143.747527712340087 ] ] ] } },
{ "type": "Feature", "properties": { "feature_type": "building", "subtype": "no-damage", "uid": "3715d7cd-3c99-4a7c-92c7-9a17a1cdfa1d" }, "geometry": { "type": "Polygon", "coordinates": [ [ [ 940.610837087000846, 141.361409227451986 ], [ 954.008858450059279, 141.217344479331587 ], [ 954.152923195181302, 148.852776011776314 ], [ 962.2205489639897, 148.420581774411403 ], [ 962.364613707862304, 155.479754319371693 ], [ 955.593570656645625, 155.767883812614201 ], [ 956.025764893760652, 195.817883156426404 ], [ 939.170189626536057, 195.241624171940487 ], [ 938.305801156303914, 141.793603462818112 ], [ 940.610837087000846, 141.361409227451986 ] ] ] } },
{ "type": "Feature", "properties": { "feature_type": "building", "subtype": "minor-damage", "uid": "2bcf36ef-eab5-484a-bc93-2824de7cc897" }, "geometry": { "type": "Polygon", "coordinates": [ [ [ 460.356271794632391, 179.522947325492595 ], [ 513.634718116812451, 180.594640210870296 ], [ 513.328520147634208, 200.038211139003408 ], [ 456.834995172820072, 196.210736548511704 ], [ 460.356271794632391, 179.522947325492595 ] ] ] } },
{ "type": "Feature", "properties": { "feature_type": "building", "subtype": "minor-damage", "uid": "5f265c11-58a3-43e3-b0e7-cd3f6c30463b" }, "geometry": { "type": "Polygon", "coordinates": [ [ [ 460.20356027615378, 147.453856546394292 ], [ 470.154994213728685, 146.688361629695208 ], [ 470.76739014883691, 141.329897199808613 ], [ 483.627704780362023, 141.176798216468796 ], [ 484.087001728882228, 149.750341302488295 ], [ 497.559712293016787, 150.668935202527194 ], [ 497.406613309677084, 161.232765077961091 ], [ 496.947316359157981, 164.600942717433895 ], [ 461.122154178691176, 164.907140687111905 ], [ 460.20356027615378, 147.453856546394292 ] ] ] } },
{ "type": "Feature", "properties": { "feature_type": "building", "subtype": "no-damage", "uid": "40ec77a7-75ff-4094-a037-6bdf6d97aec3" }, "geometry": { "type": "Polygon", "coordinates": [ [ [ 270.420808932182183, 193.906897786461599 ], [ 291.568445352772187, 194.000887282249408 ], [ 290.25259241673939, 208.475269542632503 ], [ 269.668892970876584, 207.441385094962499 ], [ 270.420808932182183, 193.906897786461599 ] ] ] } },
{ "type": "Feature", "properties": { "feature_type": "building", "subtype": "no-damage", "uid": "6211e0e3-90a2-4711-89e6-5e76dadfac34" }, "geometry": { "type": "Polygon", "coordinates": [ [ [ 356.079892115392511, 212.486430275800814 ], [ 383.430101740851512, 211.646730857034498 ], [ 385.349414697602583, 228.200805105144411 ], [ 357.999205069145319, 229.400375703239007 ], [ 354.160579155642779, 222.322909173780687 ], [ 356.079892115392511, 212.486430275800814 ] ] ] } },
{ "type": "Feature", "properties": { "feature_type": "building", "subtype": "major-damage", "uid": "3c80e85f-f7b9-4705-96a0-cbcfb32a4f68" }, "geometry": { "type": "Polygon", "coordinates": [ [ [ 363.111064584255473, 282.700626655909389 ], [ 384.540669485962496, 282.888605644486688 ], [ 384.728648477288289, 298.772830333692411 ], [ 361.231274679742228, 298.678840838903909 ], [ 363.111064584255473, 282.700626655909389 ] ] ] } },
{ "type": "Feature", "properties": { "feature_type": "building", "subtype": "minor-damage", "uid": "21de0294-7270-481a-a573-e553c0016013" }, "geometry": { "type": "Polygon", "coordinates": [ [ [ 360.677109283613902, 314.57835897784588 ], [ 372.073029959514201, 314.818273095066104 ], [ 372.073029959014491, 312.179217782655996 ], [ 380.829895322255425, 311.699389541219318 ], [ 386.947705371337577, 318.17707077212998 ], [ 383.828821816491995, 320.936083144649388 ], [ 360.317238102286581, 321.775782564415181 ], [ 360.677109283613902, 314.57835897784588 ] ] ] } },
{ "type": "Feature", "properties": { "feature_type": "building", "subtype": "no-damage", "uid": "adc19d26-b849-497d-8638-39030cb7cb5f" }, "geometry": { "type": "Polygon", "coordinates": [ [ [ 332.849324898678276, 383.497533065781511 ], [ 340.046748484746217, 383.257618943563898 ], [ 340.886447901513293, 381.458263049919992 ], [ 388.269486511501327, 380.858477751372391 ], [ 388.269486513500226, 395.373281982621279 ], [ 333.08923901689792, 395.493239043730114 ], [ 332.849324898678276, 383.497533065781511 ] ] ] } },
{ "type": "Feature", "properties": { "feature_type": "building", "subtype": "no-damage", "uid": "aa7f0c5d-f985-4dce-a7f5-c3f4ceb37338" }, "geometry": { "type": "Polygon", "coordinates": [ [ [ 363.794190870863815, 414.895434359738715 ], [ 387.797971932383689, 414.953135757702 ], [ 388.548090092414725, 423.781449464195077 ], [ 363.044072712082311, 423.262136893518914 ], [ 363.794190870863815, 414.895434359738715 ] ] ] } },
{ "type": "Feature", "properties": { "feature_type": "building", "subtype": "no-damage", "uid": "5886e91f-4af0-410a-9636-57ef6e27dea5" }, "geometry": { "type": "Polygon", "coordinates": [ [ [ 365.871441151069519, 426.897324891250776 ], [ 383.643471363976516, 426.608817906431284 ], [ 383.931978347046879, 433.186777140327308 ], [ 365.756038359640513, 433.87919390389419 ], [ 365.871441151069519, 426.897324891250776 ] ] ] } },
{ "type": "Feature", "properties": { "feature_type": "building", "subtype": "no-damage", "uid": "675d60f4-b395-4161-bbf7-29df2521203e" }, "geometry": { "type": "Polygon", "coordinates": [ [ [ 362.210253086265425, 443.196932135099985 ], [ 366.345790872446685, 443.572890115253074 ], [ 367.285685826827319, 441.129163239760089 ], [ 375.274792917073398, 440.471236775241721 ], [ 375.274792916823628, 442.914963648735807 ], [ 382.417994551225604, 442.820974152947883 ], [ 382.41799455097572, 448.836301844393404 ], [ 362.586211065169209, 449.024280836968728 ], [ 362.210253086265425, 443.196932135099985 ] ] ] } },
{ "type": "Feature", "properties": { "feature_type": "building", "subtype": "no-damage", "uid": "5b30e60c-0315-4e90-acbe-0b05427bd299" }, "geometry": { "type": "Polygon", "coordinates": [ [ [ 364.649494678499423, 489.907253955966212 ], [ 363.544846244170287, 489.759967500754215 ], [ 363.176630100643308, 481.070066492325907 ], [ 369.878163925228421, 480.849136808508376 ], [ 370.172736840899574, 477.903407655294188 ], [ 378.273492014985209, 478.41891025553258 ], [ 378.494421700551698, 480.112704519455178 ], [ 387.33160916468978, 480.039061287851382 ], [ 386.816106560953415, 488.581675838069316 ], [ 364.649494678499423, 489.907253955966212 ] ] ] } },
{ "type": "Feature", "properties": { "feature_type": "building", "subtype": "no-damage", "uid": "b52922d2-a4f7-4263-9016-71878bcde20c" }, "geometry": { "type": "Polygon", "coordinates": [ [ [ 362.992333890773409, 510.096037984908776 ], [ 380.850337979527126, 510.09603798590831 ], [ 381.038316966105413, 515.359449717047482 ], [ 376.902779178924675, 515.641418202412183 ], [ 376.80878968463611, 518.273124066482637 ], [ 362.61637591037038, 518.46110305805837 ], [ 362.992333890773409, 510.096037984908776 ] ] ] } },
{ "type": "Feature", "properties": { "feature_type": "building", "subtype": "no-damage", "uid": "15dcfd27-16de-4d73-84e8-7311ddde5c64" }, "geometry": { "type": "Polygon", "coordinates": [ [ [ 305.928799963292875, 388.156734847404721 ], [ 319.582387338845706, 387.614208196372772 ], [ 319.763229556605893, 397.198845690938981 ], [ 305.386273313510515, 397.108424581933889 ], [ 305.928799963292875, 388.156734847404721 ] ] ] } },
{ "type": "Feature", "properties": { "feature_type": "building", "subtype": "major-damage", "uid": "bca7f783-e2a8-4739-87ab-bfd34ed7d6a5" }, "geometry": { "type": "Polygon", "coordinates": [ [ [ 282.154550307758086, 383.467631963646227 ], [ 294.600255988555602, 383.467631961647328 ], [ 294.526612755452504, 388.475371525809408 ], [ 299.53435231886391, 388.843587668836676 ], [ 299.239779403442583, 396.428840241186606 ], [ 278.987891468978091, 395.986980867554792 ], [ 278.619675323701983, 388.990874129046119 ], [ 281.859977394835482, 388.622657985019202 ], [ 282.154550307758086, 383.467631963646227 ] ] ] } },
{ "type": "Feature", "properties": { "feature_type": "building", "subtype": "no-damage", "uid": "2c4903e5-7c55-4eb2-b5ec-d6b099fb2509" }, "geometry": { "type": "Polygon", "coordinates": [ [ [ 269.409736505389617, 422.372967615807681 ], [ 289.514337985141879, 421.04738949891032 ], [ 289.735267670708424, 432.830306113765687 ], [ 269.851595878771377, 432.756662881162413 ], [ 269.409736505389617, 422.372967615807681 ] ] ] } },
{ "type": "Feature", "properties": { "feature_type": "building", "subtype": "no-damage", "uid": "83ef740c-287b-4380-a2cd-844e76ed8fb9" }, "geometry": { "type": "Polygon", "coordinates": [ [ [ 274.391746925538712, 454.302142597941327 ], [ 275.237652379883627, 448.662772887648373 ], [ 276.365526320842378, 448.756762383436296 ], [ 276.647494807206613, 445.185161566484283 ], [ 281.628938051980526, 444.903193079120683 ], [ 281.816917041307477, 447.910856926342717 ], [ 283.978675431435306, 448.286814906495806 ], [ 284.448622909375217, 444.903193079120683 ], [ 291.685814035317321, 444.903193079120683 ], [ 296.761246776128985, 446.87697247967219 ], [ 296.479278291264109, 454.396132092729715 ], [ 274.391746925538712, 454.302142597941327 ] ] ] } },
{ "type": "Feature", "properties": { "feature_type": "building", "subtype": "no-damage", "uid": "7c2d70a7-0da6-44ba-b6e0-4b86ceee4858" }, "geometry": { "type": "Polygon", "coordinates": [ [ [ 270.881998124834581, 511.489980012422279 ], [ 295.353238316416082, 511.130108831094901 ], [ 295.353238317415617, 523.605643048481284 ], [ 273.161182258165695, 524.685256584467652 ], [ 271.241869305162481, 524.685256583468231 ], [ 270.881998124834581, 511.489980012422279 ] ] ] } },
{ "type": "Feature", "properties": { "feature_type": "building", "subtype": "no-damage", "uid": "8c3505f9-7dcd-4c2f-a355-faca33145790" }, "geometry": { "type": "Polygon", "coordinates": [ [ [ 351.282990770495928, 159.72128538502821 ], [ 377.075448908533588, 159.525887975182997 ], [ 377.075448906034978, 166.755592148449892 ], [ 349.719811492484382, 168.904963658745913 ], [ 351.282990770495928, 159.72128538502821 ] ] ] } },
{ "type": "Feature", "properties": { "feature_type": "building", "subtype": "major-damage", "uid": "908f5d95-981c-4629-a72d-ad4a668c2930" }, "geometry": { "type": "Polygon", "coordinates": [ [ [ 275.83539494825078, 261.112681666883077 ], [ 288.428387084510121, 261.112681666883077 ], [ 288.870246456892517, 268.329718092207827 ], [ 293.804342788200188, 268.697934236234573 ], [ 293.657056334237609, 275.178538375504615 ], [ 275.540822034078815, 276.209543576980593 ], [ 275.83539494825078, 261.112681666883077 ] ] ] } },
{ "type": "Feature", "properties": { "feature_type": "building", "subtype": "no-damage", "uid": "fedfaac4-70fe-4c1f-8124-a699e2dfb43f" }, "geometry": { "type": "Polygon", "coordinates": [ [ [ 273.385432454150873, 291.544881960166379 ], [ 292.653278965979894, 290.229029028131208 ], [ 292.841257956556092, 298.688083597068726 ], [ 289.457636129681475, 301.319789462138488 ], [ 280.904592067706574, 301.131810469563277 ], [ 279.400760145595086, 299.064041575222916 ], [ 273.76139043255489, 299.064041575222916 ], [ 273.385432454150873, 291.544881960166379 ] ] ] } },
{ "type": "Feature", "properties": { "feature_type": "building", "subtype": "destroyed", "uid": "19d66f65-b52f-4cd2-8a78-34a31cd5cda9" }, "geometry": { "type": "Polygon", "coordinates": [ [ [ 277.981562219069417, 320.653209710560475 ], [ 296.171439745334908, 319.990420654110721 ], [ 295.361364226427099, 328.533035196332776 ], [ 276.435054415356376, 328.091175824699917 ], [ 277.318773157622275, 320.358636793140079 ], [ 277.981562219069417, 320.653209710560475 ] ] ] } },
{ "type": "Feature", "properties": { "feature_type": "building", "subtype": "destroyed", "uid": "4439fbef-412e-4dbb-9f5d-fa627b53b5fd" }, "geometry": { "type": "Polygon", "coordinates": [ [ [ 261.894546128228001, 345.756093994734385 ], [ 274.771106967960009, 346.22604147267441 ], [ 274.583127980881898, 355.437011998919672 ], [ 282.854203554743606, 355.061054019766118 ], [ 283.324151030684618, 358.632654833719585 ], [ 287.36569932307691, 359.478560287814787 ], [ 286.895751849134911, 365.493887985257174 ], [ 262.176514613342817, 365.86984596541032 ], [ 261.894546128228001, 345.756093994734385 ] ] ] } },
{ "type": "Feature", "properties": { "feature_type": "building", "subtype": "destroyed", "uid": "25dc7c37-ec1d-40dc-a699-b06dad05aaf3" }, "geometry": { "type": "Polygon", "coordinates": [ [ [ 363.596614233974378, 347.456936565489627 ], [ 385.308187623044887, 348.02087353721862 ], [ 382.958450240841614, 359.299612959803312 ], [ 362.750708777130797, 359.299612959803312 ], [ 363.596614233974378, 347.456936565489627 ] ] ] } },
{ "type": "Feature", "properties": { "feature_type": "building", "subtype": "no-damage", "uid": "7be1561d-b573-4c2f-a88c-94c15664f994" }, "geometry": { "type": "Polygon", "coordinates": [ [ [ 360.923790217132307, 246.49433905478179 ], [ 379.157263301521311, 246.374381992673506 ], [ 383.475717451962623, 251.532535564380794 ], [ 376.398250926503692, 257.650345612964713 ], [ 360.443961975695686, 257.050560314416998 ], [ 360.923790217132307, 246.49433905478179 ] ] ] } },
{ "type": "Feature", "properties": { "feature_type": "building", "subtype": "no-damage", "uid": "21575133-0d21-4d28-a1fa-fc218f85bb51" }, "geometry": { "type": "Polygon", "coordinates": [ [ [ 57.82356841241004, 40.039893413074857 ], [ 111.255113717430206, 40.652289348433072 ], [ 110.6427177835713, 59.330365358867653 ], [ 91.046047869604024, 58.105573487151773 ], [ 89.821256003385528, 58.717969423509437 ], [ 87.065474294274225, 65.301225721114037 ], [ 57.36427145964214, 62.545444014001077 ], [ 57.82356841241004, 40.039893413074857 ] ] ] } },
{ "type": "Feature", "properties": { "feature_type": "building", "subtype": "no-damage", "uid": "8f0a1d8f-a323-42d5-9723-e286a0f0a14c" }, "geometry": { "type": "Polygon", "coordinates": [ [ [ 266.558891006581291, 488.536643587316291 ], [ 286.613366885332823, 487.750193553854785 ], [ 287.006591900564217, 494.041793827543927 ], [ 267.73856605702332, 495.614693896466008 ], [ 266.558891006581291, 488.536643587316291 ] ] ] } },
{ "type": "Feature", "properties": { "feature_type": "building", "subtype": "no-damage", "uid": "2302583f-3359-4e42-9d40-771bcbcdc837" }, "geometry": { "type": "Polygon", "coordinates": [ [ [ 629.64292873526017, 0.006493307089802 ], [ 630.794190398762225, 14.5146904947315 ], [ 622.841562245534305, 14.51469049573098 ], [ 622.841562241536394, 21.33122891699708 ], [ 592.735184219448456, 21.89927378535263 ], [ 588.921331623092215, 0.006661733005367 ], [ 629.64292873526017, 0.006493307089802 ] ] ] } },
{ "type": "Feature", "properties": { "feature_type": "building", "subtype": "no-damage", "uid": "9839cc15-9e8f-42a3-853e-0ae809c8aeda" }, "geometry": { "type": "Polygon", "coordinates": [ [ [ 531.174926247476378, 23.157570103704259 ], [ 531.450832711194948, 29.503418755238769 ], [ 514.620538463845037, 29.503418754239291 ], [ 514.344632001375885, 23.157570104703741 ], [ 531.174926247476378, 23.157570103704259 ] ] ] } },
{ "type": "Feature", "properties": { "feature_type": "building", "subtype": "no-damage", "uid": "5816617e-9cf6-4690-906a-51b91d8cdadd" }, "geometry": { "type": "Polygon", "coordinates": [ [ [ 523.992881307838161, 0.006784596749321 ], [ 524.796212333023277, 10.747933645697129 ], [ 476.297959497969316, 10.747933645697129 ], [ 475.762404247741017, 0.006759957635238 ], [ 523.992881307838161, 0.006784596749321 ] ] ] } }
]
}
