{
"type": "FeatureCollection",
"name": "hurricane-michael_00000209_post_disaster",
"features": [
{ "type": "Feature", "properties": { "feature_type": "building", "subtype": "minor-damage", "uid": "cf7d0cba-84f3-438e-aa2c-e7664e37462e" }, "geometry": { "type": "Polygon", "coordinates": [ [ [ 183.386080942513587, 687.057809031328588 ], [ 219.542993116551713, 685.688229022814539 ], [ 218.447329110240503, 742.388841290338519 ], [ 182.564332943152408, 742.662757291041771 ], [ 183.386080942513587, 687.057809031328588 ] ] ] } },
{ "type": "Feature", "properties": { "feature_type": "building", "subtype": "major-damage", "uid": "fe2805fb-f4f0-4273-b60d-9f57aa42e591" }, "geometry": { "type": "Polygon", "coordinates": [ [ [ 213.242925087883208, 684.044733015596194 ], [ 195.986217001599698, 683.770817014892828 ], [ 195.986217002099409, 682.127321009673437 ], [ 186.12524095679251, 681.305573003565542 ], [ 186.125240957542104, 663.774948920572797 ], [ 195.164469000239507, 664.322780923978371 ], [ 195.164469002488289, 660.48795690413715 ], [ 214.612505090899788, 661.30970490824609 ], [ 213.242925087883208, 684.044733015596194 ] ] ] } },
{ "type": "Feature", "properties": { "feature_type": "building", "subtype": "minor-damage", "uid": "1e345b3e-d0ea-4502-84ce-a31bfc7e3f4c" }, "geometry": { "type": "Polygon", "coordinates": [ [ [ 119.130744137662106, 661.293027436334228 ], [ 148.893774973350901, 659.05761423965555 ], [ 147.799991947063006, 699.076506811880904 ], [ 120.408391820516201, 699.350422811584735 ], [ 119.130744137662106, 661.293027436334228 ] ] ] } },
{ "type": "Feature", "properties": { "feature_type": "building", "subtype": "no-damage", "uid": "4e9dc225-e7e8-4d7d-95d6-3fe6da846535" }, "geometry": { "type": "Polygon", "coordinates": [ [ [ 120.956223821672907, 707.841818851378321 ], [ 119.312727813705294, 708.38965085578343 ], [ 120.956223821422995, 702.911330828723749 ], [ 149.16957195682599, 702.637414826021541 ], [ 148.895655954373694, 708.937482858189583 ], [ 148.347823952217595, 716.059298888469698 ], [ 120.408391819516794, 716.059298890468654 ], [ 120.956223821672907, 707.841818851378321 ] ] ] } },
{ "type": "Feature", "properties": { "feature_type": "building", "subtype": "no-damage", "uid": "525e5c6f-6359-4ee2-ae9e-d3b1a2a6294b" }, "geometry": { "type": "Polygon", "coordinates": [ [ [ 11.31712649916976, 0.00148126331968 ], [ 73.045186253370019, 63.562963609263463 ], [ 40.925772534983139, 91.667450613545341 ], [ 0.076342084640909, 52.067190398361546 ], [ 0.076278414189679, 0.824140528851425 ], [ 11.29549393620233, 0.001480804559605 ], [ 11.31712649916976, 0.00148126331968 ] ] ] } },
{ "type": "Feature", "properties": { "feature_type": "building", "subtype": "no-damage", "uid": "aaac8c65-b225-4f2d-900b-1601e25a0a40" }, "geometry": { "type": "Polygon", "coordinates": [ [ [ 433.385457005147373, 0.006676800125471 ], [ 435.392322266998576, 22.409964784991772 ], [ 314.442654983096702, 24.41742814129821 ], [ 310.428705788256423, 0.005944984854781 ], [ 433.385457005147373, 0.006676800125471 ] ] ] } },
{ "type": "Feature", "properties": { "feature_type": "building", "subtype": "no-damage", "uid": "f33d3e1f-fe57-4b56-8dc1-8c5c9f70faa9" }, "geometry": { "type": "Polygon", "coordinates": [ [ [ 666.250994331269567, 0.006301524389513 ], [ 667.254340048524796, 16.387574710075569 ], [ 606.528573488035136, 15.885708873997389 ], [ 607.030230325916364, 0.006615546160451 ], [ 666.250994331269567, 0.006301524389513 ] ] ] } },
{ "type": "Feature", "properties": { "feature_type": "building", "subtype": "no-damage", "uid": "2e385b2a-03e8-4f9b-a6f8-eb5d79349cfc" }, "geometry": { "type": "Polygon", "coordinates": [ [ [ 330.000496001964279, 34.454744929826781 ], [ 473.53412605830141, 32.447281566523998 ], [ 474.035991896878215, 55.031244341962633 ], [ 501.136747222501128, 55.533110183038197 ], [ 502.140478901153813, 32.447281568522953 ], [ 626.101341219514666, 32.949147409598517 ], [ 627.105072900416189, 71.592817038487155 ], [ 620.580816991922006, 74.102146236868634 ], [ 620.5808169891734, 88.154389741008529 ], [ 501.638613062077297, 89.65998725823836 ], [ 500.133015543848273, 65.068561129491727 ], [ 473.032260219224895, 65.570426967568849 ], [ 472.530394381147914, 89.158121417162803 ], [ 329.498630163887299, 91.667450614544819 ], [ 323.476240092470618, 64.566695288416156 ], [ 330.000496001964279, 34.454744929826781 ] ] ] } },
{ "type": "Feature", "properties": { "feature_type": "building", "subtype": "major-damage", "uid": "97284ece-3380-4f30-84f8-d78c98baf932" }, "geometry": { "type": "Polygon", "coordinates": [ [ [ 403.49162093654428, 875.074512787162803 ], [ 430.592376261667482, 864.033464320481016 ], [ 441.63342473034578, 893.643548843991653 ], [ 412.023340205592376, 904.18273146859849 ], [ 403.49162093654428, 875.074512787162803 ] ] ] } },
{ "type": "Feature", "properties": { "feature_type": "building", "subtype": "destroyed", "uid": "f9f0710b-340c-443e-83f5-ca00d42e6afa" }, "geometry": { "type": "Polygon", "coordinates": [ [ [ 478.771496837998484, 887.62115877107442 ], [ 490.816276984080218, 882.100634540232249 ], [ 506.875983842524022, 920.744304172119314 ], [ 494.831203697441822, 926.264828401962063 ], [ 478.771496837998484, 887.62115877107442 ] ] ] } },
{ "type": "Feature", "properties": { "feature_type": "building", "subtype": "minor-damage", "uid": "7aafe348-38ea-4b03-8d65-228ac18ced8e" }, "geometry": { "type": "Polygon", "coordinates": [ [ [ 101.870251484654801, 778.71627163447954 ], [ 140.012055274958101, 777.71253995232837 ], [ 137.000860240249295, 825.891660529669593 ], [ 101.3683856455783, 827.3972580498978 ], [ 101.870251484654801, 778.71627163447954 ] ] ] } },
{ "type": "Feature", "properties": { "feature_type": "building", "subtype": "minor-damage", "uid": "1542e323-cfc8-4efa-89e5-9002c599c4f7" }, "geometry": { "type": "Polygon", "coordinates": [ [ [ 333.230403429853084, 770.184552363180842 ], [ 355.8143661965413, 759.645369737574583 ], [ 352.803171160333193, 754.124845502734502 ], [ 373.881536415538903, 744.08752871720435 ], [ 400.982291739912512, 799.794636885692057 ], [ 356.316232040365321, 820.371136297827888 ], [ 333.230403429853084, 770.184552363180842 ] ] ] } },
{ "type": "Feature", "properties": { "feature_type": "building", "subtype": "minor-damage", "uid": "7ee82dc1-e3b4-45f8-b0ca-e5b81693070a" }, "geometry": { "type": "Polygon", "coordinates": [ [ [ 0.076318044463591, 996.039460945904352 ], [ 7.519473685800159, 997.529777588821048 ], [ 8.523205365702244, 1015.095081966496991 ], [ 0.07629394631659, 1015.276734407771983 ], [ 0.076318044463591, 996.039460945904352 ] ] ] } },
{ "type": "Feature", "properties": { "feature_type": "building", "subtype": "no-damage", "uid": "fa750c89-b204-442e-b77b-ce6080ebe5ed" }, "geometry": { "type": "Polygon", "coordinates": [ [ [ 11.032534565332529, 850.483086658416141 ], [ 24.081046384819711, 849.479354981262418 ], [ 24.582912224395951, 901.171536434138829 ], [ 12.03626623898788, 901.673402275214357 ], [ 11.032534565332529, 850.483086658416141 ] ] ] } },
{ "type": "Feature", "properties": { "feature_type": "building", "subtype": "no-damage", "uid": "b1842b0b-5cc2-4a07-aa6e-b224d52197a8" }, "geometry": { "type": "Polygon", "coordinates": [ [ [ 4.006412810015831, 701.428932371704946 ], [ 33.114631493194103, 701.930798209782097 ], [ 33.114631496442414, 715.983041711922965 ], [ 4.006412809266224, 715.983041713921921 ], [ 4.006412810015831, 701.428932371704946 ] ] ] } },
{ "type": "Feature", "properties": { "feature_type": "building", "subtype": "no-damage", "uid": "11078de4-cb0f-4446-a75c-ae6933d4a50b" }, "geometry": { "type": "Polygon", "coordinates": [ [ [ 825.065869866882849, 0.004723366744231 ], [ 826.284527762083712, 18.109547729896931 ], [ 809.223406115285457, 16.89089618387526 ], [ 808.763425281927653, 0.004934749194121 ], [ 825.065869866882849, 0.004723366744231 ] ] ] } },
{ "type": "Feature", "properties": { "feature_type": "building", "subtype": "no-damage", "uid": "84974fa3-09d5-432d-86ed-4e950ba85551" }, "geometry": { "type": "Polygon", "coordinates": [ [ [ 829.391226695568548, 26.39067719421422 ], [ 839.76017669274313, 25.87222969311852 ], [ 841.31551919203207, 39.870312190719062 ], [ 830.946569193857954, 38.31496969142988 ], [ 829.391226695568548, 26.39067719421422 ] ] ] } },
{ "type": "Feature", "properties": { "feature_type": "building", "subtype": "no-damage", "uid": "0d77363a-9c7e-41cc-80a8-0eb16076c483" }, "geometry": { "type": "Polygon", "coordinates": [ [ [ 202.925344655633495, 798.32601067297901 ], [ 238.698222143524589, 799.881353172268177 ], [ 238.69822214452401, 782.25413817799199 ], [ 254.770094639007709, 783.291033180183376 ], [ 254.251647138661809, 828.914413163663767 ], [ 204.480687152923394, 831.506650663145365 ], [ 202.925344655633495, 798.32601067297901 ] ] ] } },
{ "type": "Feature", "properties": { "feature_type": "building", "subtype": "major-damage", "uid": "626ff0d3-7744-4267-8d31-c8ea810cca25" }, "geometry": { "type": "Polygon", "coordinates": [ [ [ 379.448870768580491, 907.746101651058893 ], [ 408.290290695334818, 909.370970379087794 ], [ 407.477856331070711, 915.464228108196721 ], [ 432.663321618761188, 916.682879653218833 ], [ 447.363811455491884, 917.698875813217001 ], [ 447.210712469153691, 909.890827645895456 ], [ 464.051600675259124, 910.809421549932267 ], [ 463.942044637308413, 918.713965564254408 ], [ 464.348261821564279, 932.525349754498961 ], [ 407.884073513327621, 930.900481027469596 ], [ 409.508942241106297, 934.556435663535694 ], [ 378.230219221309824, 934.150218483527397 ], [ 376.199133310774414, 921.963703019312788 ], [ 379.448870768580491, 907.746101651058893 ] ] ] } },
{ "type": "Feature", "properties": { "feature_type": "building", "subtype": "minor-damage", "uid": "3722bbb6-6997-4163-8316-b3c151cfdb32" }, "geometry": { "type": "Polygon", "coordinates": [ [ [ 103.011316705755803, 977.850491592422941 ], [ 146.615922130023506, 973.712828307347422 ], [ 149.162176460568787, 996.310835495751462 ], [ 104.921007451540902, 1001.085062367836031 ], [ 103.011316705755803, 977.850491592422941 ] ] ] } }
]
}
