{
"type": "FeatureCollection",
"name": "hurricane-michael_00000027_post_disaster",
"features": [
{ "type": "Feature", "properties": { "feature_type": "building", "subtype": "no-damage", "uid": "8a079833-fc72-4519-ae2c-90f3269a122b" }, "geometry": { "type": "Polygon", "coordinates": [ [ [ 783.82828137788988, 204.970244772915208 ], [ 807.391045437778075, 191.804477408717787 ], [ 816.391045434320517, 209.804477406294012 ], [ 792.129783034101592, 221.161234849749803 ], [ 783.82828137788988, 204.970244772915208 ] ] ] } },
{ "type": "Feature", "properties": { "feature_type": "building", "subtype": "no-damage", "uid": "d10875ef-b5d2-4821-9672-a12a4f261186" }, "geometry": { "type": "Polygon", "coordinates": [ [ [ 726.218025803083151, 159.3112065989136 ], [ 704.218025801294175, 170.311206594934703 ], [ 699.235462381467528, 162.882649039057611 ], [ 697.218025802734473, 157.311206593188302 ], [ 715.218025799066481, 148.311206596897989 ], [ 720.218025798144708, 156.311206597818909 ], [ 723.218025801238355, 154.311206596089988 ], [ 726.218025803083151, 159.3112065989136 ] ] ] } },
{ "type": "Feature", "properties": { "feature_type": "building", "subtype": "no-damage", "uid": "d7de491d-2853-49e5-9e2b-700f75cf720f" }, "geometry": { "type": "Polygon", "coordinates": [ [ [ 725.898903285173105, 189.3191225688918 ], [ 738.898903288421479, 202.319122567640903 ], [ 741.898903286519612, 199.319122565547104 ], [ 746.898903287596113, 203.31912256800581 ], [ 734.851996639095205, 218.830182742005206 ], [ 729.89890328413594, 221.319122568579303 ], [ 711.898903283557729, 204.319122568370688 ], [ 725.898903285173105, 189.3191225688918 ] ] ] } },
{ "type": "Feature", "properties": { "feature_type": "building", "subtype": "no-damage", "uid": "f52e494d-26fa-406d-a3d8-9b062c8fdcc0" }, "geometry": { "type": "Polygon", "coordinates": [ [ [ 766.195522786691299, 217.195522699562105 ], [ 747.100499546348829, 235.6089547614325 ], [ 735.100499545463776, 225.608954761779898 ], [ 752.586568079286849, 205.854727110560788 ], [ 766.195522786691299, 217.195522699562105 ] ] ] } },
{ "type": "Feature", "properties": { "feature_type": "building", "subtype": "major-damage", "uid": "702ab55f-b2bd-4e81-a744-49d3d845d566" }, "geometry": { "type": "Polygon", "coordinates": [ [ [ 769.758364785075969, 449.689591212533628 ], [ 763.245303909838412, 429.161603626767373 ], [ 767.758364786094035, 427.656006107565588 ], [ 761.758364785152025, 407.689591217190014 ], [ 795.758364788575363, 400.689591215634778 ], [ 804.758364785367689, 442.689591214974826 ], [ 769.758364785075969, 449.689591212533628 ] ] ] } },
{ "type": "Feature", "properties": { "feature_type": "building", "subtype": "no-damage", "uid": "f59df108-e4cd-4d15-a8b9-78fc3b2d78b7" }, "geometry": { "type": "Polygon", "coordinates": [ [ [ 889.897842238570888, 175.654653656250701 ], [ 862.954815334699788, 188.472778494067711 ], [ 856.954815335006629, 175.472778494319613 ], [ 874.95481533608438, 166.472778495031889 ], [ 879.46616294561602, 173.109184866104499 ], [ 883.466162945328279, 171.393266873466501 ], [ 886.851773487660239, 170.179699195782803 ], [ 889.897842238570888, 175.654653656250701 ] ] ] } },
{ "type": "Feature", "properties": { "feature_type": "building", "subtype": "no-damage", "uid": "ead5ea59-b47b-4db8-be7f-3eac390bd484" }, "geometry": { "type": "Polygon", "coordinates": [ [ [ 734.942379517364088, 8.94237943034808 ], [ 748.867858826610018, 32.960406666046097 ], [ 716.980845739538495, 50.718817347584448 ], [ 702.592626780041314, 26.533721486219729 ], [ 716.942379516036567, 18.94237942800244 ], [ 734.942379517364088, 8.94237943034808 ] ] ] } },
{ "type": "Feature", "properties": { "feature_type": "building", "subtype": "minor-damage", "uid": "4a1f464c-966c-43b2-878a-a36bec048941" }, "geometry": { "type": "Polygon", "coordinates": [ [ [ 874.816211906577792, 153.722896014910191 ], [ 864.750193423969563, 162.05495382330659 ], [ 853.498008723959288, 164.438814009833209 ], [ 846.498008721153383, 151.137312357793689 ], [ 864.442752931833411, 141.383558221283607 ], [ 869.157110316095213, 148.791138375776512 ], [ 872.100293912575012, 148.643384393692202 ], [ 874.816211906577792, 153.722896014910191 ] ] ] } },
{ "type": "Feature", "properties": { "feature_type": "building", "subtype": "destroyed", "uid": "7f2dc931-655c-4cbe-8ed5-e39b65932ed8" }, "geometry": { "type": "Polygon", "coordinates": [ [ [ 988.498793629407032, 40.308806063748833 ], [ 973.498793633670857, 9.308806063427145 ], [ 986.498793631174408, 3.308806065234172 ], [ 996.471119256467205, 23.698516032603251 ], [ 1001.498793630657019, 34.308806065555864 ], [ 988.498793629407032, 40.308806063748833 ] ] ] } },
{ "type": "Feature", "properties": { "feature_type": "building", "subtype": "no-damage", "uid": "d5062773-742b-4d63-8b49-6a153e8e22e3" }, "geometry": { "type": "Polygon", "coordinates": [ [ [ 723.780185570275307, 166.492491783860601 ], [ 727.780185566490672, 174.492491784781606 ], [ 730.780185568335469, 172.492491784051794 ], [ 734.24899333376311, 175.564695422895397 ], [ 735.890697144462592, 179.452252533262993 ], [ 729.726468525913333, 182.800735114853694 ], [ 720.679880165869463, 188.236039745016399 ], [ 711.780185566392902, 190.492491785624395 ], [ 709.423428126720182, 192.658259149804394 ], [ 707.026431433954031, 189.452252535912891 ], [ 704.875680605079879, 187.000000052250186 ], [ 702.217421508869506, 184.547747572583887 ], [ 703.780185566718842, 181.492491786336814 ], [ 703.780185565719648, 179.492491782609591 ], [ 703.780185567717922, 177.492491786875405 ], [ 704.78018556633458, 176.492491781515014 ], [ 703.780185567468152, 176.492491780515792 ], [ 723.780185570275307, 166.492491783860601 ] ] ] } },
{ "type": "Feature", "properties": { "feature_type": "building", "subtype": "minor-damage", "uid": "5f1af9bf-994b-4c99-87a6-8ec0bef272cf" }, "geometry": { "type": "Polygon", "coordinates": [ [ [ 833.953532376207932, 434.758364700101993 ], [ 823.953532375303894, 404.758364697148011 ], [ 853.953532376267617, 394.758364696496187 ], [ 863.953532378920045, 424.75836469745218 ], [ 833.953532376207932, 434.758364700101993 ] ] ] } },
{ "type": "Feature", "properties": { "feature_type": "building", "subtype": "minor-damage", "uid": "5c894060-aed8-45a1-a68e-899d98720e93" }, "geometry": { "type": "Polygon", "coordinates": [ [ [ 866.438883390682122, 135.080060476141909 ], [ 860.158827852448098, 138.858910139142012 ], [ 855.680472710696108, 141.025978768535907 ], [ 849.736966166440766, 144.581266348433189 ], [ 846.441295136015128, 139.100499459176291 ], [ 845.441295136149506, 139.100499459176291 ], [ 834.44129513862697, 120.100499457238797 ], [ 850.441295137226007, 111.100499458950196 ], [ 866.438883390682122, 135.080060476141909 ] ] ] } },
{ "type": "Feature", "properties": { "feature_type": "building", "subtype": "destroyed", "uid": "d3f06973-b945-49da-aba4-354f6e5f5ecc" }, "geometry": { "type": "Polygon", "coordinates": [ [ [ 608.785589022808495, 0.006639623444994 ], [ 614.828661494747166, 17.28146556236079 ], [ 582.624041008312247, 25.504690148263339 ], [ 571.879188645522049, 0.006762277372461 ], [ 608.785589022808495, 0.006639623444994 ] ] ] } },
{ "type": "Feature", "properties": { "feature_type": "building", "subtype": "no-damage", "uid": "8ecb7cbd-5bac-491c-8bc4-9e73755bc491" }, "geometry": { "type": "Polygon", "coordinates": [ [ [ 845.46484912099686, 95.789397749498747 ], [ 848.875338829926704, 101.579100988973295 ], [ 852.168827072487829, 107.588398943960101 ], [ 836.883757347564256, 116.169490716391394 ], [ 830.179779399570066, 105.443125995607005 ], [ 841.978780588789164, 97.934670694854532 ], [ 845.46484912099686, 95.789397749498747 ] ] ] } },
{ "type": "Feature", "properties": { "feature_type": "building", "subtype": "major-damage", "uid": "c0cc3e8c-e030-42c9-8cc8-5715bdabdefb" }, "geometry": { "type": "Polygon", "coordinates": [ [ [ 750.304192899216218, 191.798829661139905 ], [ 752.40528975598852, 192.429158718945814 ], [ 754.506386615758174, 194.740365261569593 ], [ 755.556935041521683, 196.631352433988013 ], [ 749.883973528011666, 202.934643004053612 ], [ 743.580682956445798, 197.681900861000088 ], [ 748.62331541389824, 192.00893934674221 ], [ 750.304192899216218, 191.798829661139905 ] ] ] } },
{ "type": "Feature", "properties": { "feature_type": "building", "subtype": "no-damage", "uid": "c481dd89-833e-42e6-8c81-4a7546c607dc" }, "geometry": { "type": "Polygon", "coordinates": [ [ [ 953.924525204287761, 839.158830023606697 ], [ 954.266771742905235, 829.575926958307264 ], [ 957.346990586215725, 809.725627753970571 ], [ 984.384467093030821, 813.832586208386601 ], [ 984.042220557910355, 818.966284278404714 ], [ 991.913890930874459, 819.650777357138054 ], [ 989.518165163300182, 832.656145803115692 ], [ 982.330987863074824, 831.971652723383272 ], [ 980.277508636865377, 842.581295405283981 ], [ 953.924525204287761, 839.158830023606697 ] ] ] } },
{ "type": "Feature", "properties": { "feature_type": "building", "subtype": "minor-damage", "uid": "df4527e0-bd54-4461-a9e0-1a4fa326f2e9" }, "geometry": { "type": "Polygon", "coordinates": [ [ [ 925.47533442672443, 96.423123665883409 ], [ 947.024190526713483, 83.724690609832521 ], [ 956.836616074365111, 102.387539194420498 ], [ 964.340235607851355, 99.116730678287681 ], [ 977.423469668639314, 93.152315149750606 ], [ 991.661106734386863, 117.394778262388201 ], [ 967.035205135502906, 127.5547852090248 ], [ 956.948782790053428, 128.995702688622799 ], [ 947.342666267306868, 126.113867731424904 ], [ 943.09041165159897, 130.206797224762113 ], [ 925.47533442672443, 96.423123665883409 ] ] ] } }
]
}
