{
"type": "FeatureCollection",
"name": "hurricane-michael_00000126_post_disaster",
"features": [
{ "type": "Feature", "properties": { "feature_type": "building", "subtype": "minor-damage", "uid": "05b6ba51-1c69-4834-8882-e6f7cc131ed2" }, "geometry": { "type": "Polygon", "coordinates": [ [ [ 244.064700846359102, 341.86013307179428 ], [ 225.968603429123903, 340.784966798419305 ], [ 228.333969234695701, 319.914368208865483 ], [ 246.139867117102199, 321.419600994387906 ], [ 244.064700846359102, 341.86013307179428 ] ] ] } },
{ "type": "Feature", "properties": { "feature_type": "building", "subtype": "minor-damage", "uid": "9c1e9ad1-4414-4d8b-98a8-0baab00f5b89" }, "geometry": { "type": "Polygon", "coordinates": [ [ [ 225.087539271672313, 363.000000052529799 ], [ 226.592772054697292, 350.63463424805542 ], [ 258.569933627387172, 351.419600992346489 ], [ 258.419601081117321, 356.56993354218929 ], [ 257.098575760711583, 363.139867033595181 ], [ 225.087539271672313, 363.000000052529799 ] ] ] } },
{ "type": "Feature", "properties": { "feature_type": "building", "subtype": "major-damage", "uid": "d8bf3e7b-7c39-4553-90e1-bca60fedd7de" }, "geometry": { "type": "Polygon", "coordinates": [ [ [ 340.319216691410816, 532.000000052253199 ], [ 334.511617194958717, 463.72919153538129 ], [ 363.820423203746884, 462.075995044984779 ], [ 367.628022702466012, 502.268395543838778 ], [ 383.820423205555016, 501.075995044229273 ], [ 384.435622201935587, 516.000000049412051 ], [ 374.435622201531203, 516.000000051410325 ], [ 376.435622206008077, 531.000000053886424 ], [ 340.319216691410816, 532.000000052253199 ] ] ] } },
{ "type": "Feature", "properties": { "feature_type": "building", "subtype": "no-damage", "uid": "553c7aa4-9009-46d2-93f3-dc5154dc7ce1" }, "geometry": { "type": "Polygon", "coordinates": [ [ [ 857.658380689577484, 273.806455692307907 ], [ 856.658380689711862, 237.806455692159886 ], [ 876.658380690021204, 236.806455693793311 ], [ 878.658380690501758, 272.806455693941189 ], [ 857.658380689577484, 273.806455692307907 ] ] ] } },
{ "type": "Feature", "properties": { "feature_type": "building", "subtype": "major-damage", "uid": "008bf1cc-3095-431f-a16d-2a9dc5d6a59b" }, "geometry": { "type": "Polygon", "coordinates": [ [ [ 801.220801236503576, 150.84306542894231 ], [ 801.847601516618056, 187.751332619646689 ], [ 790.243337300087205, 187.751332620645911 ], [ 790.593603817136341, 166.75133262197491 ], [ 781.842271246568771, 166.05079959387129 ], [ 782.542804272924172, 155.700533079667309 ], [ 793.653800524534859, 153.469865715281486 ], [ 794.594000949951919, 149.276064722412002 ], [ 801.220801236503576, 150.84306542894231 ] ] ] } },
{ "type": "Feature", "properties": { "feature_type": "building", "subtype": "minor-damage", "uid": "5bfc94ad-9959-4173-aac1-78106b8b8e70" }, "geometry": { "type": "Polygon", "coordinates": [ [ [ 773.294419742033256, 394.000000053850613 ], [ 743.294419739071373, 395.000000054215491 ], [ 742.294419740204944, 376.000000054276086 ], [ 740.294419744470133, 376.000000054276086 ], [ 739.294419742106811, 342.000000051860582 ], [ 742.294419741204024, 342.000000051860582 ], [ 761.294419741148204, 341.000000051495817 ], [ 761.294419740898434, 371.000000052451583 ], [ 772.294419739919704, 371.000000052451583 ], [ 773.294419742033256, 394.000000053850613 ] ] ] } },
{ "type": "Feature", "properties": { "feature_type": "building", "subtype": "un-classified", "uid": "548b2e7f-e024-45ac-a897-b3b245ab7b52" }, "geometry": { "type": "Polygon", "coordinates": [ [ [ 188.87182000008761, 1022.980612788167946 ], [ 183.80431947607579, 1012.993287920552007 ], [ 196.806252265046595, 1005.897190509083998 ], [ 206.681589972588995, 1022.980850007282015 ], [ 188.87182000008761, 1022.980612788167946 ] ] ] } },
{ "type": "Feature", "properties": { "feature_type": "building", "subtype": "minor-damage", "uid": "605a3703-0d91-4796-b5b7-a1a8f27f5d38" }, "geometry": { "type": "Polygon", "coordinates": [ [ [ 127.551317688142802, 966.541487754898867 ], [ 158.957432278640994, 965.821164025438293 ], [ 158.957432280389412, 974.897243014642299 ], [ 126.686929213039804, 975.473501997211656 ], [ 127.551317688142802, 966.541487754898867 ] ] ] } },
{ "type": "Feature", "properties": { "feature_type": "building", "subtype": "no-damage", "uid": "651245b2-a4dc-40cb-8558-5de7d4998c77" }, "geometry": { "type": "Polygon", "coordinates": [ [ [ 8.59878726632901, 955.972276665731101 ], [ 8.730799034348356, 945.54334721650423 ], [ 13.879257875702789, 945.411335450982733 ], [ 14.011269638227059, 940.922935436238276 ], [ 28.928599103451091, 940.790923668718506 ], [ 29.720669695331729, 958.744523733690926 ], [ 8.447530259192101, 959.486840479099101 ], [ 8.59878726632901, 955.972276665731101 ] ] ] } },
{ "type": "Feature", "properties": { "feature_type": "building", "subtype": "destroyed", "uid": "c65b4442-ca71-4bbb-9caa-18c1d5af9dc1" }, "geometry": { "type": "Polygon", "coordinates": [ [ [ 272.797498700728795, 40.738274038038348 ], [ 286.613201620651012, 40.401305675411137 ], [ 285.939264893398217, 57.755176413655818 ], [ 272.797498699979485, 57.923660593970332 ], [ 272.797498700728795, 40.738274038038348 ] ] ] } },
{ "type": "Feature", "properties": { "feature_type": "building", "subtype": "no-damage", "uid": "a2b8835a-4bd8-4732-8b77-f8606facd6b1" }, "geometry": { "type": "Polygon", "coordinates": [ [ [ 288.666322932061576, 46.659420885912098 ], [ 303.97097107609909, 46.659420883913903 ], [ 303.838959311576673, 58.804503279925427 ], [ 288.129559255970719, 58.672491513404772 ], [ 288.73055114839218, 49.127616679671533 ], [ 288.666322932061576, 46.659420885912098 ] ] ] } },
{ "type": "Feature", "properties": { "feature_type": "building", "subtype": "destroyed", "uid": "702ff737-f7c2-4a9c-8b4f-e2154ec73e75" }, "geometry": { "type": "Polygon", "coordinates": [ [ [ 435.541454429233227, 894.4424971880768 ], [ 445.491009001806788, 889.015467418858407 ], [ 451.068789595423993, 898.814271169779772 ], [ 441.420736678388778, 904.090550109355718 ], [ 435.541454429233227, 894.4424971880768 ] ] ] } },
{ "type": "Feature", "properties": { "feature_type": "building", "subtype": "destroyed", "uid": "c9ae149f-5246-49c6-a0b8-459b9983279d" }, "geometry": { "type": "Polygon", "coordinates": [ [ [ 453.344816459873073, 897.749299162829175 ], [ 457.833312152505073, 894.738029898038121 ], [ 461.9240930415516, 900.70375202100638 ], [ 457.321964545433104, 903.885470488654391 ], [ 453.344816459873073, 897.749299162829175 ] ] ] } },
{ "type": "Feature", "properties": { "feature_type": "building", "subtype": "destroyed", "uid": "bd125015-7af7-41ca-a1c5-040c2a1cece4" }, "geometry": { "type": "Polygon", "coordinates": [ [ [ 404.8130053821601, 467.380044925262212 ], [ 413.471027922104611, 467.764845927747785 ], [ 421.551848957820823, 467.764845928746979 ], [ 420.782246955097321, 480.078477985309519 ], [ 404.428204380173895, 479.501276481580987 ], [ 404.8130053821601, 467.380044925262212 ] ] ] } },
{ "type": "Feature", "properties": { "feature_type": "building", "subtype": "destroyed", "uid": "6781dae8-aae9-4bc1-a5ca-a0b5b561ea20" }, "geometry": { "type": "Polygon", "coordinates": [ [ [ 535.445120529100222, 893.918770630667609 ], [ 547.361441799006116, 893.540474715362961 ], [ 548.118033623870815, 911.320382641765718 ], [ 536.012564400808515, 910.752938771306503 ], [ 535.445120529100222, 893.918770630667609 ] ] ] } },
{ "type": "Feature", "properties": { "feature_type": "building", "subtype": "destroyed", "uid": "96b52ca4-4df9-400f-b83b-20f0d9adccba" }, "geometry": { "type": "Polygon", "coordinates": [ [ [ 536.390860313365806, 868.572944439134744 ], [ 546.793997931544141, 867.627204655369042 ], [ 547.739737714560761, 885.785408491081853 ], [ 536.580008272017267, 885.974556452231013 ], [ 536.390860313365806, 868.572944439134744 ] ] ] } },
{ "type": "Feature", "properties": { "feature_type": "building", "subtype": "no-damage", "uid": "db3b43e7-264d-4c0e-b1fa-fb21d7ad9b7e" }, "geometry": { "type": "Polygon", "coordinates": [ [ [ 0.078331565152104, 83.966393458983148 ], [ 7.940935177841236, 90.629708593495494 ], [ 0.078352667714166, 103.544798488578394 ], [ 0.078331565152104, 83.966393458983148 ] ] ] } }
]
}
