{
"type": "FeatureCollection",
"name": "hurricane-matthew_00000138_post_disaster",
"features": [
{ "type": "Feature", "properties": { "feature_type": "building", "subtype": "minor-damage", "uid": "911048d9-ce16-4c50-9645-554ea1a1f30b" }, "geometry": { "type": "Polygon", "coordinates": [ [ [ 293.353221393167416, 622.678755550871756 ], [ 315.777656284528689, 621.367649476065026 ], [ 316.048919610185408, 632.172971936377166 ], [ 293.714905825297024, 633.48407800878465 ], [ 293.44364249748088, 622.904808320172833 ], [ 293.353221393167416, 622.678755550871756 ] ] ] } },
{ "type": "Feature", "properties": { "feature_type": "building", "subtype": "destroyed", "uid": "2497e5a2-ead7-436c-8d64-771fcfb5ae3b" }, "geometry": { "type": "Polygon", "coordinates": [ [ [ 708.776953396017575, 124.374537626952502 ], [ 725.107402380274948, 126.022564587928699 ], [ 723.908837315739788, 143.251937366744698 ], [ 707.878029600975196, 142.053372303169596 ], [ 708.776953396017575, 124.374537626952502 ] ] ] } },
{ "type": "Feature", "properties": { "feature_type": "building", "subtype": "destroyed", "uid": "e7ea075d-430e-45e6-ac82-97c5c13d8310" }, "geometry": { "type": "Polygon", "coordinates": [ [ [ 331.758820688860908, 792.532357943895136 ], [ 337.829294253111414, 787.013745614766322 ], [ 344.819536534884719, 795.291664107979727 ], [ 339.300924205994477, 799.98248458994658 ], [ 331.758820688860908, 792.532357943895136 ] ] ] } }
]
}
