{
"type": "FeatureCollection",
"name": "hurricane-michael_00000186_post_disaster",
"features": [
{ "type": "Feature", "properties": { "feature_type": "building", "subtype": "no-damage", "uid": "3a1718fb-153e-4086-9080-2eae73e979c3" }, "geometry": { "type": "Polygon", "coordinates": [ [ [ 983.394571774360429, 269.505393022407816 ], [ 983.39457177211159, 276.505393021794589 ], [ 1007.61621442526905, 277.808107196219225 ], [ 1006.272964489740048, 296.15135713208042 ], [ 982.202678927657757, 295.616214350386485 ], [ 982.394571773591565, 288.505393024027683 ], [ 975.394571771957317, 288.505393022028727 ], [ 970.829679184675115, 307.151357133544309 ], [ 955.8188932295418, 306.424321501169118 ], [ 955.627000381858807, 292.575678589722713 ], [ 952.394571773013013, 289.505393023797296 ], [ 952.394571773262896, 277.505393024562693 ], [ 964.394571771995061, 276.505393023793602 ], [ 964.394571773494249, 269.505393022407816 ], [ 983.394571774360429, 269.505393022407816 ] ] ] } },
{ "type": "Feature", "properties": { "feature_type": "building", "subtype": "no-damage", "uid": "e12a2f1d-6aef-487a-8c2c-35fd50d3b1a8" }, "geometry": { "type": "Polygon", "coordinates": [ [ [ 978.639761164589004, 48.797175508122677 ], [ 978.639761168087148, 57.797175505049907 ], [ 984.63976116745323, 57.797175505049907 ], [ 984.639761169202302, 90.797175506443168 ], [ 979.639761164358333, 90.797175506443168 ], [ 979.639761164358333, 100.797175505138995 ], [ 957.63976116568324, 100.797175504139503 ], [ 957.639761165933123, 88.797175506903898 ], [ 952.639761164587298, 88.797175506903898 ], [ 951.63976116581739, 67.797175504745226 ], [ 956.639761164164725, 66.797175503976106 ], [ 956.639761164414608, 49.797175504893879 ], [ 978.639761164589004, 48.797175508122677 ] ] ] } },
{ "type": "Feature", "properties": { "feature_type": "building", "subtype": "minor-damage", "uid": "22de1a0b-8346-4b9c-ac37-5b5ebead1885" }, "geometry": { "type": "Polygon", "coordinates": [ [ [ 961.241173437403972, 111.947528572020005 ], [ 961.241173438403507, 118.947528572406398 ], [ 992.24117343650255, 117.947528574635697 ], [ 993.241173434522921, 152.947528572569809 ], [ 956.241173434559073, 153.947528571339888 ], [ 956.241173436558029, 134.947528573717904 ], [ 948.241173436153872, 134.947528570719498 ], [ 948.241173434904454, 118.947528572406398 ], [ 950.241173436442295, 118.947528573405805 ], [ 950.241173436942063, 111.947528572020005 ], [ 961.241173437403972, 111.947528572020005 ] ] ] } },
{ "type": "Feature", "properties": { "feature_type": "building", "subtype": "no-damage", "uid": "2828f09b-4f56-422b-9134-5baaa70c15ac" }, "geometry": { "type": "Polygon", "coordinates": [ [ [ 954.627000383838549, 255.313500176950413 ], [ 954.627000383088898, 228.313500175174511 ], [ 963.627000382262963, 227.313500175404812 ], [ 962.627000380744448, 218.313500174479714 ], [ 986.627000382206802, 218.313500176478613 ], [ 987.627000382226015, 241.313500176177712 ], [ 974.627000380226264, 241.313500175178206 ], [ 975.627000382244546, 254.313500175181787 ], [ 954.627000383838549, 255.313500176950413 ] ] ] } },
{ "type": "Feature", "properties": { "feature_type": "building", "subtype": "no-damage", "uid": "a9457072-3262-4a58-bcbf-49e46d13c3df" }, "geometry": { "type": "Polygon", "coordinates": [ [ [ 1023.049356311816041, 762.631696442828684 ], [ 1009.000000121652988, 763.000000044116632 ], [ 1008.000000122633992, 739.000000044648004 ], [ 1023.049370339229995, 739.000000348489039 ], [ 1023.049356311816041, 762.631696442828684 ] ] ] } },
{ "type": "Feature", "properties": { "feature_type": "building", "subtype": "no-damage", "uid": "d5d0194b-41e2-402b-9635-318250bcd46e" }, "geometry": { "type": "Polygon", "coordinates": [ [ [ 1023.04930627648298, 195.000000045031811 ], [ 1015.000000125016982, 195.000000044032305 ], [ 1015.000000122018946, 179.000000043720291 ], [ 1023.049293161093033, 179.000000042720814 ], [ 1023.04930627648298, 195.000000045031811 ] ] ] } },
{ "type": "Feature", "properties": { "feature_type": "building", "subtype": "no-damage", "uid": "01a20763-9b08-44f3-b5e5-1c46f35e97a9" }, "geometry": { "type": "Polygon", "coordinates": [ [ [ 985.790114235388273, 205.74470403179609 ], [ 959.79011423688587, 206.74470403256521 ], [ 958.790114233868053, 178.744704034018014 ], [ 969.790114233330655, 178.744704031019609 ], [ 969.790114232081237, 170.744704033862007 ], [ 993.790114232544056, 170.744704033862007 ], [ 993.790114232544056, 178.744704034018014 ], [ 984.790114233369991, 178.744704032019087 ], [ 985.790114235388273, 205.74470403179609 ] ] ] } },
{ "type": "Feature", "properties": { "feature_type": "building", "subtype": "minor-damage", "uid": "d9d88bba-c2a7-48b9-b39f-5934d5b7aa6c" }, "geometry": { "type": "Polygon", "coordinates": [ [ [ 1023.049353583742004, 261.000000046818911 ], [ 1014.000000122499955, 261.000000046818911 ], [ 1014.000000120500999, 250.0000000483534 ], [ 1023.049346459467984, 250.0000000483534 ], [ 1023.049353583742004, 261.000000046818911 ] ] ] } },
{ "type": "Feature", "properties": { "feature_type": "building", "subtype": "no-damage", "uid": "b35b39dd-916b-4155-9bdc-d3e131b041d2" }, "geometry": { "type": "Polygon", "coordinates": [ [ [ 863.000000121586595, 787.000000045584216 ], [ 863.000000124335202, 795.000000043741238 ], [ 867.000000120914137, 794.000000043971681 ], [ 868.000000124431608, 805.000000047434469 ], [ 863.000000121336825, 805.000000044436092 ], [ 863.000000124834969, 813.000000045591605 ], [ 810.000000120064897, 814.000000046360697 ], [ 810.000000121564085, 798.000000045049205 ], [ 826.000000124621238, 798.000000045049205 ], [ 825.000000120853883, 788.000000046353307 ], [ 863.000000121586595, 787.000000045584216 ] ] ] } },
{ "type": "Feature", "properties": { "feature_type": "building", "subtype": "no-damage", "uid": "c7f4d871-27b5-4cca-a6cf-708013e5f8cb" }, "geometry": { "type": "Polygon", "coordinates": [ [ [ 293.64857229252442, 70.070285611459028 ], [ 284.537750964379427, 55.767571435031869 ], [ 299.537750965668124, 46.767571438104632 ], [ 293.537750964553027, 36.767571437409849 ], [ 326.840465140343895, 16.848642957730739 ], [ 335.567500774122493, 29.808107198378419 ], [ 329.26478659560388, 34.494607066478231 ], [ 334.305322356805391, 45.645964154270089 ], [ 293.64857229252442, 70.070285611459028 ] ] ] } },
{ "type": "Feature", "properties": { "feature_type": "building", "subtype": "no-damage", "uid": "101308f8-39d5-485a-9b12-91f0dd9b776a" }, "geometry": { "type": "Polygon", "coordinates": [ [ [ 136.286583557619309, 759.150353110455171 ], [ 157.286583560273101, 758.150353112684456 ], [ 158.286583557793705, 792.150353111848403 ], [ 137.286583556639101, 792.150353111848403 ], [ 136.286583557619309, 759.150353110455171 ] ] ] } },
{ "type": "Feature", "properties": { "feature_type": "building", "subtype": "no-damage", "uid": "4ab31ade-6967-4393-a425-cef819e26521" }, "geometry": { "type": "Polygon", "coordinates": [ [ [ 856.84964705780294, 43.000000044066077 ], [ 856.849647053805029, 47.000000047142542 ], [ 859.849647054112779, 47.00000004514358 ], [ 860.849647054132106, 53.000000045760338 ], [ 863.849647053190438, 53.000000047759301 ], [ 863.849647054189973, 58.000000043609042 ], [ 860.849647056131062, 58.000000046607482 ], [ 860.849647055381411, 64.000000047224248 ], [ 856.849647054304796, 64.000000047224248 ], [ 856.849647053805029, 70.000000042843624 ], [ 835.849647053400076, 70.000000043843102 ], [ 837.052471594227313, 33.475285323714132 ], [ 845.958766506621487, 34.76508383185427 ], [ 856.84964705780294, 43.000000044066077 ] ] ] } },
{ "type": "Feature", "properties": { "feature_type": "building", "subtype": "no-damage", "uid": "fd2a88f3-fbb8-4423-95a3-e7b48e7d1a85" }, "geometry": { "type": "Polygon", "coordinates": [ [ [ 761.344533578614687, 762.068751647205431 ], [ 762.344533573886451, 789.068751649980868 ], [ 753.344533575461924, 789.068751649980868 ], [ 753.344533573462968, 800.068751648446323 ], [ 747.344533575845958, 800.068751646447367 ], [ 747.344533574096886, 803.068751645756265 ], [ 723.344533574883485, 804.068751648524312 ], [ 723.344533573384297, 774.068751648438933 ], [ 746.344533575826745, 774.068751649438354 ], [ 746.344533578075584, 781.068751648825355 ], [ 749.344533578133451, 780.068751647056729 ], [ 749.344533575384844, 762.068751647205431 ], [ 761.344533578614687, 762.068751647205431 ] ] ] } },
{ "type": "Feature", "properties": { "feature_type": "building", "subtype": "minor-damage", "uid": "03e45bec-0492-4e18-80f3-51678d6114e9" }, "geometry": { "type": "Polygon", "coordinates": [ [ [ 853.948233984639842, 0.004238760186788 ], [ 853.947528651269522, 3.744704032353836 ], [ 853.587289692034915, 6.300706181424781 ], [ 853.587289692284799, 13.300706179812231 ], [ 849.5872896964554, 13.300706181811179 ], [ 849.587289694706328, 27.300706180585031 ], [ 823.587289693455432, 27.300706180585031 ], [ 823.587289693705202, 17.300706178890771 ], [ 816.594351041832397, 16.699293911225599 ], [ 816.895057176664295, 5.000000044824131 ], [ 822.58728969468541, 4.300706178887079 ], [ 822.286910557588158, 0.004676799098469 ], [ 853.948233984639842, 0.004238760186788 ] ] ] } },
{ "type": "Feature", "properties": { "feature_type": "building", "subtype": "no-damage", "uid": "ed389ac4-0853-47b4-8179-1405bb97e701" }, "geometry": { "type": "Polygon", "coordinates": [ [ [ 240.50267820659991, 987.237786198603317 ], [ 217.886474021979296, 988.470194560999403 ], [ 216.578371931111207, 963.081071565730099 ], [ 227.578371931073406, 963.081071565730099 ], [ 227.57837193482149, 955.081071565574007 ], [ 250.497300409556601, 953.929714478476967 ], [ 251.072978953604803, 962.697285872363182 ], [ 240.497300411362687, 963.656750108778851 ], [ 240.50267820659991, 987.237786198603317 ] ] ] } },
{ "type": "Feature", "properties": { "feature_type": "building", "subtype": "no-damage", "uid": "f1dd595f-864b-4143-b7a3-5c248dda7fe4" }, "geometry": { "type": "Polygon", "coordinates": [ [ [ 361.47564329682001, 74.7783573917458 ], [ 368.475643293206872, 83.778357390671999 ], [ 371.475643292015377, 81.778357392132207 ], [ 380.475643292188977, 95.778357392905008 ], [ 377.475643293880182, 97.7783573914448 ], [ 347.475643293551627, 116.778357393064695 ], [ 332.475643292262816, 93.77835739236626 ], [ 361.47564329682001, 74.7783573917458 ] ] ] } },
{ "type": "Feature", "properties": { "feature_type": "building", "subtype": "no-damage", "uid": "2109d016-810b-46be-9633-a15cd517ceaf" }, "geometry": { "type": "Polygon", "coordinates": [ [ [ 92.000000119462513, 197.000000045570602 ], [ 124.000000120579301, 196.000000043802004 ], [ 125.000000122597598, 220.000000046269008 ], [ 92.000000119962252, 221.000000045039201 ], [ 92.000000119462513, 197.000000045570602 ] ] ] } },
{ "type": "Feature", "properties": { "feature_type": "building", "subtype": "no-damage", "uid": "c40da67d-dcb2-4270-a23a-305769d46c25" }, "geometry": { "type": "Polygon", "coordinates": [ [ [ 212.516179053552605, 997.424321500903829 ], [ 224.740429767248713, 997.232428655219906 ], [ 224.7404297689977, 1020.42432150260197 ], [ 210.062107790782193, 1018.697285871455961 ], [ 212.516179053552605, 997.424321500903829 ] ] ] } },
{ "type": "Feature", "properties": { "feature_type": "building", "subtype": "no-damage", "uid": "a5b008fe-e609-44a4-8253-7f237d8cfc6a" }, "geometry": { "type": "Polygon", "coordinates": [ [ [ 334.132393357790818, 54.586464546671223 ], [ 348.132393359060302, 75.58646454183355 ], [ 326.132393357886372, 90.58646454337547 ], [ 312.132393358366073, 69.586464545214696 ], [ 334.132393357790818, 54.586464546671223 ] ] ] } },
{ "type": "Feature", "properties": { "feature_type": "building", "subtype": "no-damage", "uid": "1ce08a00-3a58-4848-82f0-b0f06e4024ec" }, "geometry": { "type": "Polygon", "coordinates": [ [ [ 646.550907083644461, 42.040725617382499 ], [ 678.550907085260974, 41.040725613614953 ], [ 678.550907083262018, 66.040725614852178 ], [ 646.550907083144693, 67.040725614621806 ], [ 646.550907083644461, 42.040725617382499 ] ] ] } },
{ "type": "Feature", "properties": { "feature_type": "building", "subtype": "no-damage", "uid": "d4afa358-c7d5-46ab-abb3-2076a82ce888" }, "geometry": { "type": "Polygon", "coordinates": [ [ [ 58.000000120306098, 225.00000004511719 ], [ 57.000000123784993, 205.000000043727709 ], [ 65.000000119441609, 204.000000044957488 ], [ 65.000000121690434, 195.000000044032305 ], [ 83.0000001190391, 194.00000004626159 ], [ 83.000000119538839, 225.00000004511719 ], [ 58.000000120306098, 225.00000004511719 ] ] ] } },
{ "type": "Feature", "properties": { "feature_type": "building", "subtype": "no-damage", "uid": "21796d73-0d30-4c7c-abb4-8b1e2077ce2d" }, "geometry": { "type": "Polygon", "coordinates": [ [ [ 169.516179054972298, 995.837857001991893 ], [ 189.516179056357402, 995.837857000992472 ], [ 189.516179053608909, 1015.151286265424005 ], [ 170.132383237669387, 1016.151286265192994 ], [ 169.516179054972298, 995.837857001991893 ] ] ] } },
{ "type": "Feature", "properties": { "feature_type": "building", "subtype": "no-damage", "uid": "58bc7e0d-e49c-4742-8e04-827db6ee4d80" }, "geometry": { "type": "Polygon", "coordinates": [ [ [ 366.789143423416874, 113.970250240439299 ], [ 369.789143425223813, 117.970250239517796 ], [ 373.789143423301994, 114.970250240208898 ], [ 376.789143423109977, 117.970250239517796 ], [ 372.789143424032318, 120.9702502398262 ], [ 379.789143422168422, 130.970250239521505 ], [ 363.789143424358485, 141.970250239985887 ], [ 365.829679186001897, 151.535142827866395 ], [ 356.818893227985825, 158.040535805914999 ], [ 338.789143424625991, 134.970250238599988 ], [ 366.789143423416874, 113.970250240439299 ] ] ] } },
{ "type": "Feature", "properties": { "feature_type": "building", "subtype": "no-damage", "uid": "d7cbd631-db1f-4ec8-af64-270d2e8f46b4" }, "geometry": { "type": "Polygon", "coordinates": [ [ [ 106.000000122980794, 236.000000044582208 ], [ 132.000000121982907, 235.000000046811493 ], [ 132.000000120983486, 255.000000044203091 ], [ 107.000000119751803, 256.000000042973284 ], [ 106.000000122980794, 236.000000044582208 ] ] ] } },
{ "type": "Feature", "properties": { "feature_type": "building", "subtype": "minor-damage", "uid": "54d2cc79-1cc1-4e9e-8de6-8a43d178b16c" }, "geometry": { "type": "Polygon", "coordinates": [ [ [ 828.000000121661287, 85.000000045385008 ], [ 857.406188943809752, 85.51318369840078 ], [ 855.568969593982501, 111.000000045392397 ], [ 826.234558200477181, 110.530437770996301 ], [ 828.000000121661287, 85.000000045385008 ] ] ] } },
{ "type": "Feature", "properties": { "feature_type": "building", "subtype": "no-damage", "uid": "f94df26e-e86b-433a-baa7-6542893cfa7a" }, "geometry": { "type": "Polygon", "coordinates": [ [ [ 645.616214426534043, 2.313500174264634 ], [ 686.61621442857404, 1.313500174494999 ], [ 686.616214425075782, 33.313500176118623 ], [ 646.616214424054647, 34.313500175888258 ], [ 645.616214426534043, 2.313500174264634 ] ] ] } },
{ "type": "Feature", "properties": { "feature_type": "building", "subtype": "minor-damage", "uid": "dbb19e0e-4997-478e-a61a-3e0f07eb2e34" }, "geometry": { "type": "Polygon", "coordinates": [ [ [ 841.162143163833662, 531.040535808942423 ], [ 841.162143163084124, 537.040535806560683 ], [ 857.162143167890235, 536.040535805791592 ], [ 858.162143163162, 539.04053580809898 ], [ 861.162143165718589, 539.04053580510049 ], [ 862.162143163988731, 555.04053580841105 ], [ 861.106611131707723, 560.413535545532113 ], [ 861.701168318485657, 568.006660891529805 ], [ 841.555368181563836, 569.186335941722064 ], [ 841.948593199793777, 560.793110924835332 ], [ 830.555368184100303, 560.006660893372668 ], [ 830.162143164371173, 537.040535805561262 ], [ 834.162143164448253, 537.040535805561262 ], [ 834.162143164198483, 531.040535806943467 ], [ 841.162143163833662, 531.040535808942423 ] ] ] } },
{ "type": "Feature", "properties": { "feature_type": "building", "subtype": "no-damage", "uid": "3e5edd0a-bb72-4fe1-9d82-7e7e27896b28" }, "geometry": { "type": "Polygon", "coordinates": [ [ [ 386.818893231312927, 179.575678589767506 ], [ 396.818893229256901, 195.575678590079605 ], [ 400.818893227834792, 192.5756785917701 ], [ 407.818893228719389, 202.575678587467507 ], [ 385.818893229544528, 216.5756785892398 ], [ 369.818893227237027, 190.57567858923241 ], [ 386.818893231312927, 179.575678589767506 ] ] ] } },
{ "type": "Feature", "properties": { "feature_type": "building", "subtype": "no-damage", "uid": "8e0e065f-6be7-4edd-9bd1-bf745f5c8047" }, "geometry": { "type": "Polygon", "coordinates": [ [ [ 510.354036011880282, 154.616214348885791 ], [ 520.354036012572806, 147.616214350498296 ], [ 535.354036014361327, 169.616214349428191 ], [ 524.354036011900348, 176.616214348815106 ], [ 510.354036011880282, 154.616214348885791 ] ] ] } },
{ "type": "Feature", "properties": { "feature_type": "building", "subtype": "minor-damage", "uid": "e91437a5-3bdf-40fa-8dc6-7737d5c8fa5d" }, "geometry": { "type": "Polygon", "coordinates": [ [ [ 848.744704109365671, 136.895057102114095 ], [ 847.241173437954217, 143.947528574643087 ], [ 827.429875278354189, 143.895057099502111 ], [ 828.331993681350923, 136.992938697387586 ], [ 824.436936625558928, 136.992938695388602 ], [ 823.436936624290297, 116.992938693998994 ], [ 857.188701963255994, 115.692232560396803 ], [ 858.241173437166935, 131.895057100267508 ], [ 852.744704108693213, 133.398587776426808 ], [ 851.842585708694855, 136.443997897867007 ], [ 848.744704109365671, 136.895057102114095 ] ] ] } },
{ "type": "Feature", "properties": { "feature_type": "building", "subtype": "no-damage", "uid": "f0fcc58c-d5e9-474b-9609-a1ed7ed84c57" }, "geometry": { "type": "Polygon", "coordinates": [ [ [ 666.482036779501072, 802.310157695946486 ], [ 655.4820367797887, 802.310157697945442 ], [ 654.48203677951949, 797.310157696098827 ], [ 645.482036781844613, 797.310157697098361 ], [ 644.482036780326212, 781.310157697785712 ], [ 647.482036778634892, 781.310157698785247 ], [ 647.482036780134194, 780.310157697016621 ], [ 639.482036781978877, 781.310157698785247 ], [ 639.482036781728993, 771.310157699089928 ], [ 665.482036779231862, 770.31015769632188 ], [ 666.482036779501072, 802.310157695946486 ] ] ] } },
{ "type": "Feature", "properties": { "feature_type": "building", "subtype": "no-damage", "uid": "b8bb369d-aeeb-4028-a0d4-1b5ad530d154" }, "geometry": { "type": "Polygon", "coordinates": [ [ [ 627.000000120783852, 343.000000043920579 ], [ 629.000000120072741, 336.000000043534214 ], [ 649.00000011970883, 341.000000047379672 ], [ 641.000000124552002, 372.000000044236288 ], [ 621.000000120918003, 367.000000045388219 ], [ 623.000000122205847, 358.000000043463501 ], [ 619.000000120379696, 357.000000043693888 ], [ 623.000000120956543, 342.00000004814882 ], [ 627.000000120783852, 343.000000043920579 ] ] ] } },
{ "type": "Feature", "properties": { "feature_type": "building", "subtype": "no-damage", "uid": "2dbb28cd-30c4-432d-9279-fe2abe63a30e" }, "geometry": { "type": "Polygon", "coordinates": [ [ [ 720.482346748433429, 53.71235164368337 ], [ 721.428840884033093, 33.664017735261638 ], [ 737.887995828627936, 34.234112010805447 ], [ 736.234112084553317, 53.253896487417393 ], [ 720.482346748433429, 53.71235164368337 ] ] ] } },
{ "type": "Feature", "properties": { "feature_type": "building", "subtype": "no-damage", "uid": "fbd14621-35c7-45c0-9000-5be92dde384c" }, "geometry": { "type": "Polygon", "coordinates": [ [ [ 952.271654770412965, 369.019436681834009 ], [ 968.198761143584761, 369.78700807456471 ], [ 969.350118228932502, 362.111294158252008 ], [ 1007.344902107874987, 363.070758397666225 ], [ 1004.850295083499987, 372.281615096441726 ], [ 986.620474537133873, 375.351900663366621 ], [ 983.933974666325071, 403.176363598380874 ], [ 948.625690662439069, 401.641220816917382 ], [ 952.271654770412965, 369.019436681834009 ] ] ] } },
{ "type": "Feature", "properties": { "feature_type": "building", "subtype": "minor-damage", "uid": "3c59d17a-6f64-4a9b-85a6-8099af64f760" }, "geometry": { "type": "Polygon", "coordinates": [ [ [ 421.453384012027016, 922.25564422508296 ], [ 456.461585638614508, 921.630497767072484 ], [ 457.69945327188691, 1022.982656497625953 ], [ 423.928963964798697, 1022.982554716856043 ], [ 421.453384012027016, 922.25564422508296 ] ] ] } },
{ "type": "Feature", "properties": { "feature_type": "building", "subtype": "no-damage", "uid": "63ca7cad-0884-45fd-9524-9ba5229c8a15" }, "geometry": { "type": "Polygon", "coordinates": [ [ [ 209.263954373779313, 930.143757108660338 ], [ 224.999167897769013, 926.114007303320818 ], [ 223.655917965238103, 920.54911471351943 ], [ 245.915488318192104, 918.438293390006606 ], [ 248.793881032435991, 939.354613804437463 ], [ 242.461417053903205, 939.738399498803801 ], [ 242.46141705690161, 944.343827850190564 ], [ 226.534310682980191, 946.454649172703853 ], [ 224.999167900017909, 943.768149305142742 ], [ 209.263954378776702, 943.768149305142742 ], [ 209.263954373779313, 930.143757108660338 ] ] ] } },
{ "type": "Feature", "properties": { "feature_type": "building", "subtype": "no-damage", "uid": "268c7512-9b0e-45f7-be82-3fb896b0d44e" }, "geometry": { "type": "Polygon", "coordinates": [ [ [ 170.184759422645811, 457.010951644109127 ], [ 187.926421381481504, 456.559892440861574 ], [ 187.625715245400187, 477.609321884103224 ], [ 170.034406353230906, 478.511440288599374 ], [ 170.184759422645811, 457.010951644109127 ] ] ] } },
{ "type": "Feature", "properties": { "feature_type": "building", "subtype": "no-damage", "uid": "285c174c-7ce9-4305-9ff6-84ac11f93257" }, "geometry": { "type": "Polygon", "coordinates": [ [ [ 370.015411649558075, 868.304595179853777 ], [ 370.408636666288714, 884.820045901536105 ], [ 353.893185944360198, 885.999720954726854 ], [ 354.679635976822112, 869.484270233044526 ], [ 370.015411649558075, 868.304595179853777 ] ] ] } },
{ "type": "Feature", "properties": { "feature_type": "building", "subtype": "minor-damage", "uid": "01e05bb8-192e-4c9d-b244-aacc86b8829d" }, "geometry": { "type": "Polygon", "coordinates": [ [ [ 376.307011924744984, 875.382645489003494 ], [ 419.954988835072697, 876.169095524463955 ], [ 420.348213849054787, 867.91137016512198 ], [ 455.345240378564313, 867.91137016512198 ], [ 456.918140446986172, 917.06449731043972 ], [ 420.348213847305772, 918.244172363630469 ], [ 420.741438864786119, 899.369371539564554 ], [ 371.98153673421092, 897.010021435182011 ], [ 376.307011924744984, 875.382645489003494 ] ] ] } },
{ "type": "Feature", "properties": { "feature_type": "building", "subtype": "no-damage", "uid": "2c7950bb-b479-4928-a213-afafa7f7877e" }, "geometry": { "type": "Polygon", "coordinates": [ [ [ 392.036012609714021, 899.76259655329693 ], [ 393.215687662654602, 932.400272982929209 ], [ 360.18478621979699, 934.36639806858193 ], [ 360.184786218047975, 898.976146522833801 ], [ 375.913786905265795, 899.762596554296351 ], [ 392.036012609714021, 899.76259655329693 ] ] ] } },
{ "type": "Feature", "properties": { "feature_type": "building", "subtype": "no-damage", "uid": "d00b0875-0e86-4f70-952a-7eb944ba96e7" }, "geometry": { "type": "Polygon", "coordinates": [ [ [ 623.437734421944469, 902.541919418708176 ], [ 642.71372703972213, 902.309678540489699 ], [ 642.945967913442928, 916.708612788144478 ], [ 638.185029980677086, 917.405335413804778 ], [ 636.094862103696528, 916.244131037704278 ], [ 625.179540982346793, 916.244131036704857 ], [ 623.437734421944469, 902.541919418708176 ] ] ] } },
{ "type": "Feature", "properties": { "feature_type": "building", "subtype": "minor-damage", "uid": "ae66d50d-82a4-48ee-b7e9-114f2c9c2a01" }, "geometry": { "type": "Polygon", "coordinates": [ [ [ 609.851643234064795, 899.406667605235725 ], [ 619.838000856033659, 900.103390229896604 ], [ 619.141278235120922, 916.940853664364113 ], [ 609.038800174542644, 916.476371913923913 ], [ 610.200004547394656, 910.786470478027695 ], [ 606.832511861951161, 910.438109165197488 ], [ 606.83251186345035, 905.096569041131943 ], [ 609.967763673673744, 905.212689479741471 ], [ 609.851643234064795, 899.406667605235725 ] ] ] } },
{ "type": "Feature", "properties": { "feature_type": "building", "subtype": "major-damage", "uid": "1b86444f-9267-45d1-9f53-3c3ece49fcd8" }, "geometry": { "type": "Polygon", "coordinates": [ [ [ 618.063075627738499, 918.053589644768181 ], [ 618.989818011982152, 920.26351378787092 ], [ 620.700727026375603, 920.120938037025439 ], [ 620.985878528066564, 926.536846839065902 ], [ 607.583757918607603, 926.964574090602923 ], [ 607.868909423796708, 923.400180314467889 ], [ 606.799591291955949, 923.40018031546731 ], [ 606.942167038553634, 919.194195658528542 ], [ 608.082773051314348, 918.909044155838046 ], [ 608.154060926487205, 917.554574515809463 ], [ 618.063075627738499, 918.053589644768181 ] ] ] } },
{ "type": "Feature", "properties": { "feature_type": "building", "subtype": "no-damage", "uid": "09f92b5a-5bf5-442b-bc11-2d91caf69da0" }, "geometry": { "type": "Polygon", "coordinates": [ [ [ 629.983090360913252, 872.269216711383706 ], [ 642.886195840663959, 872.26921670938475 ], [ 642.743620092317201, 878.685125508426836 ], [ 644.240665476444633, 878.613837635003051 ], [ 644.739680605903004, 883.960428299705313 ], [ 643.31392309544924, 884.174291930970981 ], [ 643.313923093950052, 891.802094617197213 ], [ 635.258393155688736, 892.087246118888288 ], [ 634.759378026730133, 890.233761350900295 ], [ 627.559302592292397, 890.091185604052725 ], [ 627.559302593291932, 878.898989139692503 ], [ 630.125666112008616, 878.328686130313599 ], [ 629.983090360913252, 872.269216711383706 ] ] ] } },
{ "type": "Feature", "properties": { "feature_type": "building", "subtype": "minor-damage", "uid": "61e4dee0-fcb1-40ba-b49d-71d11458d06a" }, "geometry": { "type": "Polygon", "coordinates": [ [ [ 690.475236849483849, 869.51927401055093 ], [ 691.055839034535552, 868.358069634450317 ], [ 691.055839036784391, 867.429106135568873 ], [ 703.480725844066114, 867.661347009789552 ], [ 704.061328031616426, 876.138138944329057 ], [ 705.222532405467973, 876.138138944329057 ], [ 705.803134596016776, 889.491989255492399 ], [ 694.42333172022893, 889.491989253493443 ], [ 695.00393390902866, 898.433262940472105 ], [ 685.482058035501041, 897.968781191031439 ], [ 685.598178474860106, 895.414131566608717 ], [ 677.353627412044375, 895.53025200421871 ], [ 677.46974784815518, 888.446905318001427 ], [ 680.256638352294999, 888.098544006170755 ], [ 678.282590913674198, 870.099876196602168 ], [ 690.475236849483849, 869.51927401055093 ] ] ] } },
{ "type": "Feature", "properties": { "feature_type": "building", "subtype": "no-damage", "uid": "e922e341-6d05-4b40-bb65-009c39591720" }, "geometry": { "type": "Polygon", "coordinates": [ [ [ 735.823746785454318, 871.072708412748625 ], [ 745.926224848781203, 870.956587975138518 ], [ 745.81010440817272, 885.820003970235121 ], [ 737.797794222076163, 886.632847032505993 ], [ 737.333312476383639, 884.542679159523004 ], [ 731.643411039988905, 884.542679159523004 ], [ 731.295049723660668, 878.73665728601668 ], [ 735.707626348343979, 877.80769378513628 ], [ 735.823746785454318, 871.072708412748625 ] ] ] } },
{ "type": "Feature", "properties": { "feature_type": "building", "subtype": "minor-damage", "uid": "8428bd60-a0d8-421d-a768-f61950a9ca61" }, "geometry": { "type": "Polygon", "coordinates": [ [ [ 819.498908187688812, 931.171887914405715 ], [ 829.39655622329974, 930.689075814485932 ], [ 828.430932022460865, 921.274239878042977 ], [ 853.295755141340692, 921.032833828083085 ], [ 855.951221685901828, 934.551572610846165 ], [ 868.987148369741703, 935.517196808686776 ], [ 869.228554421200784, 957.485147329052666 ], [ 835.914519562221244, 959.416395727732493 ], [ 835.431707465299951, 950.967183989130262 ], [ 818.774690036060065, 949.277341639410906 ], [ 819.498908187688812, 931.171887914405715 ] ] ] } },
{ "type": "Feature", "properties": { "feature_type": "building", "subtype": "no-damage", "uid": "8b6be43c-9723-4f6d-b091-f148f33e5872" }, "geometry": { "type": "Polygon", "coordinates": [ [ [ 671.548495095563339, 1002.384686114512988 ], [ 680.721924984293196, 1001.901874016592046 ], [ 680.480518931834581, 990.072977579550297 ], [ 692.068009314166147, 989.831571528590871 ], [ 693.275039564715144, 1000.694843765793053 ], [ 700.517221052766558, 1001.17765586571295 ], [ 699.793002908384096, 1016.627643045157015 ], [ 672.514119292654186, 1017.351861194037042 ], [ 671.548495095563339, 1002.384686114512988 ] ] ] } },
{ "type": "Feature", "properties": { "feature_type": "building", "subtype": "no-damage", "uid": "dd8f7d2d-6f30-4b06-8b35-824ec000f74b" }, "geometry": { "type": "Polygon", "coordinates": [ [ [ 627.916657157025611, 992.526919512708787 ], [ 643.922513478308929, 993.267931377706873 ], [ 644.070715855256367, 1006.309740237252981 ], [ 646.88656094804503, 1007.050752102250954 ], [ 647.331168065894303, 1017.869525359805948 ], [ 628.064859529725254, 1018.165930108203952 ], [ 627.768454780577827, 1006.45794261145204 ], [ 627.916657157025611, 992.526919512708787 ] ] ] } },
{ "type": "Feature", "properties": { "feature_type": "building", "subtype": "no-damage", "uid": "35952c36-428c-4384-962c-0a5102019ed7" }, "geometry": { "type": "Polygon", "coordinates": [ [ [ 583.677516660363608, 997.86220495188843 ], [ 597.015730265555931, 996.824788341490944 ], [ 598.942361117898486, 981.708146255153338 ], [ 614.35540794838289, 983.190169991146149 ], [ 613.614396085383987, 998.3068120754848 ], [ 619.838895764508834, 998.010407327086909 ], [ 619.542491019359204, 1016.98031112160902 ], [ 583.529314285165242, 1018.906941975200994 ], [ 583.677516660363608, 997.86220495188843 ] ] ] } },
{ "type": "Feature", "properties": { "feature_type": "building", "subtype": "no-damage", "uid": "b476b8f5-ee5e-4390-8648-ad429c9b1801" }, "geometry": { "type": "Polygon", "coordinates": [ [ [ 87.715052057048453, 860.132372916569921 ], [ 91.119715272566538, 871.102954405510786 ], [ 77.311914439778434, 875.07506149319795 ], [ 73.718103261790276, 862.402148396247753 ], [ 87.715052057048453, 860.132372916569921 ] ] ] } },
{ "type": "Feature", "properties": { "feature_type": "building", "subtype": "no-damage", "uid": "40fdfa4a-0a70-4782-8720-7a52753f068c" }, "geometry": { "type": "Polygon", "coordinates": [ [ [ 100.202505921870596, 798.151547449843179 ], [ 103.418021183913893, 798.151547449843179 ], [ 103.228873228690006, 800.421322930520546 ], [ 113.821158800184406, 800.232174969299763 ], [ 115.334342455967899, 822.740781815851619 ], [ 104.174613011805604, 823.3082256865207 ], [ 104.742056880975397, 820.092710422727578 ], [ 97.743582484470693, 818.012082897274126 ], [ 97.743582485220301, 821.416746119289542 ], [ 85.638113258692016, 820.092710422727578 ], [ 84.12492960415787, 797.773251534398014 ], [ 100.202505921870596, 798.151547449843179 ] ] ] } },
{ "type": "Feature", "properties": { "feature_type": "building", "subtype": "no-damage", "uid": "24eba36b-ab3a-466e-9b6f-c6bbaa7a3063" }, "geometry": { "type": "Polygon", "coordinates": [ [ [ 84.988234437367197, 709.768111039089035 ], [ 89.338637441248139, 709.768111040088456 ], [ 89.527785399220548, 701.634748902493925 ], [ 108.820876979226497, 702.391340726387966 ], [ 108.442581065030694, 723.197615961932115 ], [ 84.799086481643599, 722.441024134040163 ], [ 84.988234437367197, 709.768111039089035 ] ] ] } },
{ "type": "Feature", "properties": { "feature_type": "building", "subtype": "no-damage", "uid": "826cb76a-9852-41af-9d3f-64d28b374407" }, "geometry": { "type": "Polygon", "coordinates": [ [ [ 89.040371210879712, 601.458141416825697 ], [ 89.986110995744397, 609.402355596197822 ], [ 79.204677464528501, 609.780651510643565 ], [ 78.258937680913164, 595.405406803685196 ], [ 89.229519167352905, 594.648814978791734 ], [ 89.040371210879712, 601.458141416825697 ] ] ] } },
{ "type": "Feature", "properties": { "feature_type": "building", "subtype": "no-damage", "uid": "6ce20f0d-3406-4e7a-a879-a884506e0df7" }, "geometry": { "type": "Polygon", "coordinates": [ [ [ 76.398641521939339, 765.813729333441984 ], [ 94.262689198479819, 760.985608341239981 ], [ 104.643149331511907, 787.298867755887045 ], [ 88.227537954480667, 795.265267394569378 ], [ 84.12363510866119, 785.850431456127467 ], [ 78.812702016040831, 786.816055655967148 ], [ 77.36426571828062, 780.539498365005215 ], [ 80.743950414220507, 779.091062066245172 ], [ 76.398641521939339, 765.813729333441984 ] ] ] } },
{ "type": "Feature", "properties": { "feature_type": "building", "subtype": "no-damage", "uid": "0c401d36-f364-4fcd-853b-8c77d3e0d05d" }, "geometry": { "type": "Polygon", "coordinates": [ [ [ 147.005437392404787, 372.234207505958807 ], [ 149.086064911611004, 375.638870726974687 ], [ 153.625615873714196, 376.206314600642315 ], [ 153.058172004544502, 388.12263586770149 ], [ 134.899968164627211, 388.690079737371093 ], [ 134.332524293208593, 372.80165137562841 ], [ 147.005437392404787, 372.234207505958807 ] ] ] } },
{ "type": "Feature", "properties": { "feature_type": "building", "subtype": "no-damage", "uid": "2f77caec-b8f3-48f8-9448-3a7da8b46d67" }, "geometry": { "type": "Polygon", "coordinates": [ [ [ 85.239223466311003, 325.48399907823881 ], [ 86.446253714611089, 325.725405126199689 ], [ 87.17047186399094, 344.555077000085078 ], [ 85.963441617190057, 362.177718628168918 ], [ 73.893139131690447, 362.177718628168918 ], [ 72.203296783720489, 346.244919350804025 ], [ 64.719709243210474, 345.279295150964288 ], [ 64.71970924745824, 339.002737858003513 ], [ 66.168145541470423, 332.726180567041524 ], [ 69.547830236160976, 332.001962417161678 ], [ 69.306424186950721, 325.242593026279906 ], [ 85.239223466311003, 325.48399907823881 ] ] ] } },
{ "type": "Feature", "properties": { "feature_type": "building", "subtype": "minor-damage", "uid": "899efe22-f362-4631-9fa1-e24b7dcfa65c" }, "geometry": { "type": "Polygon", "coordinates": [ [ [ 168.0933584475587, 294.502358137848375 ], [ 172.984036765889414, 294.502358137848375 ], [ 172.687632019240596, 288.129656083274028 ], [ 185.581238507333211, 288.277858455474018 ], [ 189.582702585967411, 319.400356865347305 ], [ 173.428643888236309, 320.882380601340174 ], [ 171.798417781792892, 312.879452436573899 ], [ 173.873251010333405, 312.583047691174386 ], [ 171.650215407344092, 301.023262568620908 ], [ 168.834370316054702, 301.319667315019785 ], [ 168.0933584475587, 294.502358137848375 ] ] ] } },
{ "type": "Feature", "properties": { "feature_type": "building", "subtype": "no-damage", "uid": "56a2e194-6bbc-4fc4-a199-2fb08cf7e8fa" }, "geometry": { "type": "Polygon", "coordinates": [ [ [ 187.63648374937091, 350.544362900029114 ], [ 182.34034096162469, 349.787771073136582 ], [ 181.583749133982792, 338.06059776130121 ], [ 214.495493595800809, 337.871449803078917 ], [ 214.306345638328111, 364.541311692541683 ], [ 186.690743964506197, 364.163015782094021 ], [ 187.63648374937091, 350.544362900029114 ] ] ] } },
{ "type": "Feature", "properties": { "feature_type": "building", "subtype": "no-damage", "uid": "f34cc57e-5099-4f0e-84ee-b5bb5128b592" }, "geometry": { "type": "Polygon", "coordinates": [ [ [ 192.554330624420487, 390.454581756111622 ], [ 200.876840713988713, 391.7786174526737 ], [ 200.687692757765404, 384.590995100193879 ], [ 209.199350807804791, 384.212699184748772 ], [ 208.82105489435861, 369.837454481788313 ], [ 228.303294433586302, 369.837454479789301 ], [ 229.627330126150099, 382.132071662293811 ], [ 236.0583606547344, 382.510367576739498 ], [ 237.004100436850507, 396.885612283697924 ], [ 239.084727961803708, 396.696464324476096 ], [ 240.219615703391497, 396.318168411029887 ], [ 240.787059571561713, 418.637627298359916 ], [ 210.334238546144206, 419.015923209807227 ], [ 209.577646721750597, 407.667045812417484 ], [ 190.473703101466214, 408.423637639309902 ], [ 192.554330624420487, 390.454581756111622 ] ] ] } },
{ "type": "Feature", "properties": { "feature_type": "building", "subtype": "no-damage", "uid": "fd4007e2-b016-4a31-86be-9f375d67182f" }, "geometry": { "type": "Polygon", "coordinates": [ [ [ 199.931100933371908, 417.502739557021812 ], [ 203.524912109360997, 427.527581263846287 ], [ 181.016305264813099, 428.284173088739806 ], [ 180.070565481197804, 418.259331384913708 ], [ 199.931100933371908, 417.502739557021812 ] ] ] } },
{ "type": "Feature", "properties": { "feature_type": "building", "subtype": "no-damage", "uid": "37579197-8aef-43e4-8098-cebfe47b3764" }, "geometry": { "type": "Polygon", "coordinates": [ [ [ 189.13492694046451, 441.30366331062578 ], [ 189.376332990924112, 452.408341593789828 ], [ 173.44353371231341, 452.891153693709612 ], [ 173.926345809484502, 442.027881459506091 ], [ 189.13492694046451, 441.30366331062578 ] ] ] } },
{ "type": "Feature", "properties": { "feature_type": "building", "subtype": "no-damage", "uid": "670a4494-00e4-4a1f-ab1e-9d9eae11d73a" }, "geometry": { "type": "Polygon", "coordinates": [ [ [ 335.511611945710172, 462.91403467396708 ], [ 337.024795598745186, 451.186861360132809 ], [ 352.913223957735909, 452.700045012918224 ], [ 352.724076001512515, 461.589998975406104 ], [ 353.858963739352191, 474.073764114134008 ], [ 312.057265318046689, 476.15439164058688 ], [ 310.733229620735415, 462.914034671968182 ], [ 335.511611945710172, 462.91403467396708 ] ] ] } },
{ "type": "Feature", "properties": { "feature_type": "building", "subtype": "no-damage", "uid": "b39aef68-0844-4c0b-85a2-60261a44c0f5" }, "geometry": { "type": "Polygon", "coordinates": [ [ [ 308.085158228861189, 398.414581449877119 ], [ 311.300673494402815, 400.495208974331092 ], [ 311.111525533431916, 407.115387457141196 ], [ 326.62165798197492, 407.493683370587519 ], [ 337.024795598495302, 407.871979284033728 ], [ 338.727127211001914, 420.166596466538124 ], [ 328.323989593731824, 424.138703556224186 ], [ 327.756545720564191, 421.112336249653879 ], [ 302.789015440615287, 421.301484205877273 ], [ 303.545607268007416, 399.549469190215802 ], [ 308.085158228861189, 398.414581449877119 ] ] ] } },
{ "type": "Feature", "properties": { "feature_type": "building", "subtype": "no-damage", "uid": "e431d76e-b504-446a-9c92-4a10c3f6b091" }, "geometry": { "type": "Polygon", "coordinates": [ [ [ 440.045884911811982, 393.285676149726612 ], [ 458.634150737482514, 395.216924546407483 ], [ 458.875556786192988, 406.080196783609381 ], [ 440.770103060692122, 406.080196783609381 ], [ 440.045884911811982, 393.285676149726612 ] ] ] } },
{ "type": "Feature", "properties": { "feature_type": "building", "subtype": "no-damage", "uid": "41a6edde-b8d9-4ffd-84dc-053fa838882f" }, "geometry": { "type": "Polygon", "coordinates": [ [ [ 475.532574217431772, 395.699736647326802 ], [ 474.325543967632484, 409.459881479050296 ], [ 469.497422972933009, 408.977069378130977 ], [ 469.497422970933997, 407.770039130330417 ], [ 469.256016921723813, 403.183324186089408 ], [ 466.117738276493299, 401.493481839368428 ], [ 466.35914432645319, 400.286451588569378 ], [ 467.083362475333274, 394.734112447487121 ], [ 475.532574217431772, 395.699736647326802 ] ] ] } },
{ "type": "Feature", "properties": { "feature_type": "building", "subtype": "no-damage", "uid": "6271e044-6000-425d-922f-474c6e8d5f5f" }, "geometry": { "type": "Polygon", "coordinates": [ [ [ 476.981010512443504, 414.529408519213177 ], [ 474.325543963884513, 421.288777913093384 ], [ 478.18804076049372, 423.70283840769531 ], [ 476.498198414522676, 430.703613849536509 ], [ 456.702902339302796, 427.323929154095481 ], [ 458.875556788191886, 417.184875068772328 ], [ 461.531023333002906, 409.218475428090926 ], [ 473.118513715584413, 412.356754074571427 ], [ 476.981010512443504, 414.529408519213177 ] ] ] } },
{ "type": "Feature", "properties": { "feature_type": "building", "subtype": "no-damage", "uid": "d70a4b6e-5092-4be6-bb52-940f3499450f" }, "geometry": { "type": "Polygon", "coordinates": [ [ [ 479.647388600417628, 444.790809776040703 ], [ 487.946721510581483, 446.272833509035081 ], [ 488.984138123227581, 443.308786040047892 ], [ 496.542459167893981, 445.680024016237212 ], [ 494.171221193204474, 456.943404392391699 ], [ 498.913697143583022, 457.980821005787618 ], [ 497.876280530686984, 466.428356288153395 ], [ 495.060435431651626, 466.724761036551286 ], [ 492.540995086511316, 476.506117678711973 ], [ 488.984138125976187, 476.802522425111022 ], [ 487.205709642585305, 485.991069574473727 ], [ 471.49625806370301, 482.730617362085979 ], [ 474.904912653287397, 467.613975275748317 ], [ 479.054579109618714, 455.461380658397786 ], [ 479.647388599667977, 446.865643001833121 ], [ 479.647388600417628, 444.790809776040703 ] ] ] } },
{ "type": "Feature", "properties": { "feature_type": "building", "subtype": "no-damage", "uid": "1aa85c2e-f325-4302-bb48-25133945ae91" }, "geometry": { "type": "Polygon", "coordinates": [ [ [ 281.595071251600586, 293.771277289065722 ], [ 291.975531386381704, 307.048610020869376 ], [ 288.354440640231985, 309.704076564431716 ], [ 291.975531387880892, 316.222039909351508 ], [ 285.698974095421079, 320.084536701713716 ], [ 281.353665200141506, 315.497821760471084 ], [ 278.698198657079615, 317.429070157152125 ], [ 270.248986915980481, 301.254864827828328 ], [ 272.663047412580681, 299.082210382186986 ], [ 281.595071251600586, 293.771277289065722 ] ] ] } },
{ "type": "Feature", "properties": { "feature_type": "building", "subtype": "no-damage", "uid": "8e1e8459-9699-48b5-b489-1a0a64d0b25f" }, "geometry": { "type": "Polygon", "coordinates": [ [ [ 252.696267679952513, 268.636699194318282 ], [ 248.109552735962296, 271.774977840798783 ], [ 241.108777295371993, 260.428893504676523 ], [ 265.490788311833512, 248.599997069633901 ], [ 277.561090794834399, 264.774202398957584 ], [ 271.284533505622903, 268.878105246277187 ], [ 279.975151293683382, 283.845280323802399 ], [ 265.007976212413496, 291.570273913524375 ], [ 252.696267679952513, 268.636699194318282 ] ] ] } },
{ "type": "Feature", "properties": { "feature_type": "building", "subtype": "no-damage", "uid": "6937eb75-1e23-4a99-8a01-da173ee398c7" }, "geometry": { "type": "Polygon", "coordinates": [ [ [ 156.353326283478594, 138.594899409993104 ], [ 164.363980631305708, 134.281470145104805 ], [ 156.969530463427191, 123.189794895533296 ], [ 176.071860061572892, 113.946732188056799 ], [ 182.850106047004203, 124.114101167080506 ], [ 193.941781298572209, 117.027753087550593 ], [ 202.260537736998202, 128.427530430969398 ], [ 196.406598020115609, 133.049061783708112 ], [ 201.028129373852806, 141.367818222635805 ], [ 174.223247519978088, 158.005331099491713 ], [ 156.353326283478594, 138.594899409993104 ] ] ] } },
{ "type": "Feature", "properties": { "feature_type": "building", "subtype": "no-damage", "uid": "9e5bdba3-344e-4571-b80d-45e1a78055b2" }, "geometry": { "type": "Polygon", "coordinates": [ [ [ 508.822117562385927, 306.202436519959008 ], [ 511.286934283679386, 303.737619797165678 ], [ 512.211240555976133, 295.110761269388092 ], [ 534.702693147462128, 300.348496805823572 ], [ 532.545978515018533, 309.283457425449626 ], [ 540.248530774495521, 312.364478325942798 ], [ 528.23254925213007, 359.195996048021414 ], [ 519.297588632506063, 356.731179326227618 ], [ 521.146201174100952, 344.407095714259981 ], [ 507.28160711114009, 340.709870631069521 ], [ 510.054525927030625, 328.385787021100896 ], [ 501.119565306906793, 324.99666402975879 ], [ 503.892484118549476, 313.904988775189906 ], [ 506.973505020541211, 313.288784598489485 ], [ 507.589709202488677, 310.207763692998924 ], [ 508.822117562385927, 306.202436519959008 ] ] ] } },
{ "type": "Feature", "properties": { "feature_type": "building", "subtype": "no-damage", "uid": "fe0dba8a-5454-437e-b20f-8e2cc057b23d" }, "geometry": { "type": "Polygon", "coordinates": [ [ [ 181.142244705219895, 161.532938641320811 ], [ 208.56333074254141, 146.435936216710388 ], [ 225.817047798342713, 181.251472419669312 ], [ 207.639024471743909, 193.267453937789611 ], [ 203.325595208605705, 193.883658119487393 ], [ 202.093186844960513, 191.110739306844692 ], [ 196.239247130076706, 192.651249757091307 ], [ 181.142244705219895, 161.532938641320811 ] ] ] } },
{ "type": "Feature", "properties": { "feature_type": "building", "subtype": "no-damage", "uid": "8e37e4c0-f659-4823-8fb5-ac2c52b8d01b" }, "geometry": { "type": "Polygon", "coordinates": [ [ [ 67.081340001841696, 138.374525645437501 ], [ 70.9438367969517, 143.20264663763939 ], [ 75.28914568823339, 142.961240586680105 ], [ 76.978988036952941, 155.514355171602489 ], [ 66.35712184996315, 157.204197521321788 ], [ 64.184467402823088, 150.927640229360406 ], [ 60.321970607962953, 151.410452326281813 ], [ 58.149316160822877, 139.098743795317205 ], [ 67.081340001841696, 138.374525645437501 ] ] ] } },
{ "type": "Feature", "properties": { "feature_type": "building", "subtype": "minor-damage", "uid": "559e9c24-3cb4-4bfd-abd1-2d90e54aa127" }, "geometry": { "type": "Polygon", "coordinates": [ [ [ 145.623314654066093, 67.52351585697285 ], [ 154.558275271441289, 83.236722461282028 ], [ 159.487908715527595, 81.080007829337617 ], [ 165.341848433409808, 86.625845455622553 ], [ 147.471927194411592, 97.101316523496209 ], [ 132.374924774052289, 75.534170206051101 ], [ 145.623314654066093, 67.52351585697285 ] ] ] } },
{ "type": "Feature", "properties": { "feature_type": "building", "subtype": "minor-damage", "uid": "cce85dfa-0d34-45ac-af68-8e90b097f9a9" }, "geometry": { "type": "Polygon", "coordinates": [ [ [ 278.795693204024019, 16.08786376677206 ], [ 297.589920713070001, 5.920494787748347 ], [ 307.449187601742381, 23.48231393315303 ], [ 303.751962518052892, 26.56333483664466 ], [ 304.368166698751224, 28.411947377740169 ], [ 288.346858004596072, 38.887418446613303 ], [ 283.725326650359079, 33.957785000027208 ], [ 288.03875591424702, 30.260559919835149 ], [ 278.795693204024019, 16.08786376677206 ] ] ] } },
{ "type": "Feature", "properties": { "feature_type": "building", "subtype": "no-damage", "uid": "471be37b-e55c-473b-b67e-8c8a72678ffe" }, "geometry": { "type": "Polygon", "coordinates": [ [ [ 471.212677786783217, 16.06603117591645 ], [ 477.73064112770362, 25.722273165317759 ], [ 470.971271738072573, 32.481642552201663 ], [ 473.868144332343718, 34.654296999841932 ], [ 466.867368896500921, 39.72382404300329 ], [ 449.003321218211283, 24.273836864558788 ], [ 458.176751104692414, 16.548843277835228 ], [ 465.177526547781383, 22.82540056579878 ], [ 471.212677786783217, 16.06603117591645 ] ] ] } },
{ "type": "Feature", "properties": { "feature_type": "building", "subtype": "minor-damage", "uid": "1e8e3b08-6d63-4b8a-8b42-64f85bcddfed" }, "geometry": { "type": "Polygon", "coordinates": [ [ [ 681.549404303253141, 105.452728123224404 ], [ 684.014221024046947, 120.549730548834205 ], [ 675.695464590368374, 120.549730548834205 ], [ 676.311668769067637, 127.019874444667494 ], [ 654.128318267930581, 126.711772356816994 ], [ 653.204011997133193, 112.539076200755503 ], [ 658.441747533567536, 112.539076200755503 ], [ 657.82554335211978, 105.760830215072801 ], [ 681.549404303253141, 105.452728123224404 ] ] ] } },
{ "type": "Feature", "properties": { "feature_type": "building", "subtype": "no-damage", "uid": "d24e182d-5312-4bc0-8507-0508a6bd8906" }, "geometry": { "type": "Polygon", "coordinates": [ [ [ 713.592021692812637, 110.998565752507801 ], [ 715.440634232908224, 124.863159812723097 ], [ 698.186917180105297, 125.171261901573004 ], [ 697.570712996408702, 112.230974109906597 ], [ 713.592021692812637, 110.998565752507801 ] ] ] } },
{ "type": "Feature", "properties": { "feature_type": "building", "subtype": "no-damage", "uid": "ac7bd08a-0530-4615-bea2-e3e4e2cc00c3" }, "geometry": { "type": "Polygon", "coordinates": [ [ [ 738.856393096690908, 123.014547269628594 ], [ 749.948068345760134, 122.706445180778601 ], [ 749.331864165811567, 115.311995016396594 ], [ 759.4992331428341, 115.003892923548804 ], [ 761.655947774528158, 142.733081048976601 ], [ 747.483251622967373, 143.34928522967499 ], [ 747.175149532118553, 140.576366418031711 ], [ 740.396903545937676, 141.192570598729986 ], [ 738.856393096690908, 123.014547269628594 ] ] ] } },
{ "type": "Feature", "properties": { "feature_type": "building", "subtype": "no-damage", "uid": "8d111136-d2e9-460c-b156-749b3805cafa" }, "geometry": { "type": "Polygon", "coordinates": [ [ [ 844.872228019039653, 151.520842843561297 ], [ 845.250523931486327, 162.113128414058508 ], [ 849.790074890341202, 161.356536588165596 ], [ 851.303258544875348, 175.164337421456509 ], [ 835.225682227162679, 174.975189466232592 ], [ 835.603978143607264, 179.325592468365386 ], [ 822.741917087438196, 178.758148599695289 ], [ 822.552769133463585, 151.709990797785707 ], [ 844.872228019039653, 151.520842843561297 ] ] ] } },
{ "type": "Feature", "properties": { "feature_type": "building", "subtype": "no-damage", "uid": "c1b94967-f2ac-4ba2-b8d6-dfc777e92e62" }, "geometry": { "type": "Polygon", "coordinates": [ [ [ 843.082239840710031, 736.085772590478996 ], [ 843.323645891669344, 725.463906407234958 ], [ 860.222069368620282, 722.808439860674298 ], [ 861.187693566710664, 735.844366543517594 ], [ 857.808008871020661, 736.085772592477952 ], [ 858.773633068361391, 746.466232728760588 ], [ 843.565051939130512, 747.914669026521096 ], [ 843.082239840710031, 736.085772590478996 ] ] ] } },
{ "type": "Feature", "properties": { "feature_type": "building", "subtype": "no-damage", "uid": "27035cb5-7ffe-4c4f-9d74-d0ce4dba5fe4" }, "geometry": { "type": "Polygon", "coordinates": [ [ [ 963.639836688551554, 1022.978392079858054 ], [ 963.241476309544623, 1019.284169981148011 ], [ 963.634701323276886, 1019.677394997878991 ], [ 963.241476305046945, 1017.711269913226033 ], [ 959.309226132742765, 1001.195819191543023 ], [ 969.926301598963619, 999.622919120622328 ], [ 970.319526617693214, 994.117768881394227 ], [ 990.767227509677127, 994.904218915855267 ], [ 992.747882734516793, 1022.977816544855045 ], [ 963.639836688551554, 1022.978392079858054 ] ] ] } },
{ "type": "Feature", "properties": { "feature_type": "building", "subtype": "no-damage", "uid": "a7890b88-bda3-4d0a-a61f-eb7392ef2d52" }, "geometry": { "type": "Polygon", "coordinates": [ [ [ 794.154718918205162, 867.10608832943376 ], [ 805.165019396409093, 866.712863311703472 ], [ 805.55824441663799, 889.913139327803606 ], [ 794.941168951166787, 890.306364343534938 ], [ 794.154718918205162, 867.10608832943376 ] ] ] } },
{ "type": "Feature", "properties": { "feature_type": "building", "subtype": "minor-damage", "uid": "9c229c29-e503-4c6f-95f9-42a985ea0fee" }, "geometry": { "type": "Polygon", "coordinates": [ [ [ 808.704044549733794, 874.970588672044869 ], [ 807.131144480562284, 852.94998771113444 ], [ 822.860145170028886, 852.949987710135019 ], [ 827.185620358314168, 860.814488055744619 ], [ 828.365295410255271, 860.028038020284043 ], [ 849.992671356179244, 859.241587988821493 ], [ 848.812996304737794, 854.522887780056521 ], [ 877.518422561059197, 854.129662763325655 ], [ 875.552297472408441, 845.871937403983793 ], [ 894.033873284237075, 844.299037331063801 ], [ 896.393223382872065, 874.970588672044869 ], [ 870.833597267142636, 875.363813689775156 ], [ 871.226822283123738, 884.407989085577015 ], [ 807.917594515023097, 884.407989085577015 ], [ 808.704044549733794, 874.970588672044869 ] ] ] } },
{ "type": "Feature", "properties": { "feature_type": "building", "subtype": "no-damage", "uid": "9e228ff4-a749-454a-b649-376445ff666c" }, "geometry": { "type": "Polygon", "coordinates": [ [ [ 721.014865715845872, 987.432943588975377 ], [ 731.631941181317075, 987.82616860570613 ], [ 730.845491148855217, 994.510993899124514 ], [ 735.170966335641197, 994.904218915855267 ], [ 737.530316442771777, 979.17521822863398 ], [ 753.652542143721803, 979.568443243365778 ], [ 754.42096398617889, 1022.981471694262041 ], [ 724.228564899173307, 1022.981762859987043 ], [ 724.947115890398891, 1012.206119671998977 ], [ 717.47584056152175, 1009.846769569615049 ], [ 721.014865715845872, 987.432943588975377 ] ] ] } },
{ "type": "Feature", "properties": { "feature_type": "building", "subtype": "no-damage", "uid": "00fa40f8-9b99-4a08-851c-21ee27a3ab0f" }, "geometry": { "type": "Polygon", "coordinates": [ [ [ 551.70887731980315, 911.24820726604537 ], [ 580.054269628921475, 913.096819804142456 ], [ 580.978575896720486, 923.880392965863507 ], [ 572.351717367695414, 924.496597144562884 ], [ 573.584125728841968, 937.744987029077151 ], [ 576.357044543233201, 938.05308911892655 ], [ 576.973248723931306, 939.285497480323215 ], [ 576.665146634831558, 945.139437196457607 ], [ 552.941285684447848, 945.44753928430805 ], [ 551.70887731980315, 911.24820726604537 ] ] ] } },
{ "type": "Feature", "properties": { "feature_type": "building", "subtype": "no-damage", "uid": "88aa5e15-d7e0-4bbf-93b0-2b598ec781b1" }, "geometry": { "type": "Polygon", "coordinates": [ [ [ 551.400775232452474, 869.654425077403857 ], [ 576.357044545481926, 869.346322986555037 ], [ 576.973248722182234, 888.448652585204741 ], [ 568.346390193906814, 888.448652584205206 ], [ 569.578798556052789, 897.691715292681124 ], [ 556.330408675039621, 898.924123653078368 ], [ 556.638510764888906, 897.999817383530058 ], [ 556.638510763389718, 890.913469306998536 ], [ 551.400775230203635, 890.605367217149137 ], [ 551.400775232452474, 869.654425077403857 ] ] ] } },
{ "type": "Feature", "properties": { "feature_type": "building", "subtype": "no-damage", "uid": "f5eb0bd9-9920-4e51-af3a-c59b8582be37" }, "geometry": { "type": "Polygon", "coordinates": [ [ [ 602.123176021501422, 720.568948848636865 ], [ 624.537002001886208, 720.962173868366108 ], [ 624.930227021365454, 738.264074624509362 ], [ 619.425076780639415, 738.264074624509362 ], [ 620.211526813351156, 748.487925071503128 ], [ 609.594451348129837, 748.487925070503593 ], [ 608.808001314418561, 740.230199710162196 ], [ 602.909626056711886, 739.836974691432488 ], [ 602.123176021501422, 720.568948848636865 ] ] ] } },
{ "type": "Feature", "properties": { "feature_type": "building", "subtype": "no-damage", "uid": "8237e3c4-3e36-4a1f-a6ea-a66d2a2975eb" }, "geometry": { "type": "Polygon", "coordinates": [ [ [ 320.555798571923674, 774.049815591735864 ], [ 320.555798572423498, 770.904015456890193 ], [ 318.589673484272396, 760.680165009896541 ], [ 334.318674171240389, 760.680165008897006 ], [ 337.464474306834916, 782.307540955075638 ], [ 317.40999843058222, 783.093990988537143 ], [ 316.230323378641117, 774.836265627196326 ], [ 320.555798571923674, 774.049815591735864 ] ] ] } },
{ "type": "Feature", "properties": { "feature_type": "building", "subtype": "no-damage", "uid": "92feb956-e7cc-4aa6-afea-a06074b06950" }, "geometry": { "type": "Polygon", "coordinates": [ [ [ 336.287683958233572, 593.491201842522173 ], [ 337.520092318880415, 610.436816806229103 ], [ 327.968927521056912, 610.744918897077923 ], [ 327.968927525054823, 622.144696238497772 ], [ 310.715210468004216, 623.377104596896061 ], [ 309.790904195457586, 597.188426925712633 ], [ 336.287683958233572, 593.491201842522173 ] ] ] } },
{ "type": "Feature", "properties": { "feature_type": "building", "subtype": "no-damage", "uid": "e679739d-1bbc-407b-8fb5-836276fd4f51" }, "geometry": { "type": "Polygon", "coordinates": [ [ [ 735.227742065466259, 718.362218205377644 ], [ 738.124614658987753, 724.638775497339111 ], [ 743.194141703397349, 724.397369449378175 ], [ 743.194141705146421, 733.570799334861704 ], [ 727.985560574916121, 732.605175139020048 ], [ 728.468372672587066, 718.362218205377644 ], [ 735.227742065466259, 718.362218205377644 ] ] ] } },
{ "type": "Feature", "properties": { "feature_type": "building", "subtype": "no-damage", "uid": "4c62b9b2-d23d-41f3-811f-5c7ddd7b4865" }, "geometry": { "type": "Polygon", "coordinates": [ [ [ 989.783935578068053, 822.93037796067847 ], [ 994.502635784583276, 842.984853837935134 ], [ 976.021059979251163, 845.737428958048895 ], [ 975.62783495902238, 855.174829371581041 ], [ 936.305333239978381, 857.927404492694336 ], [ 932.373083069673157, 830.401653291556272 ], [ 939.05790835984169, 829.221978238365523 ], [ 941.024033447493025, 826.469403117252227 ], [ 989.783935578068053, 822.93037796067847 ] ] ] } },
{ "type": "Feature", "properties": { "feature_type": "building", "subtype": "no-damage", "uid": "71a21992-1cf4-44b9-b0b1-7f902882fcef" }, "geometry": { "type": "Polygon", "coordinates": [ [ [ 963.174757689464286, 5.208498856816386 ], [ 978.383338817945514, 5.932717002698222 ], [ 978.866150919364486, 13.17489849349986 ], [ 987.798174757134916, 13.416304544459249 ], [ 988.763798955475181, 27.900667522064609 ], [ 980.07318116866395, 27.417855421145301 ], [ 980.073181167914413, 33.935818764066148 ], [ 971.14115733089352, 33.694412717104662 ], [ 971.141157327645146, 26.935043324223901 ], [ 959.795072995023588, 26.210825176343111 ], [ 959.55366694531358, 12.692086392580549 ], [ 963.657569790133607, 12.45068034362011 ], [ 963.174757689464286, 5.208498856816386 ] ] ] } },
{ "type": "Feature", "properties": { "feature_type": "building", "subtype": "no-damage", "uid": "26f1941c-a60b-4211-8615-c4de41a4429c" }, "geometry": { "type": "Polygon", "coordinates": [ [ [ 979.384124226706831, 907.413863424077704 ], [ 982.03959077401646, 918.277135660280123 ], [ 975.521627435094956, 919.725571957041211 ], [ 976.245845580476953, 927.209159499801785 ], [ 959.830234201696612, 931.071656291164572 ], [ 955.002113207996558, 908.862299721838212 ], [ 970.452100391185127, 905.724021075357768 ], [ 972.38334878511705, 909.827923918679517 ], [ 979.384124226706831, 907.413863424077704 ] ] ] } },
{ "type": "Feature", "properties": { "feature_type": "building", "subtype": "no-damage", "uid": "117f08c4-18ca-440f-9134-bec43e4fa444" }, "geometry": { "type": "Polygon", "coordinates": [ [ [ 351.969498244539409, 784.260145679691163 ], [ 366.450296485449826, 784.260145681690119 ], [ 368.915113208242474, 794.735616752562123 ], [ 366.142194397099615, 794.735616750563167 ], [ 367.374602757996286, 807.059700360531792 ], [ 355.358621238129615, 805.827292000134662 ], [ 354.126212874734222, 794.119412569864835 ], [ 351.969498247038075, 789.497881215127109 ], [ 351.969498244539409, 784.260145679691163 ] ] ] } },
{ "type": "Feature", "properties": { "feature_type": "building", "subtype": "no-damage", "uid": "7ba06bb8-51ef-4dc3-b8b9-71308f663b62" }, "geometry": { "type": "Polygon", "coordinates": [ [ [ 446.86494204782349, 784.568247770539983 ], [ 464.118659105373922, 784.26014568268954 ], [ 464.118659104124617, 791.346493756222685 ], [ 475.518436445042084, 791.038391665373751 ], [ 477.675151078235388, 810.140721264023455 ], [ 435.157062620554711, 812.297435897966807 ], [ 436.081368890352678, 809.832619173174521 ], [ 434.848960527706879, 791.654595847071505 ], [ 438.546185614144918, 790.422187484675419 ], [ 438.238083524295575, 786.724962403483914 ], [ 446.86494204782349, 784.568247770539983 ] ] ] } },
{ "type": "Feature", "properties": { "feature_type": "building", "subtype": "no-damage", "uid": "45a21bfa-262c-4dfa-80b3-542ce4a0cf14" }, "geometry": { "type": "Polygon", "coordinates": [ [ [ 223.351874951297987, 890.571779104269694 ], [ 213.128024499808902, 889.785329072807031 ], [ 215.09414958721041, 871.303753263473027 ], [ 226.890900101124487, 872.876653333394529 ], [ 228.070575152815707, 876.022453473237533 ], [ 237.901200585325313, 875.236003436777537 ], [ 239.867325671227491, 883.493728796119512 ], [ 233.575725394541394, 883.886953811850844 ], [ 233.968950410272612, 888.605654019616395 ], [ 250.091176115470404, 887.425978966425646 ], [ 251.270851168411014, 899.615954503070043 ], [ 245.37247591245341, 899.615954503070043 ], [ 243.799575840783206, 906.694004811220111 ], [ 226.890900101624197, 902.368529623183804 ], [ 227.677350136584806, 893.324354229380788 ], [ 223.351874951297987, 890.571779104269694 ] ] ] } },
{ "type": "Feature", "properties": { "feature_type": "building", "subtype": "minor-damage", "uid": "93db0e50-9ca2-4b5a-b430-49a26d88be15" }, "geometry": { "type": "Polygon", "coordinates": [ [ [ 979.640554060934392, 576.416270181667301 ], [ 983.029677056273613, 599.832029043206376 ], [ 973.170410169600245, 600.756335313754107 ], [ 974.09471643789891, 610.923704295776247 ], [ 962.386837009630767, 611.848010563325488 ], [ 952.835672207309585, 579.805393174008827 ], [ 979.640554060934392, 576.416270181667301 ] ] ] } },
{ "type": "Feature", "properties": { "feature_type": "building", "subtype": "no-damage", "uid": "1c21f097-be89-48a6-bbd4-e2481d087732" }, "geometry": { "type": "Polygon", "coordinates": [ [ [ 815.115257526874643, 301.476042709841522 ], [ 830.171232705916054, 301.476042709841522 ], [ 829.167501028762558, 319.041347087517693 ], [ 818.126452562582926, 320.045078766670372 ], [ 815.115257526874643, 301.476042709841522 ] ] ] } },
{ "type": "Feature", "properties": { "feature_type": "building", "subtype": "minor-damage", "uid": "d23b0384-c06a-4ede-91f5-eae2092232b4" }, "geometry": { "type": "Polygon", "coordinates": [ [ [ 848.34622276312291, 185.658817071103613 ], [ 850.705572865506042, 200.601367724863394 ], [ 838.122372317131067, 201.781042777054608 ], [ 835.369797194769035, 186.0520420888339 ], [ 848.34622276312291, 185.658817071103613 ] ] ] } },
{ "type": "Feature", "properties": { "feature_type": "building", "subtype": "minor-damage", "uid": "044636d8-7393-41fe-838e-4a4c4c256cc3" }, "geometry": { "type": "Polygon", "coordinates": [ [ [ 330.992495567351114, 691.233871571123245 ], [ 333.501824760984505, 705.286115072264693 ], [ 323.966373812284189, 705.286115072264693 ], [ 323.96637381553262, 723.35328529001697 ], [ 312.925325348103627, 725.360748645323952 ], [ 307.404801114763927, 699.26372499934746 ], [ 316.438386222138774, 696.754395804963906 ], [ 316.940252062714478, 691.735737411199352 ], [ 330.992495567351114, 691.233871571123245 ] ] ] } }
]
}
