{
"type": "FeatureCollection",
"name": "hurricane-florence_00000040_post_disaster",
"features": [
{ "type": "Feature", "properties": { "feature_type": "building", "subtype": "no-damage", "uid": "5cedf939-fc61-48aa-9e70-13cc43125a0f" }, "geometry": { "type": "Polygon", "coordinates": [ [ [ 528.194768598871406, 241.816764062574407 ], [ 536.446496982250437, 238.132848238064497 ], [ 547.323026778942676, 236.557621020550101 ], [ 550.871192197838468, 248.204415842713189 ], [ 561.49833988257069, 245.705824614521788 ], [ 565.51057236275517, 260.940252126802875 ], [ 555.648919597829831, 264.125403726883007 ], [ 557.009461869071629, 269.362428077792117 ], [ 537.693407539885925, 274.599452426663674 ], [ 528.194768598871406, 241.816764062574407 ] ] ] } },
{ "type": "Feature", "properties": { "feature_type": "building", "subtype": "no-damage", "uid": "dea9b374-05b3-4b2a-9106-d044b7b73005" }, "geometry": { "type": "Polygon", "coordinates": [ [ [ 458.427036126946916, 244.01479191193161 ], [ 466.438329945327723, 239.520651477247412 ], [ 478.552969373055987, 238.543664428045304 ], [ 490.863006208994477, 283.875863569911985 ], [ 471.323265197194985, 289.542388464046212 ], [ 458.427036126946916, 244.01479191193161 ] ] ] } },
{ "type": "Feature", "properties": { "feature_type": "building", "subtype": "no-damage", "uid": "0b55f2c9-f8bc-4a40-b590-b1f6ebecbed6" }, "geometry": { "type": "Polygon", "coordinates": [ [ [ 650.518662083844674, 87.709614019626542 ], [ 691.549189714225008, 73.624507516877117 ], [ 699.969633817454678, 98.426542870690938 ], [ 648.069078342398484, 116.645321936145095 ], [ 645.466395620709704, 108.684174780645193 ], [ 650.212464114317186, 107.306283926749899 ], [ 646.078791556962642, 93.680474380393122 ], [ 651.896552935574505, 91.383989625938639 ], [ 650.518662083844674, 87.709614019626542 ] ] ] } },
{ "type": "Feature", "properties": { "feature_type": "building", "subtype": "no-damage", "uid": "89b38e6b-4070-466c-b86b-414a2fb05b1a" }, "geometry": { "type": "Polygon", "coordinates": [ [ [ 719.752391649841115, 81.416271737430876 ], [ 731.028355270792304, 80.696529376820223 ], [ 732.947668227877784, 114.284506113282703 ], [ 721.431790487529724, 114.884291411584101 ], [ 719.752391649841115, 81.416271737430876 ] ] ] } },
{ "type": "Feature", "properties": { "feature_type": "building", "subtype": "no-damage", "uid": "32d12015-06a7-439d-8346-008fbdd5a19a" }, "geometry": { "type": "Polygon", "coordinates": [ [ [ 805.561933636817002, 34.897734328686063 ], [ 833.732146637467736, 29.062535367226051 ], [ 837.865819197623978, 47.451850985963013 ], [ 809.542507212018563, 53.11651338802718 ], [ 803.571646848834121, 44.696069281228937 ], [ 805.561933636817002, 34.897734328686063 ] ] ] } },
{ "type": "Feature", "properties": { "feature_type": "building", "subtype": "no-damage", "uid": "1e0d1504-2360-4628-ad80-17ad61179445" }, "geometry": { "type": "Polygon", "coordinates": [ [ [ 545.328026718166029, 0.011590041881927 ], [ 549.338169391624888, 6.086596702811303 ], [ 547.728630686370707, 7.113063109252928 ], [ 552.037976305971142, 14.97252765411849 ], [ 528.886263768442063, 28.52767541284663 ], [ 512.69865164346777, 0.011618011875789 ], [ 545.328026718166029, 0.011590041881927 ] ] ] } },
{ "type": "Feature", "properties": { "feature_type": "building", "subtype": "un-classified", "uid": "a84e6f75-11c3-4edc-b24b-3d19bf98e068" }, "geometry": { "type": "Polygon", "coordinates": [ [ [ 482.338215120794075, 0.011596779417694 ], [ 480.656352649740086, 8.766614345108442 ], [ 466.111949199644698, 8.154218414458809 ], [ 466.570594995313911, 0.011567778365886 ], [ 482.338215120794075, 0.011596779417694 ] ] ] } },
{ "type": "Feature", "properties": { "feature_type": "building", "subtype": "no-damage", "uid": "98ddbebc-95ba-48d7-8e98-3c44f955f5fc" }, "geometry": { "type": "Polygon", "coordinates": [ [ [ 575.987255295616819, 82.962844386492378 ], [ 577.647669699153312, 75.803389665500887 ], [ 597.070073915069884, 80.056545551991306 ], [ 595.521271608167694, 87.022399985527372 ], [ 575.987255295616819, 82.962844386492378 ] ] ] } }
]
}
