{
"type": "FeatureCollection",
"name": "hurricane-michael_00000520_post_disaster",
"features": [
{ "type": "Feature", "properties": { "feature_type": "building", "subtype": "no-damage", "uid": "961a2879-69e8-4051-9ae3-e7f2ec0ab53e" }, "geometry": { "type": "Polygon", "coordinates": [ [ [ 745.046696579739432, 557.764806570477276 ], [ 748.046696579526156, 562.764806572040015 ], [ 756.046696579873583, 558.764806572988732 ], [ 762.046696582695404, 573.764806572679277 ], [ 754.046696581598326, 576.76480657121806 ], [ 761.046696584432425, 591.76480657090849 ], [ 746.046696582750087, 598.764806570497512 ], [ 750.046696582798972, 607.764806571111421 ], [ 730.046696580805815, 616.7648065737244 ], [ 711.046696582822847, 625.764806571339705 ], [ 696.046696583139578, 591.76480657090849 ], [ 715.046696580872663, 583.764806570807082 ], [ 710.046696579562308, 573.764806570680207 ], [ 745.046696579739432, 557.764806570477276 ] ] ] } },
{ "type": "Feature", "properties": { "feature_type": "building", "subtype": "minor-damage", "uid": "ab1bd60c-01d6-4c8c-a7ec-2e21ee13c072" }, "geometry": { "type": "Polygon", "coordinates": [ [ [ 644.954530833816307, 637.994669764642254 ], [ 615.954530832213095, 652.994669763333263 ], [ 600.954530832529827, 623.994669767463279 ], [ 629.95453083288362, 608.994669764774244 ], [ 652.954530832164778, 596.994669763622596 ], [ 661.954530834523439, 614.994669767848904 ], [ 656.954530833462968, 617.994669764388618 ], [ 661.954530833523904, 628.994669765027879 ], [ 644.954530833816307, 637.994669764642254 ] ] ] } },
{ "type": "Feature", "properties": { "feature_type": "building", "subtype": "minor-damage", "uid": "a778e128-fe57-48a1-8ae6-2e962b1c9863" }, "geometry": { "type": "Polygon", "coordinates": [ [ [ 857.62796092008125, 550.920719980154217 ], [ 812.576309648648703, 571.788154810502647 ], [ 810.576309648124607, 566.788154809939556 ], [ 799.576309647990342, 571.788154810502647 ], [ 789.576309647618473, 548.788154808711738 ], [ 825.576309647807761, 533.788154812019798 ], [ 823.576309649032737, 526.788154811431241 ], [ 830.57630964911823, 523.788154810893388 ], [ 833.576309649904374, 529.788154809970024 ], [ 850.030226561236645, 522.423442892062667 ], [ 857.476652805349659, 538.324286004837404 ], [ 857.62796092008125, 550.920719980154217 ] ] ] } },
{ "type": "Feature", "properties": { "feature_type": "building", "subtype": "major-damage", "uid": "e50cba48-1dcd-45d2-976a-a744786a5d0c" }, "geometry": { "type": "Polygon", "coordinates": [ [ [ 822.852931751357573, 744.299467010132616 ], [ 781.852931751107235, 776.299467009538944 ], [ 778.852931753569351, 773.299467011000161 ], [ 765.852931753410758, 757.299467008798274 ], [ 792.852931751991036, 736.299467011030629 ], [ 777.852931752557652, 716.299467008778038 ], [ 782.85293175186905, 712.299467009726754 ], [ 778.852931751070628, 706.299467010650119 ], [ 787.852931750930566, 699.299467013060166 ], [ 792.852931751741153, 705.299467010137732 ], [ 820.852931751083247, 741.299467008595343 ], [ 822.852931751357573, 744.299467010132616 ] ] ] } },
{ "type": "Feature", "properties": { "feature_type": "building", "subtype": "minor-damage", "uid": "d54d3047-8eff-4c45-97a9-7036e621aebf" }, "geometry": { "type": "Polygon", "coordinates": [ [ [ 472.631341578447177, 748.608954744546395 ], [ 481.290545989664622, 766.245772385718965 ], [ 478.254315193340915, 770.304379362479949 ], [ 471.7597039196624, 769.709454152906233 ], [ 475.709454213665481, 778.072636510064513 ], [ 463.000000102600382, 785.000000037442533 ], [ 462.000000100589205, 781.000000037391828 ], [ 428.00000010142378, 796.000000037082259 ], [ 426.000000102898582, 795.145272980991763 ], [ 415.340795693905704, 800.68159121641736 ], [ 403.000000101118815, 776.000000037828158 ], [ 401.000000100844488, 771.000000038264488 ], [ 418.000000102551212, 763.000000037163545 ], [ 420.000000105324204, 768.000000036727215 ], [ 450.000000101192427, 754.000000037549171 ], [ 446.000000101393482, 745.000000037934683 ], [ 463.000000105348988, 738.000000039345196 ], [ 467.796109594537882, 750.728763751020438 ], [ 472.631341578447177, 748.608954744546395 ] ] ] } },
{ "type": "Feature", "properties": { "feature_type": "building", "subtype": "destroyed", "uid": "5592c942-bbce-4aa3-a3e3-7b9050097a91" }, "geometry": { "type": "Polygon", "coordinates": [ [ [ 501.215515366381112, 833.29766842512538 ], [ 531.350403104537236, 820.054260255147369 ], [ 535.485290845874488, 829.702331647440928 ], [ 506.485290845020927, 843.702331645619552 ], [ 501.215515366381112, 833.29766842512538 ] ] ] } },
{ "type": "Feature", "properties": { "feature_type": "building", "subtype": "minor-damage", "uid": "ff88c534-a84f-4b19-a6d9-97cb2fbaaaf8" }, "geometry": { "type": "Polygon", "coordinates": [ [ [ 657.917425728210333, 846.211845265453121 ], [ 627.917425728843796, 869.21184526724403 ], [ 625.152619195392049, 863.105922651300602 ], [ 618.940773969081647, 866.870729183766912 ], [ 609.046696581078777, 873.423690491033312 ], [ 599.940773966600887, 859.635535717592916 ], [ 604.917425730312402, 856.211845264580347 ], [ 625.504553860466444, 841.271071399062521 ], [ 620.5404317519816, 833.482916623699111 ], [ 638.917425730727132, 821.211845266635237 ], [ 657.917425728210333, 846.211845265453121 ] ] ] } },
{ "type": "Feature", "properties": { "feature_type": "building", "subtype": "minor-damage", "uid": "20bfc55b-4598-4041-b459-c0f3ed1cd55f" }, "geometry": { "type": "Polygon", "coordinates": [ [ [ 730.350266616010572, 779.248667467386781 ], [ 745.152398723865758, 800.101599120514038 ], [ 702.203198267780294, 831.401066092118299 ], [ 686.350266615223859, 811.248667468792178 ], [ 697.350266617107195, 803.248667468690655 ], [ 693.350266619057379, 798.24866747012652 ], [ 706.350266618216438, 789.248667470512146 ], [ 710.350266616516137, 793.248667469563316 ], [ 715.350266615577652, 790.248667471024532 ], [ 707.350266618978253, 779.248667468386316 ], [ 722.350266617162333, 768.24866746974601 ], [ 730.350266616010572, 779.248667467386781 ] ] ] } },
{ "type": "Feature", "properties": { "feature_type": "building", "subtype": "no-damage", "uid": "4369a989-453e-4335-b593-ad70dfe456e0" }, "geometry": { "type": "Polygon", "coordinates": [ [ [ 678.712873458042623, 1022.979714515352043 ], [ 672.258541809334019, 1013.682232197243025 ], [ 665.284494371270512, 1004.753268696552027 ], [ 683.820012619958334, 991.172666512016463 ], [ 689.74897612010875, 996.966378198217512 ], [ 695.194326494835423, 992.940425636894474 ], [ 683.682232262442426, 972.764806570243536 ], [ 697.34111618315967, 961.870729185471532 ], [ 723.258541807207507, 997.682232197039866 ], [ 709.258541809785356, 1007.682232197166968 ], [ 695.665918073403532, 1022.979530751627976 ], [ 678.712873458042623, 1022.979714515352043 ] ] ] } },
{ "type": "Feature", "properties": { "feature_type": "building", "subtype": "minor-damage", "uid": "b823b6ae-eb10-47c6-b552-32ed293e9d4c" }, "geometry": { "type": "Polygon", "coordinates": [ [ [ 816.235193570243382, 883.211845265422539 ], [ 829.235193568652903, 901.211845264651402 ], [ 790.470387034262217, 931.211845262033421 ], [ 775.235193570492811, 912.211845265290663 ], [ 772.235193567457713, 908.211845266239379 ], [ 767.2351935698955, 902.211845263164832 ], [ 783.235193569590933, 891.211845264524527 ], [ 787.235193568890168, 898.211845266112618 ], [ 803.235193569085368, 887.211845263474288 ], [ 805.235193570858883, 890.21184526401214 ], [ 816.235193570243382, 883.211845265422539 ] ] ] } },
{ "type": "Feature", "properties": { "feature_type": "building", "subtype": "minor-damage", "uid": "2abeec9b-978f-439d-8b59-765b214a7da7" }, "geometry": { "type": "Polygon", "coordinates": [ [ [ 778.705580501450299, 940.658883958967863 ], [ 755.705580501919258, 956.658883959170794 ], [ 751.7055805001213, 949.87072918631884 ], [ 735.258541808103587, 959.529613106991974 ], [ 722.129270956227856, 942.188497025823267 ], [ 734.658884021467657, 934.658883958891693 ], [ 738.258541807140659, 926.42369049220531 ], [ 760.705580500980773, 913.658883957126136 ], [ 764.705580501279428, 919.658883956202772 ], [ 774.705580501901181, 935.658883958404658 ], [ 778.705580501450299, 940.658883958967863 ] ] ] } },
{ "type": "Feature", "properties": { "feature_type": "building", "subtype": "minor-damage", "uid": "26e8f568-f752-4ca6-abb7-4ff5c5e472a2" }, "geometry": { "type": "Polygon", "coordinates": [ [ [ 216.000000102835401, 779.000000037366476 ], [ 225.00000010269531, 797.000000038594294 ], [ 231.000000102268814, 811.000000036772803 ], [ 233.000000102543112, 815.000000036823508 ], [ 230.000000101756797, 816.000000036336473 ], [ 231.000000102268814, 819.000000035874791 ], [ 224.000000100684105, 823.000000034925961 ], [ 222.000000101659197, 820.000000037386712 ], [ 219.000000101122907, 821.000000036899678 ], [ 218.000000101610397, 818.000000036361826 ], [ 194.000000104316086, 829.000000036001552 ], [ 187.000000101981897, 815.000000036823508 ], [ 174.000000101073596, 821.000000037899099 ], [ 166.000000101225908, 803.00000003867035 ], [ 163.000000102188807, 797.000000038594294 ], [ 176.000000100598299, 791.000000038518124 ], [ 179.00000010088479, 797.000000038594294 ], [ 216.000000102835401, 779.000000037366476 ] ] ] } },
{ "type": "Feature", "properties": { "feature_type": "building", "subtype": "no-damage", "uid": "eb8f8628-17bd-4543-b44b-4a1c312bcba5" }, "geometry": { "type": "Polygon", "coordinates": [ [ [ 295.000000102300021, 770.000000036752567 ], [ 301.000000104622018, 783.000000038416715 ], [ 288.0000001004654, 789.000000039492306 ], [ 282.000000100642126, 775.000000039314727 ], [ 277.000000103079913, 778.000000038853045 ], [ 284.000000100416628, 793.000000038543476 ], [ 262.000000102397109, 803.00000003867035 ], [ 263.00000010165968, 807.00000003472303 ], [ 260.000000102372724, 808.000000036234951 ], [ 262.000000102896877, 812.000000038284725 ], [ 254.000000102299509, 815.000000036823508 ], [ 252.000000101025705, 812.000000038284725 ], [ 248.000000100477195, 814.000000038310077 ], [ 247.000000103963202, 810.000000036260417 ], [ 240.000000101379101, 795.000000036569872 ], [ 233.00000010104381, 779.000000037366476 ], [ 273.000000104280389, 761.000000037138193 ], [ 269.000000105480979, 753.000000036037136 ], [ 284.000000101166222, 746.000000038447183 ], [ 288.000000104713308, 754.000000037549171 ], [ 295.000000102300021, 770.000000036752567 ] ] ] } },
{ "type": "Feature", "properties": { "feature_type": "building", "subtype": "no-damage", "uid": "55bead0d-2cd4-43cb-8248-54e89aa0d2cf" }, "geometry": { "type": "Polygon", "coordinates": [ [ [ 394.35965521256071, 1022.980977221161993 ], [ 394.360000100753496, 1022.980000037532022 ], [ 394.326519889741121, 1022.980977169188009 ], [ 358.634798786598424, 1022.980893020984013 ], [ 348.000000101947023, 1009.000000038284043 ], [ 394.000000101258877, 973.000000038827466 ], [ 416.000000105025492, 1002.000000035696985 ], [ 423.000000104361277, 1011.000000037309974 ], [ 410.000000101953788, 1021.000000036437996 ], [ 406.00000010265461, 1015.000000039359975 ], [ 401.000000101344312, 1018.000000037898985 ], [ 399.00000010181958, 1015.000000037361019 ], [ 394.566123939074089, 1022.980977548999022 ], [ 394.35965521256071, 1022.980977221161993 ] ] ] } },
{ "type": "Feature", "properties": { "feature_type": "building", "subtype": "no-damage", "uid": "783090b7-4a07-495f-a207-13056a7e22ae" }, "geometry": { "type": "Polygon", "coordinates": [ [ [ 272.815431505647098, 1020.543642187972978 ], [ 265.825431504777214, 1009.543642188333024 ], [ 328.825431507294923, 977.543642184928444 ], [ 336.825431503894322, 993.543642187130331 ], [ 280.20115727039979, 1022.543642186997999 ], [ 272.815431505647098, 1020.543642187972978 ] ] ] } },
{ "type": "Feature", "properties": { "feature_type": "building", "subtype": "no-damage", "uid": "f66d6cc1-cbba-4571-bb66-7aad45f6634d" }, "geometry": { "type": "Polygon", "coordinates": [ [ [ 330.55361043004649, 976.087284336950233 ], [ 382.553610432929815, 949.087284336108041 ], [ 391.553610430290917, 966.087284337822894 ], [ 338.553610430643914, 992.08728433615363 ], [ 330.55361043004649, 976.087284336950233 ] ] ] } },
{ "type": "Feature", "properties": { "feature_type": "building", "subtype": "no-damage", "uid": "51e3ce84-d79a-4588-9386-e5144fdb2b53" }, "geometry": { "type": "Polygon", "coordinates": [ [ [ 78.470387036320517, 858.294419638626209 ], [ 84.470387034394705, 871.294419639290822 ], [ 92.470387034742174, 867.294419640239653 ], [ 96.470387037539609, 876.294419639854027 ], [ 100.470387033340501, 874.29441964082821 ], [ 117.705580500382595, 913.5529613422583 ], [ 85.811503112611121, 926.658883956791215 ], [ 77.762245514934037, 912.575525777911707 ], [ 75.47038703603404, 913.294419639823559 ], [ 67.043351653150481, 898.283667296859448 ], [ 71.470387036484993, 893.294419640569345 ], [ 69.470387035710957, 888.294419638007184 ], [ 72.470387034997927, 886.294419639980902 ], [ 68.470387033699751, 878.294419638879845 ], [ 72.470387034748057, 876.294419636855537 ], [ 64.908174756712, 865.856631918415019 ], [ 78.470387036320517, 858.294419638626209 ] ] ] } },
{ "type": "Feature", "properties": { "feature_type": "building", "subtype": "no-damage", "uid": "6073951a-4776-482d-b104-1e37f9f0d798" }, "geometry": { "type": "Polygon", "coordinates": [ [ [ 106.901443161581398, 1022.978762923011004 ], [ 185.781974443574597, 985.688793494868037 ], [ 197.101096961441186, 1012.319122552557019 ], [ 177.660729361082304, 1022.979633622531992 ], [ 106.901443161581398, 1022.978762923011004 ] ] ] } },
{ "type": "Feature", "properties": { "feature_type": "building", "subtype": "no-damage", "uid": "bad1dd3f-ffac-4214-919a-06612776ae4c" }, "geometry": { "type": "Polygon", "coordinates": [ [ [ 169.000000102761788, 962.000000035189714 ], [ 178.000000104370798, 982.00000003844184 ], [ 130.000000102036097, 1004.000000036721985 ], [ 121.0000001006769, 984.000000037467657 ], [ 135.000000100597788, 977.000000037878635 ], [ 133.000000101073198, 974.000000037340897 ], [ 147.000000100244506, 967.000000037751875 ], [ 149.000000103267411, 971.000000035803623 ], [ 169.000000102761788, 962.000000035189714 ] ] ] } },
{ "type": "Feature", "properties": { "feature_type": "building", "subtype": "no-damage", "uid": "70fa661d-8fdd-4d22-9b8a-7d7033c3d8cf" }, "geometry": { "type": "Polygon", "coordinates": [ [ [ 850.628016773606873, 26.929342829363922 ], [ 825.901993329276365, 11.40530034171065 ], [ 829.860031274994412, 0.0 ], [ 850.164286394409601, 0.0 ], [ 850.628016773606873, 26.929342829363922 ] ] ] } },
{ "type": "Feature", "properties": { "feature_type": "building", "subtype": "minor-damage", "uid": "f62e9b83-85ec-446e-bc26-91e889b299d5" }, "geometry": { "type": "Polygon", "coordinates": [ [ [ 777.711641827006474, 272.858905553067984 ], [ 787.711641829127529, 292.858905554321211 ], [ 791.711641828926417, 289.858905552783881 ], [ 801.711641829798054, 308.858905554524085 ], [ 796.711641828987467, 310.858905554549494 ], [ 793.711641828451093, 312.85890555457479 ], [ 774.711641826969867, 322.858905553702186 ], [ 762.711641830071926, 328.858905551779287 ], [ 752.711641828700522, 308.858905554524085 ], [ 763.711641827585368, 302.858905554447972 ], [ 754.711641830224153, 284.858905553220211 ], [ 773.711641827207586, 274.858905554092928 ], [ 777.711641827006474, 272.858905553067984 ] ] ] } },
{ "type": "Feature", "properties": { "feature_type": "building", "subtype": "no-damage", "uid": "3995133b-f988-4d07-a154-56c856f598a9" }, "geometry": { "type": "Polygon", "coordinates": [ [ [ 796.00000010341455, 333.00000003670732 ], [ 799.000000103451157, 339.000000037782911 ], [ 803.000000103499929, 338.00000003926948 ], [ 809.000000102073955, 335.000000037732207 ], [ 816.00000010190945, 351.000000035936125 ], [ 820.218598603570058, 359.618864973664927 ], [ 815.000000101897285, 363.000000037087773 ], [ 811.000000102598051, 365.000000040111672 ], [ 820.804832515891121, 382.678438339158276 ], [ 801.057620727610583, 392.55204423467768 ], [ 778.00000010244537, 342.000000039320184 ], [ 796.00000010341455, 333.00000003670732 ] ] ] } },
{ "type": "Feature", "properties": { "feature_type": "building", "subtype": "no-damage", "uid": "6ba02415-aa28-4296-96b8-411e409754d6" }, "geometry": { "type": "Polygon", "coordinates": [ [ [ 89.260840091153298, 142.726084035329393 ], [ 77.000000100140113, 140.000000035758688 ], [ 84.000000102224519, 109.000000034865806 ], [ 94.165176085359661, 112.0000000374026 ], [ 89.260840091153298, 142.726084035329393 ] ] ] } },
{ "type": "Feature", "properties": { "feature_type": "building", "subtype": "minor-damage", "uid": "a0925c68-b1e9-4226-a404-0e13921096ca" }, "geometry": { "type": "Polygon", "coordinates": [ [ [ 43.904336095881902, 81.917412044765896 ], [ 58.904336097064387, 84.917412046303212 ], [ 60.904336097838417, 75.917412045689304 ], [ 76.904336096534365, 78.917412046227113 ], [ 74.904336096010212, 88.917412048352944 ], [ 70.904336097960424, 105.917412046069799 ], [ 54.904336096265972, 102.917412046531496 ], [ 53.904336095004389, 108.917412045608103 ], [ 20.904336094851669, 101.917412044020097 ], [ 25.90433609816105, 80.917412044253467 ], [ 26.904336094674989, 72.917412047150506 ], [ 45.904336096406048, 76.917412045202241 ], [ 43.904336095881902, 81.917412044765896 ] ] ] } },
{ "type": "Feature", "properties": { "feature_type": "building", "subtype": "no-damage", "uid": "fb7d25b4-e418-4fc5-97fd-462e1cd541d1" }, "geometry": { "type": "Polygon", "coordinates": [ [ [ 258.314417376941378, 0.004299976186833 ], [ 259.281106242210399, 12.00000003713383 ], [ 209.000000102000399, 13.000000037646259 ], [ 209.000000104749006, 0.003897354170592 ], [ 258.314417376941378, 0.004299976186833 ] ] ] } },
{ "type": "Feature", "properties": { "feature_type": "building", "subtype": "no-damage", "uid": "6e512378-387b-440a-8f53-85f811eef5cf" }, "geometry": { "type": "Polygon", "coordinates": [ [ [ 211.71781113353191, 128.141094519484398 ], [ 208.717811137243388, 143.141094519174914 ], [ 188.717811134500607, 139.141094520123602 ], [ 191.717811136536312, 123.141094518921193 ], [ 161.717811133921401, 117.141094521843598 ], [ 165.717811134469912, 98.14109452010338 ], [ 215.717811133330798, 108.141094519230705 ], [ 211.71781113353191, 128.141094519484398 ] ] ] } },
{ "type": "Feature", "properties": { "feature_type": "building", "subtype": "no-damage", "uid": "2c6b9d91-e9d7-4f71-947d-6ae15f6b4174" }, "geometry": { "type": "Polygon", "coordinates": [ [ [ 151.000000102542202, 93.000000037661408 ], [ 147.000000104992097, 117.000000036966298 ], [ 135.000000102347002, 115.000000035941397 ], [ 135.000000100347989, 119.000000034992695 ], [ 107.0000001022552, 114.000000035428997 ], [ 107.000000101755504, 110.000000037377305 ], [ 100.000000100670604, 109.000000036864805 ], [ 104.000000101968794, 84.000000035048501 ], [ 151.000000102542202, 93.000000037661408 ] ] ] } },
{ "type": "Feature", "properties": { "feature_type": "building", "subtype": "no-damage", "uid": "30955398-1599-4ed2-a0b7-fc83f0084d92" }, "geometry": { "type": "Polygon", "coordinates": [ [ [ 191.000000103280001, 0.003724658948911 ], [ 191.000000100531395, 2.000000038006501 ], [ 149.000000102517788, 2.000000036007494 ], [ 149.000000100768602, 0.003268171687726 ], [ 191.000000103280001, 0.003724658948911 ] ] ] } },
{ "type": "Feature", "properties": { "feature_type": "building", "subtype": "no-damage", "uid": "38115284-2608-4e9c-aaa5-15ee935238ee" }, "geometry": { "type": "Polygon", "coordinates": [ [ [ 360.000000101593685, 175.000000036702403 ], [ 378.000000103062689, 172.000000036164607 ], [ 380.000000105585798, 184.000000037316312 ], [ 361.000000103105208, 186.000000038341199 ], [ 360.000000101593685, 175.000000036702403 ] ] ] } },
{ "type": "Feature", "properties": { "feature_type": "building", "subtype": "no-damage", "uid": "e2530d08-a3b3-4f09-8e11-4609951a1590" }, "geometry": { "type": "Polygon", "coordinates": [ [ [ 297.423283553208023, 126.852736246531407 ], [ 293.423283555158207, 144.852736248758788 ], [ 240.423283552762513, 132.852736245608014 ], [ 244.423283551811693, 113.852736248865298 ], [ 245.423283551823914, 110.852736246328504 ], [ 282.423283554274292, 118.852736248428997 ], [ 281.423283552762882, 122.852736248479701 ], [ 297.423283553208023, 126.852736246531407 ] ] ] } },
{ "type": "Feature", "properties": { "feature_type": "building", "subtype": "destroyed", "uid": "9edf76b2-d537-444d-bd99-14b0cfc64229" }, "geometry": { "type": "Polygon", "coordinates": [ [ [ 454.000000103240211, 55.000000038178953 ], [ 466.000000101387627, 75.000000036433605 ], [ 455.000000102003128, 82.000000037022133 ], [ 461.000000101576518, 92.000000037148965 ], [ 436.00000010152138, 107.000000038838493 ], [ 430.000000100948398, 98.00000003822457 ], [ 413.000000101740511, 109.000000037864297 ], [ 401.000000101594082, 88.000000037098232 ], [ 414.000000100503428, 80.000000037996273 ], [ 412.000000104227126, 76.000000038945046 ], [ 431.000000103209516, 63.000000037280913 ], [ 434.00000010124711, 67.000000039330658 ], [ 454.000000103240211, 55.000000038178953 ] ] ] } },
{ "type": "Feature", "properties": { "feature_type": "building", "subtype": "major-damage", "uid": "a29624f8-ac05-424a-af9f-14ae248a3fdb" }, "geometry": { "type": "Polygon", "coordinates": [ [ [ 647.894077489239976, 14.105922649028489 ], [ 661.000000101267801, 42.76480656944279 ], [ 649.870729248417092, 49.894077423747483 ], [ 652.870729248203816, 55.894077423823568 ], [ 656.870729249502006, 61.89407742489918 ], [ 658.870729252274941, 66.894077423463344 ], [ 647.870729250141835, 72.894077422539937 ], [ 645.870729250367276, 67.894077423975773 ], [ 640.870729248557154, 69.894077424001139 ], [ 637.870729248270663, 63.894077424924546 ], [ 630.870729252932847, 66.894077424462836 ], [ 627.870729249647866, 59.894077423874307 ], [ 613.870729248727457, 30.894077425005751 ], [ 610.870729252189108, 26.894077424955022 ], [ 630.870729252433193, 16.894077421829682 ], [ 632.870729249958799, 20.89407742387942 ], [ 647.894077489239976, 14.105922649028489 ] ] ] } },
{ "type": "Feature", "properties": { "feature_type": "building", "subtype": "no-damage", "uid": "173be457-100e-4ea0-8ea1-0b153550add2" }, "geometry": { "type": "Polygon", "coordinates": [ [ [ 498.000000103027389, 91.000000038635534 ], [ 492.000000104953187, 65.000000036306773 ], [ 489.00000010466681, 52.000000036641637 ], [ 504.000000104599792, 49.000000038102847 ], [ 506.000000104124524, 55.000000038178953 ], [ 518.000000102022, 52.000000037641151 ], [ 519.000000104283117, 56.000000036692377 ], [ 528.000000101394335, 54.000000037666517 ], [ 534.000000102966851, 81.000000036509704 ], [ 525.000000102607146, 83.000000037534576 ], [ 524.000000102844865, 78.0000000369714 ], [ 513.000000102960485, 80.000000038995779 ], [ 513.000000101211413, 83.000000037534576 ], [ 514.00000010072381, 87.000000036585803 ], [ 507.000000105136223, 89.000000035611663 ], [ 498.000000103027389, 91.000000038635534 ] ] ] } },
{ "type": "Feature", "properties": { "feature_type": "building", "subtype": "minor-damage", "uid": "e9924f9c-b887-4116-9d9c-18975aed8be5" }, "geometry": { "type": "Polygon", "coordinates": [ [ [ 375.000000102776198, 307.000000039376118 ], [ 380.000000103337015, 317.000000036504389 ], [ 390.000000102959177, 313.000000039452175 ], [ 394.000000101258877, 311.000000038427288 ], [ 404.000000102630224, 331.000000037681389 ], [ 400.000000100832324, 333.00000003670732 ], [ 403.000000102867887, 339.000000036783376 ], [ 390.000000103209118, 345.00000003685949 ], [ 387.000000101173384, 340.000000037295877 ], [ 352.000000103744981, 357.000000036012182 ], [ 342.000000101374098, 337.000000036758081 ], [ 340.000000102849015, 333.000000034708307 ], [ 360.000000103842581, 323.000000036580502 ], [ 361.000000101855676, 327.000000038630219 ], [ 366.000000102166609, 325.000000034606785 ], [ 361.000000100856312, 314.000000037965606 ], [ 375.000000102776198, 307.000000039376118 ] ] ] } },
{ "type": "Feature", "properties": { "feature_type": "building", "subtype": "no-damage", "uid": "874be4f7-315e-467d-9e48-f17f94dee86b" }, "geometry": { "type": "Polygon", "coordinates": [ [ [ 312.000000102007618, 381.000000038315591 ], [ 295.000000101050489, 390.000000036930487 ], [ 290.00000010148932, 379.000000037290818 ], [ 280.000000104865592, 360.000000037549512 ], [ 303.000000100398609, 349.000000036910308 ], [ 300.000000103360378, 343.000000038833207 ], [ 323.000000103391187, 332.000000038193889 ], [ 326.000000101428782, 338.000000037270524 ], [ 335.000000101788373, 358.000000039523172 ], [ 308.000000102208674, 371.000000037189295 ], [ 312.000000102007618, 381.000000038315591 ] ] ] } },
{ "type": "Feature", "properties": { "feature_type": "building", "subtype": "no-damage", "uid": "33794504-0cc2-495d-9aa1-072e7589b435" }, "geometry": { "type": "Polygon", "coordinates": [ [ [ 270.000000102994477, 375.000000038239477 ], [ 279.000000101355113, 395.000000037493692 ], [ 230.000000102006709, 418.000000038285123 ], [ 221.000000101647004, 398.000000036032475 ], [ 233.0000001022932, 392.000000034956884 ], [ 232.000000100531793, 389.000000039416591 ], [ 244.000000101927611, 383.000000036341987 ], [ 245.000000100940298, 386.000000036879783 ], [ 251.000000101763192, 384.000000036854374 ], [ 243.000000102415214, 368.0000000366515 ], [ 262.000000101647515, 359.000000039036081 ], [ 270.000000102994477, 375.000000038239477 ] ] ] } },
{ "type": "Feature", "properties": { "feature_type": "building", "subtype": "no-damage", "uid": "bcedb3b4-b2cb-425d-a096-651b5ee3c224" }, "geometry": { "type": "Polygon", "coordinates": [ [ [ 640.286001391423156, 389.362632557580184 ], [ 676.598934048370438, 375.949200496062019 ], [ 688.744206991439455, 407.312382856010572 ], [ 657.258138457747009, 419.921337565235206 ], [ 648.769316104417157, 397.828302286903181 ], [ 643.137974626370237, 398.096461405334026 ], [ 640.286001391423156, 389.362632557580184 ] ] ] } },
{ "type": "Feature", "properties": { "feature_type": "building", "subtype": "minor-damage", "uid": "0a210bc9-83ff-46e0-b092-52e9f05b70a3" }, "geometry": { "type": "Polygon", "coordinates": [ [ [ 589.235193568973273, 212.764806571598911 ], [ 592.235193568010345, 218.764806574673514 ], [ 600.235193570356842, 215.7648065711372 ], [ 601.23519356837005, 218.764806571674995 ], [ 615.235193569290459, 212.764806571598911 ], [ 626.292814194809125, 233.512018357153096 ], [ 563.392983316687946, 264.507536100399022 ], [ 547.345598436977639, 231.32352137023841 ], [ 575.23519357005182, 214.764806570624813 ], [ 576.235193570813749, 218.764806572674502 ], [ 589.235193568973273, 212.764806571598911 ] ] ] } },
{ "type": "Feature", "properties": { "feature_type": "building", "subtype": "no-damage", "uid": "703a5abc-047f-42bd-84d0-80bd987308c4" }, "geometry": { "type": "Polygon", "coordinates": [ [ [ 543.576309649115046, 267.552961343060588 ], [ 548.57630964742691, 278.552961345698918 ], [ 529.576309651443012, 286.552961343801314 ], [ 524.576309647883818, 275.552961344161588 ], [ 489.576309647206926, 291.552961342365506 ], [ 480.576309650345479, 269.552961344085475 ], [ 533.57630965099213, 245.552961341782094 ], [ 543.576309649115046, 267.552961343060588 ] ] ] } },
{ "type": "Feature", "properties": { "feature_type": "building", "subtype": "minor-damage", "uid": "8594ee4c-e24a-413a-8b96-c35a55741c18" }, "geometry": { "type": "Polygon", "coordinates": [ [ [ 292.466326130748485, 507.359105410023972 ], [ 302.466326131870119, 530.359105411814994 ], [ 272.466326132003815, 543.359105408481582 ], [ 261.466326130870073, 548.359105411043743 ], [ 251.466326131247911, 552.359105411094561 ], [ 249.466326131723207, 548.359105411043743 ], [ 241.466326132375201, 529.359105411302608 ], [ 253.466326131022413, 524.359105408740334 ], [ 262.466326135130203, 520.35910541168812 ], [ 259.466326132095105, 513.359105411099677 ], [ 269.466326130967673, 509.359105412048393 ], [ 302.466326130620587, 494.359105412357906 ], [ 305.466326131406902, 501.359105409947915 ], [ 292.466326130748485, 507.359105410023972 ] ] ] } },
{ "type": "Feature", "properties": { "feature_type": "building", "subtype": "no-damage", "uid": "d17ee53e-a6e2-4a69-9016-79ac1d95f54c" }, "geometry": { "type": "Polygon", "coordinates": [ [ [ 406.390209153707985, 498.445989995533182 ], [ 410.390209157005188, 507.445989995147613 ], [ 396.390209154085824, 513.445989995223727 ], [ 392.390209153287287, 504.445989995609295 ], [ 390.390209154262379, 499.445989996045626 ], [ 382.390209153665126, 503.445989995096909 ], [ 384.390209154688989, 507.445989995147613 ], [ 361.390209153408875, 518.445989994787396 ], [ 359.390209153634373, 513.445989996223261 ], [ 348.390209153000399, 490.445989994432182 ], [ 379.390209154627996, 476.445989995254195 ], [ 377.390209155103321, 469.445989994665581 ], [ 395.390209156072615, 461.445989995563707 ], [ 398.390209152860791, 467.445989993640808 ], [ 409.390209153744593, 490.445989996431308 ], [ 411.390209152769501, 496.445989995507773 ], [ 406.390209153707985, 498.445989995533182 ] ] ] } },
{ "type": "Feature", "properties": { "feature_type": "building", "subtype": "no-damage", "uid": "ddb77f34-ceee-4eab-929d-3fbcf02f63c2" }, "geometry": { "type": "Polygon", "coordinates": [ [ [ 111.0000001005549, 421.000000037823384 ], [ 122.000000101688599, 420.000000039310009 ], [ 125.000000101975104, 444.000000038614928 ], [ 114.000000100841405, 446.000000036641325 ], [ 111.0000001005549, 421.000000037823384 ] ] ] } },
{ "type": "Feature", "properties": { "feature_type": "building", "subtype": "no-damage", "uid": "17709018-4880-4445-8656-873afa67249f" }, "geometry": { "type": "Polygon", "coordinates": [ [ [ 133.000000103571892, 407.000000037645918 ], [ 123.000000103449906, 410.000000039183192 ], [ 118.000000100140596, 391.000000037442874 ], [ 128.000000100762293, 388.000000036905078 ], [ 127.0000001007501, 384.000000036854374 ], [ 136.000000100110299, 381.000000038315591 ], [ 137.000000102621186, 386.000000034880827 ], [ 141.000000102669986, 398.000000036032475 ], [ 131.000000102548114, 401.000000037569691 ], [ 133.000000103571892, 407.000000037645918 ] ] ] } },
{ "type": "Feature", "properties": { "feature_type": "building", "subtype": "no-damage", "uid": "2b5d3c54-4045-4a74-9e52-b2d14a7c380a" }, "geometry": { "type": "Polygon", "coordinates": [ [ [ 68.798526411976084, 652.68473666918203 ], [ 77.798526412835514, 668.684736669384961 ], [ 65.798526411189854, 674.684736672459508 ], [ 66.798526411451931, 678.684736673509747 ], [ 48.79852641298146, 688.684736670638131 ], [ 46.79852641195756, 685.684736672099234 ], [ 42.798526411658877, 687.684736670125631 ], [ 29.79852641150028, 694.684736669714653 ], [ 21.79852641265207, 678.684736671510791 ], [ 33.798526412048837, 671.6847366699227 ], [ 43.798526411671077, 666.684736671358564 ], [ 46.798526411207931, 664.684736672332747 ], [ 38.798526410360708, 649.684736672642202 ], [ 30.798526412761859, 654.684736672205872 ], [ 25.79852641170136, 644.684736670080042 ], [ 33.798526412298713, 640.684736671028759 ], [ 30.79852641201224, 636.684736668979099 ], [ 41.798526411146931, 630.684736669902463 ], [ 43.79852641192096, 634.684736668953747 ], [ 53.798526412292837, 629.684736670389498 ], [ 66.798526410702308, 653.684736668694882 ], [ 68.798526411976084, 652.68473666918203 ] ] ] } },
{ "type": "Feature", "properties": { "feature_type": "building", "subtype": "major-damage", "uid": "0effe9e7-4557-402e-b157-8f7376ca1cf0" }, "geometry": { "type": "Polygon", "coordinates": [ [ [ 697.247366293306868, 207.570466296527798 ], [ 683.590236721448491, 173.74280689891819 ], [ 749.564678027846298, 143.276902475889187 ], [ 764.90268508324607, 177.524781242073004 ], [ 697.247366293306868, 207.570466296527798 ] ] ] } },
{ "type": "Feature", "properties": { "feature_type": "building", "subtype": "minor-damage", "uid": "bb34d48c-c2cb-422c-a875-110c5a1cfc75" }, "geometry": { "type": "Polygon", "coordinates": [ [ [ 445.5914229510891, 455.818778343215172 ], [ 431.455990478449678, 421.812273470776574 ], [ 450.423945722423696, 412.536183091216685 ], [ 451.894713524926487, 417.999034917663892 ], [ 452.525042581035791, 417.788925229878487 ], [ 461.139539692275093, 409.804757175994212 ], [ 470.384365864371375, 404.972234406906125 ], [ 473.325901462630327, 409.804757175994212 ], [ 485.092043860663296, 405.182344090693391 ], [ 493.286321602828821, 427.453970774051811 ], [ 486.352701975880507, 431.025835430420727 ], [ 490.554895692604987, 440.060551913236793 ], [ 445.5914229510891, 455.818778343215172 ] ] ] } },
{ "type": "Feature", "properties": { "feature_type": "building", "subtype": "no-damage", "uid": "a022064a-af48-40dd-81a0-5ed295af4c0c" }, "geometry": { "type": "Polygon", "coordinates": [ [ [ 247.41364965953619, 975.0826563271861 ], [ 237.491762293096713, 955.77519983715581 ], [ 338.319590641839227, 903.484171835119469 ], [ 339.660386233492375, 906.433922133859483 ], [ 346.900682420123815, 901.607058011102026 ], [ 349.314114478252975, 904.824967425274167 ], [ 353.872819484326612, 913.674218317495843 ], [ 345.291727711289411, 917.696605087959711 ], [ 348.509637124710309, 922.255310093285857 ], [ 247.41364965953619, 975.0826563271861 ] ] ] } },
{ "type": "Feature", "properties": { "feature_type": "building", "subtype": "minor-damage", "uid": "d7d829ad-4acf-4784-9b15-388e93201fa2" }, "geometry": { "type": "Polygon", "coordinates": [ [ [ 861.428688420725621, 867.33819208431396 ], [ 848.437979007150261, 877.442076835522698 ], [ 835.751016961697701, 859.809349929467771 ], [ 853.598777121227158, 848.62762067138442 ], [ 850.80334481120542, 844.757022082201615 ], [ 860.92203231233168, 838.511964299180931 ], [ 861.158213626749102, 844.820288167716285 ], [ 861.428688420725621, 867.33819208431396 ] ] ] } },
{ "type": "Feature", "properties": { "feature_type": "building", "subtype": "no-damage", "uid": "170cd439-ee25-437c-8bfa-8ea8742eb9e3" }, "geometry": { "type": "Polygon", "coordinates": [ [ [ 676.949594472614649, 631.998544511965633 ], [ 664.879549757422524, 606.517338996605986 ], [ 676.055517090468811, 601.599913371062826 ], [ 689.019639192304567, 627.975196272067024 ], [ 676.502555780292369, 632.445583207286745 ], [ 676.949594472614649, 631.998544511965633 ] ] ] } },
{ "type": "Feature", "properties": { "feature_type": "building", "subtype": "minor-damage", "uid": "241f50be-67ec-4840-9d34-6f0c878ced44" }, "geometry": { "type": "Polygon", "coordinates": [ [ [ 138.774062691795592, 612.234990800016021 ], [ 132.469265442828998, 595.422198148757388 ], [ 139.124329202448109, 592.970332553948651 ], [ 131.418465905874001, 575.457006872888883 ], [ 147.880992040475093, 569.502476144067145 ], [ 158.388987451504704, 586.665535309726693 ], [ 172.749914508197691, 582.812603658314288 ], [ 176.953112669261202, 598.574596770368544 ], [ 153.83552277379161, 603.47832796198486 ], [ 157.434101698088796, 617.32629742825884 ], [ 151.546348255509002, 619.240321073039695 ], [ 147.530725526824, 612.585257312417866 ], [ 139.474595716598913, 613.986323370021069 ], [ 138.774062691795592, 612.234990800016021 ] ] ] } },
{ "type": "Feature", "properties": { "feature_type": "building", "subtype": "no-damage", "uid": "4c94d05f-ab5e-4211-a133-d8f0cac6de93" }, "geometry": { "type": "Polygon", "coordinates": [ [ [ 208.827365405006503, 527.470494513921494 ], [ 200.420969083629103, 509.256635805059489 ], [ 228.092023652813708, 493.49464269600378 ], [ 239.300552089146294, 510.657701860663792 ], [ 234.396820898781698, 514.510633510077128 ], [ 210.578697974011192, 526.769961483120824 ], [ 208.827365405006503, 527.470494513921494 ] ] ] } },
{ "type": "Feature", "properties": { "feature_type": "building", "subtype": "no-damage", "uid": "744ab2cf-89fc-4508-b0d0-ba9eed0fe4c1" }, "geometry": { "type": "Polygon", "coordinates": [ [ [ 328.39675487022572, 0.004694421264587 ], [ 328.986769263518681, 16.112259660438209 ], [ 307.169511969060977, 17.163059202641129 ], [ 305.418179399806377, 23.818122963262951 ], [ 292.808584910119123, 26.620255070473402 ], [ 291.407518859013294, 21.716523880856109 ], [ 275.29525923156649, 24.518655988066559 ], [ 275.952482740107484, 0.004418897118391 ], [ 328.39675487022572, 0.004694421264587 ] ] ] } },
{ "type": "Feature", "properties": { "feature_type": "building", "subtype": "no-damage", "uid": "7acdaef7-a9a6-4134-828d-3fe43a09163b" }, "geometry": { "type": "Polygon", "coordinates": [ [ [ 248.011986724179394, 195.007630226014612 ], [ 269.377434823340309, 194.459798224080401 ], [ 269.925266829272175, 205.142522277788913 ], [ 248.559818724364192, 206.786018284590995 ], [ 248.55981872461399, 195.007630228013596 ], [ 248.011986724179394, 195.007630226014612 ] ] ] } },
{ "type": "Feature", "properties": { "feature_type": "building", "subtype": "no-damage", "uid": "37c7f1f6-2ec4-48c2-8b8d-fcd575b70c73" }, "geometry": { "type": "Polygon", "coordinates": [ [ [ 328.801864144536182, 133.604648456190887 ], [ 339.660778170815718, 130.516289682763698 ], [ 344.04343418953539, 146.129501754879414 ], [ 333.908542140014788, 149.690409771449595 ], [ 328.704138115895489, 133.529365696400191 ], [ 328.801864144536182, 133.604648456190887 ] ] ] } },
{ "type": "Feature", "properties": { "feature_type": "building", "subtype": "un-classified", "uid": "c54d8e8a-83cd-4219-b58b-18f59fa25058" }, "geometry": { "type": "Polygon", "coordinates": [ [ [ 517.627631471069776, 970.456116830488327 ], [ 573.282239732284552, 927.78758383162733 ], [ 593.68892942833827, 949.121850333056841 ], [ 528.758553122213243, 995.500690549383989 ], [ 517.977808738549697, 970.274032391464175 ], [ 517.627631471069776, 970.456116830488327 ] ] ] } },
{ "type": "Feature", "properties": { "feature_type": "building", "subtype": "no-damage", "uid": "ec8b9651-e1e3-404e-bb3d-91294fef8b30" }, "geometry": { "type": "Polygon", "coordinates": [ [ [ 614.562676773478529, 1022.980299378848031 ], [ 637.557782863831335, 1004.980314764977948 ], [ 653.186224617553421, 1022.979968182355037 ], [ 614.562676773478529, 1022.980299378848031 ] ] ] } },
{ "type": "Feature", "properties": { "feature_type": "building", "subtype": "minor-damage", "uid": "7a04d8b6-8df4-46c5-aba9-c718317db90a" }, "geometry": { "type": "Polygon", "coordinates": [ [ [ 754.239480772268394, 1006.688669845052004 ], [ 773.600838364923789, 994.160732582179094 ], [ 783.850968852860092, 1012.383186784628947 ], [ 768.23666695782083, 1022.978606143884008 ], [ 767.729574950939195, 1022.978613383288007 ], [ 754.758967799500169, 1006.528855668311053 ], [ 754.239480772268394, 1006.688669845052004 ] ] ] } },
{ "type": "Feature", "properties": { "feature_type": "building", "subtype": "no-damage", "uid": "561ebfa6-623f-4e5a-8182-e2271b96e2fc" }, "geometry": { "type": "Polygon", "coordinates": [ [ [ 294.565479845776792, 895.53855098670374 ], [ 291.160816623124276, 889.296668420541778 ], [ 302.887989937237307, 883.243933803933601 ], [ 313.669423467599302, 900.834693777110488 ], [ 311.021352072896889, 901.969581514413676 ], [ 316.884938730952911, 911.426979349927933 ], [ 296.456959410280092, 921.64096900664606 ], [ 295.132923717176823, 918.992897615940478 ], [ 289.269337059620625, 921.45182105109518 ], [ 291.349964582673124, 924.289040401349666 ], [ 264.490954735292974, 935.259621887267713 ], [ 250.304857983277913, 909.913795695526005 ], [ 256.735888510234986, 905.185096776769342 ], [ 270.165393436298928, 900.267249906459938 ], [ 273.759204611004009, 905.752540649418961 ], [ 294.565479845776792, 895.53855098670374 ] ] ] } },
{ "type": "Feature", "properties": { "feature_type": "building", "subtype": "minor-damage", "uid": "a7b2a4d4-673d-4dd0-84cf-8571aa882abe" }, "geometry": { "type": "Polygon", "coordinates": [ [ [ 730.892925994954339, 208.864185481696893 ], [ 741.031980080677044, 219.96886376726701 ], [ 740.790574031653478, 226.00401501059801 ], [ 752.136658365492053, 226.24542106336969 ], [ 752.378064417264227, 221.175894015133593 ], [ 757.688997510273452, 219.244645620945903 ], [ 763.482742700829931, 230.349323905516513 ], [ 765.172585047992243, 234.988296940432491 ], [ 761.668499753129709, 236.670744137042703 ], [ 770.000706042704678, 257.145395417350301 ], [ 762.275712453213828, 262.697734561134894 ], [ 746.825725272732711, 269.215697901013812 ], [ 730.168707846884331, 232.039166251929998 ], [ 715.925750915768617, 236.625881195622213 ], [ 711.097629922305487, 221.175894017132606 ], [ 730.892925994954339, 208.864185481696893 ] ] ] } },
{ "type": "Feature", "properties": { "feature_type": "building", "subtype": "minor-damage", "uid": "35767ef0-9a6e-432c-824d-82392c658216" }, "geometry": { "type": "Polygon", "coordinates": [ [ [ 575.936893972764437, 633.672892697382963 ], [ 586.104262951880855, 652.159018113422007 ], [ 543.278072403095393, 671.261347713693795 ], [ 533.418805515845293, 653.391426476890047 ], [ 575.936893972764437, 633.672892697382963 ] ] ] } },
{ "type": "Feature", "properties": { "feature_type": "building", "subtype": "minor-damage", "uid": "722f6d77-551f-403d-baa7-2dda515df551" }, "geometry": { "type": "Polygon", "coordinates": [ [ [ 165.857232408436886, 341.638056200087419 ], [ 181.262336921045602, 335.784116483359185 ], [ 223.472323293094888, 414.350149505772777 ], [ 205.602402054300796, 424.825620575761093 ], [ 206.52670832565201, 428.522845658169274 ], [ 199.132258158840187, 431.911968650959921 ], [ 202.521381150629594, 438.382112546923281 ], [ 169.86255958495849, 451.63050243046689 ], [ 153.841250888117287, 419.587885040267224 ], [ 173.559784668864211, 410.344822330748514 ], [ 168.630151220241686, 401.101759622229224 ], [ 187.732480816756095, 393.399207365796087 ], [ 179.721826471458911, 377.686000764311927 ], [ 184.651459914584194, 375.837388220609114 ], [ 178.489418109740598, 363.205202519299291 ], [ 176.33270347617119, 364.129508791150727 ], [ 165.857232408436886, 341.638056200087419 ] ] ] } },
{ "type": "Feature", "properties": { "feature_type": "building", "subtype": "minor-damage", "uid": "48b2efc6-3e5d-4266-bfca-cf2163fd32c3" }, "geometry": { "type": "Polygon", "coordinates": [ [ [ 583.352831431513437, 403.637898415246411 ], [ 584.129640017729344, 403.629930564905521 ], [ 586.274104026476721, 407.787564869447408 ], [ 589.031272039508167, 406.999802576725415 ], [ 588.391712125398158, 404.675315027797183 ], [ 603.508354208551737, 398.895422466588627 ], [ 611.955889490563891, 418.754540497407788 ], [ 594.171604686603928, 427.202075781173221 ], [ 590.614747724112817, 417.717123886855973 ], [ 584.686652788543256, 420.088361859685676 ], [ 581.574402951142474, 415.93869540548468 ], [ 568.384391717975973, 422.459599835513814 ], [ 564.08652288866358, 412.085433698012309 ], [ 583.352831431513437, 403.637898415246411 ] ] ] } },
{ "type": "Feature", "properties": { "feature_type": "building", "subtype": "no-damage", "uid": "6fc1ce22-ca48-46c1-be7f-9e944e5410e9" }, "geometry": { "type": "Polygon", "coordinates": [ [ [ 388.095170387272617, 102.707965269476105 ], [ 397.5100063266745, 113.8126435560457 ], [ 399.441254721611017, 127.814194435895899 ], [ 389.543606688659793, 131.193879130721996 ], [ 395.820163980011898, 147.126678410756909 ], [ 380.611582848054582, 152.679017554541502 ], [ 375.300649756294717, 137.470436425825199 ], [ 355.022541580851282, 143.0227755686102 ], [ 353.091293183665982, 129.50403678630741 ], [ 343.917863297535519, 115.019673804911804 ], [ 367.575656164304974, 107.777492312714699 ], [ 367.334250116780822, 106.329056015074897 ], [ 377.956116301799796, 103.673589469568498 ], [ 388.095170387272617, 102.707965269476105 ] ] ] } },
{ "type": "Feature", "properties": { "feature_type": "building", "subtype": "minor-damage", "uid": "5221618e-d0af-43b9-a208-277e7950b1f0" }, "geometry": { "type": "Polygon", "coordinates": [ [ [ 0.06556874777429, 64.297351815128593 ], [ 12.25892693223615, 67.270611031906938 ], [ 7.561537754324341, 98.871229132695106 ], [ 0.06560449251975, 98.447898750372289 ], [ 0.06556874777429, 64.297351815128593 ] ] ] } },
{ "type": "Feature", "properties": { "feature_type": "building", "subtype": "minor-damage", "uid": "4fa1a9fc-4185-4b74-9904-5f82109ef7cd" }, "geometry": { "type": "Polygon", "coordinates": [ [ [ 0.065787811214715, 368.756179877487511 ], [ 36.172908198584111, 373.882013707948488 ], [ 40.870297374496907, 367.476483010384072 ], [ 44.286580417544137, 365.768341491233514 ], [ 54.535429527945134, 380.287544403513891 ], [ 54.535429528694749, 389.255287377305592 ], [ 44.713615794832833, 394.379711933758017 ], [ 41.297332755533738, 400.785242631322376 ], [ 35.318837438759338, 406.336702568811688 ], [ 0.065797227037843, 398.664385583414173 ], [ 0.065787811214715, 368.756179877487511 ] ] ] } },
{ "type": "Feature", "properties": { "feature_type": "building", "subtype": "no-damage", "uid": "78a19f93-2bca-42c3-b844-8fa853dcf708" }, "geometry": { "type": "Polygon", "coordinates": [ [ [ 365.543562381124616, 534.583027782843146 ], [ 377.927588396210012, 530.312673985466404 ], [ 394.581968207170917, 555.080726013650064 ], [ 375.792411497022897, 563.194398229365675 ], [ 365.543562381124616, 534.583027782843146 ] ] ] } }
]
}
