{
"type": "FeatureCollection",
"name": "hurricane-florence_00000502_post_disaster",
"features": [
{ "type": "Feature", "properties": { "feature_type": "building", "subtype": "un-classified", "uid": "40f73365-8151-4b64-8a55-ccea39143613" }, "geometry": { "type": "Polygon", "coordinates": [ [ [ 462.772849902438281, 804.157956324192583 ], [ 457.785207664894074, 826.352964282471476 ], [ 403.419907270273086, 825.604817949158473 ], [ 400.427321926956608, 811.140655458897982 ], [ 403.41990726823451, 799.918460424546197 ], [ 424.368004669984487, 800.417224645395777 ], [ 425.207704086953811, 796.45864167410241 ], [ 436.969752057627716, 796.780664488332604 ], [ 436.717325715772404, 800.758171642439379 ], [ 460.475079662418125, 801.376881123315911 ], [ 462.772849902438281, 804.157956324192583 ] ] ] } },
{ "type": "Feature", "properties": { "feature_type": "building", "subtype": "un-classified", "uid": "5444b75f-8914-4a46-ae4a-ecaaa8353a44" }, "geometry": { "type": "Polygon", "coordinates": [ [ [ 374.019958003045474, 751.825256774478589 ], [ 395.208007505147407, 761.437219524709235 ], [ 390.574032254551412, 771.618171635022463 ], [ 367.662233832686127, 761.541778618389571 ], [ 369.084665732454198, 755.204878289403041 ], [ 374.019958003045474, 751.825256774478589 ] ] ] } },
{ "type": "Feature", "properties": { "feature_type": "building", "subtype": "major-damage", "uid": "8607e8a5-dd45-415f-88c6-0136d4153717" }, "geometry": { "type": "Polygon", "coordinates": [ [ [ 123.874725091240904, 797.19072570523997 ], [ 147.590548567263113, 803.430787314848203 ], [ 144.1474681948132, 816.743726447577842 ], [ 119.676227999959707, 810.146088162768478 ], [ 123.874725091240904, 797.19072570523997 ] ] ] } },
{ "type": "Feature", "properties": { "feature_type": "building", "subtype": "destroyed", "uid": "d4a4c65b-ed79-40f3-8a3f-43c3843b402a" }, "geometry": { "type": "Polygon", "coordinates": [ [ [ 128.762076223137512, 791.469973398060688 ], [ 136.724868981225711, 793.720327872982466 ], [ 135.455438251335693, 798.798050789996637 ], [ 127.377242700246597, 796.66309911482881 ], [ 128.762076223137512, 791.469973398060688 ] ] ] } },
{ "type": "Feature", "properties": { "feature_type": "building", "subtype": "major-damage", "uid": "cc37a7f5-5d8b-4601-805a-c40d91e60e24" }, "geometry": { "type": "Polygon", "coordinates": [ [ [ 132.147149010809613, 843.362416780767148 ], [ 139.633079582487994, 846.286928882428242 ], [ 138.020490675278893, 852.555071786313192 ], [ 130.343238849245097, 849.796059413184594 ], [ 132.147149010809613, 843.362416780767148 ] ] ] } },
{ "type": "Feature", "properties": { "feature_type": "building", "subtype": "destroyed", "uid": "e24e2fd2-eeab-4d83-b1de-07cdc594fbb7" }, "geometry": { "type": "Polygon", "coordinates": [ [ [ 122.989012773044195, 865.804265049922151 ], [ 134.739938328495697, 869.265526053038116 ], [ 131.620257257662786, 881.400356178757988 ], [ 119.678536529620104, 878.032178536219931 ], [ 122.989012773044195, 865.804265049922151 ] ] ] } },
{ "type": "Feature", "properties": { "feature_type": "building", "subtype": "major-damage", "uid": "acb2102e-588b-49e3-9c5c-5bc2a56ee89b" }, "geometry": { "type": "Polygon", "coordinates": [ [ [ -0.000008026911249, 919.981122141426795 ], [ -0.000008028312806, 896.863175606128266 ], [ 3.892703510911311, 897.878740069223454 ], [ 4.721131031002341, 903.647948010949676 ], [ -0.000008026911249, 919.981122141426795 ] ] ] } }
]
}
