{
"type": "FeatureCollection",
"name": "hurricane-florence_00000162_post_disaster",
"features": [
{ "type": "Feature", "properties": { "feature_type": "building", "subtype": "major-damage", "uid": "ed2e206d-2d34-4690-855b-036380358638" }, "geometry": { "type": "Polygon", "coordinates": [ [ [ 908.616470774171148, 573.02341988422927 ], [ 918.865488782906709, 576.856930480627739 ], [ 917.992172243213304, 578.603563565363402 ], [ 925.633691985621681, 581.005184055346717 ], [ 928.908629016827035, 575.765284804196199 ], [ 934.366857405608016, 575.765284803177337 ], [ 938.078452709016233, 579.040221840622962 ], [ 935.240173948230677, 585.153437631084671 ], [ 944.191668506228893, 589.083362066645577 ], [ 936.331819626190736, 606.549692907889607 ], [ 932.838553457100829, 605.458047231458067 ], [ 927.816983338994419, 614.409541791238098 ], [ 923.450400628682928, 613.317896110730999 ], [ 919.083817921810123, 609.606300808214883 ], [ 923.013742361447044, 601.964781061986628 ], [ 899.88330535342061, 592.673042083430687 ], [ 900.75662189426032, 582.629901850275814 ], [ 908.616470774171148, 573.02341988422927 ] ] ] } },
{ "type": "Feature", "properties": { "feature_type": "building", "subtype": "major-damage", "uid": "b64e2e14-b136-41ed-b104-c1be17030b17" }, "geometry": { "type": "Polygon", "coordinates": [ [ [ 896.593221705330393, 648.969759129430827 ], [ 916.916823332329272, 659.424500820590083 ], [ 910.215065835830387, 670.013277664183192 ], [ 894.398918142580101, 660.362746869287207 ], [ 892.254355743374504, 655.135376023198205 ], [ 896.593221705330393, 648.969759129430827 ] ] ] } },
{ "type": "Feature", "properties": { "feature_type": "building", "subtype": "major-damage", "uid": "bd0a6a09-4718-4dc7-80f3-eef09faea78d" }, "geometry": { "type": "Polygon", "coordinates": [ [ [ 40.497199336077948, 522.08601665566232 ], [ 57.494815798062469, 533.231994657422888 ], [ 31.023118028976299, 573.078866040335583 ], [ 18.762542219014271, 564.998031985620401 ], [ 15.418748816447881, 561.096939683730625 ], [ 15.14009936436605, 558.031795730571844 ], [ 40.497199336077948, 522.08601665566232 ] ] ] } },
{ "type": "Feature", "properties": { "feature_type": "building", "subtype": "major-damage", "uid": "d1f1adf3-c0e4-42f1-a9ba-9549c983b33f" }, "geometry": { "type": "Polygon", "coordinates": [ [ [ 921.749237313531466, 444.908778855767025 ], [ 930.045744460041306, 447.747057617953089 ], [ 923.495870395338216, 464.558401052930719 ], [ 929.609086190895141, 466.741692409869188 ], [ 924.805845206852382, 479.186453128931817 ], [ 910.177793128938902, 474.383212152021883 ], [ 921.749237313531466, 444.908778855767025 ] ] ] } },
{ "type": "Feature", "properties": { "feature_type": "building", "subtype": "major-damage", "uid": "ad2e2b1c-06f8-49b0-8c9b-abdc24d92f00" }, "geometry": { "type": "Polygon", "coordinates": [ [ [ 932.076506587923859, 515.378533889002256 ], [ 935.963525937694044, 509.407095479071586 ], [ 943.763069729501922, 514.320632652034874 ], [ 940.026250822920701, 520.550485875940808 ], [ 932.076506587923859, 515.378533889002256 ] ] ] } },
{ "type": "Feature", "properties": { "feature_type": "building", "subtype": "major-damage", "uid": "48a366dd-493a-4721-9049-a710e322e432" }, "geometry": { "type": "Polygon", "coordinates": [ [ [ 781.399894403832604, 935.057024438134135 ], [ 786.874025304192173, 925.819428545967639 ], [ 805.178150495252453, 934.885957844859149 ], [ 801.585752093153246, 945.663153052047164 ], [ 795.940554602957491, 945.321019873648311 ], [ 789.953223936273162, 943.781420558626792 ], [ 782.939493721656163, 938.478356253708057 ], [ 781.399894403832604, 935.057024438134135 ] ] ] } },
{ "type": "Feature", "properties": { "feature_type": "building", "subtype": "major-damage", "uid": "3f8d81b3-6b52-4099-bf7b-c1480ef407bd" }, "geometry": { "type": "Polygon", "coordinates": [ [ [ 813.992520941446969, 885.076563752369452 ], [ 817.049128838461343, 881.146639313751734 ], [ 829.493889562619984, 889.224817332182852 ], [ 825.782294257556146, 892.281425222319285 ], [ 822.070698951091231, 891.189779544868884 ], [ 819.450749325260972, 891.408108686064793 ], [ 813.992520941446969, 885.076563752369452 ] ] ] } }
]
}
