{
"type": "FeatureCollection",
"name": "hurricane-michael_00000223_post_disaster",
"features": [
{ "type": "Feature", "properties": { "feature_type": "building", "subtype": "major-damage", "uid": "221853a4-a4cb-4273-a7ef-4b7bc046afc1" }, "geometry": { "type": "Polygon", "coordinates": [ [ [ 593.902165104513529, 462.07752172172269 ], [ 593.902165104513529, 466.077521721800792 ], [ 605.902165106493953, 466.077521723799691 ], [ 605.902165103995344, 469.077521722109225 ], [ 625.902165103381549, 469.077521720110212 ], [ 631.902165102997515, 468.07752172433851 ], [ 632.9021651047658, 494.077521725345321 ], [ 626.902165106898906, 494.077521724345786 ], [ 626.902165103150878, 507.077521722350582 ], [ 626.90216510465018, 511.077521725427118 ], [ 606.902165104014557, 512.077521723197719 ], [ 606.902165104264441, 508.077521720121297 ], [ 594.902165107281348, 508.077521724119208 ], [ 594.902165107031465, 512.077521723197719 ], [ 578.902165104973847, 512.077521721198764 ], [ 577.902165104454866, 462.077521722722224 ], [ 593.902165104513529, 462.07752172172269 ] ] ] } },
{ "type": "Feature", "properties": { "feature_type": "building", "subtype": "minor-damage", "uid": "04bd4054-472b-4e62-bd5d-c035d6449259" }, "geometry": { "type": "Polygon", "coordinates": [ [ [ 482.894546395851592, 462.482812145411799 ], [ 500.894546394699489, 462.482812143412787 ], [ 500.894546395699024, 471.482812146336983 ], [ 482.894546393852693, 471.482812146336983 ], [ 482.894546395851592, 462.482812145411799 ] ] ] } },
{ "type": "Feature", "properties": { "feature_type": "building", "subtype": "major-damage", "uid": "b1a5fcff-4576-4ffc-950e-31be3df22dbe" }, "geometry": { "type": "Polygon", "coordinates": [ [ [ 727.24290538810294, 479.49579012318992 ], [ 702.055339751116094, 478.058487029916705 ], [ 701.461556932604253, 432.371446479036422 ], [ 727.46155693360538, 431.371446481265821 ], [ 730.461556936161855, 431.371446480266286 ], [ 731.461556933932343, 460.371446482581007 ], [ 727.461556933855263, 460.371446482581007 ], [ 727.24290538810294, 479.49579012318992 ] ] ] } },
{ "type": "Feature", "properties": { "feature_type": "building", "subtype": "minor-damage", "uid": "a95c28e7-3f18-4db1-b3b3-a0952618d712" }, "geometry": { "type": "Polygon", "coordinates": [ [ [ 809.906583786770966, 241.633456543403213 ], [ 809.906583789519459, 249.633456545558204 ], [ 833.906583789982278, 249.63345654655771 ], [ 833.90658378848309, 258.633456547482922 ], [ 838.906583787579962, 258.633456545483909 ], [ 838.906583786580541, 269.633456543949421 ], [ 833.906583785234716, 269.63345654594832 ], [ 833.906583786484134, 288.633456545569288 ], [ 818.545346779425472, 294.725965205431123 ], [ 810.906583785540874, 299.633456545034221 ], [ 795.906583788000148, 300.633456543804414 ], [ 794.906583786231749, 285.633456545260913 ], [ 780.906583789210117, 285.633456544261378 ], [ 779.906583785442763, 242.633456543172912 ], [ 809.906583786770966, 241.633456543403213 ] ] ] } },
{ "type": "Feature", "properties": { "feature_type": "building", "subtype": "major-damage", "uid": "cbf55aca-760d-4273-afd5-ffb77a29955c" }, "geometry": { "type": "Polygon", "coordinates": [ [ [ 622.000000120937216, 296.000000044752881 ], [ 623.000000120956543, 306.000000045447678 ], [ 627.000000121783273, 306.000000043448779 ], [ 627.000000120034201, 337.000000045302727 ], [ 623.000000122955498, 337.000000045302727 ], [ 598.000000122223582, 338.000000046071875 ], [ 598.000000119974743, 322.000000046759283 ], [ 594.000000124645112, 322.000000046759283 ], [ 593.000000122376946, 297.000000044522608 ], [ 622.000000120937216, 296.000000044752881 ] ] ] } },
{ "type": "Feature", "properties": { "feature_type": "building", "subtype": "minor-damage", "uid": "efb7a26e-b52d-4361-92f1-82a5b9b68829" }, "geometry": { "type": "Polygon", "coordinates": [ [ [ 623.665669931561411, 349.765414991059686 ], [ 621.680614976719994, 367.765414990910983 ], [ 625.680614975048002, 369.088784962637988 ], [ 626.342299961411072, 380.765414989915314 ], [ 639.033875034901712, 381.42709997477931 ], [ 639.033875034651828, 395.427099977550995 ], [ 623.033875034343282, 395.427099975551982 ], [ 620.033875034035532, 395.427099977550995 ], [ 601.033875035917958, 396.427099976321074 ], [ 601.033875035668075, 377.427099976700219 ], [ 593.033875034514381, 377.427099973701672 ], [ 592.033875035244705, 366.427099976235809 ], [ 601.033875038666565, 366.427099977235173 ], [ 600.033875034899211, 351.427099975693409 ], [ 623.665669931561411, 349.765414991059686 ] ] ] } },
{ "type": "Feature", "properties": { "feature_type": "building", "subtype": "minor-damage", "uid": "c11b6ede-365c-45d9-ba9e-7ad3ebd7e0fe" }, "geometry": { "type": "Polygon", "coordinates": [ [ [ 504.221754135364506, 454.616204227033677 ], [ 478.519201879038576, 456.540510498350613 ], [ 478.827303971636525, 443.075693776092407 ], [ 478.82730397063699, 432.075693774628519 ], [ 510.913652044650576, 432.000000044407102 ], [ 511.837958315198193, 443.308102135720389 ], [ 505.070366678689084, 445.464816767664786 ], [ 504.221754135364506, 454.616204227033677 ] ] ] } },
{ "type": "Feature", "properties": { "feature_type": "building", "subtype": "major-damage", "uid": "02fb8088-6f18-4005-84bc-a1d408f6f26d" }, "geometry": { "type": "Polygon", "coordinates": [ [ [ 388.48693924521541, 445.003731722794384 ], [ 389.486939245734391, 461.003731724105876 ], [ 418.018658515168113, 460.003731725335797 ], [ 416.505597638173015, 542.498134207745352 ], [ 396.486939246119277, 545.003731725744274 ], [ 396.486939244120322, 556.003731722210773 ], [ 345.486939246884901, 558.003731722749535 ], [ 345.486939246135307, 546.003731724514523 ], [ 327.486939246287875, 546.003731724514523 ], [ 325.486939247998521, 462.003731723875603 ], [ 349.486939245962617, 461.003731726104888 ], [ 348.486939244194218, 446.003731723563476 ], [ 388.48693924521541, 445.003731722794384 ] ] ] } },
{ "type": "Feature", "properties": { "feature_type": "building", "subtype": "minor-damage", "uid": "edf8f436-033b-4492-8f1e-d29304e45600" }, "geometry": { "type": "Polygon", "coordinates": [ [ [ 118.815525122116995, 532.407762546184813 ], [ 118.815525122116995, 538.407762547801099 ], [ 103.815525121827704, 538.407762547801099 ], [ 103.8155251223275, 532.407762546184813 ], [ 70.81552512418979, 533.407762544954949 ], [ 69.815525121172072, 489.407762546095682 ], [ 152.815525121273396, 488.84438341762251 ], [ 151.168785180837801, 532.731132517142669 ], [ 118.815525122116995, 532.407762546184813 ] ] ] } },
{ "type": "Feature", "properties": { "feature_type": "building", "subtype": "minor-damage", "uid": "bf1902a3-f340-4988-8f36-50e93963c968" }, "geometry": { "type": "Polygon", "coordinates": [ [ [ 625.000000120745199, 183.000000043798309 ], [ 625.000000121744733, 194.000000047261096 ], [ 629.000000121322159, 194.000000045262198 ], [ 629.000000121322159, 205.000000046726086 ], [ 626.000000121014409, 205.000000046726086 ], [ 626.000000123263248, 225.00000004511719 ], [ 606.000000121128437, 225.000000047116202 ], [ 605.000000121608878, 184.0000000445674 ], [ 625.000000120745199, 183.000000043798309 ] ] ] } },
{ "type": "Feature", "properties": { "feature_type": "building", "subtype": "minor-damage", "uid": "93fee3ca-c410-498a-bd02-347f0aef727e" }, "geometry": { "type": "Polygon", "coordinates": [ [ [ 727.837958317114612, 175.442131772835808 ], [ 728.33672253879422, 180.187806558268704 ], [ 744.538614543864242, 180.8243701412799 ], [ 744.625075897766578, 201.335782273167212 ], [ 704.591047755494742, 201.185335007015794 ], [ 704.339194092492676, 179.439660223500113 ], [ 714.588576203775233, 180.437188667859203 ], [ 715.087340430202403, 175.691513885424797 ], [ 727.837958317114612, 175.442131772835808 ] ] ] } },
{ "type": "Feature", "properties": { "feature_type": "building", "subtype": "minor-damage", "uid": "44163572-9402-4703-95af-8dc874c02fe8" }, "geometry": { "type": "Polygon", "coordinates": [ [ [ 590.351928728254052, 201.567443917317092 ], [ 598.351928730657164, 201.567443915318194 ], [ 598.351928727908557, 208.567443914705109 ], [ 590.351928728004168, 208.567443912706096 ], [ 590.351928728254052, 201.567443917317092 ] ] ] } },
{ "type": "Feature", "properties": { "feature_type": "building", "subtype": "minor-damage", "uid": "70ecac07-1526-41ed-9342-3ef31e87596b" }, "geometry": { "type": "Polygon", "coordinates": [ [ [ 568.243408296521125, 221.432556176138689 ], [ 577.243408295195536, 221.432556174139791 ], [ 578.243408295714516, 229.432556175295304 ], [ 568.243408294772053, 229.432556177294202 ], [ 568.243408296521125, 221.432556176138689 ] ] ] } },
{ "type": "Feature", "properties": { "feature_type": "building", "subtype": "minor-damage", "uid": "cf0b5431-7701-475b-acd5-c3272b5cec01" }, "geometry": { "type": "Polygon", "coordinates": [ [ [ 580.406188947463647, 221.810852088585392 ], [ 589.406188943139455, 221.810852090584405 ], [ 589.406188947887017, 227.810852088202807 ], [ 580.406188947963301, 227.810852090201706 ], [ 580.406188947463647, 221.810852088585392 ] ] ] } },
{ "type": "Feature", "properties": { "feature_type": "building", "subtype": "minor-damage", "uid": "7c262645-963c-46e4-8d74-89b4afe701a5" }, "geometry": { "type": "Polygon", "coordinates": [ [ [ 175.274675797466386, 213.759533369412793 ], [ 153.418399301128488, 215.114710161610589 ], [ 153.936846802473895, 200.262290158761488 ], [ 152.899951801532097, 185.522472663351493 ], [ 175.687127647078199, 184.72263836767479 ], [ 175.866084759222588, 197.260633076084389 ], [ 175.274675797466386, 213.759533369412793 ] ] ] } },
{ "type": "Feature", "properties": { "feature_type": "building", "subtype": "minor-damage", "uid": "633bfd68-c781-43da-92bf-98d8fec1d179" }, "geometry": { "type": "Polygon", "coordinates": [ [ [ 174.874259974928094, 219.338315058406607 ], [ 175.874259977695999, 237.338315059257411 ], [ 176.91115497588919, 245.856762562508095 ], [ 157.355812475503711, 246.338315061181987 ], [ 151.601132809980896, 245.73781793491051 ], [ 151.082685310634389, 233.700922935253089 ], [ 157.874259977348913, 235.338315061717111 ], [ 156.874259974081298, 219.338315060405591 ], [ 174.874259974928094, 219.338315058406607 ] ] ] } },
{ "type": "Feature", "properties": { "feature_type": "building", "subtype": "minor-damage", "uid": "130f5336-5e99-41aa-952d-c2d2ef71c03b" }, "geometry": { "type": "Polygon", "coordinates": [ [ [ 425.370867621790126, 238.481552545793789 ], [ 425.370867620790591, 252.481552546566604 ], [ 428.745998896106812, 251.887769725805811 ], [ 429.152216076614707, 262.075335363255192 ], [ 425.370867621290415, 262.481552545262389 ], [ 421.370867624211712, 262.481552545262389 ], [ 421.370867622712524, 271.481552546187572 ], [ 407.370867621442983, 272.481552543958173 ], [ 407.370867622192577, 262.481552547261401 ], [ 406.370867621673597, 238.481552545793789 ], [ 425.370867621790126, 238.481552545793789 ] ] ] } },
{ "type": "Feature", "properties": { "feature_type": "building", "subtype": "major-damage", "uid": "920eb3db-3bd8-468d-98d5-9509f4e41b32" }, "geometry": { "type": "Polygon", "coordinates": [ [ [ 426.881186086279172, 316.402927334718697 ], [ 417.031856727165689, 330.039414244832528 ], [ 382.344816176007896, 310.640551466952388 ], [ 391.600362719857799, 293.684800876038992 ], [ 397.819014269723709, 287.934538333170622 ], [ 412.068751723993898, 295.965624244822891 ], [ 408.287403269669028, 304.153189880734203 ], [ 426.881186086279172, 316.402927334718697 ] ] ] } },
{ "type": "Feature", "properties": { "feature_type": "building", "subtype": "minor-damage", "uid": "3786416d-b003-4d58-bd29-021517c62509" }, "geometry": { "type": "Polygon", "coordinates": [ [ [ 318.420045267993885, 238.548337635111693 ], [ 331.420045271492882, 247.548337634037892 ], [ 335.420045268821411, 243.54833763395979 ], [ 348.420045267822786, 252.548337634885002 ], [ 345.420045267514979, 257.548337633733183 ], [ 350.420045268361093, 260.548337633042081 ], [ 344.420045269994375, 268.548337636196493 ], [ 346.420045267784189, 269.548337634966686 ], [ 338.4200452678798, 281.548337634201289 ], [ 305.420045268742683, 258.548337631503784 ], [ 313.420045269646607, 246.548337633268687 ], [ 318.420045267993885, 238.548337635111693 ] ] ] } },
{ "type": "Feature", "properties": { "feature_type": "building", "subtype": "minor-damage", "uid": "d8f9591a-dce1-4803-8c3d-39d32121a97b" }, "geometry": { "type": "Polygon", "coordinates": [ [ [ 63.880410645570493, 330.551563744696125 ], [ 63.880410649068658, 339.551563746620786 ], [ 60.880410645762502, 339.551563745621308 ], [ 61.880410645781787, 349.551563748315004 ], [ 44.880410646203579, 349.551563748315004 ], [ 44.880410646953187, 340.551563747389878 ], [ 44.880410646453448, 330.551563744696125 ], [ 41.880410646895328, 330.551563745695603 ], [ 41.880410645895857, 322.551563745539625 ], [ 62.880410646800549, 321.551563744770476 ], [ 63.880410645570493, 330.551563744696125 ] ] ] } },
{ "type": "Feature", "properties": { "feature_type": "building", "subtype": "minor-damage", "uid": "ef847549-5e69-419a-aefe-b180418b4b08" }, "geometry": { "type": "Polygon", "coordinates": [ [ [ 64.40572654533814, 253.962583432806213 ], [ 63.81291705229043, 261.221571564965814 ], [ 66.220107557301617, 261.221571566964826 ], [ 66.368309931250693, 271.258988179286916 ], [ 63.664714677591753, 271.851797671085421 ], [ 64.663741353895944, 282.032059278441977 ], [ 43.515048221951389, 282.148202416180084 ], [ 43.515048224949822, 263.148202418558128 ], [ 40.515048226890933, 263.148202418558128 ], [ 40.515048225641578, 260.148202416250797 ], [ 40.921265405899632, 254.929550872150088 ], [ 64.40572654533814, 253.962583432806213 ] ] ] } },
{ "type": "Feature", "properties": { "feature_type": "building", "subtype": "destroyed", "uid": "bcdc1738-5b21-4970-8aeb-c0981449d30c" }, "geometry": { "type": "Polygon", "coordinates": [ [ [ 86.3683099321361, 273.258988176827188 ], [ 99.368309930637693, 273.25898817582771 ], [ 99.368309930887563, 282.25898817675278 ], [ 86.368309930636883, 282.258988177752315 ], [ 86.3683099321361, 273.258988176827188 ] ] ] } },
{ "type": "Feature", "properties": { "feature_type": "building", "subtype": "minor-damage", "uid": "900fa224-a632-4be4-a1e9-cbeb751d6815" }, "geometry": { "type": "Polygon", "coordinates": [ [ [ 77.367664838587501, 218.421048362258404 ], [ 79.124256666248655, 244.973632739245403 ], [ 46.190673681677417, 247.48681639080101 ], [ 35.19067367946635, 247.486816391800403 ], [ 17.360644636648839, 248.361046092704612 ], [ 17.360644634400021, 223.988015164275311 ], [ 33.378239318431227, 223.925169656610507 ], [ 34.4217662814482, 234.54966190146061 ], [ 45.190673681908009, 234.486816391796793 ], [ 44.872391889652839, 220.759943558276291 ], [ 77.367664838587501, 218.421048362258404 ] ] ] } },
{ "type": "Feature", "properties": { "feature_type": "building", "subtype": "minor-damage", "uid": "6312a187-3184-469e-806e-c2081d22fb22" }, "geometry": { "type": "Polygon", "coordinates": [ [ [ 63.581598237595422, 184.777937435024 ], [ 63.491501052182819, 192.97583045385619 ], [ 64.341103447078709, 202.440312203222589 ], [ 75.569075988041035, 202.440312205221488 ], [ 75.88735777979646, 213.076875784929712 ], [ 64.659385239084003, 213.758593994692887 ], [ 60.659385241005829, 213.758593994692887 ], [ 40.794849115378902, 214.395157577704111 ], [ 41.618498948107472, 185.208142015951893 ], [ 63.581598237595422, 184.777937435024 ] ] ] } },
{ "type": "Feature", "properties": { "feature_type": "building", "subtype": "minor-damage", "uid": "f1f3acfe-c8a6-43e6-b6a1-9a403e98e36c" }, "geometry": { "type": "Polygon", "coordinates": [ [ [ 65.741735121748562, 423.44465754573099 ], [ 66.741735123267063, 432.444657544657218 ], [ 68.741735121556545, 432.444657545656696 ], [ 69.741735122825176, 443.444657544122208 ], [ 66.741735121268107, 443.444657544122208 ], [ 66.741735122267585, 450.444657544508573 ], [ 46.523083576379541, 450.038440362501319 ], [ 46.741735121132322, 423.44465754573099 ], [ 65.741735121748562, 423.44465754573099 ] ] ] } },
{ "type": "Feature", "properties": { "feature_type": "building", "subtype": "minor-damage", "uid": "6a403b79-f59e-4fc7-9793-6e60837b196a" }, "geometry": { "type": "Polygon", "coordinates": [ [ [ 59.642294487965053, 392.383462724924698 ], [ 59.642294489714132, 399.383462721313208 ], [ 61.642294486504397, 399.383462724311585 ], [ 61.64229449000257, 410.383462723776574 ], [ 59.642294491213349, 410.383462723776574 ], [ 59.642294487465307, 419.383462722702689 ], [ 46.298249125451569, 418.977245539696128 ], [ 44.892031942675537, 393.602114271945879 ], [ 59.642294487965053, 392.383462724924698 ] ] ] } },
{ "type": "Feature", "properties": { "feature_type": "building", "subtype": "minor-damage", "uid": "51b42ee4-4cb1-4c47-9307-069e7adbf219" }, "geometry": { "type": "Polygon", "coordinates": [ [ [ 61.752780236228602, 355.792969796892692 ], [ 61.752780236228602, 363.792969796049306 ], [ 64.752780231788805, 363.792969797048784 ], [ 65.752780235306261, 373.792969797743581 ], [ 62.752780232499838, 373.792969797743581 ], [ 62.752780232499838, 382.792969796669809 ], [ 43.752780232883069, 382.792969798668707 ], [ 42.752780235612349, 356.792969794663406 ], [ 61.752780236228602, 355.792969796892692 ] ] ] } },
{ "type": "Feature", "properties": { "feature_type": "building", "subtype": "minor-damage", "uid": "804b8468-5d72-418a-8ccf-adbcf77aea88" }, "geometry": { "type": "Polygon", "coordinates": [ [ [ 717.22157164266514, 47.517976310688979 ], [ 716.332357403218566, 54.480559696449617 ], [ 728.294940788574308, 54.18415495005064 ], [ 729.925166892768857, 71.851797672181831 ], [ 701.887750284099752, 71.814381058555554 ], [ 700.294940786784991, 59.519440391229203 ], [ 702.882807174297454, 48.313145281266458 ], [ 717.22157164266514, 47.517976310688979 ] ] ] } },
{ "type": "Feature", "properties": { "feature_type": "building", "subtype": "minor-damage", "uid": "a29a69c5-4b72-49e9-a61d-2dd077dcffb9" }, "geometry": { "type": "Polygon", "coordinates": [ [ [ 707.264294439787591, 109.767729358993606 ], [ 742.264294439712899, 109.767729358993606 ], [ 743.264294439482342, 126.767729358075798 ], [ 707.264294438288402, 127.767729357845496 ], [ 707.264294439787591, 109.767729358993606 ] ] ] } },
{ "type": "Feature", "properties": { "feature_type": "building", "subtype": "minor-damage", "uid": "126b9640-8498-4056-9989-df05ba021304" }, "geometry": { "type": "Polygon", "coordinates": [ [ [ 769.000000121772928, 80.00000004653684 ], [ 775.000000120389473, 80.000000047536318 ], [ 776.000000122407641, 87.000000044924278 ], [ 769.000000122522579, 88.000000046692875 ], [ 769.000000121772928, 80.00000004653684 ] ] ] } },
{ "type": "Feature", "properties": { "feature_type": "building", "subtype": "minor-damage", "uid": "4dfc5316-fb6f-44ba-8573-6b87f05aecca" }, "geometry": { "type": "Polygon", "coordinates": [ [ [ 792.555393002637402, 84.498134205308929 ], [ 788.073369270085209, 84.498134205308929 ], [ 785.591345532824107, 45.276562687150907 ], [ 786.071905187991433, 38.01464639038106 ], [ 786.071905184992943, 28.827563322323979 ], [ 785.51651230657103, 15.867908099557329 ], [ 836.555393005234919, 16.498134206981049 ], [ 836.555393001736775, 38.498134204911459 ], [ 829.555393001102061, 38.498134204911459 ], [ 829.55539300035241, 55.49813420699212 ], [ 823.555393000986328, 55.49813420699212 ], [ 823.555393002235746, 83.498134205539287 ], [ 792.555393002637402, 84.498134205308929 ] ] ] } },
{ "type": "Feature", "properties": { "feature_type": "building", "subtype": "minor-damage", "uid": "593828bf-c95c-4f95-85a2-bafb4b929e94" }, "geometry": { "type": "Polygon", "coordinates": [ [ [ 626.850333667028281, 63.035952578775778 ], [ 626.850333667777932, 78.035952575320309 ], [ 632.850333668893086, 78.035952578318728 ], [ 633.850333667413224, 81.035952576628162 ], [ 638.850333665760559, 81.035952576628162 ], [ 638.850333666010329, 92.035952578092065 ], [ 633.850333665414269, 92.035952577092587 ], [ 634.514565657978096, 99.331383999913001 ], [ 605.850333665623907, 98.035952577709352 ], [ 605.850333665374023, 78.03595257731925 ], [ 612.85033366550897, 78.03595257731925 ], [ 611.850333667488712, 63.035952576776822 ], [ 626.850333667028281, 63.035952578775778 ] ] ] } },
{ "type": "Feature", "properties": { "feature_type": "building", "subtype": "minor-damage", "uid": "679c9370-aa43-4135-98d8-f96eb11dd017" }, "geometry": { "type": "Polygon", "coordinates": [ [ [ 728.032059602564914, 0.005732660897287 ], [ 726.50865055701945, 16.501235823878119 ], [ 726.261739994343998, 29.251853709293869 ], [ 703.508650554327119, 30.501235821652489 ], [ 703.508650558824797, 17.501235821648802 ], [ 698.50865055473048, 17.501235821648802 ], [ 698.508650554980363, 2.501235821106365 ], [ 703.50865055507677, 2.501235820106888 ], [ 705.994099080470846, 0.005924506564644 ], [ 728.032059602564914, 0.005732660897287 ] ] ] } },
{ "type": "Feature", "properties": { "feature_type": "building", "subtype": "no-damage", "uid": "3c002014-bdc3-49c9-8f9c-4fa5008f6969" }, "geometry": { "type": "Polygon", "coordinates": [ [ [ 516.125553429240654, 0.006723589655191 ], [ 517.125393939920741, 42.15647977055427 ], [ 494.125393938227774, 43.156479770323912 ], [ 493.12554956606732, 0.006716497364361 ], [ 516.125553429240654, 0.006723589655191 ] ] ] } },
{ "type": "Feature", "properties": { "feature_type": "building", "subtype": "minor-damage", "uid": "9325a42f-477d-43ea-9df0-3d43a2ca2935" }, "geometry": { "type": "Polygon", "coordinates": [ [ [ 513.99187813129231, 65.125393858756937 ], [ 514.179443768546662, 115.375131317980305 ], [ 492.991878131637009, 115.156479770728794 ], [ 492.991878130887414, 97.125393860380555 ], [ 488.991878134058481, 97.125393860380555 ], [ 487.991878130541124, 84.125393858377919 ], [ 491.991878131617682, 84.125393860376874 ], [ 491.991878130868088, 66.125393858526579 ], [ 513.99187813129231, 65.125393858756937 ] ] ] } },
{ "type": "Feature", "properties": { "feature_type": "building", "subtype": "major-damage", "uid": "c71cdc4d-7c4a-4fed-aac0-25e74e017934" }, "geometry": { "type": "Polygon", "coordinates": [ [ [ 54.465012564873312, 55.206254851875798 ], [ 52.223606518622923, 102.723442752892197 ], [ 27.912673425386309, 103.171879051882598 ], [ 29.912673422426451, 55.17187905194583 ], [ 54.465012564873312, 55.206254851875798 ] ] ] } },
{ "type": "Feature", "properties": { "feature_type": "building", "subtype": "minor-damage", "uid": "1d51dce0-f5d1-4af4-ad20-5f85c97af55f" }, "geometry": { "type": "Polygon", "coordinates": [ [ [ 107.934736033239702, 91.343273899503117 ], [ 147.93473603301149, 84.343273900116188 ], [ 150.934736032569589, 103.343273899737198 ], [ 110.934736033297497, 110.3432738991241 ], [ 107.934736033239702, 91.343273899503117 ] ] ] } },
{ "type": "Feature", "properties": { "feature_type": "building", "subtype": "minor-damage", "uid": "d572c465-8701-4243-be6d-8a4f82d4ac4a" }, "geometry": { "type": "Polygon", "coordinates": [ [ [ 189.893710462130514, 0.0045238630819 ], [ 187.894530895266712, 11.02789295483336 ], [ 182.894530896669494, 10.02789295306477 ], [ 181.894530893401907, 24.02789295483705 ], [ 162.8945308922859, 22.027892954298299 ], [ 163.894530892305198, 8.027892953525496 ], [ 156.894530894419091, 8.02789295552445 ], [ 157.694126123124306, 0.004061841712714 ], [ 189.893710462130514, 0.0045238630819 ] ] ] } },
{ "type": "Feature", "properties": { "feature_type": "building", "subtype": "destroyed", "uid": "e11bac0d-8324-49a2-8d1e-55afef5d8f99" }, "geometry": { "type": "Polygon", "coordinates": [ [ [ 949.721465284149872, 116.383150191989102 ], [ 964.721465285938393, 115.383150194218402 ], [ 965.721465284208534, 123.383150196373407 ], [ 950.721465287167689, 123.383150196373407 ], [ 949.721465284149872, 116.383150191989102 ] ] ] } },
{ "type": "Feature", "properties": { "feature_type": "building", "subtype": "minor-damage", "uid": "1cabb2db-b2d2-45e4-800f-90de61350e81" }, "geometry": { "type": "Polygon", "coordinates": [ [ [ 809.86172147514219, 949.241406096205196 ], [ 815.861721478006416, 949.241406095205662 ], [ 815.861721479255834, 957.241406095361754 ], [ 809.861721476391494, 957.241406093362798 ], [ 809.86172147514219, 949.241406096205196 ] ] ] } },
{ "type": "Feature", "properties": { "feature_type": "building", "subtype": "minor-damage", "uid": "24c93b78-2f4f-4a2e-82c1-d6e707885de6" }, "geometry": { "type": "Polygon", "coordinates": [ [ [ 777.368205226227587, 904.661685031480943 ], [ 799.36820522390326, 904.661685032480364 ], [ 799.368205225152565, 940.661685031183538 ], [ 778.368205228495754, 940.661685030184117 ], [ 777.368205226227587, 904.661685031480943 ] ] ] } },
{ "type": "Feature", "properties": { "feature_type": "building", "subtype": "minor-damage", "uid": "ec57d843-17fa-4bc5-8ddc-477666ed286f" }, "geometry": { "type": "Polygon", "coordinates": [ [ [ 833.103127526544995, 634.247886803487404 ], [ 834.103127527813626, 646.247886804720906 ], [ 842.103127526218827, 646.247886804720906 ], [ 849.86172147716286, 670.247886803189999 ], [ 843.103127524489082, 690.247886804579593 ], [ 835.103127525584114, 690.247886803580172 ], [ 835.103127528082837, 697.247886803966594 ], [ 776.779091827673369, 699.437034760728693 ], [ 775.53147165809321, 696.309581822551763 ], [ 765.695777913241272, 696.877025694220379 ], [ 765.884925866466119, 678.52967389757589 ], [ 765.695777909743015, 670.396311759981359 ], [ 773.481112914234245, 669.558894109881521 ], [ 773.661018173260913, 634.623018075997265 ], [ 833.103127526544995, 634.247886803487404 ] ] ] } },
{ "type": "Feature", "properties": { "feature_type": "building", "subtype": "major-damage", "uid": "5b3237b8-e2e8-423c-9e7c-f9d9fc1ea6d2" }, "geometry": { "type": "Polygon", "coordinates": [ [ [ 811.244029347908167, 737.844496391148027 ], [ 812.056463713921403, 743.250713574002361 ], [ 795.244029347599621, 743.844496392764313 ], [ 795.244029347849505, 737.844496391148027 ], [ 759.244029347654987, 738.844496391917119 ], [ 758.244029346386355, 711.844496391140638 ], [ 835.244029347371452, 709.844496392600831 ], [ 845.774088808264878, 709.049594425384271 ], [ 845.774088806515806, 735.859928440859562 ], [ 836.244029346891011, 736.844496392377891 ], [ 811.244029347908167, 737.844496391148027 ] ] ] } },
{ "type": "Feature", "properties": { "feature_type": "building", "subtype": "destroyed", "uid": "ebe0793a-26fc-4fad-b70f-5a3690d79ae8" }, "geometry": { "type": "Polygon", "coordinates": [ [ [ 719.00000012080875, 681.00000004601543 ], [ 734.000000122347387, 681.000000042017518 ], [ 734.000000120598315, 698.000000045097636 ], [ 720.000000122327265, 698.00000004309868 ], [ 719.00000012080875, 681.00000004601543 ] ] ] } },
{ "type": "Feature", "properties": { "feature_type": "building", "subtype": "destroyed", "uid": "86b79fde-d0a0-4212-bd18-04960e38daca" }, "geometry": { "type": "Polygon", "coordinates": [ [ [ 719.603602223470261, 639.832432297090691 ], [ 735.603602224528458, 639.832432300089067 ], [ 735.603602227776719, 647.832432297246783 ], [ 719.603602227218289, 647.832432298246204 ], [ 719.603602223470261, 639.832432297090691 ] ] ] } },
{ "type": "Feature", "properties": { "feature_type": "building", "subtype": "destroyed", "uid": "d31bd588-5c4e-49dd-8437-bda3cac1554c" }, "geometry": { "type": "Polygon", "coordinates": [ [ [ 725.000000121674134, 702.000000047174581 ], [ 735.000000121866947, 702.000000047174581 ], [ 735.090983522301258, 710.727867254803527 ], [ 725.272950323976602, 710.909834059670175 ], [ 725.000000121674134, 702.000000047174581 ] ] ] } },
{ "type": "Feature", "properties": { "feature_type": "building", "subtype": "minor-damage", "uid": "0d552b51-3504-456b-b2b7-38f1044d5eb2" }, "geometry": { "type": "Polygon", "coordinates": [ [ [ 730.27446584847462, 820.05267794416261 ], [ 730.274465845226359, 823.052677939473597 ], [ 737.274465847360261, 823.052677941472552 ], [ 738.274465847379588, 852.05267794078884 ], [ 711.27446584510983, 853.052677941557931 ], [ 710.274465846589806, 824.052677942241644 ], [ 719.274465848512364, 824.052677942241644 ], [ 719.274465847512943, 820.052677943163076 ], [ 730.27446584847462, 820.05267794416261 ] ] ] } },
{ "type": "Feature", "properties": { "feature_type": "building", "subtype": "destroyed", "uid": "5124be36-e87c-4bf9-9f24-ad89be7d3a80" }, "geometry": { "type": "Polygon", "coordinates": [ [ [ 497.000000120775724, 976.014945088970535 ], [ 486.000000121313178, 979.014945089278967 ], [ 485.000000121293908, 974.014945090430842 ], [ 480.000000123196401, 957.014945088350146 ], [ 501.000000119853325, 951.01494508973235 ], [ 506.00000012094921, 969.014945088584227 ], [ 496.000000120756397, 971.014945089122875 ], [ 497.000000120775724, 976.014945088970535 ] ] ] } },
{ "type": "Feature", "properties": { "feature_type": "building", "subtype": "minor-damage", "uid": "ac49fa3b-cae0-485e-8f23-8817ad5bf3da" }, "geometry": { "type": "Polygon", "coordinates": [ [ [ 785.067200845278535, 957.034375847330693 ], [ 785.067200843029696, 963.034375846948024 ], [ 788.318282256215753, 963.831141328572244 ], [ 788.888585263345703, 956.132050766923157 ], [ 796.872827324185209, 956.203338641346477 ], [ 797.037629823497355, 963.45202316415191 ], [ 863.932023959952517, 959.378909300617806 ], [ 863.932023961701589, 975.137503250969871 ], [ 863.69061790899309, 989.275781896915305 ], [ 854.551563826689858, 990.653915710906858 ], [ 854.492269647978901, 1001.835585061802021 ], [ 824.067200842032662, 1001.03437584718904 ], [ 824.067200845281036, 989.034375844956458 ], [ 783.067200841991735, 990.034375845725549 ], [ 783.067200845239995, 979.034375848259515 ], [ 776.067200841856675, 963.034375846948024 ], [ 776.067200843355977, 957.034375847330693 ], [ 785.067200845278535, 957.034375847330693 ] ] ] } },
{ "type": "Feature", "properties": { "feature_type": "building", "subtype": "minor-damage", "uid": "02b84255-7c2a-4e74-addf-f7d203cd0302" }, "geometry": { "type": "Polygon", "coordinates": [ [ [ 509.257091986001626, 719.187565683011485 ], [ 509.663309166509578, 737.593782863870615 ], [ 516.069526349631928, 738.00000004687729 ], [ 515.444657621372812, 760.000000044807734 ], [ 507.819788893978114, 760.812434409821662 ], [ 484.44465762077499, 761.000000045576826 ], [ 472.444657621792885, 761.000000044577405 ], [ 472.444657622542479, 738.344045406891382 ], [ 483.632223257760188, 738.750262589898057 ], [ 483.444657622504792, 719.187565681012529 ], [ 509.257091986001626, 719.187565683011485 ] ] ] } },
{ "type": "Feature", "properties": { "feature_type": "building", "subtype": "minor-damage", "uid": "149f3453-013a-4213-9cea-51cd3a2b38bb" }, "geometry": { "type": "Polygon", "coordinates": [ [ [ 637.875656482256886, 787.688090767611243 ], [ 637.875656482007003, 793.688090765229617 ], [ 641.87565648258385, 793.688090768227994 ], [ 641.875656479085706, 801.688090768384086 ], [ 637.875656481257352, 801.688090771382463 ], [ 637.657004933006419, 815.094307950394978 ], [ 609.875656478718497, 815.688090769156815 ], [ 609.875656480967336, 806.688090768231746 ], [ 602.87565648083239, 806.688090767232211 ], [ 602.875656480582506, 797.688090771304473 ], [ 609.87565648121722, 797.688090769305518 ], [ 609.875656478968381, 788.688090768380334 ], [ 637.875656482256886, 787.688090767611243 ] ] ] } },
{ "type": "Feature", "properties": { "feature_type": "building", "subtype": "minor-damage", "uid": "10c08fc9-d17a-401b-87a8-1e09bb1b5d84" }, "geometry": { "type": "Polygon", "coordinates": [ [ [ 641.000000121053745, 844.00000004444712 ], [ 643.261432434092399, 857.84114645745899 ], [ 621.636563705178446, 858.653580822472918 ], [ 621.000000121917424, 844.00000004444712 ], [ 611.000000122224378, 844.00000004444712 ], [ 610.681718330468925, 826.7268728801115 ], [ 641.273127286806812, 826.090309296100827 ], [ 641.000000121053745, 844.00000004444712 ] ] ] } },
{ "type": "Feature", "properties": { "feature_type": "building", "subtype": "destroyed", "uid": "3e4faa87-1a36-4fe1-a68f-e0770316acd0" }, "geometry": { "type": "Polygon", "coordinates": [ [ [ 697.027893032275756, 816.643296115913245 ], [ 697.027893031526105, 820.643296118989724 ], [ 701.027893032352836, 820.643296118989724 ], [ 702.027893033871351, 850.643296116076613 ], [ 684.027893031025542, 850.643296118075568 ], [ 683.027893031256099, 820.643296118989724 ], [ 689.027893033870555, 820.643296118989724 ], [ 689.027893031871599, 816.643296115913245 ], [ 697.027893032275756, 816.643296115913245 ] ] ] } },
{ "type": "Feature", "properties": { "feature_type": "building", "subtype": "minor-damage", "uid": "335e554a-a770-45a0-a24a-8d5f68b65aed" }, "geometry": { "type": "Polygon", "coordinates": [ [ [ 290.885031715694026, 902.310573686340717 ], [ 290.885031716943388, 920.310573688191084 ], [ 263.885031716422816, 921.310573687960641 ], [ 262.885031716153605, 917.310573687882652 ], [ 256.885031714788624, 917.310573684884162 ], [ 256.885031715288278, 907.310573686188377 ], [ 262.885031718152618, 907.310573688187333 ], [ 262.885031716653316, 903.310573687109809 ], [ 290.885031715694026, 902.310573686340717 ] ] ] } },
{ "type": "Feature", "properties": { "feature_type": "building", "subtype": "minor-damage", "uid": "caf3b399-4ad8-488c-a703-2aa5fe2a86ff" }, "geometry": { "type": "Polygon", "coordinates": [ [ [ 420.907491458815798, 882.090309297193016 ], [ 419.679518918046313, 903.00000004184983 ], [ 402.589209668712215, 903.36343646260616 ], [ 402.862336834964992, 883.045154671210184 ], [ 392.406391751772617, 883.363436460217144 ], [ 392.406391751772617, 873.090309297267368 ], [ 420.907491460564927, 872.453745715255536 ], [ 420.907491458815798, 882.090309297193016 ] ] ] } },
{ "type": "Feature", "properties": { "feature_type": "building", "subtype": "minor-damage", "uid": "2c4c931c-0b8b-4537-8f9e-c7f34970a0c7" }, "geometry": { "type": "Polygon", "coordinates": [ [ [ 377.477163025831317, 953.726861561759165 ], [ 426.800532998233678, 950.741806609396576 ], [ 426.800532997983908, 973.741806606097157 ], [ 375.492108071989378, 975.403491592729665 ], [ 377.477163025831317, 953.726861561759165 ] ] ] } },
{ "type": "Feature", "properties": { "feature_type": "building", "subtype": "minor-damage", "uid": "5232e348-2a92-4d22-92e2-839c424e89a9" }, "geometry": { "type": "Polygon", "coordinates": [ [ [ 355.407087748561992, 944.677591295504385 ], [ 377.310098683931813, 944.096989109453148 ], [ 378.426219124559509, 991.954916109612441 ], [ 356.407087749830623, 991.677591295671505 ], [ 355.407087748561992, 944.677591295504385 ] ] ] } },
{ "type": "Feature", "properties": { "feature_type": "building", "subtype": "minor-damage", "uid": "83273206-66d1-4594-bf74-905b9bb17c08" }, "geometry": { "type": "Polygon", "coordinates": [ [ [ 286.758117550977488, 958.432556176270964 ], [ 295.812377767305122, 958.432556176270964 ], [ 295.677490029984426, 971.243408218052309 ], [ 286.758117552226793, 971.432556176274602 ], [ 286.758117550977488, 958.432556176270964 ] ] ] } },
{ "type": "Feature", "properties": { "feature_type": "building", "subtype": "minor-damage", "uid": "2a6ff0a1-954c-4c16-a6a0-1095984cb2e5" }, "geometry": { "type": "Polygon", "coordinates": [ [ [ 284.080627645081222, 963.486816389774049 ], [ 282.810852163923926, 977.054260260446767 ], [ 298.000000119437004, 977.000000044792387 ], [ 298.000000120436482, 994.000000043874593 ], [ 282.012360574530476, 994.587492785260338 ], [ 282.621704207700475, 1002.511658094914992 ], [ 266.502228128236311, 1002.720854918856958 ], [ 266.000000121068808, 994.000000045873549 ], [ 266.506452491452478, 986.820940773021107 ], [ 262.53434539701982, 986.064348948127645 ], [ 262.723493355741823, 971.878252198392147 ], [ 266.317304530231809, 971.878252198392147 ], [ 266.324035820859478, 961.46044908397289 ], [ 284.080627645081222, 963.486816389774049 ] ] ] } },
{ "type": "Feature", "properties": { "feature_type": "building", "subtype": "minor-damage", "uid": "14470fb5-c298-4406-a5c9-a249d35f6782" }, "geometry": { "type": "Polygon", "coordinates": [ [ [ 263.000000121010885, 725.000000043875161 ], [ 293.000000121839321, 724.000000045105025 ], [ 293.000000119340484, 741.000000047185722 ], [ 263.000000123259724, 742.000000044956437 ], [ 263.000000121010885, 725.000000043875161 ] ] ] } },
{ "type": "Feature", "properties": { "feature_type": "building", "subtype": "minor-damage", "uid": "f346b2d2-df7b-4caf-88a6-960e312c70b3" }, "geometry": { "type": "Polygon", "coordinates": [ [ [ 281.448835321228614, 753.767591682563989 ], [ 282.448835323746607, 774.767591682723719 ], [ 258.448835323283788, 774.767591682723719 ], [ 258.44883532253408, 769.767591685874436 ], [ 253.448835320688687, 769.767591685874436 ], [ 253.448835321937992, 757.767591684640934 ], [ 257.448835321265619, 757.767591684640934 ], [ 257.448835321515389, 754.767591682333546 ], [ 281.448835321228614, 753.767591682563989 ] ] ] } },
{ "type": "Feature", "properties": { "feature_type": "building", "subtype": "minor-damage", "uid": "8f6d547b-7c4b-43d0-bfce-80b27dbd2731" }, "geometry": { "type": "Polygon", "coordinates": [ [ [ 424.260182622751188, 755.963105045306406 ], [ 424.741735124173715, 772.370867547444732 ], [ 432.741735123828221, 772.370867549443687 ], [ 433.74173512584639, 791.370867546066165 ], [ 424.741735122424473, 792.370867546835257 ], [ 392.741735123806393, 792.370867546835257 ], [ 392.26018262263392, 757.518447544595574 ], [ 424.260182622751188, 755.963105045306406 ] ] ] } },
{ "type": "Feature", "properties": { "feature_type": "building", "subtype": "minor-damage", "uid": "61ca0f6c-d414-494c-869a-af63cc2b9faa" }, "geometry": { "type": "Polygon", "coordinates": [ [ [ 269.000000119877313, 801.000000045357524 ], [ 290.000000119032791, 800.000000044588433 ], [ 291.000000120051595, 840.000000047367507 ], [ 270.00000012014641, 840.000000047367507 ], [ 269.000000119877313, 801.000000045357524 ] ] ] } },
{ "type": "Feature", "properties": { "feature_type": "building", "subtype": "minor-damage", "uid": "c553051e-f088-447d-8a0e-57e62feaf595" }, "geometry": { "type": "Polygon", "coordinates": [ [ [ 267.501235898927916, 851.503707372836857 ], [ 303.501235896123887, 850.503707375066142 ], [ 304.501235896143214, 870.503707374456781 ], [ 267.501235898428092, 870.503707374456781 ], [ 267.501235898927916, 851.503707372836857 ] ] ] } },
{ "type": "Feature", "properties": { "feature_type": "building", "subtype": "minor-damage", "uid": "6ffb2518-05a3-4fe8-901f-df0fded27c3c" }, "geometry": { "type": "Polygon", "coordinates": [ [ [ 264.78703706154721, 880.185719072655161 ], [ 297.787037063682817, 880.185719072655161 ], [ 297.787037061433978, 898.185719071507037 ], [ 264.787037061797093, 898.185719071507037 ], [ 264.78703706154721, 880.185719072655161 ] ] ] } },
{ "type": "Feature", "properties": { "feature_type": "building", "subtype": "minor-damage", "uid": "26b14fc4-2eb7-4955-82fd-479fe52b07e4" }, "geometry": { "type": "Polygon", "coordinates": [ [ [ 103.070366674935102, 790.76759168403521 ], [ 114.070366676146705, 790.76759168403521 ], [ 111.394717487830405, 802.315151521244616 ], [ 115.070366674916698, 810.767591682426314 ], [ 103.070366675184999, 810.767591686424225 ], [ 101.227348506560105, 801.390845251696419 ], [ 103.070366674935102, 790.76759168403521 ] ] ] } },
{ "type": "Feature", "properties": { "feature_type": "building", "subtype": "minor-damage", "uid": "d92b125b-99f4-46e1-947d-bead7795f3b4" }, "geometry": { "type": "Polygon", "coordinates": [ [ [ 0.072461524370498, 854.184696929214738 ], [ 59.964073440253671, 851.275781895722957 ], [ 60.100807448500078, 857.241813300447575 ], [ 60.55785625451778, 890.456767750623953 ], [ 52.839729795382759, 890.275781895733985 ], [ 15.964073441154291, 891.275781896503076 ], [ 15.964073436406769, 871.275781898111973 ], [ 7.483587659197954, 871.758593993034424 ], [ 6.693912777537797, 881.465377384978069 ], [ 0.072436961966297, 881.946733208510409 ], [ 0.072461524370498, 854.184696929214738 ] ] ] } },
{ "type": "Feature", "properties": { "feature_type": "building", "subtype": "destroyed", "uid": "7e4c6659-427b-473f-85ed-613b87bb9b7d" }, "geometry": { "type": "Polygon", "coordinates": [ [ [ 122.446885539619899, 971.103127447963516 ], [ 144.44688553779531, 1004.103127451356045 ], [ 144.697457224003614, 1006.536843840195047 ], [ 140.914498092290813, 1008.995767278095968 ], [ 146.336839501395588, 1015.345010019568008 ], [ 141.984910894633998, 1019.155862061423022 ], [ 127.446885537217597, 1015.103127447821976 ], [ 105.446885538042693, 982.103127447428392 ], [ 122.446885539619899, 971.103127447963516 ] ] ] } },
{ "type": "Feature", "properties": { "feature_type": "building", "subtype": "destroyed", "uid": "a5da4a69-1623-443c-a433-0c9afa98e9bd" }, "geometry": { "type": "Polygon", "coordinates": [ [ [ 50.379821637228282, 726.108520478951391 ], [ 89.212464177127956, 726.297668434175307 ], [ 88.455872351235172, 735.865112304770037 ], [ 50.37982163522932, 735.108520476878198 ], [ 50.379821637228282, 726.108520478951391 ] ] ] } },
{ "type": "Feature", "properties": { "feature_type": "building", "subtype": "major-damage", "uid": "6dbd7832-d016-4c09-8ffb-fef7a2d648fe" }, "geometry": { "type": "Polygon", "coordinates": [ [ [ 165.555392999042311, 693.294940709343905 ], [ 165.4071906278418, 716.480559697867648 ], [ 197.407190628958602, 716.480559697867648 ], [ 197.407190628958602, 742.480559699873879 ], [ 168.407190626150509, 742.480559697874924 ], [ 168.407190629149, 764.480559697804324 ], [ 194.185619108504994, 765.517976313199256 ], [ 194.630226229352701, 784.853261753151628 ], [ 173.149666576529, 784.815845140524857 ], [ 168.407190629149, 785.480559698963589 ], [ 126.592809613665594, 786.03595257613631 ], [ 124.221571638476306, 785.556857007521785 ], [ 100.703595375486003, 784.964047514723802 ], [ 100.703595372737396, 762.923702737557392 ], [ 123.480559772229199, 762.961119352183118 ], [ 123.814381134503193, 743.480559695645638 ], [ 92.407190629182665, 743.480559697644594 ], [ 92.407190627683448, 717.480559695638249 ], [ 126.4071906258404, 717.480559695638249 ], [ 126.851797749686497, 693.702131219313969 ], [ 165.555392999042311, 693.294940709343905 ] ] ] } },
{ "type": "Feature", "properties": { "feature_type": "building", "subtype": "minor-damage", "uid": "a01abb43-5230-457f-9dd2-b0459413d3bc" }, "geometry": { "type": "Polygon", "coordinates": [ [ [ 0.072576874793815, 666.994823173675172 ], [ 8.225204407100339, 670.557753648096877 ], [ 7.952254203548466, 674.37905650032269 ], [ 29.151386689155569, 674.015122895586728 ], [ 28.878436485103961, 686.752799068339982 ], [ 20.780913776983141, 686.661815665406948 ], [ 21.053863979785401, 693.940487763123656 ], [ 46.9841333279578, 694.395404770792538 ], [ 46.908693371516257, 713.090088945386015 ], [ 14.186096871668649, 714.03582872850177 ], [ 13.99694891594506, 749.784792538674992 ], [ 3.215515382480338, 749.595644580452699 ], [ 3.593811295426734, 758.674746503161941 ], [ 35.938111885076523, 758.863894458385744 ], [ 36.316407798272778, 798.96326127069176 ], [ 7.469680092663753, 797.734798141992769 ], [ 7.374773249885727, 826.864249196189803 ], [ 0.07248368053313, 827.035198194217742 ], [ 0.072576874793815, 666.994823173675172 ] ] ] } },
{ "type": "Feature", "properties": { "feature_type": "building", "subtype": "minor-damage", "uid": "42fa6d20-01f2-42d3-acb3-eb0b2fabd36e" }, "geometry": { "type": "Polygon", "coordinates": [ [ [ 266.918947707384291, 924.027255039021497 ], [ 286.194940329409803, 924.027255037022542 ], [ 286.311060766520086, 928.555952101815592 ], [ 296.645779704067479, 927.510868167322997 ], [ 298.155345389499814, 938.774550598506949 ], [ 297.806984080417692, 946.554619910384645 ], [ 290.607516955092592, 946.902981224214273 ], [ 290.143035203903025, 949.922112598077661 ], [ 259.13887839775731, 949.573751285247567 ], [ 259.138878396258008, 937.845587100624925 ], [ 266.91894770663481, 937.845587100624925 ], [ 266.918947707384291, 924.027255039021497 ] ] ] } },
{ "type": "Feature", "properties": { "feature_type": "building", "subtype": "no-damage", "uid": "12803807-12f4-43c8-ba68-2a1c1e6a3bec" }, "geometry": { "type": "Polygon", "coordinates": [ [ [ 692.052210367048019, 74.138283433612401 ], [ 712.20773314416283, 73.990081061412383 ], [ 712.948745009160689, 77.843342768597068 ], [ 753.407992946584613, 77.991545144794998 ], [ 752.963385823987892, 101.125384326444703 ], [ 691.755805615651639, 99.480889281709239 ], [ 692.052210367048019, 74.138283433612401 ] ] ] } },
{ "type": "Feature", "properties": { "feature_type": "building", "subtype": "minor-damage", "uid": "07e29a5b-f55b-489c-9084-74958ae8dfcb" }, "geometry": { "type": "Polygon", "coordinates": [ [ [ 589.470952246073807, 251.055895584527093 ], [ 602.711309209942101, 251.812487412418989 ], [ 601.008977602932646, 239.139574313469893 ], [ 604.035344905754187, 238.950426358246006 ], [ 622.382696703893885, 239.328722270692793 ], [ 623.895880355929307, 256.730334283222021 ], [ 625.787359924409316, 257.865222023560591 ], [ 625.409064009963686, 266.376880072602376 ], [ 628.813727229229812, 266.566028032823681 ], [ 628.813727230978884, 262.972216854584872 ], [ 645.269599459888923, 263.539660726253373 ], [ 646.593635156700543, 276.590869733651289 ], [ 649.241706551323205, 276.780017692873116 ], [ 649.2417065500739, 283.400196173684321 ], [ 630.516058840487062, 283.400196172684787 ], [ 618.410589616457514, 283.967640044353402 ], [ 607.440008126269618, 282.45445639056851 ], [ 607.250860173794422, 278.860645214328713 ], [ 600.819829644210586, 278.860645214328713 ], [ 600.630681687987249, 274.321094254972991 ], [ 589.849248156521526, 274.699390166420187 ], [ 589.470952246073807, 251.055895584527093 ] ] ] } },
{ "type": "Feature", "properties": { "feature_type": "building", "subtype": "minor-damage", "uid": "40d1b93c-ce2f-445e-99e7-791f10018255" }, "geometry": { "type": "Polygon", "coordinates": [ [ [ 157.698239256262298, 37.647118673316413 ], [ 161.845819253532994, 37.647118672316928 ], [ 162.364266752129907, 33.499538673546127 ], [ 181.546824247690012, 41.794698668089303 ], [ 178.436139248362707, 45.942278670858023 ], [ 185.175956749861911, 48.534516170339643 ], [ 174.807006750688402, 64.087941166229911 ], [ 165.993399252302908, 65.643283664519615 ], [ 155.106001757031095, 58.903466164268231 ], [ 156.661344255820211, 55.792781168688293 ], [ 153.032211758145905, 53.718991168303418 ], [ 148.884631759625904, 45.423831171761279 ], [ 156.661344256070095, 36.610223675122917 ], [ 157.179791754667008, 35.57332867493048 ], [ 157.698239256262298, 37.647118673316413 ] ] ] } },
{ "type": "Feature", "properties": { "feature_type": "building", "subtype": "minor-damage", "uid": "7be55bd9-12b3-4d86-9aed-04c2df58d86f" }, "geometry": { "type": "Polygon", "coordinates": [ [ [ 156.371877866256199, 354.777970708440023 ], [ 157.326723240522995, 354.777970710438922 ], [ 175.204979180587287, 354.602099927436825 ], [ 175.875002532100211, 372.513815636756419 ], [ 193.292565671156012, 372.920032820762572 ], [ 193.292565671405896, 383.423331935950728 ], [ 157.300506634696887, 383.879413085789281 ], [ 156.371877866256199, 354.777970708440023 ] ] ] } },
{ "type": "Feature", "properties": { "feature_type": "building", "subtype": "destroyed", "uid": "c409335d-f2e8-469e-8dc6-201f375a2892" }, "geometry": { "type": "Polygon", "coordinates": [ [ [ 246.945114820208801, 20.802973977056851 ], [ 269.442404314075191, 22.126343944785891 ], [ 268.0585603449166, 41.131878872715582 ], [ 245.877212652588213, 40.142587923260088 ], [ 239.004894997344906, 36.021728636924607 ], [ 239.666579981459194, 27.419823828695261 ], [ 243.636689894140403, 26.75813883983335 ], [ 245.621744852479992, 20.802973977056851 ], [ 246.945114820208801, 20.802973977056851 ] ] ] } },
{ "type": "Feature", "properties": { "feature_type": "building", "subtype": "minor-damage", "uid": "efbe9dc0-dadf-40de-8647-7279be69c538" }, "geometry": { "type": "Polygon", "coordinates": [ [ [ 64.017427892936738, 316.167476977013678 ], [ 44.834870399875349, 315.130581976821304 ], [ 40.687290402604681, 308.390764481567317 ], [ 42.761080401739747, 304.243184481797016 ], [ 42.478153224257873, 287.332677416142872 ], [ 62.46208539539699, 287.134416986617623 ], [ 64.017427892936738, 316.167476977013678 ] ] ] } },
{ "type": "Feature", "properties": { "feature_type": "building", "subtype": "minor-damage", "uid": "f8746408-bd11-42bb-9cde-860e1bbfe23b" }, "geometry": { "type": "Polygon", "coordinates": [ [ [ 176.092898882309413, 315.459289362384823 ], [ 159.031777234011798, 314.240637816363119 ], [ 155.375822593948698, 309.772248815283092 ], [ 147.657696135813097, 307.741162903247982 ], [ 146.845261770549513, 298.398167716082412 ], [ 156.188256958962398, 297.179516171060186 ], [ 155.375822595198002, 286.211652254866181 ], [ 176.092898881059995, 287.836520981895717 ], [ 177.311550425082487, 313.021986269341994 ], [ 176.092898882309413, 315.459289362384823 ] ] ] } },
{ "type": "Feature", "properties": { "feature_type": "building", "subtype": "destroyed", "uid": "2ef2217b-2f7e-49c2-a241-c6724196ead2" }, "geometry": { "type": "Polygon", "coordinates": [ [ [ 193.86553325649831, 452.489484913950605 ], [ 182.459688260630713, 451.971037417852301 ], [ 181.422793262187611, 440.046744923635117 ], [ 192.828638260553788, 439.009849920444196 ], [ 192.828638256305993, 451.971037417852301 ], [ 193.86553325649831, 452.489484913950605 ] ] ] } },
{ "type": "Feature", "properties": { "feature_type": "building", "subtype": "minor-damage", "uid": "10b73c71-d66f-4f2c-a9c3-1a11a7545455" }, "geometry": { "type": "Polygon", "coordinates": [ [ [ 173.816462904480801, 339.788468985442876 ], [ 157.22614290940129, 338.233126483155274 ], [ 156.189247908709291, 321.642806486073084 ], [ 174.853357901674599, 320.6059114908781 ], [ 174.334910403327598, 339.788468983443977 ], [ 173.816462904480801, 339.788468985442876 ] ] ] } },
{ "type": "Feature", "properties": { "feature_type": "building", "subtype": "minor-damage", "uid": "ecf65142-44e4-4151-a578-afdc07d419b6" }, "geometry": { "type": "Polygon", "coordinates": [ [ [ 365.55556964251889, 216.691680148021788 ], [ 342.743879649784219, 201.656702653227313 ], [ 351.557487147170207, 189.732410157011088 ], [ 373.332282140212385, 204.767387654804111 ], [ 366.592464641461675, 214.617890151634896 ], [ 365.55556964251889, 216.691680148021788 ] ] ] } },
{ "type": "Feature", "properties": { "feature_type": "building", "subtype": "minor-damage", "uid": "e35ac69d-ab03-4270-9d10-6ce919bb8728" }, "geometry": { "type": "Polygon", "coordinates": [ [ [ 580.868858448435276, 398.237720104925188 ], [ 560.130958459583212, 397.719272602830074 ], [ 561.167853455277736, 372.315345112107991 ], [ 584.497990948858046, 373.352240115298912 ], [ 584.497990950607232, 397.719272602830074 ], [ 580.868858448435276, 398.237720104925188 ] ] ] } },
{ "type": "Feature", "properties": { "feature_type": "building", "subtype": "minor-damage", "uid": "8f16ef16-867e-4c3f-9a2a-c8dedd8fd90b" }, "geometry": { "type": "Polygon", "coordinates": [ [ [ 589.009404399242499, 322.397134763770623 ], [ 588.814006991396354, 322.983326993306207 ], [ 582.365892455262724, 319.270776200250907 ], [ 569.078868567303175, 317.512199511644326 ], [ 565.952510006782632, 312.627264258518494 ], [ 564.584728135118098, 281.754473461002192 ], [ 581.584302813133604, 281.559076054155526 ], [ 590.181788858313325, 286.834806125972193 ], [ 590.377186270407265, 320.05236584462898 ], [ 589.009404399242499, 322.397134763770623 ] ] ] } },
{ "type": "Feature", "properties": { "feature_type": "building", "subtype": "minor-damage", "uid": "cc3d5fc7-de20-4854-82f0-3354002fee09" }, "geometry": { "type": "Polygon", "coordinates": [ [ [ 576.15523588813096, 280.104723105721803 ], [ 567.978149808557873, 280.950628563814917 ], [ 565.252454446951106, 278.788870172687098 ], [ 564.688517476471702, 267.698109739679182 ], [ 567.696181322693519, 266.570235799219802 ], [ 575.779277908727522, 266.570235799219802 ], [ 575.497309423862589, 272.303595006299986 ], [ 577.095130840762522, 272.303595006299986 ], [ 577.471088820665614, 274.935300869371019 ], [ 576.061246397090599, 275.875195823252 ], [ 576.249225384168767, 280.104723105721803 ], [ 576.15523588813096, 280.104723105721803 ] ] ] } },
{ "type": "Feature", "properties": { "feature_type": "building", "subtype": "minor-damage", "uid": "8bb2e5d4-95ec-4025-83ee-b94ad6f591ca" }, "geometry": { "type": "Polygon", "coordinates": [ [ [ 487.133103348177485, 227.314956506763593 ], [ 488.351754890700818, 190.349192937109905 ], [ 504.194224991477711, 191.974061666138311 ], [ 503.381790628712793, 197.254885036230093 ], [ 507.443962450533206, 197.661102217237811 ], [ 507.443962448534307, 209.847617674456103 ], [ 500.538270353163625, 211.066269222476706 ], [ 500.132053172655674, 226.502522143748592 ], [ 488.757972074456973, 226.90873932375689 ], [ 487.133103348177485, 227.314956506763593 ] ] ] } },
{ "type": "Feature", "properties": { "feature_type": "building", "subtype": "minor-damage", "uid": "a135ecdd-e2e0-47f5-a86d-e6d3bce8c407" }, "geometry": { "type": "Polygon", "coordinates": [ [ [ 477.058968977989423, 844.731821654821715 ], [ 478.277620525759914, 829.701785917556094 ], [ 485.589529802388085, 826.452048460498759 ], [ 515.649601274664064, 827.264482826512221 ], [ 516.868252821185138, 844.73182165582125 ], [ 483.152226709345825, 845.950473202842318 ], [ 477.058968977989423, 844.731821654821715 ] ] ] } },
{ "type": "Feature", "properties": { "feature_type": "building", "subtype": "minor-damage", "uid": "d4ef286c-397c-49d0-a857-7d18d79ce14d" }, "geometry": { "type": "Polygon", "coordinates": [ [ [ 516.46203563867823, 816.702836092325356 ], [ 481.933575163574176, 816.702836092325356 ], [ 482.746009526588978, 797.204411352980287 ], [ 511.587429454842493, 794.767108261936414 ], [ 521.74285900577047, 800.454148810037509 ], [ 521.742859005520586, 819.952573549382691 ], [ 517.680687188447678, 816.702836092325356 ], [ 516.46203563867823, 816.702836092325356 ] ] ] } },
{ "type": "Feature", "properties": { "feature_type": "building", "subtype": "minor-damage", "uid": "340b9c98-99a5-4549-af2a-26a31f852a80" }, "geometry": { "type": "Polygon", "coordinates": [ [ [ 387.076711891203672, 73.604337563950054 ], [ 371.52328689456732, 72.048995062661916 ], [ 373.078629392356902, 41.979040072073317 ], [ 391.742739386821427, 45.089725072650637 ], [ 389.150501889589179, 72.567442563757623 ], [ 387.076711891203672, 73.604337563950054 ] ] ] } }
]
}
