{
"type": "FeatureCollection",
"name": "hurricane-harvey_00000447_post_disaster",
"features": [
{ "type": "Feature", "properties": { "feature_type": "building", "subtype": "major-damage", "uid": "53ab50e9-77fb-4b39-bae5-4a86da8af372" }, "geometry": { "type": "Polygon", "coordinates": [ [ [ 51.437211882349288, 429.447145642096416 ], [ 51.729996189004758, 433.010001943869725 ], [ 49.37915346624569, 436.234479839196922 ], [ 49.151151940724141, 440.566508849221691 ], [ 48.70815605177944, 443.002986255119481 ], [ 48.049598864401787, 444.759138758782228 ], [ 45.711223774595098, 448.585570711198216 ], [ 42.814950095621988, 447.026038730518792 ], [ 38.282376355452172, 452.512838519534512 ], [ 43.29812301351528, 458.896516081942821 ], [ 42.889996188532649, 468.570001941177111 ], [ 41.436190075534967, 468.366378022216395 ], [ 29.909853233330949, 478.284226243950172 ], [ 19.003318815962011, 466.542357733367623 ], [ 25.199349703715949, 459.631753657256411 ], [ 16.09804191303564, 450.70618986891202 ], [ 17.7740276305619, 445.294878712517175 ], [ 19.309489045560969, 437.617571650231127 ], [ 25.133730763250931, 434.245642232793102 ], [ 29.486955758188621, 424.917302953150909 ], [ 31.719996191345391, 418.000001941965195 ], [ 35.415903189310662, 417.123062028504478 ], [ 51.437211882349288, 429.447145642096416 ] ] ] } },
{ "type": "Feature", "properties": { "feature_type": "building", "subtype": "major-damage", "uid": "60610d36-4e94-4cb7-a01c-a6de11f6ab4b" }, "geometry": { "type": "Polygon", "coordinates": [ [ [ 84.062044368693577, 453.645455853610372 ], [ 72.114041012502909, 470.248979648107309 ], [ 61.173517512989292, 461.104285944790718 ], [ 54.796289578250928, 456.650644551348876 ], [ 52.623417631592638, 450.834792988612719 ], [ 51.187139218990538, 447.290104033225816 ], [ 50.174310941731413, 441.275289916143208 ], [ 54.518232785372021, 434.992983264922486 ], [ 59.139764137475787, 433.144370723980387 ], [ 84.062044368693577, 453.645455853610372 ] ] ] } },
{ "type": "Feature", "properties": { "feature_type": "building", "subtype": "major-damage", "uid": "ee2bfb86-8671-4d09-9445-49e39ff33679" }, "geometry": { "type": "Polygon", "coordinates": [ [ [ 15.697369409840521, 413.733939039103973 ], [ 19.84999618619176, 410.170001944275725 ], [ 28.667097440858409, 415.313841379200312 ], [ 27.78728711671954, 424.331897190566508 ], [ 24.240643471903851, 431.646849707713784 ], [ 14.720247820246771, 437.313751883336579 ], [ 15.38893178674369, 443.554802220111185 ], [ 7.629996187524103, 445.500001945211409 ], [ -0.000003812390422, 445.111167741899521 ], [ -0.000003814446862, 416.971910280438976 ], [ 5.872091601128433, 407.038866636476428 ], [ 15.697369409840521, 413.733939039103973 ] ] ] } },
{ "type": "Feature", "properties": { "feature_type": "building", "subtype": "major-damage", "uid": "0baeb559-c054-45db-a939-203e03b041cd" }, "geometry": { "type": "Polygon", "coordinates": [ [ [ 44.846755698696818, 483.885834630183524 ], [ 52.9801178386451, 472.536957227101027 ], [ 62.248367712806598, 477.643952057889919 ], [ 61.491775886840429, 479.724579580326008 ], [ 71.894913502256912, 490.316865153079789 ], [ 66.787918675458471, 498.071931380048511 ], [ 44.846755698696818, 483.885834630183524 ] ] ] } },
{ "type": "Feature", "properties": { "feature_type": "building", "subtype": "destroyed", "uid": "91f4c66b-0595-4fe6-a3d2-79390c11c00b" }, "geometry": { "type": "Polygon", "coordinates": [ [ [ 100.331613256493398, 512.802870272777795 ], [ 110.229261294011195, 516.182554965510576 ], [ 113.608945987178799, 514.009900519470193 ], [ 108.056606843671801, 504.112252482633608 ], [ 128.33471501688561, 493.00757419611341 ], [ 131.47299366439151, 501.215379887580582 ], [ 139.922205406315186, 499.284131489881588 ], [ 147.405792942534987, 511.1130279224231 ], [ 146.198762695095411, 522.459112259278868 ], [ 151.751101840908007, 536.219257090516408 ], [ 162.855780125803193, 536.219257089519374 ], [ 180.719827799214613, 536.219257087525307 ], [ 183.616700395948811, 556.014553159204297 ], [ 172.270616059658892, 556.255959209539924 ], [ 161.165937778627409, 580.155158128946709 ], [ 150.302665538147608, 574.361412937843738 ], [ 147.647198993680604, 580.155158128946709 ], [ 129.074816611057201, 586.23175027088223 ], [ 122.556853271069201, 568.609108646240657 ], [ 121.349823022445506, 568.367702594907996 ], [ 118.452950425524307, 568.85051469857035 ], [ 113.866235481240395, 557.021618259049319 ], [ 99.623278553388403, 563.056769506470232 ], [ 92.863909158889754, 542.778661330131854 ], [ 104.692805592111597, 539.157570586066413 ], [ 97.933436202037399, 537.226322191358577 ], [ 90.449848660146785, 519.120868465048829 ], [ 100.331613256493398, 512.802870272777795 ] ] ] } },
{ "type": "Feature", "properties": { "feature_type": "building", "subtype": "destroyed", "uid": "d85e3820-9f6b-4926-9e01-ab40eaf27136" }, "geometry": { "type": "Polygon", "coordinates": [ [ [ 219.027709451271193, 648.096548671386017 ], [ 219.774522997452209, 654.81787060134991 ], [ 220.023032383382002, 654.817870603343977 ], [ 222.339996194776091, 671.970001938607425 ], [ 215.89438085466179, 672.190512229805108 ], [ 215.652974801646792, 677.742851370572566 ], [ 192.960806131247892, 679.915505816613063 ], [ 189.581121435213788, 665.189736790015672 ], [ 196.581896878116112, 665.431142840351185 ], [ 198.513145273446298, 657.223337147886923 ], [ 199.961581573464798, 653.36084035647707 ], [ 199.961581573090911, 646.118658860369578 ], [ 190.305339587404092, 647.567095162382884 ], [ 191.029557734920701, 642.738974169630865 ], [ 198.030333175704186, 641.290537867617672 ], [ 198.271739225665812, 637.669447123552118 ], [ 215.499996195325593, 635.020001941725468 ], [ 219.027709451271193, 648.096548671386017 ] ] ] } },
{ "type": "Feature", "properties": { "feature_type": "building", "subtype": "destroyed", "uid": "1eccef6c-f0a0-4989-a5ed-ec246bda3408" }, "geometry": { "type": "Polygon", "coordinates": [ [ [ 276.970111422893694, 631.151483783436674 ], [ 276.970111423392325, 634.531168477166602 ], [ 315.353673324403474, 629.703047484414583 ], [ 320.664606416390882, 654.085058499507227 ], [ 320.664606416764912, 658.430367394579321 ], [ 319.216170120921504, 662.7756762866602 ], [ 271.387368495061423, 673.005941731793882 ], [ 269.969335981611721, 668.08660938307446 ], [ 269.606388710216379, 668.086609382077427 ], [ 270.256781452003906, 664.008503165307843 ], [ 251.389996197907806, 661.620001937363895 ], [ 249.219949352760409, 655.019641068173314 ], [ 250.669796028038888, 635.205069777851463 ], [ 248.809996198089408, 631.490001938064552 ], [ 250.415445957846288, 631.634295880119453 ], [ 249.449821758810288, 628.013205136054012 ], [ 276.970111422893694, 631.151483783436674 ] ] ] } },
{ "type": "Feature", "properties": { "feature_type": "building", "subtype": "destroyed", "uid": "39383abf-fc5d-4d05-b12b-fada8368d285" }, "geometry": { "type": "Polygon", "coordinates": [ [ [ 247.759979410014211, 631.39288983177812 ], [ 248.229996197859208, 631.440001939026729 ], [ 250.161095885472605, 635.305703477497786 ], [ 248.714069972429598, 655.081724336516572 ], [ 252.980419800261387, 668.08660938307446 ], [ 252.829506457025502, 668.086609382077427 ], [ 252.829506455031293, 673.397542478491687 ], [ 234.379996197605607, 674.760001937165271 ], [ 231.562252190114691, 654.31787059900671 ], [ 220.222044395234008, 654.317870601000777 ], [ 219.520421646257091, 648.003265849736522 ], [ 215.999996198478698, 634.940001939476133 ], [ 217.101411099359609, 634.772574529496296 ], [ 216.618599001991498, 634.048356376495462 ], [ 228.447495435151012, 631.875701930455079 ], [ 228.688901488477597, 631.634295880119453 ], [ 229.171713583913913, 629.461641433081923 ], [ 245.345918914200098, 628.254611186389525 ], [ 247.759979410014211, 631.39288983177812 ] ] ] } },
{ "type": "Feature", "properties": { "feature_type": "building", "subtype": "major-damage", "uid": "3f55fb34-b1ed-49e0-842d-311edba16d87" }, "geometry": { "type": "Polygon", "coordinates": [ [ [ 84.488035867184436, 834.612638978105224 ], [ 100.201242469733799, 832.764026436166205 ], [ 101.125548743756497, 812.121186385344004 ], [ 117.146857436171899, 806.267246671031558 ], [ 130.395247321413109, 807.499655034983107 ], [ 130.395247318484195, 838.617966150478651 ], [ 132.551961950600088, 838.617966148484584 ], [ 126.698022234545306, 862.958031280193723 ], [ 117.146857439973203, 865.730950094597915 ], [ 109.752407270475302, 876.514523253748848 ], [ 107.287590546935405, 885.141381781468453 ], [ 118.379265798814302, 884.525177603480984 ], [ 118.071163708574304, 910.405753185642766 ], [ 111.909121901220203, 911.330059455116725 ], [ 110.9848156320583, 901.162690476944476 ], [ 96.812119476658083, 905.168017650314937 ], [ 94.963506936464668, 899.622180026491719 ], [ 85.720444227645729, 899.005975844516001 ], [ 86.028546321375401, 879.28744206516194 ], [ 82.639423327364909, 878.055033707192706 ], [ 81.407014964535591, 869.120073088983759 ], [ 86.644750498926442, 866.3471542755766 ], [ 85.720444228393532, 858.644602018327987 ], [ 81.407014964535591, 847.24482467919529 ], [ 79.558402422098794, 837.385557789518316 ], [ 84.488035867184436, 834.612638978105224 ] ] ] } },
{ "type": "Feature", "properties": { "feature_type": "building", "subtype": "major-damage", "uid": "8c34c99d-4810-4b0a-87f2-271b5edf6e35" }, "geometry": { "type": "Polygon", "coordinates": [ [ [ 69.96145538871788, 972.35747326917658 ], [ 79.134885273733758, 964.149667582694747 ], [ 96.274714800812589, 983.703557606032405 ], [ 91.929405906926391, 987.566054397442144 ], [ 98.205963198261514, 993.118393538209602 ], [ 96.516120852207408, 998.912138732303788 ], [ 117.835520339989102, 1022.985519288933006 ], [ 97.697324425472075, 1022.985180106456028 ], [ 84.429340821974293, 1008.266821615054027 ], [ 70.768061258209755, 1019.887267086249949 ], [ 61.314513107996348, 1009.226688689838056 ], [ 83.381328898470315, 990.106178130197691 ], [ 70.202861434441914, 973.323097467527646 ], [ 69.96145538871788, 972.35747326917658 ] ] ] } },
{ "type": "Feature", "properties": { "feature_type": "building", "subtype": "major-damage", "uid": "d3624c7a-c7da-4af9-831b-b9ca25da9460" }, "geometry": { "type": "Polygon", "coordinates": [ [ [ 495.835993095671483, 874.918600795686189 ], [ 511.626344413349727, 882.98421545113024 ], [ 509.288293379969275, 889.063148145786158 ], [ 518.66434316446248, 895.504260988504598 ], [ 514.891351354903691, 905.972889168197298 ], [ 500.777848872452921, 930.852237498198292 ], [ 475.568849634805815, 919.735764771234585 ], [ 495.835993095671483, 874.918600795686189 ] ] ] } },
{ "type": "Feature", "properties": { "feature_type": "building", "subtype": "major-damage", "uid": "79c9908d-4f92-4343-a8a7-31bf10e2acfa" }, "geometry": { "type": "Polygon", "coordinates": [ [ [ 553.695081510249452, 917.778824421104559 ], [ 558.798859848524557, 915.270455698801129 ], [ 566.642928705013105, 918.654841995568404 ], [ 571.179996209628939, 917.950001928076176 ], [ 572.89652267932513, 925.606297291881447 ], [ 571.216564293942042, 933.446103097235323 ], [ 568.453744290950226, 934.274949096693831 ], [ 560.294358485831708, 939.520268546293323 ], [ 558.029996213041841, 952.210001931455395 ], [ 556.966428198524341, 951.980216176743625 ], [ 547.965632439030173, 965.349866762579836 ], [ 524.639809879176028, 948.61011721122145 ], [ 541.630652527312236, 912.264489441421574 ], [ 553.695081510249452, 917.778824421104559 ] ] ] } },
{ "type": "Feature", "properties": { "feature_type": "building", "subtype": "major-damage", "uid": "588101c9-8ce2-4fd5-b1fc-87f81aba8d48" }, "geometry": { "type": "Polygon", "coordinates": [ [ [ 602.187305175639949, 917.769639684231834 ], [ 582.132829298826209, 957.485366415565636 ], [ 558.519996210928412, 952.320001929936893 ], [ 560.74822645092263, 939.822900460622236 ], [ 568.664878445490785, 934.733624177765591 ], [ 571.643500515716369, 933.840037557806681 ], [ 573.408407374151466, 925.603805558668569 ], [ 571.669996211877674, 917.870001928817942 ], [ 577.414129092539042, 916.983189647835388 ], [ 581.346379264735788, 916.58996463262838 ], [ 593.536354796096703, 913.050939476820872 ], [ 602.187305175639949, 917.769639684231834 ] ] ] } },
{ "type": "Feature", "properties": { "feature_type": "building", "subtype": "major-damage", "uid": "e1f66f6b-8d7f-4d2f-8285-b4de9424b2c6" }, "geometry": { "type": "Polygon", "coordinates": [ [ [ 512.154231734001883, 807.824985112020045 ], [ 510.291561779530525, 823.264623803157747 ], [ 516.459869697974341, 825.026997495851674 ], [ 518.574718130016322, 811.632957439353959 ], [ 538.251926311210127, 815.61326712673565 ], [ 534.482644307251121, 841.938969602571206 ], [ 485.252810219306809, 829.981270828408014 ], [ 486.272618408185906, 816.810087633096259 ], [ 500.484727483132588, 820.077359450755466 ], [ 502.423338543163311, 805.990902148457849 ], [ 502.416233577372907, 805.556239301710093 ], [ 512.154231734001883, 807.824985112020045 ] ] ] } },
{ "type": "Feature", "properties": { "feature_type": "building", "subtype": "major-damage", "uid": "8b9e991f-f504-46a0-b302-34178931aa20" }, "geometry": { "type": "Polygon", "coordinates": [ [ [ 523.154203275250779, 777.408108033110693 ], [ 557.332173883825135, 786.337487741475684 ], [ 565.959996210548411, 788.75000193060157 ], [ 563.232322991741171, 801.286127687830572 ], [ 547.230142223399753, 799.877145117221971 ], [ 542.714772346241261, 811.178518174926467 ], [ 512.76220064410245, 805.566718144036145 ], [ 502.219996210283114, 804.880001930097478 ], [ 501.938999084214913, 794.41488744304695 ], [ 505.636224166471209, 793.490581171578924 ], [ 509.449996210541713, 776.090001928343554 ], [ 523.154203275250779, 777.408108033110693 ] ] ] } },
{ "type": "Feature", "properties": { "feature_type": "building", "subtype": "major-damage", "uid": "e88f1b7a-9700-4c00-8c71-7651d73f0852" }, "geometry": { "type": "Polygon", "coordinates": [ [ [ 557.089273244582841, 750.356288528992536 ], [ 553.392048160145464, 764.528984685520641 ], [ 566.024233860918457, 766.685699315954935 ], [ 570.337663129512407, 765.761393046480975 ], [ 566.049996209402252, 788.250001933243652 ], [ 557.462576783203303, 785.854774263178342 ], [ 523.241883346666896, 776.914232735125438 ], [ 509.559996207153574, 775.600001930394455 ], [ 510.565857611993124, 770.99912857782067 ], [ 516.419797326240655, 771.615332757802321 ], [ 516.111695235938441, 766.685699318946149 ], [ 513.646878513021647, 766.377597225465593 ], [ 515.495491057078652, 748.507675991041765 ], [ 520.733226588976891, 748.507675990044731 ], [ 520.117022409120182, 741.421327914771837 ], [ 557.089273244582841, 750.356288528992536 ] ] ] } },
{ "type": "Feature", "properties": { "feature_type": "building", "subtype": "major-damage", "uid": "5d311094-6247-4cb9-ad03-2bff94de5f3b" }, "geometry": { "type": "Polygon", "coordinates": [ [ [ 526.353206308161816, 708.514265745952798 ], [ 528.20181884592489, 705.741346933542673 ], [ 555.314802791590296, 705.433244842056297 ], [ 553.466190253951822, 710.670980379378307 ], [ 551.925679797330531, 736.243453870053713 ], [ 524.812695853409991, 735.62724969206613 ], [ 526.353206308161816, 708.514265745952798 ] ] ] } },
{ "type": "Feature", "properties": { "feature_type": "building", "subtype": "major-damage", "uid": "078955cc-183c-4eca-9e8f-537050130ec2" }, "geometry": { "type": "Polygon", "coordinates": [ [ [ 576.378352484469474, 594.62781918711471 ], [ 543.064317626418983, 605.249685371966734 ], [ 543.049996208809148, 605.550001930323901 ], [ 533.570857587613204, 604.495018149090811 ], [ 532.597020460981753, 583.337444529672098 ], [ 547.893831250280982, 576.869433278777933 ], [ 569.618983091715677, 570.004402118695452 ], [ 576.378352484469474, 594.62781918711471 ] ] ] } },
{ "type": "Feature", "properties": { "feature_type": "building", "subtype": "un-classified", "uid": "af450017-5783-4d42-aa50-00bbb140ad1c" }, "geometry": { "type": "Polygon", "coordinates": [ [ [ 495.748731890041881, 531.379434174685343 ], [ 533.890887739471395, 518.343507489468948 ], [ 540.167445033797662, 548.519263699652811 ], [ 526.890112297690735, 553.34738469240483 ], [ 523.993239702452115, 552.381760495050912 ], [ 505.16356782595409, 558.416911737486544 ], [ 495.748731890041881, 531.379434174685343 ] ] ] } },
{ "type": "Feature", "properties": { "feature_type": "building", "subtype": "major-damage", "uid": "1e510c82-6160-4bc0-b02e-fc95c813b2f3" }, "geometry": { "type": "Polygon", "coordinates": [ [ [ 437.786604671384623, 370.87774230201228 ], [ 464.591486523694186, 392.136786529824917 ], [ 426.38682732826868, 441.125018884729627 ], [ 400.814353834987173, 417.093055845504011 ], [ 437.786604671384623, 370.87774230201228 ] ] ] } },
{ "type": "Feature", "properties": { "feature_type": "building", "subtype": "major-damage", "uid": "b269d91f-3bec-49ab-8051-39ebe13a2aab" }, "geometry": { "type": "Polygon", "coordinates": [ [ [ 319.17819445686041, 247.513156886807792 ], [ 336.076617934974706, 265.618610613117482 ], [ 341.146144976128312, 264.411580363433927 ], [ 357.078944256702073, 288.793591377529424 ], [ 337.766460285328719, 302.312330160425574 ], [ 319.419600506074119, 276.24047679796962 ], [ 318.936788407646588, 277.447507044662018 ], [ 282.243068856926982, 297.001397072984901 ], [ 267.275893772958909, 281.068597790721526 ], [ 319.17819445686041, 247.513156886807792 ] ] ] } },
{ "type": "Feature", "properties": { "feature_type": "building", "subtype": "major-damage", "uid": "1bfe2136-532a-420d-a7fb-7e833247e0e7" }, "geometry": { "type": "Polygon", "coordinates": [ [ [ 294.666654517231791, 204.951407683263596 ], [ 256.837063184835927, 245.80736632060129 ], [ 235.529996197660211, 219.560001938425899 ], [ 257.211343624229812, 200.183331351344407 ], [ 260.2387165952224, 203.021493511787611 ], [ 276.589996197356186, 188.230001936294599 ], [ 294.666654517231791, 204.951407683263596 ] ] ] } },
{ "type": "Feature", "properties": { "feature_type": "building", "subtype": "major-damage", "uid": "387b3b66-3c9e-4df1-b6a3-95406ba69daf" }, "geometry": { "type": "Polygon", "coordinates": [ [ [ 276.21999619848151, 187.890001938450212 ], [ 260.244736212943508, 202.341770894702989 ], [ 257.219374570099717, 199.505494354602007 ], [ 235.219996197294307, 219.170001937555412 ], [ 233.193568600803189, 216.678580996525113 ], [ 236.219935908967813, 214.787101428679989 ], [ 221.655543241576908, 199.8444128544688 ], [ 239.624599129180694, 180.74046923239419 ], [ 242.650966432858411, 180.7404692313971 ], [ 254.378139747236588, 167.689260221042787 ], [ 276.21999619848151, 187.890001938450212 ] ] ] } },
{ "type": "Feature", "properties": { "feature_type": "building", "subtype": "major-damage", "uid": "7a9c7a6b-3712-4baf-afb3-d72b0c22b17b" }, "geometry": { "type": "Polygon", "coordinates": [ [ [ 647.046872146445367, 781.737217591349122 ], [ 643.031945429331472, 791.272668539046208 ], [ 620.949848497231756, 788.763339342126415 ], [ 628.97970192747141, 768.186839927782671 ], [ 659.091652289312151, 773.20549832561062 ], [ 668.627103237628262, 737.071157888768653 ], [ 697.233456083075112, 743.595413800560777 ], [ 688.199870975862723, 783.242815108304512 ], [ 680.671883380806662, 783.744680948286714 ], [ 680.170017545436167, 792.276400217016544 ], [ 654.072993895412424, 787.25774182217981 ], [ 647.046872146445367, 781.737217591349122 ] ] ] } },
{ "type": "Feature", "properties": { "feature_type": "building", "subtype": "major-damage", "uid": "4e8fee54-957d-4747-afc6-2bdcdde9b8a4" }, "geometry": { "type": "Polygon", "coordinates": [ [ [ 639.061531187590504, 799.258865647826269 ], [ 655.390941974670341, 802.647988643209146 ], [ 649.84510434979029, 820.209807786146598 ], [ 635.364306105084893, 818.669297333699774 ], [ 639.061531187590504, 799.258865647826269 ] ] ] } },
{ "type": "Feature", "properties": { "feature_type": "building", "subtype": "major-damage", "uid": "5b8627fb-69f3-4aca-a64b-83517f546a87" }, "geometry": { "type": "Polygon", "coordinates": [ [ [ 639.985837458933474, 836.847320661604158 ], [ 644.915470902648167, 822.982726600550791 ], [ 651.693716889859047, 824.523237052997615 ], [ 654.774737793006466, 818.053093155712304 ], [ 686.509253092645054, 822.982726599553757 ], [ 663.709698411710065, 879.673511209712956 ], [ 623.964528763651515, 872.279061044947753 ], [ 629.202264299600301, 853.176731448566557 ], [ 645.223572994944561, 856.873956529453494 ], [ 650.153206439781002, 844.857975009342113 ], [ 639.985837458933474, 836.847320661604158 ] ] ] } },
{ "type": "Feature", "properties": { "feature_type": "building", "subtype": "major-damage", "uid": "fa3c5d4b-1b9b-4f3f-b26d-6169ea7ec0ab" }, "geometry": { "type": "Polygon", "coordinates": [ [ [ 810.058191298123575, 916.33765994803457 ], [ 802.355639045552039, 932.358968642513446 ], [ 795.269290964424613, 937.596704179835342 ], [ 786.026228255979504, 963.169177670510749 ], [ 779.556084363807031, 964.709688123954606 ], [ 777.399369727827434, 973.952750831655862 ], [ 762.610469396247254, 973.952750832652896 ], [ 765.383388207970597, 961.320565130565797 ], [ 763.909996218918877, 960.590001927534786 ], [ 763.971501695807319, 960.489987720331328 ], [ 761.159996217685716, 958.800001925686843 ], [ 763.842877757767837, 949.920787789439032 ], [ 744.740548160273192, 941.60203135420295 ], [ 745.97295651898969, 935.74809163989039 ], [ 752.13499832416278, 911.099924416694876 ], [ 770.929225832663747, 917.570068308994905 ], [ 777.09126764176267, 917.261966222493811 ], [ 782.020901082174646, 902.473065885984056 ], [ 810.058191298123575, 916.33765994803457 ] ] ] } },
{ "type": "Feature", "properties": { "feature_type": "building", "subtype": "major-damage", "uid": "51d46c0d-01ab-4709-a63d-5a182cd3ea6a" }, "geometry": { "type": "Polygon", "coordinates": [ [ [ 740.540194349464855, 839.027686931983339 ], [ 744.986265550633789, 836.508246583205391 ], [ 747.505705899223585, 829.542735033692907 ], [ 798.931929466965016, 844.955781861310811 ], [ 797.30170335781122, 850.142864932324301 ], [ 803.526203039161032, 852.662305278111035 ], [ 803.378000665952754, 856.811971734921713 ], [ 809.4542979767117, 857.256578853300198 ], [ 812.270143068103607, 859.924221573541558 ], [ 807.083060004196454, 876.819292140719995 ], [ 790.929001301633093, 873.262435181727597 ], [ 788.705965700830575, 883.043791820950787 ], [ 776.108763961744671, 879.635137235415982 ], [ 775.812359216886193, 878.004911127383139 ], [ 768.99505003983711, 877.115696887635067 ], [ 767.216621562585033, 880.968958593542538 ], [ 756.249645928976292, 878.745922995667911 ], [ 756.101443556952177, 876.078280272435336 ], [ 739.799182481429739, 869.705578216752883 ], [ 740.83659909968253, 863.184673788609985 ], [ 736.686932640692589, 859.627816830614734 ], [ 738.90996824236754, 852.069495787272103 ], [ 736.242325520943382, 848.068031705912972 ], [ 740.540194349464855, 839.027686931983339 ] ] ] } },
{ "type": "Feature", "properties": { "feature_type": "building", "subtype": "major-damage", "uid": "77e0dabe-8312-4ad3-a67c-2e42f7e535ba" }, "geometry": { "type": "Polygon", "coordinates": [ [ [ 795.274979978263787, 804.750336594597229 ], [ 805.442348958425669, 816.150113933729926 ], [ 791.57775489544656, 827.241789184367349 ], [ 756.146014510311261, 791.193844623036171 ], [ 784.491406816998733, 763.772758590421745 ], [ 787.57242772083157, 764.697064860892738 ], [ 794.966877887276041, 760.383635593044687 ], [ 811.604390763598758, 779.485965189425883 ], [ 798.664102972024921, 794.274865526932672 ], [ 802.05322596503845, 796.739682246859275 ], [ 795.274979978263787, 804.750336594597229 ] ] ] } },
{ "type": "Feature", "properties": { "feature_type": "building", "subtype": "major-damage", "uid": "7de1d942-adef-4862-a361-2d2196a7ff0e" }, "geometry": { "type": "Polygon", "coordinates": [ [ [ 809.64509671243286, 783.368828608250396 ], [ 827.267738339060884, 768.88446562600609 ], [ 849.7185009593112, 795.197725041788885 ], [ 841.993507368580708, 805.095373079622618 ], [ 835.958356127082538, 801.715688381904442 ], [ 829.198986738877807, 807.509433575998628 ], [ 809.64509671243286, 783.368828608250396 ] ] ] } },
{ "type": "Feature", "properties": { "feature_type": "building", "subtype": "major-damage", "uid": "00837795-a4f6-4088-95d5-9f7c7d20c895" }, "geometry": { "type": "Polygon", "coordinates": [ [ [ 815.751831188024426, 905.831892666050862 ], [ 832.008692435203216, 897.819582482827059 ], [ 850.704082870028969, 887.600983979856437 ], [ 856.510104742850672, 899.213027730739554 ], [ 852.910371181985397, 902.464399977198013 ], [ 859.645356554889872, 917.792297728164272 ], [ 849.658998932786403, 922.553235663932583 ], [ 847.220469746510389, 914.889286786953789 ], [ 837.350232558388598, 918.721261225443186 ], [ 839.904882184067901, 925.224005721351318 ], [ 830.731367623578763, 927.546414475516144 ], [ 829.802404123246788, 922.7854765387508 ], [ 818.07423993813768, 928.823739288013599 ], [ 817.261396875027913, 923.133837848984058 ], [ 821.67397349918997, 919.069622539664692 ], [ 815.751831188024426, 905.831892666050862 ] ] ] } },
{ "type": "Feature", "properties": { "feature_type": "building", "subtype": "major-damage", "uid": "57a3b104-ca29-46e0-b620-5387432644bc" }, "geometry": { "type": "Polygon", "coordinates": [ [ [ 951.564198924574157, 944.792159822458757 ], [ 957.047686739633718, 940.938898115554252 ], [ 955.565663005619967, 938.864064891137104 ], [ 968.90387660887734, 925.525851283947986 ], [ 971.275114583324239, 926.563267896156617 ], [ 998.988958406346796, 901.072459677415168 ], [ 1017.662457454072978, 921.079780082216416 ], [ 988.318387524389095, 950.127445263938398 ], [ 968.311067116729987, 961.983635133561052 ], [ 951.564198924574157, 944.792159822458757 ] ] ] } },
{ "type": "Feature", "properties": { "feature_type": "building", "subtype": "destroyed", "uid": "2e061193-82fc-4dcc-a22a-829c98140c1c" }, "geometry": { "type": "Polygon", "coordinates": [ [ [ 880.410282217893837, 952.607438889659079 ], [ 894.596378967440955, 950.337663411634935 ], [ 895.352970792721749, 944.663224708099506 ], [ 911.430547108679889, 943.528336968588974 ], [ 911.619695066262011, 951.283403192566311 ], [ 928.832159124596842, 952.607438886667865 ], [ 929.210455037019074, 960.362505110645316 ], [ 880.031986302604992, 965.280351984849062 ], [ 880.410282217893837, 952.607438889659079 ] ] ] } },
{ "type": "Feature", "properties": { "feature_type": "building", "subtype": "major-damage", "uid": "46a0b404-5fa1-49e9-b435-392365eb4962" }, "geometry": { "type": "Polygon", "coordinates": [ [ [ 832.686262905673175, 968.074409105638551 ], [ 840.630477090220438, 958.4278633158101 ], [ 839.117293432866632, 953.320868486018298 ], [ 849.142135138353524, 945.565802262040961 ], [ 861.24760436453073, 958.80615922698621 ], [ 840.441329130581948, 978.288398766219302 ], [ 832.686262905673175, 968.074409105638551 ] ] ] } },
{ "type": "Feature", "properties": { "feature_type": "building", "subtype": "major-damage", "uid": "8681e9bc-cfff-449b-be4c-184440dde305" }, "geometry": { "type": "Polygon", "coordinates": [ [ [ 996.639307217804117, 671.548950630570175 ], [ 1020.055694039707987, 684.34347126445391 ], [ 1010.158046004245989, 706.794233882844537 ], [ 997.36352536768868, 701.966112890092518 ], [ 998.08774351638931, 696.655179796669472 ], [ 991.08696807516958, 692.551276953927072 ], [ 989.879937827854519, 686.757531758835739 ], [ 991.086968076353628, 680.722380519391436 ], [ 996.639307217804117, 671.548950630570175 ] ] ] } },
{ "type": "Feature", "properties": { "feature_type": "building", "subtype": "major-damage", "uid": "2881aef8-c03b-4deb-a0c1-32510f11e37b" }, "geometry": { "type": "Polygon", "coordinates": [ [ [ 887.282366711666441, 649.581000110856621 ], [ 892.834705854176264, 648.132563813828597 ], [ 897.662826851225987, 648.37396986416411 ], [ 905.629226486558764, 642.821630722399618 ], [ 936.529200846427216, 667.927859887501882 ], [ 923.493274164519335, 684.343471267445125 ], [ 915.768280573913444, 679.515350272699038 ], [ 911.905783780386628, 682.653628921078621 ], [ 914.078438226488402, 685.309095463802009 ], [ 898.628451047520116, 707.277045984512711 ], [ 871.590973481365609, 683.377847069094173 ], [ 876.419094478602346, 677.342695824664361 ], [ 870.625349286442429, 671.066138533887397 ], [ 887.282366711666441, 649.581000110856621 ] ] ] } },
{ "type": "Feature", "properties": { "feature_type": "building", "subtype": "major-damage", "uid": "95f8adaf-50c0-4081-84b4-79e8bf9b0a84" }, "geometry": { "type": "Polygon", "coordinates": [ [ [ 903.697978088549007, 627.854455640481433 ], [ 925.907334664757855, 588.263863494132011 ], [ 952.46200012743725, 603.713850675724302 ], [ 945.702630733873434, 610.473220063184158 ], [ 937.012012946973414, 625.198989093769796 ], [ 923.734680213982301, 643.063036770741064 ], [ 903.697978088549007, 627.854455640481433 ] ] ] } },
{ "type": "Feature", "properties": { "feature_type": "building", "subtype": "major-damage", "uid": "97bebe75-2c58-4481-80f8-21abbc0d792d" }, "geometry": { "type": "Polygon", "coordinates": [ [ [ 965.015114709795967, 584.401366699731057 ], [ 956.80730902369146, 598.644323630642702 ], [ 946.668254934218112, 592.609172385215857 ], [ 945.189996227012557, 591.300001921372314 ], [ 952.879996225560603, 579.760001923685081 ], [ 965.015114709795967, 584.401366699731057 ] ] ] } },
{ "type": "Feature", "properties": { "feature_type": "building", "subtype": "major-damage", "uid": "e20db996-450f-4742-a846-052bfd0420ac" }, "geometry": { "type": "Polygon", "coordinates": [ [ [ 952.399996226397207, 579.580001923359987 ], [ 944.809996224865472, 590.970001922936603 ], [ 942.564352090729585, 588.988081645138664 ], [ 933.873734301399281, 586.091209048091628 ], [ 933.1495161537581, 581.745900154016567 ], [ 924.458898361498882, 579.090433609299112 ], [ 929.045613306343739, 570.641221868493403 ], [ 952.399996226397207, 579.580001923359987 ] ] ] } },
{ "type": "Feature", "properties": { "feature_type": "building", "subtype": "major-damage", "uid": "a3bc0795-a232-4752-b89a-c9de67c274bd" }, "geometry": { "type": "Polygon", "coordinates": [ [ [ 938.46093707287514, 569.165053187897911 ], [ 934.52868690236096, 564.839577998685286 ], [ 941.999962227247806, 518.045800954739434 ], [ 948.29156250090557, 518.045800954739434 ], [ 953.403487726200865, 512.540650713923355 ], [ 972.278288551785522, 518.045800951748333 ], [ 971.491838518442933, 526.303526313969542 ], [ 984.075039068625074, 534.168026656995494 ], [ 975.424088687336962, 562.480227896475412 ], [ 964.413788205771766, 561.300552844871959 ], [ 960.088313017869723, 574.276978410515767 ], [ 938.46093707287514, 569.165053187897911 ] ] ] } },
{ "type": "Feature", "properties": { "feature_type": "building", "subtype": "major-damage", "uid": "1a2c974c-b034-4111-aba8-c7488e6833c8" }, "geometry": { "type": "Polygon", "coordinates": [ [ [ 943.966087313751245, 501.923575246501116 ], [ 954.976387793758363, 450.017872980934499 ], [ 975.424088688707911, 451.983998065943183 ], [ 990.7598643596084, 457.489148304765195 ], [ 984.075039068064143, 497.991325077480781 ], [ 979.697176565519953, 510.50208976421618 ], [ 943.966087313751245, 501.923575246501116 ] ] ] } },
{ "type": "Feature", "properties": { "feature_type": "building", "subtype": "major-damage", "uid": "e864c332-3b00-4ab1-b71f-3d0deeba37ba" }, "geometry": { "type": "Polygon", "coordinates": [ [ [ 994.69211453336311, 444.905947757319609 ], [ 964.020563188134588, 438.221122462905782 ], [ 976.415882452655637, 393.20558921868161 ], [ 983.28858903222897, 393.000245484773473 ], [ 986.041164155253114, 381.989945006132473 ], [ 1013.960140373469017, 387.495095245951518 ], [ 1015.139815425072015, 402.437645899595282 ], [ 1006.488865047398008, 404.40377098659809 ], [ 1000.590489790380957, 426.817596965069583 ], [ 996.658239617436152, 441.760147615722076 ], [ 994.69211453336311, 444.905947757319609 ] ] ] } },
{ "type": "Feature", "properties": { "feature_type": "building", "subtype": "major-damage", "uid": "ddab3011-ed57-4e2f-86e2-879f90fbf4d4" }, "geometry": { "type": "Polygon", "coordinates": [ [ [ 986.434389168964344, 374.51866968030771 ], [ 997.354791353412452, 326.017791642800489 ], [ 1018.813041502955002, 332.309391917021912 ], [ 1010.188931307728012, 375.153456355291212 ], [ 1004.915964977285967, 379.23736988373031 ], [ 986.434389168964344, 374.51866968030771 ] ] ] } },
{ "type": "Feature", "properties": { "feature_type": "building", "subtype": "minor-damage", "uid": "8559e795-5a87-4418-87be-fe0dc9ab8bb4" }, "geometry": { "type": "Polygon", "coordinates": [ [ [ 1022.478119406174983, 310.413550813005884 ], [ 1009.482098397675031, 310.413550399225301 ], [ 1007.97650087585896, 301.881831130495527 ], [ 999.946647449047191, 303.387428649445098 ], [ 997.733650293795449, 260.523298508976893 ], [ 1022.478176840549054, 258.503060628762 ], [ 1022.478119406174983, 310.413550813005884 ] ] ] } },
{ "type": "Feature", "properties": { "feature_type": "building", "subtype": "un-classified", "uid": "f763efe9-5ab9-4741-8732-32186b57858f" }, "geometry": { "type": "Polygon", "coordinates": [ [ [ 1022.478267678176053, 192.778396906278203 ], [ 1012.673605020513946, 193.799579389181588 ], [ 1013.853280075045973, 180.429928805339614 ], [ 996.551379314900032, 182.789278911537707 ], [ 1000.090404469460054, 141.500652106413895 ], [ 1022.478359189940988, 137.818656113547291 ], [ 1022.478267678176053, 192.778396906278203 ] ] ] } },
{ "type": "Feature", "properties": { "feature_type": "building", "subtype": "minor-damage", "uid": "77027eb2-2ee6-482e-a9a3-d37e5e334b93" }, "geometry": { "type": "Polygon", "coordinates": [ [ [ 1022.276681411727054, 0.007267166682279 ], [ 1021.416347293574972, 7.092503342566169 ], [ 995.996610844588758, 6.168197074089284 ], [ 995.667896034384285, 0.007821911926098 ], [ 1022.276681411727054, 0.007267166682279 ] ] ] } },
{ "type": "Feature", "properties": { "feature_type": "building", "subtype": "no-damage", "uid": "5df3c15b-57a5-4eb1-985d-29a2a0594c01" }, "geometry": { "type": "Polygon", "coordinates": [ [ [ 901.044396304396059, 0.009554733544597 ], [ 905.903972468743518, 26.898286591010869 ], [ 872.797720256034609, 27.937133912121588 ], [ 871.309015925361791, 10.64876686931985 ], [ 872.813199959027884, 0.009999194779873 ], [ 901.044396304396059, 0.009554733544597 ] ] ] } },
{ "type": "Feature", "properties": { "feature_type": "building", "subtype": "no-damage", "uid": "5fde4deb-586a-4d49-8fc0-957e00554a02" }, "geometry": { "type": "Polygon", "coordinates": [ [ [ 882.093359418504747, 36.053829259952273 ], [ 895.643737080445021, 32.038902542088778 ], [ 914.212773137780687, 35.050097577993753 ], [ 915.21650481793165, 82.225486476496997 ], [ 886.108286133188244, 81.723620637511857 ], [ 891.628810369438042, 54.622865314367189 ], [ 881.591493577650226, 52.113536116450312 ], [ 882.093359418504747, 36.053829259952273 ] ] ] } },
{ "type": "Feature", "properties": { "feature_type": "building", "subtype": "no-damage", "uid": "cd2b285a-58d7-4a83-8afb-3f056513461c" }, "geometry": { "type": "Polygon", "coordinates": [ [ [ 859.509396645737638, 89.251608229268385 ], [ 875.569103508211015, 86.742279031351501 ], [ 878.078432702200871, 97.281461660010052 ], [ 892.632542043918193, 94.270266621113905 ], [ 916.722102334824058, 96.277729977054463 ], [ 918.729565693754921, 137.932594645724095 ], [ 913.209041460496337, 138.434460484709291 ], [ 858.003799127411867, 140.943789680631994 ], [ 857.50193328942396, 128.397143698027008 ], [ 879.584030222894626, 123.880351143172504 ], [ 876.572835185308463, 109.828107644609204 ], [ 860.513128324081322, 108.3225101246626 ], [ 859.509396645737638, 89.251608229268385 ] ] ] } },
{ "type": "Feature", "properties": { "feature_type": "building", "subtype": "minor-damage", "uid": "e597f4eb-f6cf-421d-b1e2-deb84c7bf8a0" }, "geometry": { "type": "Polygon", "coordinates": [ [ [ 881.089627740534866, 149.475508950358801 ], [ 898.153066277301491, 143.453118877551788 ], [ 918.227699854084563, 147.969911430412196 ], [ 920.235163210273527, 192.134105294007611 ], [ 888.115749490748158, 196.149032011870986 ], [ 885.606420292583152, 194.141568652939299 ], [ 876.572835186243196, 194.141568652939299 ], [ 876.070969347320556, 200.163958725746312 ], [ 860.011262486093415, 197.152763689841294 ], [ 856.498201610207843, 171.557605881657992 ], [ 879.584030224764092, 170.052008365699606 ], [ 881.089627740534866, 149.475508950358801 ] ] ] } },
{ "type": "Feature", "properties": { "feature_type": "building", "subtype": "major-damage", "uid": "8cca56f9-cfa2-42d4-9f06-3ed008685185" }, "geometry": { "type": "Polygon", "coordinates": [ [ [ 866.773552491774353, 271.144429971951013 ], [ 864.766089134899971, 268.635100777025173 ], [ 859.245564901205171, 264.118308223167787 ], [ 861.253028259512917, 241.53434545088939 ], [ 913.948941393622249, 245.047406327773587 ], [ 904.915356284290965, 294.230258582217516 ], [ 871.79221088604811, 292.22279522527981 ], [ 866.773552491774353, 271.144429971951013 ] ] ] } },
{ "type": "Feature", "properties": { "feature_type": "building", "subtype": "major-damage", "uid": "1da9cd19-0c33-4614-9cbb-6a3f3093a90c" }, "geometry": { "type": "Polygon", "coordinates": [ [ [ 865.267954973635597, 299.24891697705408 ], [ 893.874307820141894, 304.769441206887677 ], [ 883.836991032217611, 345.922440034578074 ], [ 859.245564900145723, 341.405647483711789 ], [ 865.267954973635597, 299.24891697705408 ] ] ] } },
{ "type": "Feature", "properties": { "feature_type": "building", "subtype": "major-damage", "uid": "08bc9250-3158-422b-951e-2cf701f8e8ed" }, "geometry": { "type": "Polygon", "coordinates": [ [ [ 826.517751043909129, 337.293058190716124 ], [ 846.236284823628466, 339.757874916625212 ], [ 844.695774374672169, 353.314366888186214 ], [ 867.495329052242028, 350.541448074779112 ], [ 889.370577464201915, 358.552102419525909 ], [ 887.521964921204358, 361.941225414908786 ], [ 893.375904637259055, 361.016919142443612 ], [ 895.532619270559053, 362.865531686376812 ], [ 891.527292099994497, 386.897494727596609 ], [ 895.840721361422084, 389.670413541003825 ], [ 890.911087914342374, 402.610701330589109 ], [ 856.403653802232611, 398.605374161206782 ], [ 855.171245442145164, 401.070190881133385 ], [ 834.836507484002254, 393.983842805860604 ], [ 837.609426296722745, 371.800492304585816 ], [ 831.75548658091725, 370.876186034114824 ], [ 831.755486581976584, 365.638450501778095 ], [ 822.512423870664975, 360.708817056939608 ], [ 826.517751043909129, 337.293058190716124 ] ] ] } },
{ "type": "Feature", "properties": { "feature_type": "building", "subtype": "major-damage", "uid": "e35d6342-223a-4bb4-b2cf-f5620423316f" }, "geometry": { "type": "Polygon", "coordinates": [ [ [ 809.880238169767381, 324.660872492617273 ], [ 808.33972771794447, 308.023359616162622 ], [ 825.593444774684826, 305.866644986725419 ], [ 827.133955226943954, 319.115034869791202 ], [ 809.880238169767381, 324.660872492617273 ] ] ] } },
{ "type": "Feature", "properties": { "feature_type": "building", "subtype": "major-damage", "uid": "7b9a8e20-e549-45d2-9375-a00d60965528" }, "geometry": { "type": "Polygon", "coordinates": [ [ [ 757.134139043341293, 244.750575020870912 ], [ 776.236468637844723, 242.901962476937712 ], [ 796.263104507866387, 241.669554117971387 ], [ 798.419819139546121, 257.074658629477426 ], [ 791.949675242886769, 259.539475352395186 ], [ 792.257777333438298, 278.333702859284188 ], [ 794.106389874753404, 292.506399010826897 ], [ 771.923039373612937, 293.430705283292127 ], [ 771.306835193444613, 285.420050935554116 ], [ 764.220487116679237, 283.879540485101415 ], [ 762.679976667722826, 278.025600770789026 ], [ 758.67464949273392, 276.793192408831487 ], [ 758.058445311443847, 249.372106373225904 ], [ 757.134139043341293, 244.750575020870912 ] ] ] } },
{ "type": "Feature", "properties": { "feature_type": "building", "subtype": "minor-damage", "uid": "c594ae90-cefe-447f-ba67-239ca7886485" }, "geometry": { "type": "Polygon", "coordinates": [ [ [ 797.232996600645038, 144.341948281357304 ], [ 796.616792420788329, 150.195887997663903 ], [ 798.773507053402795, 172.687340587433994 ], [ 823.421674276774525, 172.687340588430999 ], [ 826.194593088809484, 196.719303630647886 ], [ 794.768179880221055, 193.330180636262014 ], [ 791.379056885213458, 208.735285151756301 ], [ 775.665850284658177, 210.891999782190595 ], [ 777.822564914779946, 195.178793179198095 ], [ 763.957970850679089, 198.259814079106405 ], [ 765.498481301255765, 164.060482059714303 ], [ 758.412133225549837, 162.828073701745211 ], [ 758.720235315104219, 153.893113080544992 ], [ 761.185052039080347, 152.968806809076909 ], [ 760.56884785673094, 146.498662919768094 ], [ 797.232996600645038, 144.341948281357304 ] ] ] } },
{ "type": "Feature", "properties": { "feature_type": "building", "subtype": "minor-damage", "uid": "0add200a-23dc-447b-aa79-f4b73e8b5dbf" }, "geometry": { "type": "Polygon", "coordinates": [ [ [ 764.882277121087441, 90.424082485602341 ], [ 767.655195932187667, 89.191674121650792 ], [ 779.054973274244162, 88.575469944660327 ], [ 787.681831804265812, 90.115980394115923 ], [ 811.713794847967733, 94.121307566489321 ], [ 814.486713656637676, 86.110653220745476 ], [ 833.280941168441473, 90.732184575094635 ], [ 833.897145345493982, 112.299330893396601 ], [ 827.735103538763042, 112.299330893396601 ], [ 801.23832377781514, 107.061595359065805 ], [ 801.854527955303865, 121.850495693581394 ], [ 807.400365581679466, 122.466699873563002 ], [ 808.324671855078918, 133.5583751192151 ], [ 765.498481300757248, 140.028519018494592 ], [ 765.190379212075186, 124.623414507985601 ], [ 761.801256220868936, 120.926189423110401 ], [ 762.72556248884689, 106.753493267579401 ], [ 764.266072942539267, 103.364370276184701 ], [ 764.882277121087441, 90.424082485602341 ] ] ] } },
{ "type": "Feature", "properties": { "feature_type": "building", "subtype": "minor-damage", "uid": "018e607d-a479-42fc-afee-78a07f8b996d" }, "geometry": { "type": "Polygon", "coordinates": [ [ [ 796.302431961082675, 0.011036152012807 ], [ 798.764022640508074, 8.430552670460685 ], [ 820.023066870243269, 9.662961027432804 ], [ 822.487883593533979, 26.084031309758831 ], [ 775.79783734243199, 23.027916395415389 ], [ 774.890219450034238, 17.965029090952331 ], [ 770.926486643294425, 13.87651318606898 ], [ 770.427255873755598, 0.011331435852877 ], [ 796.302431961082675, 0.011036152012807 ] ] ] } },
{ "type": "Feature", "properties": { "feature_type": "building", "subtype": "minor-damage", "uid": "2873ca92-ecbf-47fe-9b73-56e51b3f938c" }, "geometry": { "type": "Polygon", "coordinates": [ [ [ 810.471902071620661, 33.078719888670932 ], [ 826.801312856457116, 35.543536612585783 ], [ 821.871679412742424, 54.337764117480617 ], [ 807.390881168473243, 49.716232768116761 ], [ 810.471902071620661, 33.078719888670932 ] ] ] } },
{ "type": "Feature", "properties": { "feature_type": "building", "subtype": "no-damage", "uid": "9e43b4d2-f17c-42db-b499-9df2e19932c4" }, "geometry": { "type": "Polygon", "coordinates": [ [ [ 860.07633860966348, 34.003026158144877 ], [ 861.000644879635615, 42.937986777350908 ], [ 867.470788776232553, 42.629884686861558 ], [ 868.086992955216942, 51.564845307064658 ], [ 843.438825735895648, 51.256743217572357 ], [ 842.514519461810778, 32.770617802169816 ], [ 860.07633860966348, 34.003026158144877 ] ] ] } },
{ "type": "Feature", "properties": { "feature_type": "building", "subtype": "major-damage", "uid": "562c96c9-7050-4b39-9f9c-f836702f7967" }, "geometry": { "type": "Polygon", "coordinates": [ [ [ 601.20405039482273, 0.012572144658595 ], [ 599.23990398082492, 12.490492473096699 ], [ 571.172157382923274, 13.40441382246903 ], [ 567.392255058055753, 0.012676477205259 ], [ 601.20405039482273, 0.012572144658595 ] ] ] } },
{ "type": "Feature", "properties": { "feature_type": "building", "subtype": "major-damage", "uid": "2cf61559-a9f7-48b6-bf95-7778d93f635f" }, "geometry": { "type": "Polygon", "coordinates": [ [ [ 598.173492914506028, 37.433564535225088 ], [ 612.099866632845647, 37.601861048081062 ], [ 612.777851077766286, 50.688351668494683 ], [ 594.576236302171878, 50.126830143422872 ], [ 595.251021816765046, 55.180523905960449 ], [ 590.137497126866947, 57.091616463085721 ], [ 590.419057624072138, 68.101916947709128 ], [ 573.403515759987727, 68.10351641231199 ], [ 572.672098253780746, 62.991591188697029 ], [ 569.469567237527713, 62.870144922755237 ], [ 570.44926724307993, 48.623257677925729 ], [ 571.864352752249147, 30.890144922164261 ], [ 598.568317398740191, 31.196996789884221 ], [ 598.173492914506028, 37.433564535225088 ] ] ] } },
{ "type": "Feature", "properties": { "feature_type": "building", "subtype": "major-damage", "uid": "21ba4ca1-b075-45d8-98e9-fe81ddb0e0e2" }, "geometry": { "type": "Polygon", "coordinates": [ [ [ 570.927702743538362, 73.440370140272137 ], [ 594.127978756900575, 73.440370140272137 ], [ 595.307653808191958, 100.572896327151497 ], [ 565.422552500605889, 101.752571379752098 ], [ 562.276752365054449, 91.135495915320988 ], [ 572.500602811282874, 91.92194594972328 ], [ 570.141252708201591, 78.552295363887097 ], [ 570.927702743538362, 73.440370140272137 ] ] ] } },
{ "type": "Feature", "properties": { "feature_type": "building", "subtype": "major-damage", "uid": "56f9f9a6-5e07-4491-9828-fc01a49a7f4c" }, "geometry": { "type": "Polygon", "coordinates": [ [ [ 608.871658589989806, 105.196815670433296 ], [ 609.249954505278652, 117.869728766620398 ], [ 612.465469769841206, 117.113136939282896 ], [ 611.708877944373626, 138.676003995966795 ], [ 595.253005710010825, 139.432595824301302 ], [ 594.779996210640547, 125.300001930048793 ], [ 594.937734877233993, 125.277775044552996 ], [ 594.745835968754591, 105.704086715038002 ], [ 593.949996211046141, 104.100001929206798 ], [ 608.871658589989806, 105.196815670433296 ] ] ] } },
{ "type": "Feature", "properties": { "feature_type": "building", "subtype": "major-damage", "uid": "9f3c5029-e88f-4e4b-8f1b-5e8aec42f271" }, "geometry": { "type": "Polygon", "coordinates": [ [ [ 592.245735994677148, 107.055741715928505 ], [ 592.545023883441218, 121.106941991722607 ], [ 592.689996210266713, 122.690001931815999 ], [ 590.713454749664606, 122.787575636835996 ], [ 589.578567009406697, 135.83878464918439 ], [ 568.583143819994575, 136.027932606766598 ], [ 567.826551996832677, 130.353493905225292 ], [ 564.611036730525257, 129.975197992055087 ], [ 565.745924473151149, 120.328652202226706 ], [ 555.342786853808775, 118.248024680787694 ], [ 556.477674591636287, 104.629371799680996 ], [ 592.245735994677148, 107.055741715928505 ] ] ] } },
{ "type": "Feature", "properties": { "feature_type": "building", "subtype": "major-damage", "uid": "e406c0dd-0660-48b8-af71-412a8c89416f" }, "geometry": { "type": "Polygon", "coordinates": [ [ [ 626.840714475225695, 106.709999322117099 ], [ 627.975602214112655, 105.196815670433296 ], [ 628.732194044877133, 96.874305574706497 ], [ 625.516678781436212, 96.117713747369038 ], [ 625.51667877919283, 87.038611829290062 ], [ 667.507525159637225, 83.823096565349218 ], [ 668.642412899085002, 96.306861705948251 ], [ 668.831560855856992, 96.117713747369038 ], [ 675.830035252057655, 94.982826008855483 ], [ 677.91066277947823, 101.413856535740095 ], [ 683.395953520007538, 101.413856535740095 ], [ 685.854876956235898, 133.94730508333339 ], [ 675.073443426590075, 134.70389690568561 ], [ 673.749407730557209, 143.593850870170598 ], [ 658.239275283855477, 144.917886567263395 ], [ 656.91523958614016, 140.378335610217988 ], [ 644.809770359962954, 142.458963133651196 ], [ 645.188066271263438, 147.376810002869689 ], [ 635.541520481377006, 147.565957962445992 ], [ 634.21748478521954, 131.488381645733 ], [ 638.946183702026019, 116.356545109951298 ], [ 659.374163023739584, 114.465065546094493 ], [ 660.319902806166056, 105.575111581609406 ], [ 626.840714475225695, 106.709999322117099 ] ] ] } },
{ "type": "Feature", "properties": { "feature_type": "building", "subtype": "major-damage", "uid": "8126e8e5-c021-4ac7-a9e5-a089752ced1e" }, "geometry": { "type": "Polygon", "coordinates": [ [ [ 627.733613464347854, 152.633847512993611 ], [ 639.793212343670916, 150.118653095054896 ], [ 644.506621142802828, 165.756617616873996 ], [ 633.060491900524539, 168.37915367809299 ], [ 627.733613464347854, 152.633847512993611 ] ] ] } },
{ "type": "Feature", "properties": { "feature_type": "building", "subtype": "major-damage", "uid": "c4f83159-0be6-43f6-8b82-38b68c6cdbf4" }, "geometry": { "type": "Polygon", "coordinates": [ [ [ 653.09488519182969, 169.033448763535603 ], [ 651.959997450200831, 163.54815801658529 ], [ 667.848425811256561, 159.765198881892104 ], [ 680.710486865331859, 159.576050927301196 ], [ 681.467078694849988, 178.3016986362056 ], [ 682.034522564854342, 184.5435812075022 ], [ 684.115150086105473, 188.326540342195386 ], [ 680.143042994704274, 196.0816065641786 ], [ 682.223670519195935, 207.619631919857994 ], [ 680.521338911301768, 213.104922663817092 ], [ 657.634436150804845, 212.537478795058888 ], [ 654.229772933458548, 207.61963192185209 ], [ 654.418920890604454, 173.383851762998802 ], [ 653.09488519182969, 169.033448763535603 ] ] ] } },
{ "type": "Feature", "properties": { "feature_type": "building", "subtype": "major-damage", "uid": "fa62ba36-b727-4bda-a97e-90d6e006dee0" }, "geometry": { "type": "Polygon", "coordinates": [ [ [ 564.227362653609589, 141.413371773275287 ], [ 602.941377891319689, 142.548259510791809 ], [ 603.074254867317222, 168.389968479395208 ], [ 617.316467183123564, 169.432804690807387 ], [ 616.820584410010269, 184.339712719252702 ], [ 575.024086299185115, 183.143509099015404 ], [ 572.892388114181813, 166.477998484954213 ], [ 579.798810980352414, 166.774488082825513 ], [ 580.215406703620829, 149.309672705439397 ], [ 575.714317345095651, 149.782063044575409 ], [ 575.941765114334089, 158.756669905884195 ], [ 563.578112471920576, 158.523539086607002 ], [ 564.227362653609589, 141.413371773275287 ] ] ] } },
{ "type": "Feature", "properties": { "feature_type": "building", "subtype": "major-damage", "uid": "bbc246d6-6a5d-4cac-9d82-6b92c0b148f5" }, "geometry": { "type": "Polygon", "coordinates": [ [ [ 578.181126985352876, 215.843526123742805 ], [ 568.912877109820442, 213.952046558888895 ], [ 570.047764848333486, 192.010883586043605 ], [ 614.497534669181505, 193.713215196306606 ], [ 614.308386713344248, 241.000204361525988 ], [ 599.743994046202602, 242.513388015203901 ], [ 598.230810393584761, 234.758321792223512 ], [ 578.93771881082057, 232.488546311208211 ], [ 578.181126985352876, 215.843526123742805 ] ] ] } },
{ "type": "Feature", "properties": { "feature_type": "building", "subtype": "major-damage", "uid": "546c40d3-3e6f-4289-a60c-fb7be48a9b78" }, "geometry": { "type": "Polygon", "coordinates": [ [ [ 682.337961090712383, 279.697437458298623 ], [ 682.029859001033287, 286.783785536562675 ], [ 686.035186172844078, 287.091887626054984 ], [ 685.11087990187491, 315.745382019629801 ], [ 682.954165273871922, 323.139832186389015 ], [ 676.484021375779321, 324.68034264083002 ], [ 670.013877481674967, 324.68034264083002 ], [ 653.06826251367886, 328.069465631227615 ], [ 653.059996214611715, 328.110001928463078 ], [ 649.36999621212442, 327.340001931116092 ], [ 648.754833247577608, 296.026848243266897 ], [ 648.309996216407512, 295.970001931349827 ], [ 650.843427001711348, 289.32090798667582 ], [ 653.199996212004862, 278.830001931747006 ], [ 682.337961090712383, 279.697437458298623 ] ] ] } },
{ "type": "Feature", "properties": { "feature_type": "building", "subtype": "major-damage", "uid": "166cf079-af76-4d66-a5c2-50da58ec3693" }, "geometry": { "type": "Polygon", "coordinates": [ [ [ 640.448616462136442, 224.503279142026997 ], [ 648.767372897181986, 227.584300042932313 ], [ 648.767372895312519, 221.730360326625714 ], [ 668.79400876433715, 219.265543603708011 ], [ 674.031744300036621, 242.373200379442011 ], [ 680.501888197443805, 258.702611159424976 ], [ 667.561600404312117, 261.475529970838011 ], [ 662.323864872538479, 253.156773536598905 ], [ 655.545618883333532, 234.978750210688588 ], [ 647.226862445982306, 234.670648122193398 ], [ 640.448616462136442, 224.503279142026997 ] ] ] } },
{ "type": "Feature", "properties": { "feature_type": "building", "subtype": "destroyed", "uid": "e6fdc22a-1483-407e-beec-d9e060a769bd" }, "geometry": { "type": "Polygon", "coordinates": [ [ [ 810.381541422988448, 578.03112823419508 ], [ 832.56489192437823, 598.982070373512443 ], [ 805.451907980520105, 627.943666859570726 ], [ 785.339597391465986, 604.818875143096193 ], [ 810.381541422988448, 578.03112823419508 ] ] ] } },
{ "type": "Feature", "properties": { "feature_type": "building", "subtype": "destroyed", "uid": "a6628ec9-42da-4397-8ccb-5d1fcead6993" }, "geometry": { "type": "Polygon", "coordinates": [ [ [ 803.171800589129361, 466.792409647558827 ], [ 819.193109285657783, 471.413941003902096 ], [ 817.344496742223896, 484.046126702001004 ], [ 802.555596412762384, 481.273207890588026 ], [ 803.171800589129361, 466.792409647558827 ] ] ] } },
{ "type": "Feature", "properties": { "feature_type": "building", "subtype": "major-damage", "uid": "cee284d3-f316-44c3-8f75-0583970a76a0" }, "geometry": { "type": "Polygon", "coordinates": [ [ [ 399.527470494938598, 57.557112150789401 ], [ 427.839671733159776, 52.838411944375594 ], [ 429.80579681798082, 68.96063764862572 ], [ 403.852945683027713, 71.319987751832613 ], [ 399.527470494938598, 57.557112150789401 ] ] ] } },
{ "type": "Feature", "properties": { "feature_type": "building", "subtype": "major-damage", "uid": "59c2135e-01c0-494e-bdda-6e57523d1d09" }, "geometry": { "type": "Polygon", "coordinates": [ [ [ 281.953190348667476, 57.950337168987623 ], [ 290.210915710885217, 57.95033717098174 ], [ 292.963490833784704, 61.882587344987371 ], [ 340.936942931369515, 61.882587342993247 ], [ 346.048868156041578, 86.655763423674557 ], [ 318.523116948857194, 90.588013596683126 ], [ 322.062142107155694, 108.283139371732005 ], [ 314.59086677647349, 109.069589404140203 ], [ 309.478941555415702, 101.991539096513606 ], [ 294.929615916923012, 105.137339235119796 ], [ 294.143165882022572, 89.801563561283771 ], [ 286.671890559192207, 89.408338546076735 ], [ 281.953190348667476, 57.950337168987623 ] ] ] } },
{ "type": "Feature", "properties": { "feature_type": "building", "subtype": "major-damage", "uid": "30519f55-287d-41ca-ba8a-8edfcd0a589e" }, "geometry": { "type": "Polygon", "coordinates": [ [ [ 399.9206955145699, 174.344942256540008 ], [ 416.042921216881211, 171.985592153333101 ], [ 413.683571111805918, 167.266891944925192 ], [ 460.47734816109039, 156.649816479496991 ], [ 468.341848507851921, 174.344942254545913 ], [ 453.792522868299898, 179.456867481151988 ], [ 455.758647952871513, 184.962017719974 ], [ 467.948623487410487, 181.816217581367709 ], [ 464.409598331417726, 193.612968096405211 ], [ 463.229923283304515, 194.006193114603406 ], [ 469.914748572356018, 207.769068715646597 ], [ 477.386023899049974, 206.196168644847887 ], [ 479.352148990227192, 223.104844386491493 ], [ 433.344821973475121, 237.654170022934096 ], [ 425.873546647404225, 208.948743768247112 ], [ 417.222596269730388, 213.667443976655107 ], [ 417.222596268297195, 209.341968787442397 ], [ 402.673270631237813, 211.308093871453991 ], [ 399.9206955145699, 174.344942256540008 ] ] ] } },
{ "type": "Feature", "properties": { "feature_type": "building", "subtype": "major-damage", "uid": "d8e2259e-3d8a-463e-a233-f8f032c7894c" }, "geometry": { "type": "Polygon", "coordinates": [ [ [ 442.511300637947272, 311.710707445919013 ], [ 445.649579284019921, 325.712258328489213 ], [ 432.855058647213014, 327.88491277752081 ], [ 429.719996203693881, 309.830001933448614 ], [ 441.359996203440119, 307.180001933592621 ], [ 442.511300637947272, 311.710707445919013 ] ] ] } },
{ "type": "Feature", "properties": { "feature_type": "building", "subtype": "major-damage", "uid": "7c7e55bb-72d1-4661-b0a0-fdbdeffa61b7" }, "geometry": { "type": "Polygon", "coordinates": [ [ [ 467.134717703426986, 251.842007123231213 ], [ 477.756583892885885, 248.22091638115981 ], [ 477.419996206689291, 246.640001935595905 ], [ 480.45149371468932, 248.158037439553709 ], [ 487.183308108086578, 267.151370914170002 ], [ 488.849996207323272, 270.300001932571774 ], [ 487.895637975566785, 270.671678998553375 ], [ 490.068292423475782, 273.809957643941914 ], [ 477.997989939420108, 277.913860492666686 ], [ 480.894862538646919, 285.156041978803501 ], [ 467.376123753700199, 292.156817422581298 ], [ 468.583154001949993, 296.019314216982309 ], [ 456.995663615199874, 298.433374713358319 ], [ 455.849996205423906, 289.980001934546124 ], [ 457.144516873778116, 285.965901121856291 ], [ 435.200496377412094, 293.446817196749976 ], [ 439.389996204944623, 307.120001934148888 ], [ 429.639996203251826, 309.330001933099481 ], [ 421.508974312356315, 262.463873311074394 ], [ 437.924585693850304, 259.325594665685912 ], [ 435.510525193549427, 255.221691822943512 ], [ 463.755033006582778, 245.324043784112689 ], [ 467.134717703426986, 251.842007123231213 ] ] ] } },
{ "type": "Feature", "properties": { "feature_type": "building", "subtype": "major-damage", "uid": "75cdccfa-95f2-45a7-81ed-7198d5f159f9" }, "geometry": { "type": "Polygon", "coordinates": [ [ [ 504.069843304481992, 264.395121708773388 ], [ 489.31999620664169, 270.120001933243827 ], [ 487.64234364718908, 266.949805593808776 ], [ 480.855419262743908, 247.800983221097908 ], [ 477.279996206741203, 246.020001934365411 ], [ 476.308147589751627, 241.461546989711707 ], [ 494.413601316925792, 235.667801796614611 ], [ 504.069843304481992, 264.395121708773388 ] ] ] } },
{ "type": "Feature", "properties": { "feature_type": "building", "subtype": "major-damage", "uid": "6fed390c-4943-47e1-b6db-d74bf27dfcf1" }, "geometry": { "type": "Polygon", "coordinates": [ [ [ 171.333907484285788, 152.553983519944296 ], [ 206.149443687694912, 119.587059862509605 ], [ 227.100385824884512, 141.770410360793306 ], [ 221.862650290618205, 147.316247981625196 ], [ 233.570529725905914, 159.024127415235512 ], [ 223.09505865537929, 169.807700574386388 ], [ 228.33279418652981, 176.585946559169912 ], [ 217.857323118495913, 187.061417630822689 ], [ 207.689954137772986, 179.050763283084791 ], [ 201.836014422029791, 184.596600908901991 ], [ 171.333907484285788, 152.553983519944296 ] ] ] } },
{ "type": "Feature", "properties": { "feature_type": "building", "subtype": "major-damage", "uid": "03bc5c57-f66a-4803-8369-1f06e9c4f991" }, "geometry": { "type": "Polygon", "coordinates": [ [ [ 102.769372757922397, 16.713809824084979 ], [ 124.028416989464702, 36.432343602442003 ], [ 114.785354279337199, 45.675406311140343 ], [ 134.811990147738612, 60.772408735148197 ], [ 126.185131623761706, 77.101819519119374 ], [ 138.817317322478289, 78.950432062055512 ], [ 143.438848678881897, 104.831007644217294 ], [ 123.720314898227699, 116.538887074836396 ], [ 113.552945921867007, 87.885392679267426 ], [ 95.374922592350373, 111.917355721484299 ], [ 51.624425772294067, 69.091165171381405 ], [ 102.769372757922397, 16.713809824084979 ] ] ] } },
{ "type": "Feature", "properties": { "feature_type": "building", "subtype": "major-damage", "uid": "ca7b32ad-ae3b-4939-85f6-a882cf17d8d4" }, "geometry": { "type": "Polygon", "coordinates": [ [ [ 318.541470919724873, 323.146126945619187 ], [ 341.050077760383886, 307.257698582500211 ], [ 343.319853240712689, 308.203438365425711 ], [ 349.940031722995627, 305.177071062058189 ], [ 355.992766337891396, 314.256172981134227 ], [ 338.591154326523508, 325.794198336813622 ], [ 336.132230885808326, 323.524422856795411 ], [ 322.891873919684826, 332.414376821280428 ], [ 318.541470919724873, 323.146126945619187 ] ] ] } },
{ "type": "Feature", "properties": { "feature_type": "building", "subtype": "major-damage", "uid": "22ceca02-d00e-486c-a89e-d86543cbd3e8" }, "geometry": { "type": "Polygon", "coordinates": [ [ [ 860.944460236124883, 852.371944487507108 ], [ 870.775085668766565, 826.025868336027088 ], [ 894.761811716530815, 833.890368676061826 ], [ 876.280235906277539, 873.606095413378057 ], [ 862.910585324622389, 870.06707025956473 ], [ 871.168310682851825, 856.697419676719733 ], [ 860.944460236124883, 852.371944487507108 ] ] ] } },
{ "type": "Feature", "properties": { "feature_type": "building", "subtype": "major-damage", "uid": "676475ea-a796-4bac-b55a-0ad8fe2ed80e" }, "geometry": { "type": "Polygon", "coordinates": [ [ [ 1020.551250875997994, 547.152508523853157 ], [ 1020.268058882395962, 551.737496712769257 ], [ 1016.96387026335799, 563.133812915384169 ], [ 1002.698874392980997, 559.695071772700089 ], [ 1007.932326522775043, 543.278055809865009 ], [ 1020.551250875997994, 547.152508523853157 ] ] ] } },
{ "type": "Feature", "properties": { "feature_type": "building", "subtype": "major-damage", "uid": "2a6559b3-f131-4add-9efc-e708be44bcb2" }, "geometry": { "type": "Polygon", "coordinates": [ [ [ 552.622337972769628, 702.0727354683562 ], [ 521.138595401870589, 703.03934160008771 ], [ 521.690941760367082, 685.916604414401149 ], [ 533.014042163075487, 686.192777592901734 ], [ 532.875955568840027, 679.840794443517666 ], [ 548.479740265288456, 679.564621265017081 ], [ 548.479740266160888, 686.192777593898882 ], [ 553.727030692255312, 685.640431234903531 ], [ 553.865117286428585, 701.934648878108874 ], [ 552.622337972769628, 702.0727354683562 ] ] ] } },
{ "type": "Feature", "properties": { "feature_type": "building", "subtype": "major-damage", "uid": "4e736ff5-0e5e-44e0-8313-b2992ac72fd4" }, "geometry": { "type": "Polygon", "coordinates": [ [ [ 530.666570127064347, 684.535738509933481 ], [ 517.410257465816812, 685.088084871920046 ], [ 517.134084283577408, 679.012274905024697 ], [ 516.581737925205516, 656.21664244652959 ], [ 529.699963996205724, 653.454910642579648 ], [ 540.056458261886178, 655.66429608653732 ], [ 547.098874366056066, 657.321335167511393 ], [ 546.270354821581122, 677.343890748392255 ], [ 544.060969377250444, 677.89623711037882 ], [ 530.666570129619345, 678.448583469374057 ], [ 530.666570127064347, 684.535738509933481 ] ] ] } },
{ "type": "Feature", "properties": { "feature_type": "building", "subtype": "major-damage", "uid": "2cf04d5f-6424-41d7-82e8-8bd29923c562" }, "geometry": { "type": "Polygon", "coordinates": [ [ [ 538.061654846196348, 652.301263452530293 ], [ 529.249786389024166, 650.715127133093915 ], [ 518.499306869515635, 653.534925038413121 ], [ 519.732968452531395, 622.164673332389725 ], [ 542.115114332785197, 623.398334916278486 ], [ 542.115114332037365, 629.037930729907998 ], [ 543.172538549772071, 640.845834461984168 ], [ 537.709180108467763, 642.960682889228679 ], [ 538.061654846196348, 652.301263452530293 ] ] ] } },
{ "type": "Feature", "properties": { "feature_type": "building", "subtype": "un-classified", "uid": "74fa641f-7016-498c-9dfa-87f354d96eab" }, "geometry": { "type": "Polygon", "coordinates": [ [ [ 511.387168450323315, 588.123489502534653 ], [ 508.013240877357418, 574.177922202224408 ], [ 510.712382936228607, 571.253851637760476 ], [ 507.113526859229296, 560.007426395574839 ], [ 522.858522198967876, 556.183641816721433 ], [ 525.557664257465149, 561.132068920291999 ], [ 539.278303051928674, 556.858427329756978 ], [ 546.251086704822683, 573.952993696882118 ], [ 545.5763011872383, 576.20227874531929 ], [ 511.387168450323315, 588.123489502534653 ] ] ] } },
{ "type": "Feature", "properties": { "feature_type": "building", "subtype": "major-damage", "uid": "5d8ec381-b1cb-4109-bd12-e94aa43fca71" }, "geometry": { "type": "Polygon", "coordinates": [ [ [ 551.827643307260473, 47.241043020044607 ], [ 551.602714799799628, 19.574836923769318 ], [ 569.1471381825869, 20.02469393545087 ], [ 568.424910699238126, 49.073114690604342 ], [ 551.827643307260473, 47.241043020044607 ] ] ] } },
{ "type": "Feature", "properties": { "feature_type": "building", "subtype": "major-damage", "uid": "a0755068-c43f-4556-8fbd-8cbf0d5c9d8e" }, "geometry": { "type": "Polygon", "coordinates": [ [ [ 625.581675288624524, 295.697504642519618 ], [ 624.232104261245354, 291.873720059677908 ], [ 623.332390244675139, 286.250507438086515 ], [ 624.007175755591675, 272.97972565480012 ], [ 638.852457075332609, 272.529868644115595 ], [ 640.651885114081551, 281.527008839858183 ], [ 649.649025307888451, 280.852223321837414 ], [ 650.52274825934569, 287.527696396925592 ], [ 648.827284499058351, 292.020675352107673 ], [ 639.756553396929007, 293.122726797556879 ], [ 639.587007020495207, 294.055231864328789 ], [ 625.581675288624524, 295.697504642519618 ] ] ] } },
{ "type": "Feature", "properties": { "feature_type": "building", "subtype": "major-damage", "uid": "f0975016-d654-4c33-b3ef-013940e57cec" }, "geometry": { "type": "Polygon", "coordinates": [ [ [ 624.870858440800816, 353.193129609388677 ], [ 624.165908965032145, 345.438685368514712 ], [ 621.346111062144587, 343.85254904608712 ], [ 621.698585796632642, 329.753559512511686 ], [ 643.728256938721643, 328.696135298889487 ], [ 647.957953797197092, 331.692170574475085 ], [ 649.89656485934654, 345.438685365523384 ], [ 647.605479060216339, 349.668382226991923 ], [ 646.548054844538115, 353.016892238125195 ], [ 638.44113586475487, 356.541639619524915 ], [ 626.104520026932391, 355.484215409890908 ], [ 624.870858440800816, 353.193129609388677 ] ] ] } },
{ "type": "Feature", "properties": { "feature_type": "building", "subtype": "minor-damage", "uid": "3b15102e-5795-4c2c-92c4-c5b0d350b2d8" }, "geometry": { "type": "Polygon", "coordinates": [ [ [ 1013.955734885696984, 76.395085870743557 ], [ 994.43483183832825, 76.682157973647406 ], [ 995.296048148971181, 47.113731302762659 ], [ 1011.946230157892956, 45.678370786249303 ], [ 1013.094518573807022, 76.108013766842646 ], [ 1013.955734885696984, 76.395085870743557 ] ] ] } },
{ "type": "Feature", "properties": { "feature_type": "building", "subtype": "major-damage", "uid": "59e9294e-fddb-4c14-a899-cf25ecf2bdee" }, "geometry": { "type": "Polygon", "coordinates": [ [ [ 965.844315779599128, 749.229808500141644 ], [ 955.497604557478326, 733.709741664429771 ], [ 973.716813451306734, 717.514889318673681 ], [ 986.537738226395845, 732.585099138715691 ], [ 968.768386343687894, 750.129522516525299 ], [ 965.844315779599128, 749.229808500141644 ] ] ] } },
{ "type": "Feature", "properties": { "feature_type": "building", "subtype": "major-damage", "uid": "d6779c2a-1ecc-4832-bd24-199b261aeb05" }, "geometry": { "type": "Polygon", "coordinates": [ [ [ 508.351563845921021, 415.764049017634079 ], [ 522.32470093244433, 442.03354673797611 ], [ 515.617595130367249, 448.18172705563029 ], [ 535.738912536785278, 488.144899120382092 ], [ 484.038305317870822, 528.666996667378839 ], [ 445.192984218435413, 445.666562383036194 ], [ 508.351563845921021, 415.764049017634079 ] ] ] } },
{ "type": "Feature", "properties": { "feature_type": "building", "subtype": "major-damage", "uid": "46303bf9-3931-462e-b501-2e81ae3756e5" }, "geometry": { "type": "Polygon", "coordinates": [ [ [ 838.186933185302223, 836.882380103362152 ], [ 857.32192241813425, 845.53868475848742 ], [ 846.843237836871594, 871.20386873041889 ], [ 828.315708578090607, 865.281133966438347 ], [ 838.186933185302223, 836.882380103362152 ] ] ] } },
{ "type": "Feature", "properties": { "feature_type": "building", "subtype": "un-classified", "uid": "a87f3420-0047-4c4f-95d5-3f966a5faeb2" }, "geometry": { "type": "Polygon", "coordinates": [ [ [ 1022.47836001930898, 137.357232765232396 ], [ 1001.646858435115973, 134.466274812560499 ], [ 999.131693760279177, 100.651283069450997 ], [ 1022.478432729978977, 98.814736840784448 ], [ 1022.47836001930898, 137.357232765232396 ] ] ] } },
{ "type": "Feature", "properties": { "feature_type": "building", "subtype": "major-damage", "uid": "0f953765-5f66-49ff-bfce-8948f09d80ac" }, "geometry": { "type": "Polygon", "coordinates": [ [ [ 269.514388453154481, 0.011529368573 ], [ 271.190362107541716, 24.07690738855187 ], [ 249.11280550903021, 24.356370130172781 ], [ 246.878139762817398, 0.011290468577673 ], [ 269.514388453154481, 0.011529368573 ] ] ] } },
{ "type": "Feature", "properties": { "feature_type": "building", "subtype": "major-damage", "uid": "921fbfc1-c8a3-4a4c-9a3b-d666fbfbbe9c" }, "geometry": { "type": "Polygon", "coordinates": [ [ [ 242.965248579092901, 0.011247000671477 ], [ 244.082476161351707, 20.164429002867951 ], [ 220.048680368939813, 21.002817227730681 ], [ 221.165946342938412, 0.010993108854937 ], [ 242.965248579092901, 0.011247000671477 ] ] ] } }
]
}
