{
"type": "FeatureCollection",
"name": "hurricane-matthew_00000326_post_disaster",
"features": [
{ "type": "Feature", "properties": { "feature_type": "building", "subtype": "destroyed", "uid": "eff7c8aa-583a-4a33-840b-a13be12cf9d7" }, "geometry": { "type": "Polygon", "coordinates": [ [ [ 775.159754046091393, 33.311347039041642 ], [ 784.598790482429877, 33.486144008756128 ], [ 784.423993515115171, 43.099977416968848 ], [ 775.509347991040045, 42.750383474660033 ], [ 775.159754046091393, 33.311347039041642 ] ] ] } },
{ "type": "Feature", "properties": { "feature_type": "building", "subtype": "major-damage", "uid": "21a8ad4b-9b92-48df-9f85-d87d3da2bc89" }, "geometry": { "type": "Polygon", "coordinates": [ [ [ 617.325680355975692, 449.852253202445979 ], [ 634.485851234499933, 445.678157581231119 ], [ 637.732370050627196, 459.128021246123922 ], [ 620.108410770278965, 463.765905268202687 ], [ 617.325680355975692, 449.852253202445979 ] ] ] } },
{ "type": "Feature", "properties": { "feature_type": "building", "subtype": "major-damage", "uid": "9b57042b-2e72-4be7-bb61-f5481a7c5ca0" }, "geometry": { "type": "Polygon", "coordinates": [ [ [ 801.449676018302512, 385.385665300445112 ], [ 818.146058495002762, 390.023549322044119 ], [ 815.363328082139446, 404.400989789624703 ], [ 799.130734007502951, 400.690682571193577 ], [ 801.449676018302512, 385.385665300445112 ] ] ] } },
{ "type": "Feature", "properties": { "feature_type": "building", "subtype": "minor-damage", "uid": "eb489dfc-4818-48e4-a851-98f319117285" }, "geometry": { "type": "Polygon", "coordinates": [ [ [ 867.079999996486663, 532.860000000892114 ], [ 865.009999991728591, 544.220000000735581 ], [ 848.469999993395504, 541.710000000947161 ], [ 851.559999991792665, 529.860000001418484 ], [ 867.079999996486663, 532.860000000892114 ] ] ] } },
{ "type": "Feature", "properties": { "feature_type": "building", "subtype": "destroyed", "uid": "4b83b4f2-418d-4c5c-ac0b-a3644c688193" }, "geometry": { "type": "Polygon", "coordinates": [ [ [ 663.147904935743782, 26.83708294085827 ], [ 672.618698321308784, 16.77436496895054 ], [ 679.7217933636623, 23.877460007464261 ], [ 670.250999976177468, 33.348253393269147 ], [ 663.147904935743782, 26.83708294085827 ] ] ] } }
]
}
