{
"type": "FeatureCollection",
"name": "hurricane-florence_00000430_post_disaster",
"features": [
{ "type": "Feature", "properties": { "feature_type": "building", "subtype": "no-damage", "uid": "f727c1be-5eb6-4011-8194-c0fcc7005325" }, "geometry": { "type": "Polygon", "coordinates": [ [ [ 492.746897537695475, 1022.987023537863024 ], [ 473.923663304035813, 956.258367538277753 ], [ 552.613590077632011, 934.036561585931736 ], [ 590.414798974527457, 923.157061239850236 ], [ 593.407384314491424, 935.002070048623864 ], [ 602.883904566802812, 937.994655389607601 ], [ 602.849060748048942, 938.327126379823767 ], [ 628.944902465293353, 1022.986687595828016 ], [ 492.746897537695475, 1022.987023537863024 ] ] ] } },
{ "type": "Feature", "properties": { "feature_type": "building", "subtype": "no-damage", "uid": "ca9079a6-8d90-4578-b4b6-82b6f3e14016" }, "geometry": { "type": "Polygon", "coordinates": [ [ [ 552.613590077632011, 934.036561585931736 ], [ 543.635834047543426, 899.372448035536081 ], [ 616.206028616105641, 880.419407537540906 ], [ 624.435638305595148, 913.088464199045461 ], [ 632.415865887924497, 915.582285314492651 ], [ 635.408451230692549, 927.053862464107056 ], [ 602.849060748048942, 938.327126379823767 ], [ 593.407384314491424, 935.002070048623864 ], [ 590.414798974527457, 923.157061239850236 ], [ 552.613590077632011, 934.036561585931736 ] ] ] } },
{ "type": "Feature", "properties": { "feature_type": "building", "subtype": "no-damage", "uid": "8ad7bf94-c9f5-45e2-ad02-e6df113564e1" }, "geometry": { "type": "Polygon", "coordinates": [ [ [ 701.482900517377743, 879.66909486656732 ], [ 710.010913072016706, 877.351309063792314 ], [ 712.530256825068022, 891.565285058305221 ], [ 704.08558323922523, 893.907300347038358 ], [ 701.482900517377743, 879.66909486656732 ] ] ] } },
{ "type": "Feature", "properties": { "feature_type": "building", "subtype": "no-damage", "uid": "7b3916e9-feeb-4b52-913e-dd0a15459776" }, "geometry": { "type": "Polygon", "coordinates": [ [ [ 800.236605929256825, 1022.984959455780995 ], [ 797.140657279533912, 1011.441217963994973 ], [ 826.841860116298108, 1002.40837793027697 ], [ 831.587928613187159, 1019.249266131065951 ], [ 817.744309069071051, 1022.984700885101006 ], [ 800.236605929256825, 1022.984959455780995 ] ] ] } },
{ "type": "Feature", "properties": { "feature_type": "building", "subtype": "no-damage", "uid": "5f979d0a-651c-4e84-bd9c-a2443eb67a51" }, "geometry": { "type": "Polygon", "coordinates": [ [ [ 784.892738584273729, 964.133632003542175 ], [ 789.791906061052259, 961.377850300275895 ], [ 805.408002399529096, 957.397276722206811 ], [ 809.694773942729967, 957.397276722206811 ], [ 816.124931256894001, 981.280718179404744 ], [ 797.906152200138422, 985.720588704279407 ], [ 790.404301997179005, 984.49579683457489 ], [ 784.892738584273729, 964.133632003542175 ] ] ] } },
{ "type": "Feature", "properties": { "feature_type": "building", "subtype": "no-damage", "uid": "c5b97492-f9ad-45d4-b94a-523dc1f61304" }, "geometry": { "type": "Polygon", "coordinates": [ [ [ 773.967561322989923, 849.461135557777538 ], [ 776.463210947069342, 849.083933802692513 ], [ 779.438688804890489, 849.070340738260938 ], [ 782.955842186403515, 850.633520017347337 ], [ 785.886803342465214, 853.369083760081935 ], [ 787.614456389393808, 857.756860201226345 ], [ 787.237254637877413, 862.521838393377152 ], [ 784.967926067766825, 865.768154017122924 ], [ 781.90341478501432, 867.60217105627089 ], [ 778.461701753549619, 869.196273982626622 ], [ 775.335343191043421, 870.17326103090852 ], [ 771.427394992562768, 869.39167138677692 ], [ 768.301036427762256, 867.828492105651208 ], [ 766.347062327629715, 865.288325773184738 ], [ 765.370075275779186, 861.966569803724155 ], [ 765.760870095295786, 858.058621602439416 ], [ 766.347062325080628, 855.323057859704704 ], [ 767.714844198232299, 852.782891528257778 ], [ 769.757851717943026, 850.619926947817476 ], [ 773.967561322989923, 849.461135557777538 ] ] ] } },
{ "type": "Feature", "properties": { "feature_type": "building", "subtype": "no-damage", "uid": "3b21167d-9a03-496f-a7dc-77e956e925f2" }, "geometry": { "type": "Polygon", "coordinates": [ [ [ 857.839797598548216, 805.910663187801333 ], [ 864.678706954365111, 804.680168951079509 ], [ 869.563642206990608, 805.146404120389548 ], [ 876.402551562042845, 807.669239878175517 ], [ 881.482884225956127, 811.381790672250986 ], [ 884.413845380233511, 815.094341465306911 ], [ 885.05843075653172, 820.370071537449121 ], [ 884.413845378194196, 825.059609379806602 ], [ 884.218447966651524, 828.185967938999056 ], [ 888.712588398995535, 848.116503772076953 ], [ 876.011756745330217, 851.633657153844979 ], [ 871.908411128169291, 835.611069525110679 ], [ 868.977449976695993, 836.392659166183421 ], [ 863.701719905573441, 836.197261754895635 ], [ 857.839797599822759, 833.852492831677637 ], [ 853.150259756700621, 830.139942041680683 ], [ 850.023901194959194, 823.691827504870503 ], [ 849.046914143108552, 817.43911038240708 ], [ 850.610093423724379, 810.990995848655757 ], [ 854.518041627048319, 807.473842468927046 ], [ 857.839797598548216, 805.910663187801333 ] ] ] } },
{ "type": "Feature", "properties": { "feature_type": "building", "subtype": "no-damage", "uid": "8b62c88f-7b19-475c-828a-05a5d1fba1a7" }, "geometry": { "type": "Polygon", "coordinates": [ [ [ 653.986743413125282, 787.087448231467988 ], [ 693.638499202571779, 784.843009224710613 ], [ 700.371816224373447, 805.541724511064217 ], [ 678.176808268548029, 810.529366746037113 ], [ 652.490450739829498, 801.302228605219398 ], [ 649.248483284802887, 800.803464380702394 ], [ 646.50528005199908, 800.803464380702394 ], [ 642.764548374240007, 800.055318046476145 ], [ 640.0213451439854, 798.060261148408358 ], [ 638.026288247702041, 795.815822143690184 ], [ 637.527524023949809, 793.072618913435463 ], [ 638.525052472728817, 790.578797791870443 ], [ 640.270727255733959, 788.583740896861741 ], [ 643.512694711525228, 787.336830339138146 ], [ 653.986743413125282, 787.087448231467988 ] ] ] } },
{ "type": "Feature", "properties": { "feature_type": "building", "subtype": "no-damage", "uid": "8417dbb2-530f-4f3f-be61-d885b6156367" }, "geometry": { "type": "Polygon", "coordinates": [ [ [ 947.31901822141765, 414.566314745912109 ], [ 961.284416486733903, 410.576200953855221 ], [ 970.012790404564043, 442.746493387783914 ], [ 956.047392136188819, 446.985989288530618 ], [ 947.31901822141765, 414.566314745912109 ] ] ] } },
{ "type": "Feature", "properties": { "feature_type": "building", "subtype": "no-damage", "uid": "e17963fa-5331-455a-a5ab-54e629f94bd4" }, "geometry": { "type": "Polygon", "coordinates": [ [ [ 847.888359672188813, 246.18639356984221 ], [ 862.847603869335558, 293.610380491931494 ], [ 837.703342344497628, 301.567425272658284 ], [ 833.247397264333813, 288.199590034715527 ], [ 826.563479644852691, 277.059727336599906 ], [ 826.881761434144437, 267.829555385450817 ], [ 823.0623799371524, 253.506874770965908 ], [ 847.888359672188813, 246.18639356984221 ] ] ] } },
{ "type": "Feature", "properties": { "feature_type": "building", "subtype": "no-damage", "uid": "fbcd299e-263f-4668-b185-23ae78163f48" }, "geometry": { "type": "Polygon", "coordinates": [ [ [ 399.639024950537873, 256.445227523583981 ], [ 554.960539172846779, 213.158903904602596 ], [ 564.827274710481447, 214.750312860747897 ], [ 572.147755910075489, 243.395674091757087 ], [ 576.921982785648993, 241.804265133572386 ], [ 589.016690857757567, 287.00027951481502 ], [ 606.522429784706446, 283.589672964938984 ], [ 607.77951062808188, 285.80282727781929 ], [ 608.738896188762396, 287.173378073693186 ], [ 610.808293287154015, 295.52835087213208 ], [ 612.952073718199699, 303.094634750669684 ], [ 613.960911572512032, 304.733996256853516 ], [ 615.65335815630192, 312.582047108840072 ], [ 714.419716686792526, 285.72715236172661 ], [ 721.103634304999105, 309.598286716142525 ], [ 734.471469547529978, 306.733750593653383 ], [ 740.518823585878522, 309.916568506963699 ], [ 747.521022995161161, 336.01567540834418 ], [ 739.563978210355913, 337.925366151232197 ], [ 748.475868371193542, 370.07182708535322 ], [ 766.936212273491492, 365.297600215897489 ], [ 770.437311978132811, 376.755744707893427 ], [ 762.480267192562906, 378.983717245681078 ], [ 767.254494065842096, 397.125779358177681 ], [ 748.794150161759831, 402.218288017434986 ], [ 752.931813449827928, 419.405504757468009 ], [ 793.990164549884298, 567.406537765655116 ], [ 713.783153100816662, 590.004544946589817 ], [ 723.968170431056933, 629.153205294072109 ], [ 721.421916096330165, 632.336023207382482 ], [ 582.684895108212345, 672.142221040286017 ], [ 596.587685910606865, 722.129871488118397 ], [ 559.215705156542867, 732.285301034464055 ], [ 584.807387628209767, 827.34012164242165 ], [ 476.347400007922715, 858.212627467064408 ], [ 496.658259113104123, 943.924452883574531 ], [ 493.814738837568086, 950.423927794132965 ], [ 473.923663304035813, 956.258367538277753 ], [ 450.755717534726273, 865.118319557111136 ], [ 334.577603455984274, 900.459214388753139 ], [ 324.422173903266184, 898.428128477036921 ], [ 246.110193148527998, 618.314143629221235 ], [ 274.118990798659013, 610.357098848494502 ], [ 363.23789240066202, 585.531119126713065 ], [ 354.326002243903019, 551.47496744664511 ], [ 315.4956236852031, 561.023421183517257 ], [ 298.944970530381511, 502.459571563312409 ], [ 432.08507426894829, 466.227880568814783 ], [ 387.353129200520016, 292.040402821824273 ], [ 408.301226596837523, 287.302142697580507 ], [ 399.639024950537873, 256.445227523583981 ] ] ] } },
{ "type": "Feature", "properties": { "feature_type": "building", "subtype": "no-damage", "uid": "ee41f22f-8fa0-4b12-a970-62651ef25340" }, "geometry": { "type": "Polygon", "coordinates": [ [ [ 129.767840159350612, 0.007423535781018 ], [ 129.317248193987098, 6.231476777398052 ], [ 105.674161563775101, 2.714323395629997 ], [ 105.539443580159798, 0.006950866048875 ], [ 129.767840159350612, 0.007423535781018 ] ] ] } },
{ "type": "Feature", "properties": { "feature_type": "building", "subtype": "no-damage", "uid": "e37b244e-ba27-4253-9685-8b36aaeab616" }, "geometry": { "type": "Polygon", "coordinates": [ [ [ 52.72540943922516, 93.558813022882276 ], [ 51.707389769780903, 105.926688773264203 ], [ 80.796196667614296, 109.907262354392103 ], [ 80.03070174930393, 115.112627799106605 ], [ 90.747630609217879, 116.490518650739801 ], [ 88.996753896547133, 132.977633553702901 ], [ 33.422334967084112, 125.354261939947605 ], [ 37.6222832676699, 91.841582274721731 ], [ 52.72540943922516, 93.558813022882276 ] ] ] } },
{ "type": "Feature", "properties": { "feature_type": "building", "subtype": "no-damage", "uid": "bb361e17-d1ac-4102-b18a-5eed916c8cb3" }, "geometry": { "type": "Polygon", "coordinates": [ [ [ 101.421984746717797, 168.234389453374291 ], [ 117.344279050836406, 169.91847827804159 ], [ 116.425685149067903, 180.482308151438588 ], [ 100.350291860216601, 178.798219330849889 ], [ 101.421984746717797, 168.234389453374291 ] ] ] } },
{ "type": "Feature", "properties": { "feature_type": "building", "subtype": "no-damage", "uid": "03cd785a-7596-48dc-a4d4-4e230ca02bb4" }, "geometry": { "type": "Polygon", "coordinates": [ [ [ 74.41668982098308, 200.779204848509693 ], [ 102.9337792897811, 204.247605480508014 ], [ 101.614750173281706, 218.279557842200688 ], [ 97.169362497080044, 222.334150702964308 ], [ 72.633543556247162, 219.341958807671091 ], [ 74.41668982098308, 200.779204848509693 ] ] ] } },
{ "type": "Feature", "properties": { "feature_type": "building", "subtype": "no-damage", "uid": "88b98b99-4175-4b1d-b0ac-a6c0b4080c75" }, "geometry": { "type": "Polygon", "coordinates": [ [ [ 48.271257208054926, 163.568283007899993 ], [ 48.075859799061313, 176.65990948872971 ], [ 51.972974946467261, 177.1008513952344 ], [ 52.225184407368793, 164.238168808959813 ], [ 68.240485283079806, 165.373111390791507 ], [ 68.114380551227043, 178.488003440261707 ], [ 73.983037771287556, 179.088322577552987 ], [ 73.385247233018134, 195.286636773800609 ], [ 47.346677566593961, 193.083400919795508 ], [ 46.485745406764309, 209.700385174302113 ], [ 25.735745405785629, 207.78211463329751 ], [ 27.363734325420872, 168.257820849237788 ], [ 35.179630729264787, 170.407192362187601 ], [ 35.179630730539351, 161.418911496989494 ], [ 48.271257208054926, 163.568283007899993 ] ] ] } },
{ "type": "Feature", "properties": { "feature_type": "building", "subtype": "no-damage", "uid": "1ba7840b-7fe7-403c-988e-6c08bd79d1c1" }, "geometry": { "type": "Polygon", "coordinates": [ [ [ 166.447556871231797, 246.427148885176507 ], [ 173.796308090478107, 236.781912913548013 ], [ 182.522950159318299, 243.671367176811998 ], [ 174.714901991991695, 253.553041106302686 ], [ 166.447556871231797, 246.427148885176507 ] ] ] } },
{ "type": "Feature", "properties": { "feature_type": "building", "subtype": "no-damage", "uid": "7daeafd1-d908-4cd4-83db-61367d63c5b0" }, "geometry": { "type": "Polygon", "coordinates": [ [ [ 349.218889260470121, 908.38880802478775 ], [ 363.457094744000017, 904.102036484900736 ], [ 366.67217340018982, 914.053470418347274 ], [ 352.280868932691874, 918.493340947300567 ], [ 349.218889260470121, 908.38880802478775 ] ] ] } },
{ "type": "Feature", "properties": { "feature_type": "building", "subtype": "no-damage", "uid": "41659327-0252-442b-82c0-dfa4cdb092b9" }, "geometry": { "type": "Polygon", "coordinates": [ [ [ 358.404828281724008, 938.702406794365288 ], [ 373.867825634958308, 934.10943728348343 ], [ 377.542201242287319, 944.52016817393212 ], [ 362.232302876334813, 949.725533615587665 ], [ 358.404828281724008, 938.702406794365288 ] ] ] } },
{ "type": "Feature", "properties": { "feature_type": "building", "subtype": "no-damage", "uid": "4fccfa7d-a93c-492a-9653-90cb499d06c7" }, "geometry": { "type": "Polygon", "coordinates": [ [ [ 0.644362118068969, 440.814528272019913 ], [ 7.199950193576574, 460.497466266654783 ], [ 0.644371699122625, 463.291534468036673 ], [ 0.644362118068969, 440.814528272019913 ] ] ] } },
{ "type": "Feature", "properties": { "feature_type": "building", "subtype": "no-damage", "uid": "87e4a302-8130-4942-a292-2adf0b6d5405" }, "geometry": { "type": "Polygon", "coordinates": [ [ [ 90.833686597711733, 482.227185572359019 ], [ 87.441279474654678, 465.396947891668219 ], [ 108.6203266192435, 460.556889905884589 ], [ 122.093037184463, 508.323772813142909 ], [ 100.199882517319594, 515.060128093458502 ], [ 94.395700094945852, 495.028390713260876 ], [ 82.287301427735258, 498.066140905642385 ], [ 79.53151971758642, 485.205826274765172 ], [ 90.833686597711733, 482.227185572359019 ] ] ] } },
{ "type": "Feature", "properties": { "feature_type": "building", "subtype": "no-damage", "uid": "2ac1cf69-e4dd-4349-a90a-48b71df40823" }, "geometry": { "type": "Polygon", "coordinates": [ [ [ 156.158014011136686, 539.323823264657221 ], [ 159.985488600649205, 556.777107402337947 ], [ 124.619623364972497, 565.809947438094582 ], [ 120.332851823301098, 546.978772446741459 ], [ 152.330539414741509, 538.252130379940354 ], [ 156.158014011136686, 539.323823264657221 ] ] ] } },
{ "type": "Feature", "properties": { "feature_type": "building", "subtype": "no-damage", "uid": "9008e55b-9b68-4620-ad8c-c851559cef91" }, "geometry": { "type": "Polygon", "coordinates": [ [ [ 138.667449991131292, 587.416409997606593 ], [ 148.006487996098286, 585.119925244204978 ], [ 148.312685964798987, 580.83315370125888 ], [ 161.173000594656401, 577.771174028017413 ], [ 161.479198563611988, 585.579222193049873 ], [ 168.21555384826101, 583.895133372461146 ], [ 170.512038603446996, 592.621775443340766 ], [ 140.810835763623913, 600.123625643496325 ], [ 137.442658121426888, 595.071359184789003 ], [ 138.667449991131292, 587.416409997606593 ] ] ] } },
{ "type": "Feature", "properties": { "feature_type": "building", "subtype": "no-damage", "uid": "a61682bd-f1ac-4d97-a50a-03dbbbdf3f41" }, "geometry": { "type": "Polygon", "coordinates": [ [ [ 130.889639323506003, 620.487872613427498 ], [ 144.770261478801899, 615.853982205706757 ], [ 145.085615950309489, 618.438665246815276 ], [ 173.387316779688092, 609.632188726434038 ], [ 177.881457209737988, 626.827160814738022 ], [ 172.410329725288392, 623.896199663774496 ], [ 169.08857375633761, 622.72381520114584 ], [ 166.743804833884411, 623.505404844257782 ], [ 163.812843680116913, 627.022558221947293 ], [ 163.812843680626713, 627.804147860980606 ], [ 162.4450618107889, 629.562724553394105 ], [ 159.514100656766402, 630.735109017042419 ], [ 158.927908428001189, 631.712096067363632 ], [ 158.537113607464903, 634.838454625536428 ], [ 157.886605563642689, 638.014292168475095 ], [ 143.679492020605892, 641.526477088978822 ], [ 134.503232162324593, 639.332595057625667 ], [ 130.889639323506003, 620.487872613427498 ] ] ] } },
{ "type": "Feature", "properties": { "feature_type": "building", "subtype": "no-damage", "uid": "b5c643d8-6bc8-4cef-80fa-3d63df7a7a70" }, "geometry": { "type": "Polygon", "coordinates": [ [ [ 193.754244960555809, 692.127419271885401 ], [ 199.265808374225799, 714.786068858359044 ], [ 188.701978500828886, 717.388751578677102 ], [ 186.4054937438585, 708.355911543940124 ], [ 178.291247608341109, 710.346198331445066 ], [ 176.913356756453112, 703.15054609820595 ], [ 167.115021797797795, 705.447030850587907 ], [ 166.043328915375213, 691.821221303949415 ], [ 173.085882161332393, 689.984033500412352 ], [ 172.932783179913599, 686.462756878325877 ], [ 178.903643544722797, 685.084866022614165 ], [ 179.209841513168499, 688.146845697894946 ], [ 182.424920167318987, 687.381350780094408 ], [ 183.802811022011099, 689.677835533496022 ], [ 184.874503908767309, 690.137132484380345 ], [ 186.405493745897786, 690.90262740320054 ], [ 187.630285613053189, 691.515023337033085 ], [ 188.395780532383213, 691.974320289956609 ], [ 189.620572400558189, 692.586716225828582 ], [ 190.998463254740386, 692.739815208776918 ], [ 192.223255125974305, 692.739815208776918 ], [ 193.754244960555809, 692.127419271885401 ] ] ] } },
{ "type": "Feature", "properties": { "feature_type": "building", "subtype": "no-damage", "uid": "9dda8f86-5386-4cfd-85d6-3ae099c6fb10" }, "geometry": { "type": "Polygon", "coordinates": [ [ [ 183.863468035942191, 741.86665637265844 ], [ 203.176554662250396, 737.308288100110076 ], [ 204.136211141969511, 737.668159280514601 ], [ 206.055524097839111, 738.387901641323651 ], [ 207.495008813849211, 738.987686937579383 ], [ 211.333634728137497, 740.18725753620879 ], [ 212.05337708537769, 740.187257535189133 ], [ 215.892002998136604, 739.107643998054186 ], [ 219.130843614894587, 754.822018830513798 ], [ 197.058744613217414, 760.100129457753269 ], [ 202.69672642290061, 783.491756113691508 ], [ 192.620333400124309, 785.29111201367482 ], [ 189.501449849703903, 774.255062510159519 ], [ 182.543940378877409, 775.694547226679447 ], [ 180.384713303587887, 765.258283025537708 ], [ 186.262609232691005, 763.698841251602062 ], [ 183.983425097181708, 755.421804124730329 ], [ 183.863468035942191, 741.86665637265844 ] ] ] } },
{ "type": "Feature", "properties": { "feature_type": "building", "subtype": "no-damage", "uid": "ffbda85d-7c24-4ea1-a38e-8d4e4363dbbb" }, "geometry": { "type": "Polygon", "coordinates": [ [ [ 46.31618373694851, 644.892103544309066 ], [ 50.41952934620717, 639.811770882434985 ], [ 57.063041291246137, 640.202565708069528 ], [ 64.097348054782145, 659.742306716532539 ], [ 52.76429826993494, 663.650254916797621 ], [ 46.31618373694851, 644.892103544309066 ] ] ] } },
{ "type": "Feature", "properties": { "feature_type": "building", "subtype": "no-damage", "uid": "f757f927-4012-4272-a027-a5771247d382" }, "geometry": { "type": "Polygon", "coordinates": [ [ [ 2.35176645567168, 654.271179225964943 ], [ 5.868919838204415, 653.489589587951173 ], [ 5.868919837184774, 645.087500951518336 ], [ 13.48941883254491, 642.547334621091068 ], [ 17.983559267183189, 643.133526852915224 ], [ 17.983559266163549, 650.363231026719518 ], [ 33.22455725535437, 646.846077649030008 ], [ 38.500287330045659, 648.409256928116406 ], [ 38.500287328516187, 656.029755923476614 ], [ 42.017440711558748, 665.799626427708176 ], [ 41.822043302565127, 672.833933191244228 ], [ 15.63879034447506, 679.282047722956236 ], [ 13.684816244342541, 671.856946136844499 ], [ 5.673522427681342, 674.006317648774711 ], [ 1.57017681510885, 664.822639371269133 ], [ 2.35176645567168, 654.271179225964943 ] ] ] } },
{ "type": "Feature", "properties": { "feature_type": "building", "subtype": "no-damage", "uid": "63d79452-5cb6-4332-83b7-9f6edee77449" }, "geometry": { "type": "Polygon", "coordinates": [ [ [ 33.289445462786418, 731.53468843720384 ], [ 33.875637694865461, 735.247239232298966 ], [ 42.473123741311497, 733.488662536826496 ], [ 47.162661580609921, 761.235094775532843 ], [ 30.944676542372481, 764.63133861987717 ], [ 25.082754236876699, 732.70707290085204 ], [ 33.289445462786418, 731.53468843720384 ] ] ] } },
{ "type": "Feature", "properties": { "feature_type": "building", "subtype": "no-damage", "uid": "4e6386c8-0b58-4146-a8da-8dc57f44f50e" }, "geometry": { "type": "Polygon", "coordinates": [ [ [ 95.269206359136589, 717.301501105087368 ], [ 120.225702582596597, 711.0005297698508 ], [ 130.141047993360388, 748.899440801442211 ], [ 117.081828162678093, 751.627559146279964 ], [ 117.788162740767604, 754.560559156473687 ], [ 105.290203496710703, 757.731434422268876 ], [ 95.269206359136589, 717.301501105087368 ] ] ] } },
{ "type": "Feature", "properties": { "feature_type": "building", "subtype": "no-damage", "uid": "9759da02-cdbe-485e-9337-a86b32332d01" }, "geometry": { "type": "Polygon", "coordinates": [ [ [ 207.313437221390814, 820.656178270895452 ], [ 210.792191953490203, 819.816478854709885 ], [ 217.175885739177602, 844.408042382563508 ], [ 192.295362080729404, 849.617109903993651 ], [ 188.60600358340551, 837.053279066167988 ], [ 179.026289943944988, 839.106074845050898 ], [ 176.631361532614108, 830.38169278122939 ], [ 186.7242741175601, 827.644631743058653 ], [ 184.641552921163708, 820.056392971580749 ], [ 178.643699931075986, 821.375920629665188 ], [ 176.124601677931111, 810.219914067714512 ], [ 190.391351462926792, 806.251524678821852 ], [ 203.594768367832103, 804.581932261090174 ], [ 207.313437221390814, 820.656178270895452 ] ] ] } },
{ "type": "Feature", "properties": { "feature_type": "building", "subtype": "no-damage", "uid": "5be51cc1-f704-48ce-aa44-39f578de1385" }, "geometry": { "type": "Polygon", "coordinates": [ [ [ 193.288584635091809, 907.413701423340171 ], [ 220.080906782582503, 899.299455289352068 ], [ 220.881281705674809, 902.006778033957403 ], [ 224.170914042573401, 900.87890409177146 ], [ 229.904273244181809, 919.958771613920135 ], [ 199.54566629838979, 929.26373163542462 ], [ 193.288584635091809, 907.413701423340171 ] ] ] } },
{ "type": "Feature", "properties": { "feature_type": "building", "subtype": "no-damage", "uid": "244f7ce5-6c33-416c-8432-52c1c1e850cb" }, "geometry": { "type": "Polygon", "coordinates": [ [ [ 154.940728287991305, 918.608289356353907 ], [ 183.995077909284191, 908.276197303098115 ], [ 190.474614332880009, 933.012911603653265 ], [ 175.618417231210401, 937.782146372495049 ], [ 177.592196628251401, 939.943904763894011 ], [ 164.057709318961514, 943.985453056557049 ], [ 160.674087492913486, 942.011673653143248 ], [ 155.222696773792705, 931.014902719379506 ], [ 154.940728287991305, 918.608289356353907 ] ] ] } },
{ "type": "Feature", "properties": { "feature_type": "building", "subtype": "no-damage", "uid": "dd286734-e8cb-4832-93bf-c6d0a041fd49" }, "geometry": { "type": "Polygon", "coordinates": [ [ [ 145.836399049845113, 931.052385427609011 ], [ 150.754638501778089, 947.366545554285153 ], [ 119.805717077228607, 956.963110336182353 ], [ 114.7675205660953, 945.80710377932985 ], [ 113.208078788335996, 934.051311921123443 ], [ 135.400134848193687, 926.973845394920318 ], [ 145.836399049845113, 931.052385427609011 ] ] ] } },
{ "type": "Feature", "properties": { "feature_type": "building", "subtype": "no-damage", "uid": "ab9b73bf-107a-4a56-b41c-e25478907f3a" }, "geometry": { "type": "Polygon", "coordinates": [ [ [ 101.273300071736301, 934.774916263797877 ], [ 108.8098674902742, 959.242777786727629 ], [ 77.088801172232024, 970.099175676088066 ], [ 71.40399218457658, 950.48929109115943 ], [ 89.725542472003426, 944.869526352157322 ], [ 87.598195256130921, 937.533928638402131 ], [ 94.075876485058558, 933.695302727682474 ], [ 101.273300071736301, 934.774916263797877 ] ] ] } },
{ "type": "Feature", "properties": { "feature_type": "building", "subtype": "no-damage", "uid": "8bd7b7c1-0879-4832-a589-7a7ec14e103b" }, "geometry": { "type": "Polygon", "coordinates": [ [ [ 136.710010672734711, 902.460008385858828 ], [ 131.36750162781729, 906.318290543176886 ], [ 120.982618456304905, 908.827409375679622 ], [ 114.265307782968407, 885.765313976773427 ], [ 130.470111797651896, 881.635072434252152 ], [ 136.710010672734711, 902.460008385858828 ] ] ] } },
{ "type": "Feature", "properties": { "feature_type": "building", "subtype": "no-damage", "uid": "28f0dde3-86b5-4288-8865-1810d676e105" }, "geometry": { "type": "Polygon", "coordinates": [ [ [ 0.644154777195473, 795.245543268591405 ], [ 7.132152717274981, 793.826943390236806 ], [ 30.930862428763149, 874.753259803832179 ], [ 9.497004711229458, 880.877219148276026 ], [ 0.644056839943362, 848.824595712350515 ], [ 0.644154777195473, 795.245543268591405 ] ] ] } },
{ "type": "Feature", "properties": { "feature_type": "building", "subtype": "no-damage", "uid": "7e89d84e-da4f-4518-9b17-e34ac8674754" }, "geometry": { "type": "Polygon", "coordinates": [ [ [ 49.990350590182011, 974.200537180056472 ], [ 30.474230264698409, 978.48461123401205 ], [ 16.599271322982531, 909.689485688591958 ], [ 36.594068440223687, 906.425905910579331 ], [ 49.990350590182011, 974.200537180056472 ] ] ] } },
{ "type": "Feature", "properties": { "feature_type": "building", "subtype": "no-damage", "uid": "5080abdb-f7a8-49db-adfa-a122a68c0499" }, "geometry": { "type": "Polygon", "coordinates": [ [ [ 259.914443389146982, 916.121625506700752 ], [ 258.370339949653328, 911.639702139042697 ], [ 243.23393584600899, 916.350819288675893 ], [ 240.974120484447894, 910.294276802687705 ], [ 238.53039360954179, 902.305169715432839 ], [ 228.755486110427199, 872.322520747395174 ], [ 246.42551120535299, 866.777140533517013 ], [ 252.91078637470639, 886.702913513834574 ], [ 261.275851448382809, 883.977218152362298 ], [ 270.486821976404428, 912.925982672206601 ], [ 259.914443389146982, 916.121625506700752 ] ] ] } },
{ "type": "Feature", "properties": { "feature_type": "building", "subtype": "no-damage", "uid": "3ae60b73-c8bc-49e4-bbb0-b1e9b7ed58ef" }, "geometry": { "type": "Polygon", "coordinates": [ [ [ 246.221790639507986, 865.867138641081738 ], [ 232.576107384954099, 870.204617726712399 ], [ 228.54554063108921, 870.132582462893538 ], [ 225.290700210684605, 858.516003118538947 ], [ 242.528901244785288, 853.893927653436435 ], [ 246.221790639507986, 865.867138641081738 ] ] ] } },
{ "type": "Feature", "properties": { "feature_type": "building", "subtype": "no-damage", "uid": "d5c6b66d-2951-4539-92ff-f4610cdaffe4" }, "geometry": { "type": "Polygon", "coordinates": [ [ [ 194.593324608546311, 890.597035654635079 ], [ 188.60600358366051, 871.779741007396751 ], [ 218.371542393013101, 863.055358947653872 ], [ 223.845664475472489, 882.0437199099689 ], [ 194.593324608546311, 890.597035654635079 ] ] ] } },
{ "type": "Feature", "properties": { "feature_type": "building", "subtype": "no-damage", "uid": "b13eab51-132d-4411-9f05-00276af9f018" }, "geometry": { "type": "Polygon", "coordinates": [ [ [ 115.853248251881695, 830.659777923948013 ], [ 127.224118381126104, 828.571250758413385 ], [ 148.341448626395191, 824.394196424285042 ], [ 151.126151514284601, 826.250665017230972 ], [ 153.214678681348687, 824.626255000952483 ], [ 166.442017405068412, 821.841552112553245 ], [ 169.690837446547391, 837.15741800129797 ], [ 119.566185439812699, 846.207702382222692 ], [ 115.853248251881695, 830.659777923948013 ] ] ] } },
{ "type": "Feature", "properties": { "feature_type": "building", "subtype": "no-damage", "uid": "ae2c449b-277c-4d62-8cd4-b3435d2687e8" }, "geometry": { "type": "Polygon", "coordinates": [ [ [ 121.651122658262395, 777.112236188639031 ], [ 119.098478341177497, 764.813131760882243 ], [ 132.789934215172991, 762.028428871463348 ], [ 135.342578530218589, 774.327533300239793 ], [ 121.651122658262395, 777.112236188639031 ] ] ] } },
{ "type": "Feature", "properties": { "feature_type": "building", "subtype": "no-damage", "uid": "419bd8d1-e78b-470d-b01d-dabbf6b73f43" }, "geometry": { "type": "Polygon", "coordinates": [ [ [ 53.386751460720532, 746.010452606453896 ], [ 48.349997680226927, 724.604249034639906 ], [ 81.403694372013021, 717.049118363134653 ], [ 86.440448154545905, 738.140524826312458 ], [ 53.386751460720532, 746.010452606453896 ] ] ] } },
{ "type": "Feature", "properties": { "feature_type": "building", "subtype": "no-damage", "uid": "49159f2c-6a24-4946-8ab8-6089ea549aad" }, "geometry": { "type": "Polygon", "coordinates": [ [ [ 91.326518183893398, 454.876357341461187 ], [ 89.273722402206403, 451.797163673136708 ], [ 89.444788717283259, 447.862638426369017 ], [ 94.063579224103435, 447.349439484197319 ], [ 94.405711853492406, 446.494107907793421 ], [ 102.616894972338102, 445.809842650544908 ], [ 103.3011602326456, 453.336760506789119 ], [ 102.445828657006402, 454.876357342480787 ], [ 93.892512907752021, 456.587020491210126 ], [ 91.326518183893398, 454.876357341461187 ] ] ] } },
{ "type": "Feature", "properties": { "feature_type": "building", "subtype": "no-damage", "uid": "0e520cb4-f434-4c06-98b0-da999037d284" }, "geometry": { "type": "Polygon", "coordinates": [ [ [ 56.687780195071788, 32.136260920845068 ], [ 58.569509659387727, 24.951475691695631 ], [ 74.136544325008771, 27.688536728846788 ], [ 73.110146437096731, 34.36012301684422 ], [ 79.653597527948165, 36.555844342333927 ], [ 73.11014643454763, 69.42871758516786 ], [ 45.568469718390062, 62.928197614286567 ], [ 46.252734978187647, 53.348483979159333 ], [ 43.173541308333732, 49.927157674563261 ], [ 43.686740258152668, 44.453035596182403 ], [ 44.884204461906293, 36.9261177409578 ], [ 46.252734979207297, 31.451995660537651 ], [ 56.687780195071788, 32.136260920845068 ] ] ] } },
{ "type": "Feature", "properties": { "feature_type": "building", "subtype": "no-damage", "uid": "95150195-3c6e-46d6-ad30-f2ae480b2fe4" }, "geometry": { "type": "Polygon", "coordinates": [ [ [ 589.36797389989465, 228.725360863481512 ], [ 588.683708640097052, 229.067493491595997 ], [ 585.775581284555187, 229.580692433767609 ], [ 583.038520247658994, 229.580692436826496 ], [ 579.446127628496015, 227.6989629689418 ], [ 577.051199218949478, 226.159366136308989 ], [ 576.195867643310294, 224.277636671483208 ], [ 574.998403438791911, 221.882708261426899 ], [ 574.998403441086111, 218.974580906139892 ], [ 576.195867644075065, 217.09285144437311 ], [ 577.735464480276505, 215.382188293604486 ], [ 579.788260263238044, 214.868989346334587 ], [ 583.20958655967695, 214.868989348373901 ], [ 590.223305474259291, 218.461381962948593 ], [ 591.420769679287446, 223.251238785100611 ], [ 590.394371790355763, 226.672565081539602 ], [ 589.36797389989465, 228.725360863481512 ] ] ] } },
{ "type": "Feature", "properties": { "feature_type": "building", "subtype": "no-damage", "uid": "baf191bb-d552-4259-8891-cfc78199cdfc" }, "geometry": { "type": "Polygon", "coordinates": [ [ [ 588.683708640351938, 209.223800955935786 ], [ 578.419729739054446, 207.855270434301303 ], [ 570.892811880261206, 206.486739911647192 ], [ 566.102955061168245, 203.236479928245814 ], [ 564.050159280755793, 198.104490476959796 ], [ 564.050159279736135, 193.998898920213406 ], [ 565.589756114153261, 189.209042100100703 ], [ 568.668949785281825, 187.327312634255208 ], [ 575.169469753613839, 186.471981063969196 ], [ 578.932928686069431, 186.30091474583341 ], [ 582.867453929523208, 186.985180006140808 ], [ 588.170509695886153, 187.669445265428607 ], [ 592.618233885080372, 188.69584315588969 ], [ 595.526361238837694, 191.603970514235613 ], [ 596.723825443610963, 195.19636312677099 ], [ 597.408090703408561, 197.933424165961497 ], [ 597.408090704428218, 200.328352577037492 ], [ 597.408090705447876, 202.381148353881201 ], [ 596.723825444120848, 204.262877820746297 ], [ 594.842095979040096, 205.802474653379107 ], [ 592.960366513959457, 206.828872546899106 ], [ 592.105034940104701, 207.342071490090404 ], [ 588.683708640351938, 209.223800955935786 ] ] ] } },
{ "type": "Feature", "properties": { "feature_type": "building", "subtype": "no-damage", "uid": "f1e17053-82f9-486c-887b-0ec13c43dabc" }, "geometry": { "type": "Polygon", "coordinates": [ [ [ 625.476683555441582, 286.952148954886923 ], [ 619.768335218485163, 287.45731252180849 ], [ 616.484772016160719, 287.6593779548989 ], [ 614.009470526314999, 287.659377952859586 ], [ 611.0795218224672, 287.356279810871285 ], [ 609.513514756037353, 286.800599882873087 ], [ 609.311449328045114, 286.497501740884672 ], [ 607.492860480193713, 284.62839653297641 ], [ 605.926853410450121, 281.34483333014208 ], [ 605.876337054726605, 279.021080911290483 ], [ 607.341311409199648, 276.495263062407389 ], [ 609.008351185546985, 275.131321426518923 ], [ 611.332103604908411, 274.222027000553908 ], [ 614.161019595269863, 274.171510643555905 ], [ 617.899230011086615, 274.424092426506888 ], [ 621.586924069905194, 275.333386855530819 ], [ 628.659214043769794, 276.343713995491782 ], [ 630.124188397223179, 278.465400987370913 ], [ 630.073672039970234, 281.142767907248128 ], [ 629.366443043017057, 284.022200254097925 ], [ 628.608697687536505, 286.042854530961222 ], [ 625.476683555441582, 286.952148954886923 ] ] ] } },
{ "type": "Feature", "properties": { "feature_type": "building", "subtype": "no-damage", "uid": "e2ce068a-274e-4a2c-b424-dbf642e37428" }, "geometry": { "type": "Polygon", "coordinates": [ [ [ 625.666479759028562, 306.424497743491713 ], [ 616.277473348651483, 305.401932687447527 ], [ 613.612085277102437, 303.536734072723618 ], [ 611.288332856721468, 296.312895029139327 ], [ 611.591431001768683, 294.595338891205472 ], [ 612.702790852666908, 292.069521043341979 ], [ 614.36983063334776, 290.351964906427781 ], [ 615.784288625724571, 289.543703197517914 ], [ 617.703910191905493, 289.442670482502081 ], [ 619.118368185556847, 289.341637769525619 ], [ 621.543153321208479, 290.04886676851811 ], [ 624.927749236509271, 290.857128478447578 ], [ 628.71647601034374, 292.271586472353874 ], [ 630.484548505275598, 293.079848187381685 ], [ 632.707268209621247, 294.241724398336885 ], [ 634.47534070251379, 295.201535176201673 ], [ 634.98050427606313, 296.868574957137525 ], [ 634.576373420843424, 298.939745590998825 ], [ 633.41449720657431, 301.162465298913219 ], [ 632.454686427180036, 302.981054149823478 ], [ 630.888679358201102, 304.446028500727778 ], [ 628.918541439100636, 305.456355639669312 ], [ 628.211312442147573, 305.860486493614474 ], [ 627.302018013888414, 306.113068276565514 ], [ 626.594789017954895, 306.365650063595012 ], [ 625.666479759028562, 306.424497743491713 ] ] ] } }
]
}
