{
"type": "FeatureCollection",
"name": "hurricane-florence_00000447_post_disaster",
"features": [
{ "type": "Feature", "properties": { "feature_type": "building", "subtype": "major-damage", "uid": "b70bc63c-1b90-4d75-80fc-2e473cf7563e" }, "geometry": { "type": "Polygon", "coordinates": [ [ [ 559.948344531948237, 718.977125444464605 ], [ 562.211222657976577, 706.820899395876609 ], [ 575.000607029923799, 706.536690855277698 ], [ 575.130242826437893, 708.188767494047624 ], [ 582.390029105125791, 707.673525017673569 ], [ 582.390029105890562, 703.610677868104744 ], [ 592.053119515571439, 702.557771270576836 ], [ 592.053119516208653, 700.852520021884516 ], [ 596.884664725127891, 700.930631571729919 ], [ 596.884664724108234, 702.610945878459802 ], [ 603.347186998460984, 703.447533983620701 ], [ 603.70566971836729, 707.677821074001145 ], [ 617.846118670711803, 708.427627543889571 ], [ 618.48451387794853, 728.70495708827832 ], [ 597.947224708088925, 729.557582711094938 ], [ 597.737290345777637, 723.020786254885138 ], [ 581.821612023800412, 723.589203342201245 ], [ 581.931960165610121, 730.079163911796627 ], [ 561.927014118524767, 730.410208332891898 ], [ 559.948344531948237, 718.977125444464605 ] ] ] } },
{ "type": "Feature", "properties": { "feature_type": "building", "subtype": "major-damage", "uid": "97bea954-1af9-4a6e-bf34-8be05c4e4407" }, "geometry": { "type": "Polygon", "coordinates": [ [ [ 527.790434531632627, 640.706011923780693 ], [ 534.944089536848878, 640.706011925820121 ], [ 534.944089536593992, 653.443007421421271 ], [ 527.4414757498364, 653.268528031224264 ], [ 527.790434531632627, 640.706011923780693 ] ] ] } },
{ "type": "Feature", "properties": { "feature_type": "building", "subtype": "major-damage", "uid": "158c06d7-1962-4ecb-aed9-3458ac89fd58" }, "geometry": { "type": "Polygon", "coordinates": [ [ [ 574.20195237681321, 609.997639213410821 ], [ 581.704566163315803, 608.078365920223519 ], [ 589.207179951347939, 611.393474336006875 ], [ 590.079576901568316, 627.620057639627817 ], [ 574.027472985468989, 628.143495817356893 ], [ 574.20195237681321, 609.997639213410821 ] ] ] } },
{ "type": "Feature", "properties": { "feature_type": "building", "subtype": "minor-damage", "uid": "b0dc5596-2b1d-4e81-aec4-5721e7ffa7a2" }, "geometry": { "type": "Polygon", "coordinates": [ [ [ 346.135355879224278, 1022.987141749473039 ], [ 344.266308560358596, 1017.69622884994601 ], [ 350.724168599670577, 1005.893932915709001 ], [ 371.211172867985226, 1006.784672231422974 ], [ 370.58241616913341, 1022.98732785546099 ], [ 346.135355879224278, 1022.987141749473039 ] ] ] } },
{ "type": "Feature", "properties": { "feature_type": "building", "subtype": "minor-damage", "uid": "c4cb5d3b-69e6-4bb9-aa4b-b3eeab10f084" }, "geometry": { "type": "Polygon", "coordinates": [ [ [ 384.597180055912418, 969.181926924225763 ], [ 404.467957810907478, 969.234920924299558 ], [ 404.540869177240722, 989.554043324776671 ], [ 401.769088265578887, 989.854422557837893 ], [ 400.732164046383275, 1003.479409382384006 ], [ 397.375061244284211, 1003.479409381364007 ], [ 397.345236375074023, 1008.983100681752944 ], [ 390.224702616207423, 1011.993432382465016 ], [ 385.694862719309185, 1010.791949402896989 ], [ 382.379754298810099, 1010.889125476450999 ], [ 381.856316128219021, 1010.016728522406993 ], [ 377.668810756862172, 1010.016728523426991 ], [ 378.890166490918091, 979.657314598549192 ], [ 381.856316127581692, 978.78491764756393 ], [ 382.205274911544677, 974.597412274677254 ], [ 384.670046809582914, 973.272256222538999 ], [ 384.597180055912418, 969.181926924225763 ] ] ] } }
]
}
