{
"type": "FeatureCollection",
"name": "hurricane-florence_00000440_post_disaster",
"features": [
{ "type": "Feature", "properties": { "feature_type": "building", "subtype": "destroyed", "uid": "7949717d-57df-4153-a872-ed0c4cc15c45" }, "geometry": { "type": "Polygon", "coordinates": [ [ [ 837.529688763435615, 378.780384865230474 ], [ 837.576716668210338, 380.622665632614428 ], [ 837.576716669612438, 399.953190366009494 ], [ 838.786464074574383, 421.086280963095078 ], [ 807.823411179957475, 421.941613922668125 ], [ 806.625945049046663, 379.51709946026881 ], [ 837.529688763435615, 378.780384865230474 ] ] ] } },
{ "type": "Feature", "properties": { "feature_type": "building", "subtype": "destroyed", "uid": "f7e94c59-b884-4ba3-876c-c922a11e9822" }, "geometry": { "type": "Polygon", "coordinates": [ [ [ 837.576716668210338, 380.622665632614428 ], [ 846.98537914958456, 380.109465858910028 ], [ 847.669645514438685, 400.295323547799285 ], [ 837.576716669612438, 399.953190366009494 ], [ 837.576716668210338, 380.622665632614428 ] ] ] } },
{ "type": "Feature", "properties": { "feature_type": "building", "subtype": "destroyed", "uid": "0f523d23-7d90-499d-823e-a50d60bf04ad" }, "geometry": { "type": "Polygon", "coordinates": [ [ [ 849.105862190745484, 414.497821007792197 ], [ 848.703756742150858, 403.238868416039509 ], [ 858.488322686251308, 402.032552065794221 ], [ 862.777447484262439, 405.249395663729217 ], [ 863.313588084810476, 414.229750710003714 ], [ 849.105862190745484, 414.497821007792197 ] ] ] } },
{ "type": "Feature", "properties": { "feature_type": "building", "subtype": "destroyed", "uid": "218337dd-9565-4dbf-93a6-a0953be11df2" }, "geometry": { "type": "Polygon", "coordinates": [ [ [ 796.788055789164332, 254.079127141038612 ], [ 816.253901672063648, 254.665008903575711 ], [ 815.028220845319311, 274.150219261701181 ], [ 796.569726654257011, 273.728749334695408 ], [ 796.788055789164332, 254.079127141038612 ] ] ] } }
]
}
