{
"type": "FeatureCollection",
"name": "hurricane-michael_00000525_post_disaster",
"features": [
{ "type": "Feature", "properties": { "feature_type": "building", "subtype": "no-damage", "uid": "baee3bda-c550-4922-a721-ea7d616c9cf4" }, "geometry": { "type": "Polygon", "coordinates": [ [ [ 1023.030949086715964, 991.179894449874496 ], [ 1021.715607466735946, 991.179894421888434 ], [ 1021.715607462738035, 1008.179894420605024 ], [ 1023.030930227584008, 1008.179894447590982 ], [ 1023.030913275003968, 1022.976860098150951 ], [ 958.257158714811567, 1022.978177322881038 ], [ 958.255461700974251, 995.760281798505275 ], [ 969.044677610801273, 990.383531712023569 ], [ 977.707756412845242, 989.64969768194544 ], [ 976.540011941347188, 977.898524267760308 ], [ 977.670600502315665, 969.105599712050775 ], [ 974.322589552031786, 952.560122780142024 ], [ 956.610110957177426, 952.323022099876766 ], [ 957.268251254096413, 919.74507733165251 ], [ 968.715607463591141, 913.785444254185222 ], [ 991.796628365257448, 914.70975052303811 ], [ 1008.699625942905982, 914.634056796376171 ], [ 1023.031026618206056, 913.76828718416175 ], [ 1023.030949086715964, 991.179894449874496 ] ] ] } },
{ "type": "Feature", "properties": { "feature_type": "building", "subtype": "no-damage", "uid": "4f7a5cb5-9b03-447c-8774-abc69a691fe2" }, "geometry": { "type": "Polygon", "coordinates": [ [ [ 620.573925465286607, 849.585939528066319 ], [ 620.573925464536956, 860.585939530704536 ], [ 619.747355352294676, 871.93202386304938 ], [ 619.505949302521572, 897.344533481900385 ], [ 590.573925466170067, 897.585939529674647 ], [ 591.573925463683508, 849.585939529065854 ], [ 610.573925466663923, 849.58593953106481 ], [ 620.573925465286607, 849.585939528066319 ] ] ] } },
{ "type": "Feature", "properties": { "feature_type": "building", "subtype": "no-damage", "uid": "56c76f8c-c032-4494-9e45-144833dee9aa" }, "geometry": { "type": "Polygon", "coordinates": [ [ [ 690.187622427707083, 916.05426024137239 ], [ 690.187622427707083, 919.054260241910129 ], [ 705.187622428389773, 919.054260241910129 ], [ 706.187622425903214, 929.054260242037003 ], [ 708.187622427926613, 929.054260242037003 ], [ 708.18762242842638, 940.054260242676264 ], [ 706.187622426153098, 940.054260241676729 ], [ 707.700806080804114, 962.297668417266209 ], [ 708.187622430675219, 963.054260243467638 ], [ 708.187622427176962, 975.05426024262033 ], [ 706.187622430151123, 975.054260241620909 ], [ 706.187622427402516, 981.0542602426965 ], [ 691.16802986641278, 980.807842799100058 ], [ 686.829213306231168, 981.909714749459795 ], [ 686.187622425909126, 996.054260242386931 ], [ 665.187622429151247, 997.054260244898387 ], [ 664.18762242988862, 919.054260241910129 ], [ 680.187622427335214, 919.054260242909663 ], [ 679.187622427572819, 916.054260243371345 ], [ 690.187622427707083, 916.05426024137239 ] ] ] } },
{ "type": "Feature", "properties": { "feature_type": "building", "subtype": "no-damage", "uid": "30520f3c-097e-4d13-af55-6b0e76592117" }, "geometry": { "type": "Polygon", "coordinates": [ [ [ 792.565918339303266, 900.05426024216888 ], [ 792.565918340552571, 903.054260242706732 ], [ 795.565918339589757, 903.054260242706732 ], [ 795.565918343587668, 923.054260241960833 ], [ 833.565918340303142, 905.054260240733015 ], [ 833.565918340553026, 921.054260242935015 ], [ 795.565918339839527, 940.054260242676264 ], [ 795.56591833908999, 958.054260244903503 ], [ 762.565918339187192, 958.054260243904082 ], [ 761.565918339174914, 903.054260242706732 ], [ 766.565918340235498, 903.054260242706732 ], [ 766.565918339235964, 900.054260243168414 ], [ 792.565918339303266, 900.05426024216888 ] ] ] } },
{ "type": "Feature", "properties": { "feature_type": "building", "subtype": "no-damage", "uid": "0d6efe25-05ad-48ac-9717-e2a84a88e8c3" }, "geometry": { "type": "Polygon", "coordinates": [ [ [ 419.483587612709925, 866.758593976715247 ], [ 475.483587612393478, 868.758593977740134 ], [ 474.483587615629688, 883.758593977430678 ], [ 418.483587616695672, 881.758593976405791 ], [ 419.483587612709925, 866.758593976715247 ] ] ] } },
{ "type": "Feature", "properties": { "feature_type": "building", "subtype": "minor-damage", "uid": "f237eedd-f102-4795-beed-9693358b6a2f" }, "geometry": { "type": "Polygon", "coordinates": [ [ [ 475.104678358941328, 940.275781877107875 ], [ 429.104678358380113, 952.275781879259057 ], [ 427.104678357606076, 944.275781877158579 ], [ 424.10467835831912, 929.275781875469079 ], [ 488.104678358350213, 912.275781875753296 ], [ 492.104678359148579, 928.275781876955648 ], [ 494.494238059761074, 935.579272921484289 ], [ 475.104678358941328, 940.275781877107875 ] ] ] } },
{ "type": "Feature", "properties": { "feature_type": "building", "subtype": "no-damage", "uid": "41c92150-4698-4c50-9fa4-e86dfb877e79" }, "geometry": { "type": "Polygon", "coordinates": [ [ [ 1023.031167635661973, 322.294076945041809 ], [ 1020.485290817307032, 324.567443896749012 ], [ 1011.809326513787028, 316.567443895648012 ], [ 1010.079101997588964, 318.108520457545524 ], [ 1018.606036120419958, 325.401054928242615 ], [ 1016.525408600865035, 328.616570193596772 ], [ 1009.674438776472016, 323.945739808337692 ], [ 1014.066485160465049, 330.697197715650816 ], [ 1010.240357042894971, 334.972107117243127 ], [ 981.241882644019938, 309.406188851002184 ], [ 988.241882644355201, 301.40618884890182 ], [ 1000.241882642751989, 286.406188849211219 ], [ 1019.241882644484008, 302.406188847415194 ], [ 1023.031161526197025, 308.777245029591711 ], [ 1023.031167635661973, 322.294076945041809 ] ] ] } },
{ "type": "Feature", "properties": { "feature_type": "building", "subtype": "no-damage", "uid": "f55a9833-e1db-4c8c-9ba6-43698c95a5a0" }, "geometry": { "type": "Polygon", "coordinates": [ [ [ 992.854725862540135, 457.258988159976809 ], [ 993.854725862302416, 463.258988159053388 ], [ 1007.854725865472005, 462.258988161539492 ], [ 1007.549536628779947, 468.651813500899721 ], [ 1008.854725862984992, 476.258988157718989 ], [ 993.854725865051023, 477.258988158231375 ], [ 985.224796401614981, 479.590665330048921 ], [ 968.854725866994954, 480.258988159768819 ], [ 966.854725866720742, 448.2589881593629 ], [ 983.540752141522603, 449.043662046106874 ], [ 993.151130609018765, 448.296404772400706 ], [ 997.85472586385049, 447.258988158850514 ], [ 998.853386641309157, 452.382217830806098 ], [ 999.171006463185904, 456.929918011267318 ], [ 992.854725862540135, 457.258988159976809 ] ] ] } },
{ "type": "Feature", "properties": { "feature_type": "building", "subtype": "no-damage", "uid": "f2234bee-ca94-49ae-9700-554e2acfbe14" }, "geometry": { "type": "Polygon", "coordinates": [ [ [ 998.300797064979065, 426.407190532448226 ], [ 998.300797063729647, 431.407190532011782 ], [ 1004.30079706330298, 431.407190533011374 ], [ 1001.62144169271096, 435.8990889823869 ], [ 1004.300797065052052, 440.407190532625691 ], [ 998.3007970659786, 440.407190532625691 ], [ 986.504799608057965, 442.598445064858026 ], [ 979.300797065247025, 441.407190532138713 ], [ 978.300797066234395, 410.035952559441 ], [ 988.556857034477048, 411.666178663450012 ], [ 998.064584733467996, 411.890304495367673 ], [ 1002.066048813303041, 416.484578071660678 ], [ 1008.670570956370057, 417.038880722600879 ], [ 1007.549536627280986, 420.486042150498406 ], [ 1008.374166209640975, 425.814381038990916 ], [ 998.300797064979065, 426.407190532448226 ] ] ] } },
{ "type": "Feature", "properties": { "feature_type": "building", "subtype": "no-damage", "uid": "50a97692-be5c-4a6a-86a4-a09c4561726e" }, "geometry": { "type": "Polygon", "coordinates": [ [ [ 1009.768063483003971, 506.000000028406703 ], [ 1012.353919803400004, 509.202020551646285 ], [ 1015.757960854087969, 506.000000028406703 ], [ 1022.555940327473991, 512.191917922195671 ], [ 1010.535183352389026, 524.374164989594078 ], [ 1000.545837699466006, 535.212123182964092 ], [ 990.545837700842981, 524.212123182324831 ], [ 981.545837699983508, 532.21212318242624 ], [ 979.017094894354841, 525.371273567286266 ], [ 972.545837699124149, 521.212123180787557 ], [ 1009.172104534892014, 487.000000025667021 ], [ 1014.377837056891963, 491.869286550069603 ], [ 1018.768063485611947, 497.393938447206096 ], [ 1009.768063483003971, 506.000000028406703 ] ] ] } },
{ "type": "Feature", "properties": { "feature_type": "building", "subtype": "no-damage", "uid": "aca44997-23ea-4326-baf0-8b071afcf0b0" }, "geometry": { "type": "Polygon", "coordinates": [ [ [ 1023.031207678272949, 552.070096025064458 ], [ 1007.535183351602996, 551.075693757138652 ], [ 1023.031208969131967, 532.353547997227565 ], [ 1023.031207678272949, 552.070096025064458 ] ] ] } },
{ "type": "Feature", "properties": { "feature_type": "building", "subtype": "no-damage", "uid": "0b72b1bb-6790-4f91-848e-be102308d9ba" }, "geometry": { "type": "Polygon", "coordinates": [ [ [ 1007.422908298512993, 709.577603843653378 ], [ 1007.42290829726403, 713.577603842704548 ], [ 998.422908295405023, 713.577603840705592 ], [ 998.422908294655372, 709.577603845652334 ], [ 989.461276953698757, 710.906673992875312 ], [ 989.448487401563966, 675.628762052760976 ], [ 1002.294021851300045, 676.444165680935384 ], [ 1014.751978444309998, 678.590393395145156 ], [ 1015.422908295612046, 709.577603845652334 ], [ 1007.422908298512993, 709.577603843653378 ] ] ] } },
{ "type": "Feature", "properties": { "feature_type": "building", "subtype": "no-damage", "uid": "822e7143-2d29-4385-8177-e04b5f971d10" }, "geometry": { "type": "Polygon", "coordinates": [ [ [ 1023.031150965941947, 287.297811075342224 ], [ 1020.497515686672045, 287.571463597180184 ], [ 1021.254107515121973, 293.056754337140774 ], [ 1016.525408597617002, 293.435050251241023 ], [ 1013.309893334013964, 288.706351334483372 ], [ 1006.689714854754016, 288.517203380931619 ], [ 1004.987383241303974, 278.49236167576629 ], [ 1012.931597423911967, 277.168325978914197 ], [ 1012.36415355026304, 274.141958673108888 ], [ 1017.092852466768022, 273.385366843908912 ], [ 1014.633929034612947, 262.603933316540179 ], [ 1021.632403427223039, 262.982229226642403 ], [ 1019.740923861970032, 258.064382354333873 ], [ 1023.031134212013967, 256.895421785125222 ], [ 1023.031150965941947, 287.297811075342224 ] ] ] } },
{ "type": "Feature", "properties": { "feature_type": "building", "subtype": "no-damage", "uid": "d6699efd-01c5-4d42-a56f-88f696669a09" }, "geometry": { "type": "Polygon", "coordinates": [ [ [ 980.428502300123682, 340.080637921177697 ], [ 989.172442330613421, 340.525245039271681 ], [ 990.810205335766568, 340.520102656511085 ], [ 1006.17000007439799, 339.660000026486898 ], [ 1008.142346123236962, 345.119518616564221 ], [ 1007.69773900114501, 344.378506750742076 ], [ 1007.104929507687984, 348.972780321037988 ], [ 1009.327965108901026, 355.938291872159709 ], [ 1008.142346124986034, 358.161327470625508 ], [ 994.21132302474814, 358.161327470625508 ], [ 995.100537263684259, 370.610326838226115 ], [ 993.470311158426625, 372.685160063327601 ], [ 981.317716540559104, 370.16571971613422 ], [ 966.201074454656919, 371.054933956320099 ], [ 965.460062587835637, 339.339626050358106 ], [ 980.428502300123682, 340.080637921177697 ] ] ] } },
{ "type": "Feature", "properties": { "feature_type": "building", "subtype": "no-damage", "uid": "f0fe890d-ec25-4f61-a864-9404b6f3fbb0" }, "geometry": { "type": "Polygon", "coordinates": [ [ [ 974.352204991439748, 378.613255000899017 ], [ 978.744458041530493, 375.122658459374009 ], [ 983.392549767158812, 374.16718379996928 ], [ 991.988287423534757, 375.501005158249313 ], [ 997.768179986989367, 378.316850253170912 ], [ 999.398406092996652, 387.801802150486481 ], [ 999.226427978376023, 397.405236741035196 ], [ 998.95379897340365, 406.475301194391079 ], [ 992.581096918241087, 408.010333266607688 ], [ 985.252110383664785, 408.010333267607223 ], [ 979.687490434052052, 406.475301192392124 ], [ 974.500407364554121, 407.51271780894092 ], [ 974.352204991439748, 378.613255000899017 ] ] ] } },
{ "type": "Feature", "properties": { "feature_type": "building", "subtype": "minor-damage", "uid": "daf5d4de-eedb-4f2b-8cf1-30371f1a13e2" }, "geometry": { "type": "Polygon", "coordinates": [ [ [ 561.624807642211749, 933.206421861880472 ], [ 584.31697631213774, 932.965015812107254 ], [ 583.834164210592576, 969.900141414416339 ], [ 560.900589492392783, 967.968893018229664 ], [ 561.624807642211749, 933.206421861880472 ] ] ] } },
{ "type": "Feature", "properties": { "feature_type": "building", "subtype": "no-damage", "uid": "5a6eb6a4-7831-4206-b271-72bbaea2f774" }, "geometry": { "type": "Polygon", "coordinates": [ [ [ 166.702457846763508, 993.6351545506202 ], [ 161.515374779764301, 975.702667375536294 ], [ 157.365708324565787, 959.104001553734633 ], [ 171.593136168533391, 953.175906617162809 ], [ 181.522695186436891, 986.521440630132247 ], [ 181.967302305780009, 990.374702337604617 ], [ 166.702457846763508, 993.6351545506202 ] ] ] } },
{ "type": "Feature", "properties": { "feature_type": "building", "subtype": "no-damage", "uid": "b1491f88-5d44-46bf-88cc-5c7a03812bce" }, "geometry": { "type": "Polygon", "coordinates": [ [ [ 104.660446953713901, 853.272972991687084 ], [ 97.147302873832672, 1001.001177506331032 ], [ 48.62417049367464, 996.066345009840802 ], [ 51.530000071988162, 935.160000024794272 ], [ 52.351917384042579, 934.240000383824281 ], [ 55.522795340902043, 890.798972357937032 ], [ 48.630000073352093, 889.710000026291823 ], [ 53.072791458625467, 888.795692380088099 ], [ 56.635758489474348, 851.061891570539728 ], [ 82.549632743999837, 850.442788772058748 ], [ 104.660446953713901, 853.272972991687084 ] ] ] } },
{ "type": "Feature", "properties": { "feature_type": "building", "subtype": "no-damage", "uid": "c3e28d31-aa8a-4ada-8b2f-ff6716e59ef8" }, "geometry": { "type": "Polygon", "coordinates": [ [ [ 54.990649705745028, 891.22114368096868 ], [ 51.865585437316753, 934.034524165578432 ], [ 51.120000071418431, 934.870000024805563 ], [ 38.567376668493637, 931.537285356803409 ], [ 40.956065270533763, 891.294532484494084 ], [ 47.240000071700941, 890.000000028279487 ], [ 54.990649705745028, 891.22114368096868 ] ] ] } },
{ "type": "Feature", "properties": { "feature_type": "building", "subtype": "no-damage", "uid": "3544a598-45b8-40a6-94c8-aed30c413b98" }, "geometry": { "type": "Polygon", "coordinates": [ [ [ 990.131018729122957, 650.823626406139851 ], [ 1018.431051559610978, 650.165486105722266 ], [ 1019.418262006489044, 671.555045805827149 ], [ 992.763579920297502, 671.884115953537275 ], [ 990.131018729122957, 650.823626406139851 ] ] ] } },
{ "type": "Feature", "properties": { "feature_type": "building", "subtype": "no-damage", "uid": "48ddfc0b-573b-4d2a-8572-1c1514c72a97" }, "geometry": { "type": "Polygon", "coordinates": [ [ [ 525.233271384197337, 877.863447170407881 ], [ 550.703274035046547, 879.682733071756275 ], [ 549.945238240569552, 925.922916451417791 ], [ 524.323628436522085, 924.71005918285266 ], [ 524.93005707055454, 878.015054328603696 ], [ 525.233271384197337, 877.863447170407881 ] ] ] } }
]
}
