{
"type": "FeatureCollection",
"name": "hurricane-michael_00000037_post_disaster",
"features": [
{ "type": "Feature", "properties": { "feature_type": "building", "subtype": "minor-damage", "uid": "1aa7b12c-2d06-4f79-93b9-c189a95b61fb" }, "geometry": { "type": "Polygon", "coordinates": [ [ [ 253.682441173129689, 976.460669847452436 ], [ 259.943870304141683, 982.949200503686598 ], [ 263.943870304103712, 980.949200502956842 ], [ 269.943870304546124, 990.949200503608495 ], [ 266.943870305698624, 992.949200502340091 ], [ 272.9438703048923, 1004.046972416531048 ], [ 245.94387030427481, 1020.949200502565986 ], [ 236.943870304734986, 1007.94920050181895 ], [ 234.943870304254403, 1008.949200502183999 ], [ 229.943870304426895, 1002.949200503991051 ], [ 235.101668605079794, 999.693630290645046 ], [ 232.199440518157786, 989.851428586072871 ], [ 253.682441173129689, 976.460669847452436 ] ] ] } },
{ "type": "Feature", "properties": { "feature_type": "building", "subtype": "minor-damage", "uid": "870dbbe5-7940-4752-a570-8b5d59e71a5f" }, "geometry": { "type": "Polygon", "coordinates": [ [ [ 931.92044011805001, 177.529761941757812 ], [ 983.946094022135412, 193.067408485520701 ], [ 976.992869302584836, 229.156627102773086 ], [ 921.91642337911162, 214.821160031738088 ], [ 931.92044011805001, 177.529761941757812 ] ] ] } },
{ "type": "Feature", "properties": { "feature_type": "building", "subtype": "minor-damage", "uid": "bd55e117-6cdc-4d1e-b52b-c0489ed1a47d" }, "geometry": { "type": "Polygon", "coordinates": [ [ [ 848.200547199384346, 300.46037283410601 ], [ 868.317288394636307, 302.695566300660687 ], [ 868.764327090794836, 296.437024592908472 ], [ 883.963642660773871, 297.331101979730192 ], [ 878.599178343588619, 342.929048690654724 ], [ 886.198836125580897, 344.270164769388714 ], [ 883.516603965364652, 357.681325569716819 ], [ 841.047928110303587, 355.446132101163698 ], [ 843.283121576359463, 325.494539655123901 ], [ 845.518315040167295, 296.437024592908472 ], [ 848.200547199384346, 300.46037283410601 ] ] ] } },
{ "type": "Feature", "properties": { "feature_type": "building", "subtype": "minor-damage", "uid": "4851cfb6-8124-4931-862b-51576649ae1f" }, "geometry": { "type": "Polygon", "coordinates": [ [ [ 932.878809201733816, 320.833352018075516 ], [ 971.771175516750418, 300.7166108200812 ], [ 999.934613194149506, 353.467176626578805 ], [ 960.148169490312739, 373.583917821575824 ], [ 930.64361573617748, 321.280390709987728 ], [ 932.878809201733816, 320.833352018075516 ] ] ] } },
{ "type": "Feature", "properties": { "feature_type": "building", "subtype": "minor-damage", "uid": "aae19b98-3755-49d7-9346-45e4c8dbc2b3" }, "geometry": { "type": "Polygon", "coordinates": [ [ [ 963.624811602512409, 381.247904592710825 ], [ 995.73464009901943, 382.894562465017827 ], [ 994.362425206345733, 433.392070530782405 ], [ 957.31262309491467, 431.745412660473619 ], [ 960.880381815416627, 379.326803742019024 ], [ 963.624811602512409, 381.247904592710825 ] ] ] } },
{ "type": "Feature", "properties": { "feature_type": "building", "subtype": "minor-damage", "uid": "cd41c01e-6e49-4608-9310-b482d91d25e4" }, "geometry": { "type": "Polygon", "coordinates": [ [ [ 841.336246958904553, 369.793082432849076 ], [ 882.777136731237533, 373.360841155847879 ], [ 881.404921839562917, 388.729647961382398 ], [ 872.348303544120085, 388.180762003613722 ], [ 870.152759716042056, 423.035020289455474 ], [ 877.013834180159733, 423.58390624422691 ], [ 876.739391203273499, 436.482726243299112 ], [ 863.017242269293206, 434.561625390608981 ], [ 863.017242271541249, 440.050484964299585 ], [ 835.572944407826753, 437.854941138220283 ], [ 840.787361001385534, 368.14642456453862 ], [ 841.336246958904553, 369.793082432849076 ] ] ] } },
{ "type": "Feature", "properties": { "feature_type": "building", "subtype": "minor-damage", "uid": "c5b17c7a-b244-49ca-a7af-cbd794a4ca83" }, "geometry": { "type": "Polygon", "coordinates": [ [ [ 835.133260909939509, 452.915877006410426 ], [ 873.40918029325212, 455.711309322380714 ], [ 871.903947508728379, 472.268869955134676 ], [ 869.75361495948016, 472.483903212207508 ], [ 867.173215897834552, 496.352594509506218 ], [ 871.258847745252751, 498.072860549104178 ], [ 869.968648211807363, 509.039556555912327 ], [ 832.337828594218308, 508.394456789689286 ], [ 835.133260909689739, 452.485810498259411 ], [ 835.133260909939509, 452.915877006410426 ] ] ] } },
{ "type": "Feature", "properties": { "feature_type": "building", "subtype": "minor-damage", "uid": "c91cdb62-9b3a-4dbb-a412-73e54c00fa13" }, "geometry": { "type": "Polygon", "coordinates": [ [ [ 907.827722868929072, 639.227268941860075 ], [ 948.319635072910501, 608.004589654193751 ], [ 974.175916357984647, 646.057230036349324 ], [ 928.31760615315136, 679.231326780868585 ], [ 903.924887959468492, 644.593666941461606 ], [ 907.827722868929072, 639.227268941860075 ] ] ] } },
{ "type": "Feature", "properties": { "feature_type": "building", "subtype": "minor-damage", "uid": "28777090-1402-41c7-a2dd-92bf37df2464" }, "geometry": { "type": "Polygon", "coordinates": [ [ [ 958.34239056899537, 451.450731730409473 ], [ 994.5464184087474, 453.170994452984189 ], [ 991.747642044304484, 497.796896296946386 ], [ 952.000283836219978, 495.357624477129093 ], [ 955.235512111902381, 450.860072452006023 ], [ 958.34239056899537, 451.450731730409473 ] ] ] } },
{ "type": "Feature", "properties": { "feature_type": "building", "subtype": "minor-damage", "uid": "3998f389-7a48-4569-bd3f-056a56b92261" }, "geometry": { "type": "Polygon", "coordinates": [ [ [ 956.588658749129195, 514.581630304944269 ], [ 990.731688365397531, 516.977632385048651 ], [ 988.335686289039245, 575.38018304475554 ], [ 949.101152254421095, 572.684680705262622 ], [ 956.588658749129195, 514.581630304944269 ] ] ] } },
{ "type": "Feature", "properties": { "feature_type": "building", "subtype": "destroyed", "uid": "8d2d58c8-b401-4692-aff5-c1c3db7d88c0" }, "geometry": { "type": "Polygon", "coordinates": [ [ [ 1008.881993585519012, 0.001469466266242 ], [ 997.055771146293296, 9.877852223953427 ], [ 991.986244100679869, 4.566919128835686 ], [ 986.43390495830306, 7.463791726899257 ], [ 980.249863983081127, 0.002054740027736 ], [ 1008.881993585519012, 0.001469466266242 ] ] ] } },
{ "type": "Feature", "properties": { "feature_type": "building", "subtype": "destroyed", "uid": "4b0c075a-e934-456f-ae32-c826c1b1010f" }, "geometry": { "type": "Polygon", "coordinates": [ [ [ 965.070409367662023, 0.002350943208001 ], [ 963.741736287286926, 13.01613087052349 ], [ 951.912839857513177, 18.085657911140121 ], [ 949.981591457971035, 13.498942967536481 ], [ 940.808161571260939, 16.637221615105641 ], [ 937.911288972697093, 9.395040123943131 ], [ 933.807386128852954, 10.84347642097671 ], [ 931.152648742177121, 0.002977533890713 ], [ 965.070409367662023, 0.002350943208001 ] ] ] } },
{ "type": "Feature", "properties": { "feature_type": "building", "subtype": "minor-damage", "uid": "f885c05f-4682-4ec9-86f1-614eaf74185b" }, "geometry": { "type": "Polygon", "coordinates": [ [ [ 865.663339700918868, 44.04280687017296 ], [ 870.959482485212448, 43.286215047556453 ], [ 871.148630442365288, 40.070699784951088 ], [ 896.494456636901987, 40.070699784951088 ], [ 896.494456635403367, 47.258322137773838 ], [ 899.520823941356298, 47.447470093927521 ], [ 899.899119854912556, 54.635092446750271 ], [ 897.440196420168377, 54.635092447749372 ], [ 897.251048462266226, 58.228903622662102 ], [ 898.196788245282846, 58.41805158081398 ], [ 898.38593620518327, 69.766928981006899 ], [ 894.413829111467976, 69.956076939158791 ], [ 894.224681155563985, 73.360740155919629 ], [ 893.657237285354427, 73.360740155919629 ], [ 890.630869981149885, 73.360740155919629 ], [ 890.252574068342938, 75.819663592911169 ], [ 880.606028275029303, 76.197959506217629 ], [ 880.606028274529649, 74.117331983531656 ], [ 861.123788740241025, 73.549888114071507 ], [ 862.069528521759025, 66.551413716403331 ], [ 865.095895828211496, 65.794821890789521 ], [ 862.995408807907552, 62.738596375799872 ], [ 863.015268306773805, 56.526572015280777 ], [ 862.636972393217548, 53.31105675067721 ], [ 865.095895829460346, 52.932760838369852 ], [ 865.663339700918868, 44.04280687017296 ] ] ] } },
{ "type": "Feature", "properties": { "feature_type": "building", "subtype": "minor-damage", "uid": "4ced4d5b-426e-4cc1-b5e6-b2c8b25fd510" }, "geometry": { "type": "Polygon", "coordinates": [ [ [ 760.030110865815686, 11.6015484791948 ], [ 800.696921549517697, 12.7364362231106 ], [ 801.075217462574528, 25.031053401074612 ], [ 801.642661332034777, 33.16441553966127 ], [ 799.940329721156218, 41.297777675250622 ], [ 787.456564582289502, 41.486925631404297 ], [ 787.645712539192573, 38.082262412645257 ], [ 783.484457491821331, 38.082262411646163 ], [ 783.484457492320871, 41.676073590555291 ], [ 781.403829969884214, 41.486925633402507 ], [ 773.459615787948678, 41.108629718097838 ], [ 771.946432135721579, 44.891588857157068 ], [ 760.975850648082996, 44.513292939854203 ], [ 760.597554737024325, 42.621813376319203 ], [ 746.411457987029394, 43.000109284630142 ], [ 745.46571820301358, 12.16899235065315 ], [ 760.030110865815686, 11.6015484791948 ] ] ] } },
{ "type": "Feature", "properties": { "feature_type": "building", "subtype": "minor-damage", "uid": "21b22c3e-49b8-4ce9-a062-0d7e2fd237de" }, "geometry": { "type": "Polygon", "coordinates": [ [ [ 795.102581512736265, 64.749167798485743 ], [ 794.913433555833194, 85.555443031340189 ], [ 763.704020707043014, 84.231407334268027 ], [ 764.271464578001996, 52.265402658373439 ], [ 790.373882596654084, 53.021994486984568 ], [ 790.373882600150864, 53.400290399291933 ], [ 789.806438724945792, 63.992575969874622 ], [ 795.102581512736265, 64.749167798485743 ] ] ] } },
{ "type": "Feature", "properties": { "feature_type": "building", "subtype": "minor-damage", "uid": "36cf1304-9727-4b39-963e-e7a7fa1af273" }, "geometry": { "type": "Polygon", "coordinates": [ [ [ 791.125683416829588, 102.772889040361306 ], [ 791.693127287039147, 103.718628820130505 ], [ 791.69312728828811, 119.039613311539995 ], [ 794.530346635589467, 120.3636490086121 ], [ 793.206310939016589, 129.631898886119103 ], [ 786.775280413304586, 129.821046842272807 ], [ 786.207836543095027, 131.901674363959586 ], [ 764.644969483871819, 131.334230493500399 ], [ 764.644969483622049, 122.633424489449993 ], [ 762.942637872493719, 121.498536749530601 ], [ 763.320933786049977, 101.070557428983506 ], [ 791.125683416829588, 102.772889040361306 ] ] ] } },
{ "type": "Feature", "properties": { "feature_type": "building", "subtype": "minor-damage", "uid": "20fbb642-8f92-4aef-afb1-8154055fbab9" }, "geometry": { "type": "Polygon", "coordinates": [ [ [ 752.354225835207899, 235.047472974458998 ], [ 773.921372154122309, 236.279881336067604 ], [ 773.921372153372999, 232.890758342143499 ], [ 787.785966218226235, 234.123166704751213 ], [ 782.856332769042979, 274.484540528949481 ], [ 786.553557857116857, 277.873663521874391 ], [ 785.629251581164453, 285.268113688528786 ], [ 749.273204928438076, 283.727603239015821 ], [ 748.965102843281215, 275.100744710752906 ], [ 748.040796569326972, 273.868336348145192 ], [ 747.732694477675864, 262.776661099662419 ], [ 749.889409110741212, 261.85235482695731 ], [ 752.354225835207899, 235.047472974458998 ] ] ] } },
{ "type": "Feature", "properties": { "feature_type": "building", "subtype": "minor-damage", "uid": "feb560d5-0a01-45ec-aa1b-c3ba1e02a244" }, "geometry": { "type": "Polygon", "coordinates": [ [ [ 783.16443486344167, 307.759566282390722 ], [ 785.321149493259895, 309.608178823804508 ], [ 784.704945312955033, 321.62416034199498 ], [ 780.699618138974984, 321.932262431897584 ], [ 780.083413956921618, 356.131594454047502 ], [ 769.9160449806418, 356.131594454047502 ], [ 768.683636618533228, 361.369329987387175 ], [ 746.192184027413077, 360.136921626777678 ], [ 745.884081936261623, 356.747798632853574 ], [ 740.95444849332273, 355.823492363145817 ], [ 742.494958944334826, 338.261673216717384 ], [ 744.959775666803353, 333.948243953085523 ], [ 745.267877755207337, 302.213728656150977 ], [ 774.537576332429012, 303.138034926857927 ], [ 775.153780515231688, 306.835260010684578 ], [ 783.16443486344167, 307.759566282390722 ] ] ] } },
{ "type": "Feature", "properties": { "feature_type": "building", "subtype": "minor-damage", "uid": "aedfcb49-fce3-4380-b8ca-4ab68330763f" }, "geometry": { "type": "Polygon", "coordinates": [ [ [ 719.92024254112755, 392.837061123732724 ], [ 725.472581682505165, 392.595655076225285 ], [ 727.403830079799377, 372.800359000780816 ], [ 746.233501953479731, 374.490201349318227 ], [ 746.233501957725935, 380.042540491943328 ], [ 756.613962090215864, 381.490976789976003 ], [ 756.613962091714598, 394.768309522774814 ], [ 761.924895183336844, 394.768309522774814 ], [ 762.166301234341063, 399.355024467377575 ], [ 771.09832507154556, 400.803460763411977 ], [ 768.925670624745749, 415.770635843749176 ], [ 753.23427739638737, 415.770635843749176 ], [ 753.475683446142739, 431.462029072603116 ], [ 756.131149991204552, 431.220623024096597 ], [ 756.131149990455242, 438.221398460757996 ], [ 717.988994142334718, 437.255774267731113 ], [ 719.678836490872527, 415.770635843749176 ], [ 722.33430303643388, 416.012041896252072 ], [ 722.575709087438213, 411.908139049661372 ], [ 719.437430443614858, 410.459702751628811 ], [ 719.92024254112755, 392.837061123732724 ] ] ] } },
{ "type": "Feature", "properties": { "feature_type": "building", "subtype": "minor-damage", "uid": "6c6a450b-6f06-4e6d-8508-08450e3bb56d" }, "geometry": { "type": "Polygon", "coordinates": [ [ [ 726.032205073747491, 452.052834103509326 ], [ 736.412665212981437, 452.294240151016709 ], [ 736.412665210483624, 457.363767194630725 ], [ 756.932179433950751, 459.295015592673622 ], [ 757.414991533211833, 456.398142996608328 ], [ 772.140760561549314, 457.363767194630725 ], [ 771.17513636327692, 480.29734191464712 ], [ 767.554045619193403, 480.538747964152719 ], [ 767.3126395679393, 489.229365754346986 ], [ 767.795451666950612, 489.229365753347793 ], [ 768.036857717455405, 501.541074285127024 ], [ 766.829827470426721, 508.783255776289479 ], [ 752.104058441839356, 507.817631578267083 ], [ 752.345464492344149, 509.990286024816612 ], [ 739.30953780580046, 508.541849725784914 ], [ 740.275162004822164, 505.162165029709172 ], [ 726.756423225261756, 503.955134782181176 ], [ 726.997829275267009, 496.230141193006602 ], [ 721.928302229653582, 495.747329093995404 ], [ 726.032205073747491, 452.052834103509326 ] ] ] } },
{ "type": "Feature", "properties": { "feature_type": "building", "subtype": "minor-damage", "uid": "f73169cc-a833-4ef8-b62d-cc72a162182f" }, "geometry": { "type": "Polygon", "coordinates": [ [ [ 730.542767586593527, 518.143645069706963 ], [ 735.85370067596773, 518.385051120211642 ], [ 736.095106729469876, 516.21239667166401 ], [ 748.406815260502867, 516.695208771674288 ], [ 748.64822131325559, 517.178020866689053 ], [ 752.752124157849039, 517.660832969696685 ], [ 752.752124154851799, 522.00614186379471 ], [ 762.891178243081299, 522.488953962805908 ], [ 763.132584290838622, 532.628008048035554 ], [ 761.684147995802846, 533.110820150044106 ], [ 761.20133589229556, 569.563133649367614 ], [ 754.441966504388688, 568.838915501849897 ], [ 754.200560453134585, 572.701412295937644 ], [ 748.406815258754364, 572.701412296936724 ], [ 748.406815260003214, 574.632660692981517 ], [ 734.163858327929461, 574.874066743486196 ], [ 733.922452278423862, 572.460006246432044 ], [ 724.024804243696281, 571.252975997904969 ], [ 722.817773993170704, 558.699861413622898 ], [ 726.680270789757174, 558.217049315610893 ], [ 727.163082887519636, 518.867863215226407 ], [ 730.542767586593527, 518.143645069706963 ] ] ] } },
{ "type": "Feature", "properties": { "feature_type": "building", "subtype": "minor-damage", "uid": "0790e14c-35de-4e5a-880e-9e9b5ad0a186" }, "geometry": { "type": "Polygon", "coordinates": [ [ [ 722.246753363579501, 592.077238562502771 ], [ 727.792590985324523, 591.152932294793231 ], [ 727.484488897669848, 596.390667828132905 ], [ 750.90024775674965, 596.390667829131985 ], [ 762.300025100882749, 595.158259468522488 ], [ 763.532433459993968, 642.605981368473294 ], [ 751.208349847651448, 642.297879280568964 ], [ 748.743533125432691, 648.45992108561461 ], [ 739.50047041686264, 648.151818995712006 ], [ 738.268062058500846, 645.995104362397456 ], [ 725.019672174701782, 646.611308542202664 ], [ 724.095365902745812, 628.433285214969942 ], [ 727.484488896171229, 628.433285214969942 ], [ 728.408795170375242, 611.179568160442386 ], [ 722.246753361081801, 605.941832628101793 ], [ 721.630549181526135, 596.698769919034589 ], [ 722.246753363579501, 592.077238562502771 ] ] ] } },
{ "type": "Feature", "properties": { "feature_type": "building", "subtype": "minor-damage", "uid": "0f8c29fe-2428-4243-bbd8-27d4f99092f1" }, "geometry": { "type": "Polygon", "coordinates": [ [ [ 727.650682019034889, 666.194413960557995 ], [ 763.36745400445659, 665.601604464810407 ], [ 766.183299098517978, 684.12690113973315 ], [ 763.812061125518085, 685.016115378858558 ], [ 765.294084859142572, 724.14154195033268 ], [ 750.473847522397705, 725.91997043158085 ], [ 750.177442774024257, 727.846601287515341 ], [ 739.506871891777791, 728.587613152953622 ], [ 739.358669516092391, 725.771768059891997 ], [ 729.873717622094318, 725.919970433579124 ], [ 728.688098637092935, 694.945674394914704 ], [ 728.09528913884742, 668.862056679932493 ], [ 727.650682019034889, 666.194413960557995 ] ] ] } },
{ "type": "Feature", "properties": { "feature_type": "building", "subtype": "minor-damage", "uid": "64608f21-f223-4c2c-b3a7-95bb90e04641" }, "geometry": { "type": "Polygon", "coordinates": [ [ [ 733.580417134595791, 754.695557183924848 ], [ 767.059605462475929, 750.156006225246415 ], [ 775.76041147027513, 801.415102480769633 ], [ 740.5788915300177, 807.656985049826631 ], [ 733.580417134595791, 754.695557183924848 ] ] ] } },
{ "type": "Feature", "properties": { "feature_type": "building", "subtype": "minor-damage", "uid": "93136f97-26c8-44a3-b00b-5c6af5a8cf66" }, "geometry": { "type": "Polygon", "coordinates": [ [ [ 757.898171743371449, 855.979345409551797 ], [ 756.006692178337403, 848.60257510057545 ], [ 752.60202895782902, 848.413427143422609 ], [ 748.251625951556548, 827.418003952416257 ], [ 777.758707190716905, 819.852085687286149 ], [ 780.406778585361508, 831.01181513032634 ], [ 783.054849976758987, 831.200963088478261 ], [ 784.189737717178218, 835.74051404715658 ], [ 785.702921370154627, 835.362218134849286 ], [ 787.026957069974628, 845.197911881816367 ], [ 785.513773413251556, 846.14365166558207 ], [ 787.026957066477848, 856.925085195315773 ], [ 789.485880507965931, 870.92203398665572 ], [ 795.91691103167966, 870.165442161041824 ], [ 797.61924264130937, 879.43369203655061 ], [ 784.757181588636627, 881.703467517388503 ], [ 787.026957067976468, 885.297278694299393 ], [ 776.623819450297674, 888.512793956904716 ], [ 775.678079667031284, 886.432166434218743 ], [ 774.543191928610213, 886.432166434218743 ], [ 774.543191931607566, 888.891089870211204 ], [ 768.868753229011872, 890.215125568282474 ], [ 765.842385923808251, 888.512793955905636 ], [ 765.653237965406561, 890.215125568282474 ], [ 750.143105519088408, 894.376380613654419 ], [ 742.009743382497845, 859.005712719000826 ], [ 757.898171743371449, 855.979345409551797 ] ] ] } },
{ "type": "Feature", "properties": { "feature_type": "building", "subtype": "no-damage", "uid": "bee6158c-943c-4060-8b39-8d8a71278151" }, "geometry": { "type": "Polygon", "coordinates": [ [ [ 793.778459133704246, 899.723071807609131 ], [ 796.804826441655337, 898.777332022844348 ], [ 804.559892667187341, 919.205311341393212 ], [ 797.561418270516356, 922.231678649843161 ], [ 800.776933531124428, 928.851857131207566 ], [ 804.370744708036227, 928.095265305593671 ], [ 805.127336533400467, 930.554188740587051 ], [ 805.127336534149777, 935.850331527876619 ], [ 810.045183407634568, 943.794545710309649 ], [ 780.34895420982275, 954.575979238045079 ], [ 776.944290990313448, 943.416249792007648 ], [ 773.91792368810718, 942.470510010240105 ], [ 771.648148203771939, 938.498402921021807 ], [ 771.648148204521249, 934.526295829805349 ], [ 764.271377894294005, 910.126209422038187 ], [ 775.62025529548896, 905.397510504208753 ], [ 785.834244955765143, 901.99284728544967 ], [ 793.778459133704246, 899.723071807609131 ] ] ] } },
{ "type": "Feature", "properties": { "feature_type": "building", "subtype": "no-damage", "uid": "60ab3eb4-b759-4121-8a91-a681092e24c4" }, "geometry": { "type": "Polygon", "coordinates": [ [ [ 808.55851222723868, 1022.980835303479012 ], [ 805.189140256528617, 1011.870290939585971 ], [ 810.106987130762832, 1010.546255240515961 ], [ 809.161247344499088, 1006.574148152296971 ], [ 804.621696385070209, 1008.276479763674047 ], [ 801.595329078118198, 1001.088857406855027 ], [ 805.94573208339159, 999.575673756626543 ], [ 803.865104558207236, 992.766347316111137 ], [ 797.623221988149453, 994.090383010185974 ], [ 793.461966945024415, 982.174061741532 ], [ 797.812369945302294, 980.282582175998868 ], [ 789.868155764865492, 963.070118118057053 ], [ 802.919364775440386, 956.260791677541761 ], [ 814.646538088443322, 953.234424371089972 ], [ 817.294609481089651, 956.071643721388 ], [ 818.429497222258192, 959.854602855451731 ], [ 821.077568616403141, 959.476306942145243 ], [ 826.562859360597145, 972.149220041408626 ], [ 827.130303228808543, 972.149220039410352 ], [ 829.967522579357137, 980.660878089305243 ], [ 835.831109237107398, 996.17101053487022 ], [ 839.424920411771268, 997.873342144249705 ], [ 843.58617545764389, 1010.546255240515961 ], [ 841.127252024897871, 1012.437734808047026 ], [ 848.735515017870398, 1022.980296441067026 ], [ 808.55851222723868, 1022.980835303479012 ] ] ] } },
{ "type": "Feature", "properties": { "feature_type": "building", "subtype": "minor-damage", "uid": "b4bb03d7-4c56-4e62-a583-97e9e9017204" }, "geometry": { "type": "Polygon", "coordinates": [ [ [ 888.340945085372596, 848.661361254491453 ], [ 896.548750777057421, 864.352754483345393 ], [ 901.376871768919045, 863.145724234818317 ], [ 906.929210911045971, 877.871493263651587 ], [ 901.135465721161836, 880.285553762704012 ], [ 907.653429061561155, 897.425383289590627 ], [ 913.688580301200886, 895.252728840043801 ], [ 918.999513398318186, 909.254279720360273 ], [ 914.171392404708172, 912.392558368928576 ], [ 921.896385993884792, 928.325357647288115 ], [ 909.101865357596012, 934.119102840417895 ], [ 895.583126577036523, 939.671441982043916 ], [ 892.444847930715468, 930.739418144342267 ], [ 890.030787433410865, 930.739418146340427 ], [ 886.409696690825967, 920.600364056115268 ], [ 885.202666440799931, 920.358958009607022 ], [ 883.995636195519637, 913.599588617455652 ], [ 879.16751519766342, 908.047249474830551 ], [ 879.16751519741365, 901.046474032174501 ], [ 875.06361235631698, 888.010547350879506 ], [ 869.752679259699221, 874.008996471562114 ], [ 867.821430866151786, 873.767590421057321 ], [ 862.993309872541658, 859.52463348923709 ], [ 864.92455826833725, 858.800415340720292 ], [ 872.64955186051111, 855.179324597137224 ], [ 888.340945085372596, 848.661361254491453 ] ] ] } },
{ "type": "Feature", "properties": { "feature_type": "building", "subtype": "minor-damage", "uid": "c214f28d-54df-4494-a13b-0200c030efc0" }, "geometry": { "type": "Polygon", "coordinates": [ [ [ 918.079489329661783, 937.290353603031804 ], [ 920.006120183598455, 937.438555975719737 ], [ 929.046464959532273, 951.962388567084759 ], [ 932.751524292969179, 951.962388570082112 ], [ 934.381750400530677, 958.038685877266744 ], [ 925.7860127451587, 961.150935717702623 ], [ 930.380286319219977, 968.116447265011743 ], [ 907.557120818604631, 978.638815777814557 ], [ 904.148466234540251, 971.080494732759689 ], [ 901.480823508920707, 971.52510185482015 ], [ 898.664978414859206, 963.966780810764249 ], [ 892.144073988110222, 964.559590304513677 ], [ 887.846205159674923, 953.148007555582694 ], [ 895.997335697232415, 948.850138728647153 ], [ 895.997335695234256, 945.886091258901047 ], [ 918.079489329661783, 937.290353603031804 ] ] ] } },
{ "type": "Feature", "properties": { "feature_type": "building", "subtype": "no-damage", "uid": "ed107660-2849-4edc-b3d9-a3a5bb267315" }, "geometry": { "type": "Polygon", "coordinates": [ [ [ 909.04085896092829, 993.718138361331739 ], [ 910.671085067990248, 992.532519376830351 ], [ 906.390009955976893, 984.935993352826472 ], [ 938.829536010103425, 969.561151500285746 ], [ 939.71875024997837, 970.746770487784602 ], [ 944.905833316540225, 982.751162733462252 ], [ 942.682797715978609, 983.936781719961914 ], [ 947.128868919599654, 992.532519375831157 ], [ 941.645381102166652, 995.348364468892782 ], [ 941.79358347435516, 997.423197697515207 ], [ 934.087060059857322, 1000.980054655016033 ], [ 933.049643449292489, 997.867804817577507 ], [ 928.010762750922709, 1000.831852284326033 ], [ 928.158965128106729, 1003.351292636007997 ], [ 919.563227469487629, 1007.056351967195951 ], [ 917.488394239615786, 1003.499495006697998 ], [ 912.449513548239679, 1006.611744848132957 ], [ 906.817823356120357, 994.607352605452775 ], [ 909.04085896092829, 993.718138361331739 ] ] ] } },
{ "type": "Feature", "properties": { "feature_type": "building", "subtype": "no-damage", "uid": "371a053c-4c95-4c66-8143-533efd7836be" }, "geometry": { "type": "Polygon", "coordinates": [ [ [ 953.520011862371348, 1022.978569463896974 ], [ 954.25539936199857, 1021.837108291131017 ], [ 949.842822738549557, 1017.889013419781008 ], [ 955.764965051321155, 1009.644462358760961 ], [ 971.557344548714923, 1017.889013418782042 ], [ 975.273198550011784, 1013.12807548200999 ], [ 988.74316929391, 1020.095301729507014 ], [ 986.600034641848652, 1022.97792771182003 ], [ 953.520011862371348, 1022.978569463896974 ] ] ] } },
{ "type": "Feature", "properties": { "feature_type": "building", "subtype": "minor-damage", "uid": "6582e827-bbd1-4c38-a681-d122394b7f66" }, "geometry": { "type": "Polygon", "coordinates": [ [ [ 915.030232555758289, 739.386235510027404 ], [ 919.858353548868763, 739.144829459522612 ], [ 923.24747654154487, 741.33342372330344 ], [ 949.309891612287856, 737.696393161489937 ], [ 948.585673461023362, 732.385460070368708 ], [ 957.276291248222606, 731.419835872346312 ], [ 959.448945695521957, 742.283108106092754 ], [ 962.587224342342552, 741.800296008080636 ], [ 965.001284838648075, 763.285434429065276 ], [ 969.58799978375157, 763.526840477571795 ], [ 969.346593731997928, 768.837773570691297 ], [ 915.030232557007253, 775.597142960844394 ], [ 910.684923662908091, 739.627641562530243 ], [ 915.030232555758289, 739.386235510027404 ] ] ] } },
{ "type": "Feature", "properties": { "feature_type": "building", "subtype": "minor-damage", "uid": "e2049783-a86c-4e0a-aa48-23556fb85873" }, "geometry": { "type": "Polygon", "coordinates": [ [ [ 1023.048795566096032, 739.69610957671614 ], [ 1020.977392772669987, 741.20554771825266 ], [ 1019.046144373127959, 737.101644875658394 ], [ 998.285224101653625, 751.344601803482306 ], [ 999.0094422514195, 753.034444155017013 ], [ 989.111794214693759, 759.069595397652506 ], [ 970.282122340014325, 729.859463386494099 ], [ 1004.803187446299034, 707.89151286749734 ], [ 1003.354751146767967, 705.960264468455307 ], [ 1011.079744736942985, 702.580579772379679 ], [ 1015.666459680297976, 708.857137062522497 ], [ 1017.839114125599963, 708.615731015015058 ], [ 1023.04880905249297, 714.342376417083301 ], [ 1023.048795566096032, 739.69610957671614 ] ] ] } },
{ "type": "Feature", "properties": { "feature_type": "building", "subtype": "minor-damage", "uid": "9930f268-23b6-45c8-91b7-683a7788aca0" }, "geometry": { "type": "Polygon", "coordinates": [ [ [ 895.476500715854399, 96.920734618054183 ], [ 895.008060781422955, 99.133727295122199 ], [ 894.28384263265616, 115.066526573481696 ], [ 896.697903129211454, 115.549338672492894 ], [ 896.939309177717973, 126.895423008247903 ], [ 894.283842635403744, 126.895423007248795 ], [ 867.004959018035152, 126.171204857732903 ], [ 864.832304570985571, 124.722768559700199 ], [ 860.872699203925322, 111.076835237781793 ], [ 864.018499339534173, 106.358135028874699 ], [ 862.445599274477331, 96.527509600478737 ], [ 895.476500715854399, 96.920734618054183 ] ] ] } },
{ "type": "Feature", "properties": { "feature_type": "building", "subtype": "minor-damage", "uid": "537f7dc5-4b78-4c90-8da6-4151960add67" }, "geometry": { "type": "Polygon", "coordinates": [ [ [ 831.681747450193143, 605.924648790283982 ], [ 843.030624853136487, 606.113796746437629 ], [ 842.652328935334026, 591.360256125487467 ], [ 851.353134943382997, 591.549404084638468 ], [ 851.353134941384837, 587.199001081114602 ], [ 878.212144792394838, 588.333888819035792 ], [ 877.455552963283935, 604.411465137058144 ], [ 884.075731446398549, 604.411465137058144 ], [ 884.075731445399356, 626.730924022139334 ], [ 877.833848875591457, 627.298367893597629 ], [ 878.590440702704086, 649.996122692984386 ], [ 858.351609341552603, 651.131010430905576 ], [ 857.405869554789319, 643.18679624947174 ], [ 845.867844199438878, 643.18679625047082 ], [ 845.111252371576825, 631.837918853275255 ], [ 844.922104418170647, 630.513883156203065 ], [ 831.492599491291912, 629.757291330589169 ], [ 831.681747450193143, 605.924648790283982 ] ] ] } },
{ "type": "Feature", "properties": { "feature_type": "building", "subtype": "minor-damage", "uid": "e346c0cd-036b-45f2-9c8b-1cb14f9ae52a" }, "geometry": { "type": "Polygon", "coordinates": [ [ [ 828.899838801513511, 528.87405627508042 ], [ 861.558660368913479, 530.414566725592522 ], [ 860.942456188608617, 561.840979934622624 ], [ 864.331579182283804, 563.073388297230281 ], [ 861.866762460314817, 574.473165637613874 ], [ 827.359328349252564, 571.392144735590591 ], [ 828.899838801513511, 528.87405627508042 ] ] ] } },
{ "type": "Feature", "properties": { "feature_type": "building", "subtype": "minor-damage", "uid": "6f612e3b-3ae2-4047-afe8-2012b32a98dc" }, "geometry": { "type": "Polygon", "coordinates": [ [ [ 1023.048766998233987, 242.238949267664594 ], [ 1017.766420143896994, 240.798601866464708 ], [ 1015.609705509831997, 240.798601865465599 ], [ 1008.215255342925957, 250.349766666433595 ], [ 995.58306964317876, 241.106703956367312 ], [ 1002.97751980883595, 230.631232886690611 ], [ 987.572415292970618, 218.615251365502701 ], [ 1003.593723990638978, 192.426573692809711 ], [ 1023.048739819124989, 204.766698883807209 ], [ 1023.048766998233987, 242.238949267664594 ] ] ] } },
{ "type": "Feature", "properties": { "feature_type": "building", "subtype": "minor-damage", "uid": "f10dba10-1372-46a9-8c16-d73275b359c9" }, "geometry": { "type": "Polygon", "coordinates": [ [ [ 864.331579182283804, 174.556652455479593 ], [ 875.423254431518785, 174.248550364577909 ], [ 875.115152342365377, 178.870081721109699 ], [ 901.611932108215001, 180.718694262523513 ], [ 901.920034196119445, 175.480958728184703 ], [ 917.01703662133275, 177.63767336149931 ], [ 916.708934530181182, 214.301822103869 ], [ 914.244117808461965, 214.609924193771604 ], [ 860.942456191106317, 211.528903291748293 ], [ 864.331579182283804, 174.556652455479593 ] ] ] } },
{ "type": "Feature", "properties": { "feature_type": "building", "subtype": "minor-damage", "uid": "e0c4f7ff-1001-4c50-9c01-288c11c49b95" }, "geometry": { "type": "Polygon", "coordinates": [ [ [ 795.764876541774129, 147.691935798149302 ], [ 796.332320409236218, 172.281170165067493 ], [ 785.550886880249095, 172.470318120222089 ], [ 785.929182791307653, 178.523052732126303 ], [ 762.09654025349414, 177.577312950358788 ], [ 762.09654025574207, 177.00986908089871 ], [ 762.285688210147327, 171.902874250761897 ], [ 758.881024987890555, 168.687358985159193 ], [ 760.015912729308866, 145.989604185772492 ], [ 795.764876541774129, 147.691935798149302 ] ] ] } }
]
}
