{
"type": "FeatureCollection",
"name": "hurricane-harvey_00000083_post_disaster",
"features": [
{ "type": "Feature", "properties": { "feature_type": "building", "subtype": "no-damage", "uid": "2324d6d7-c765-470c-a3fd-1992e77bf119" }, "geometry": { "type": "Polygon", "coordinates": [ [ [ 795.603274148298624, 0.011392124044616 ], [ 800.714165491835956, 10.0739555984203 ], [ 747.158114095600922, 43.814692091677273 ], [ 744.426747371596321, 34.484859280956513 ], [ 738.9433303044799, 27.873568269750379 ], [ 783.166192511368649, 0.011536394568044 ], [ 795.603274148298624, 0.011392124044616 ] ] ] } },
{ "type": "Feature", "properties": { "feature_type": "building", "subtype": "no-damage", "uid": "32a23879-8ecd-49aa-a8eb-dad8bc734c24" }, "geometry": { "type": "Polygon", "coordinates": [ [ [ 731.757653195667558, 0.012064441008744 ], [ 735.583303825213079, 25.31141668138223 ], [ 723.488484113067216, 27.148604485374118 ], [ 719.203634889366867, 0.012176681536511 ], [ 731.757653195667558, 0.012064441008744 ] ] ] } },
{ "type": "Feature", "properties": { "feature_type": "building", "subtype": "no-damage", "uid": "cec5cfc0-019e-474c-9f7a-b4b48c2fc2f8" }, "geometry": { "type": "Polygon", "coordinates": [ [ [ 717.976920703022643, 10.001518317108649 ], [ 715.680435947347746, 10.6139142514404 ], [ 718.436217654518941, 29.291990258525161 ], [ 720.885801392717894, 29.291990258525161 ], [ 723.029187164249379, 43.070898789959287 ], [ 724.10088005225748, 58.227698172144891 ], [ 672.506522545068492, 65.729548375183626 ], [ 667.301157100570322, 32.35396993616375 ], [ 670.516235760421409, 31.894672980930061 ], [ 669.29144389032524, 24.545921764962511 ], [ 671.281730677214796, 24.23972379978991 ], [ 670.516235757244658, 18.115764450492581 ], [ 668.372849987332756, 18.57506140173971 ], [ 665.618934581976305, 0.012582032702587 ], [ 687.795743257363256, 0.012428765515682 ], [ 691.713671263107699, 23.50938513138723 ], [ 695.36666664006691, 23.96600955532913 ], [ 692.128342202330941, 0.012396432541656 ], [ 716.447798087722731, 0.012200444408705 ], [ 717.976920703022643, 10.001518317108649 ] ] ] } },
{ "type": "Feature", "properties": { "feature_type": "building", "subtype": "minor-damage", "uid": "9da443a7-abab-4b1b-b02d-2b8be7e8e25f" }, "geometry": { "type": "Polygon", "coordinates": [ [ [ 540.479995408802552, 3.95837207405224 ], [ 559.576902890576662, 19.23589806415627 ], [ 531.249823457112825, 54.883458699427003 ], [ 518.518551795599478, 43.74359600289818 ], [ 508.97009805471248, 55.520022283053947 ], [ 503.946489070569783, 50.676895732814152 ], [ 539.843431821562831, 3.95837207405224 ], [ 540.479995408802552, 3.95837207405224 ] ] ] } },
{ "type": "Feature", "properties": { "feature_type": "building", "subtype": "no-damage", "uid": "488a0bbc-07c9-4fc3-b477-d897cba3882a" }, "geometry": { "type": "Polygon", "coordinates": [ [ [ 493.581454220368983, 15.30997691340788 ], [ 501.258706045928477, 28.98508172935647 ], [ 471.989183458732612, 45.179284796442118 ], [ 463.232318099258407, 28.26533937245825 ], [ 486.0241594533789, 17.229289870451879 ], [ 486.743901813516175, 18.6687745862416 ], [ 493.581454220368983, 15.30997691340788 ] ] ] } },
{ "type": "Feature", "properties": { "feature_type": "building", "subtype": "no-damage", "uid": "d4948dbc-f4d2-4ba5-b8ea-35e4f352c1d4" }, "geometry": { "type": "Polygon", "coordinates": [ [ [ 996.109995319663994, 643.030002397706539 ], [ 998.703594322455046, 654.254155915708111 ], [ 990.709995319797486, 656.020002400830663 ], [ 989.689995319735431, 651.980002400091507 ], [ 988.175461321050193, 644.795720335288138 ], [ 991.974702603374453, 642.801634352005522 ], [ 996.109995319663994, 643.030002397706539 ] ] ] } },
{ "type": "Feature", "properties": { "feature_type": "building", "subtype": "no-damage", "uid": "61702ae7-e36e-4860-b02e-3c96cf557e31" }, "geometry": { "type": "Polygon", "coordinates": [ [ [ 1004.57999532140002, 640.870002399304667 ], [ 1007.29999532077602, 652.140002398127422 ], [ 999.289995320432467, 654.240002398013416 ], [ 996.422884782587175, 642.855705912066696 ], [ 996.756237413348686, 642.316551112473121 ], [ 999.528141653307898, 640.861301386899413 ], [ 1004.57999532140002, 640.870002399304667 ] ] ] } },
{ "type": "Feature", "properties": { "feature_type": "building", "subtype": "no-damage", "uid": "95891458-9c05-4dbe-947d-d7b62e2fc17e" }, "geometry": { "type": "Polygon", "coordinates": [ [ [ 1020.711359828464992, 670.933198997474278 ], [ 1012.599995323738995, 672.560002400368489 ], [ 1003.749995320750031, 637.080002397863836 ], [ 1012.897541375446053, 636.602402902335029 ], [ 1020.711359828464992, 670.933198997474278 ] ] ] } },
{ "type": "Feature", "properties": { "feature_type": "building", "subtype": "no-damage", "uid": "fda02a52-8812-49cb-8838-0b100ec6f37c" }, "geometry": { "type": "Polygon", "coordinates": [ [ [ 1022.412878495121049, 640.810986048951804 ], [ 1016.250675565712982, 642.473743414987666 ], [ 1015.042873819970055, 635.040002395497254 ], [ 1022.412868881101986, 633.629509066481432 ], [ 1022.412878495121049, 640.810986048951804 ] ] ] } },
{ "type": "Feature", "properties": { "feature_type": "building", "subtype": "no-damage", "uid": "9b9c9d5e-0daa-4d51-ad15-6a6d1547c3b3" }, "geometry": { "type": "Polygon", "coordinates": [ [ [ 987.523261077970119, 645.771691662551007 ], [ 991.85698066347868, 662.133694177125562 ], [ 983.366428006029992, 664.256332339696996 ], [ 979.47492470553243, 648.336546109946653 ], [ 983.454871264589428, 646.037021433246196 ], [ 987.523261077970119, 645.771691662551007 ] ] ] } },
{ "type": "Feature", "properties": { "feature_type": "building", "subtype": "minor-damage", "uid": "91689876-4df1-4dda-a8bb-4998f3d86241" }, "geometry": { "type": "Polygon", "coordinates": [ [ [ 957.919163075399069, 703.100642253904653 ], [ 957.649637737675221, 702.157841514255665 ], [ 983.101328971361227, 691.170312766487996 ], [ 985.09638587005395, 697.903629786066858 ], [ 973.102282275882089, 703.434716256780121 ], [ 957.919163075399069, 703.100642253904653 ] ] ] } },
{ "type": "Feature", "properties": { "feature_type": "building", "subtype": "minor-damage", "uid": "ebc16fea-cc91-4ea3-b5ff-1972e470fc98" }, "geometry": { "type": "Polygon", "coordinates": [ [ [ 930.88970176959981, 661.207535756994275 ], [ 924.704350659274837, 662.429175950028593 ], [ 924.090683848929984, 655.040048827600799 ], [ 929.945251999813991, 654.269922620775674 ], [ 930.88970176959981, 661.207535756994275 ] ] ] } },
{ "type": "Feature", "properties": { "feature_type": "building", "subtype": "minor-damage", "uid": "a33326c1-4c72-406e-a6c9-4b75ba039476" }, "geometry": { "type": "Polygon", "coordinates": [ [ [ 932.349021011928016, 652.371494899243544 ], [ 942.608438806493155, 649.806640451847898 ], [ 944.111974175468276, 656.086111685985884 ], [ 933.675669864967745, 658.562522878808636 ], [ 932.349021011928016, 652.371494899243544 ] ] ] } }
]
}
