{
"type": "FeatureCollection",
"name": "hurricane-michael_00000493_post_disaster",
"features": [
{ "type": "Feature", "properties": { "feature_type": "building", "subtype": "no-damage", "uid": "0c70c146-66df-4820-9e7a-f6f220e2d2d7" }, "geometry": { "type": "Polygon", "coordinates": [ [ [ 87.569442499486328, 891.761287152820955 ], [ 122.485237190484199, 892.207467454509128 ], [ 123.485237191246, 923.107639422334159 ], [ 88.684893256205001, 924.446180329397748 ], [ 87.569442499486328, 891.761287152820955 ] ] ] } },
{ "type": "Feature", "properties": { "feature_type": "building", "subtype": "no-damage", "uid": "c80f81db-cb3b-4df1-bf14-00e4744c66c0" }, "geometry": { "type": "Polygon", "coordinates": [ [ [ 26.930884319329209, 1022.977451846226018 ], [ 27.446180381228022, 1008.761287152805039 ], [ 84.776909925655531, 1008.546008364530053 ], [ 84.52543695165879, 1022.978567223213986 ], [ 26.930884319329209, 1022.977451846226018 ] ] ] } },
{ "type": "Feature", "properties": { "feature_type": "building", "subtype": "no-damage", "uid": "20f84bc5-bf7b-4f3f-a796-b588d886c806" }, "geometry": { "type": "Polygon", "coordinates": [ [ [ 137.884549319939907, 406.438368968755583 ], [ 188.115450835712011, 405.330729572106577 ], [ 188.330729625736097, 443.338540937656319 ], [ 138.099828108964488, 443.776909874276726 ], [ 137.884549319939907, 406.438368968755583 ] ] ] } },
{ "type": "Feature", "properties": { "feature_type": "building", "subtype": "no-damage", "uid": "b8acd969-9f56-4228-92a2-a217f7e3cbd9" }, "geometry": { "type": "Polygon", "coordinates": [ [ [ 131.000000078310109, 959.000000028653176 ], [ 204.671827535909699, 956.59723482650827 ], [ 204.490423663345894, 990.633666742080095 ], [ 130.086830276685504, 992.993016847654872 ], [ 131.000000078310109, 959.000000028653176 ] ] ] } },
{ "type": "Feature", "properties": { "feature_type": "building", "subtype": "minor-damage", "uid": "69bbf1dc-6ebe-4f70-81b3-f13353db5fdc" }, "geometry": { "type": "Polygon", "coordinates": [ [ [ 188.973090228734208, 396.560171996640122 ], [ 143.6100000775794, 395.845450784158686 ], [ 142.680000078822388, 390.08000002665591 ], [ 138.300000077349694, 391.180000028818824 ], [ 138.52309022819361, 367.069098515682583 ], [ 142.746180379086411, 368.184549269403306 ], [ 142.300000080896694, 361.380000027741175 ], [ 187.640000080510305, 359.220000030272615 ], [ 188.973090228734208, 396.560171996640122 ] ] ] } },
{ "type": "Feature", "properties": { "feature_type": "building", "subtype": "no-damage", "uid": "63c0e8a4-a854-485e-b730-12fb782e88a3" }, "geometry": { "type": "Polygon", "coordinates": [ [ [ 62.923606129870713, 895.33072957432239 ], [ 82.923606133113225, 894.330729572810469 ], [ 83.031245526001356, 947.338540936051572 ], [ 62.700515979276609, 948.007811388084065 ], [ 62.923606129870713, 895.33072957432239 ] ] ] } },
{ "type": "Feature", "properties": { "feature_type": "building", "subtype": "no-damage", "uid": "17ea6470-8aef-40ff-8da8-a9ba502c67bb" }, "geometry": { "type": "Polygon", "coordinates": [ [ [ 0.457114447159775, 1022.976891905350953 ], [ 0.056269346569303, 1014.618589132486022 ], [ 0.056270699147473, 1013.444337834200951 ], [ 27.093736421622008, 1012.992188668268 ], [ 26.912390649199669, 1022.977451465415015 ], [ 0.457114447159775, 1022.976891905350953 ] ] ] } },
{ "type": "Feature", "properties": { "feature_type": "building", "subtype": "no-damage", "uid": "4f4b757c-3cbf-496d-9b20-1b45fba55a3e" }, "geometry": { "type": "Polygon", "coordinates": [ [ [ 335.753481262817786, 243.927576831935909 ], [ 350.420614515075385, 232.579385591099907 ], [ 363.454537111262312, 249.923857210560897 ], [ 347.637884099228586, 259.275768070823574 ], [ 335.753481262817786, 243.927576831935909 ] ] ] } },
{ "type": "Feature", "properties": { "feature_type": "building", "subtype": "no-damage", "uid": "c0685ef6-fc87-4ebc-b8fd-79eb3ae82542" }, "geometry": { "type": "Polygon", "coordinates": [ [ [ 139.186348740377298, 932.08685767431507 ], [ 138.517078282348109, 901.523506940208676 ], [ 166.849527506250894, 899.292605425770716 ], [ 168.218485678701995, 931.119003763727619 ], [ 139.186348740377298, 932.08685767431507 ] ] ] } },
{ "type": "Feature", "properties": { "feature_type": "building", "subtype": "no-damage", "uid": "92ea9977-379a-4f9f-9207-37baf8ea9304" }, "geometry": { "type": "Polygon", "coordinates": [ [ [ 455.531063422749412, 716.136994908235579 ], [ 465.319786399655698, 643.254886252767506 ], [ 468.255338811284275, 641.930850555915413 ], [ 469.818382345858993, 633.810437651323582 ], [ 486.511298086139391, 635.66628460666891 ], [ 487.089820228923315, 642.153775458338941 ], [ 493.47089750933219, 643.078578871258742 ], [ 486.050283072654508, 720.067453630681484 ], [ 455.531063422749412, 716.136994908235579 ] ] ] } },
{ "type": "Feature", "properties": { "feature_type": "building", "subtype": "no-damage", "uid": "bb0222d0-5efa-4bac-81ff-250f250e8305" }, "geometry": { "type": "Polygon", "coordinates": [ [ [ 441.990384868264528, 419.532569020926076 ], [ 441.526596462833083, 419.996357423609197 ], [ 490.224378692551682, 352.283250706852073 ], [ 512.486221996338031, 367.124479575716975 ], [ 467.498746985832781, 436.692739903206075 ], [ 441.990384868264528, 419.532569020926076 ] ] ] } },
{ "type": "Feature", "properties": { "feature_type": "building", "subtype": "no-damage", "uid": "33eec2f9-be3c-4bc4-8609-38c2631115b4" }, "geometry": { "type": "Polygon", "coordinates": [ [ [ 503.210453954176614, 340.688540651770893 ], [ 510.631068387855692, 336.978233434304798 ], [ 506.863217326119582, 331.283751515332426 ], [ 567.586383328526267, 289.910677313569181 ], [ 570.459772268717984, 293.845912032760907 ], [ 577.880386704146304, 289.671816414610817 ], [ 589.938885159655911, 305.440622086842609 ], [ 515.268952412434714, 359.70386514178432 ], [ 502.74666555099401, 341.616117460135399 ], [ 503.210453954176614, 340.688540651770893 ] ] ] } },
{ "type": "Feature", "properties": { "feature_type": "building", "subtype": "no-damage", "uid": "d7582c0a-7592-4511-8e5d-ab0b78ff2e96" }, "geometry": { "type": "Polygon", "coordinates": [ [ [ 701.24810168333488, 327.702465391639123 ], [ 706.813562510281031, 313.78881332614128 ], [ 715.161753749825607, 315.180178532191292 ], [ 721.191002975206516, 307.295775696575106 ], [ 784.266225671599841, 350.428097099118588 ], [ 765.250901184094346, 375.008882413332174 ], [ 701.24810168333488, 327.702465391639123 ] ] ] } },
{ "type": "Feature", "properties": { "feature_type": "building", "subtype": "no-damage", "uid": "b58ffb36-cdf5-4325-8325-4261f1517243" }, "geometry": { "type": "Polygon", "coordinates": [ [ [ 778.236976444219863, 389.850111281197485 ], [ 770.816362012539685, 384.284650458996396 ], [ 783.802437269416828, 368.979633183450517 ], [ 793.541993714760792, 374.081305610964591 ], [ 800.278301614132374, 370.040221190688726 ], [ 844.682977911541116, 403.483740056240208 ], [ 845.486294758511349, 413.503319794043023 ], [ 854.298274400738705, 419.532569021925724 ], [ 836.674315117783294, 436.228951500523124 ], [ 831.108854292836213, 433.446221086423975 ], [ 825.079605064706584, 433.910009491105995 ], [ 775.454246029872252, 392.169053294612524 ], [ 778.236976444219863, 389.850111281197485 ] ] ] } },
{ "type": "Feature", "properties": { "feature_type": "building", "subtype": "no-damage", "uid": "d4506fe9-666c-4a65-83b6-2902dfab2039" }, "geometry": { "type": "Polygon", "coordinates": [ [ [ 496.152590535303091, 670.949466799030461 ], [ 501.77623299872738, 671.837410345374451 ], [ 502.072214176843886, 680.420864626699768 ], [ 495.26464698746031, 680.420864628698837 ], [ 496.152590535303091, 670.949466799030461 ] ] ] } },
{ "type": "Feature", "properties": { "feature_type": "building", "subtype": "no-damage", "uid": "24d75140-99cc-4e58-aa50-e3d209c48e30" }, "geometry": { "type": "Polygon", "coordinates": [ [ [ 494.672684626229682, 683.380676449845396 ], [ 502.072214178593015, 683.676657631960097 ], [ 502.072214176344119, 693.148055460628825 ], [ 493.784741078137017, 692.852074275515747 ], [ 494.672684626229682, 683.380676449845396 ] ] ] } },
{ "type": "Feature", "properties": { "feature_type": "building", "subtype": "no-damage", "uid": "a698551c-c96e-4b07-a67b-ed42bb003e44" }, "geometry": { "type": "Polygon", "coordinates": [ [ [ 320.429525729228089, 694.715478963908708 ], [ 328.387141839301705, 695.438898610847218 ], [ 327.181442430153481, 705.807913542970482 ], [ 318.741546555371087, 704.361074252091839 ], [ 320.429525729228089, 694.715478963908708 ] ] ] } },
{ "type": "Feature", "properties": { "feature_type": "building", "subtype": "no-damage", "uid": "9ed70278-aa9c-493f-a044-485e510eff3f" }, "geometry": { "type": "Polygon", "coordinates": [ [ [ 321.876365020105993, 744.631434566688313 ], [ 331.280820424805711, 745.354854212627288 ], [ 330.557400777367775, 755.482729262770818 ], [ 320.429525730727278, 755.482729262770818 ], [ 321.876365020105993, 744.631434566688313 ] ] ] } },
{ "type": "Feature", "properties": { "feature_type": "building", "subtype": "no-damage", "uid": "6e7b3502-b3d0-40dc-8cb4-5f587ae3be52" }, "geometry": { "type": "Polygon", "coordinates": [ [ [ 436.316316372626318, 168.961208921308298 ], [ 474.459143041335608, 170.534108993357307 ], [ 473.672693005561314, 194.914060059642111 ], [ 434.743416304825928, 191.768259921541102 ], [ 436.316316372626318, 168.961208921308298 ] ] ] } },
{ "type": "Feature", "properties": { "feature_type": "building", "subtype": "no-damage", "uid": "5ba58860-c9b7-4863-8b2a-acc2f6cef4bd" }, "geometry": { "type": "Polygon", "coordinates": [ [ [ 816.532717688726052, 238.442070659981198 ], [ 821.360838684687906, 238.924882760527112 ], [ 821.60224473171229, 247.615500548364992 ], [ 850.812376743263258, 244.718627953085388 ], [ 850.088158593444177, 238.442070659981198 ], [ 866.262363921745305, 237.476446458889313 ], [ 867.710800222632884, 249.546748944551808 ], [ 872.538921216345784, 249.546748944551808 ], [ 873.745951461213281, 256.788930436748785 ], [ 865.779551822948747, 257.271742536295278 ], [ 867.710800218884742, 271.27329341614552 ], [ 790.460864326474393, 272.480323664012076 ], [ 790.702270371499822, 267.893608718320877 ], [ 787.081179628651398, 265.962360324133215 ], [ 785.632743329263121, 252.202215490058194 ], [ 790.460864322476368, 250.512373143644595 ], [ 788.288209879265992, 239.407694860073605 ], [ 816.532717688726052, 238.442070659981198 ] ] ] } },
{ "type": "Feature", "properties": { "feature_type": "building", "subtype": "no-damage", "uid": "621d6bad-f763-478f-bba7-09e29986371f" }, "geometry": { "type": "Polygon", "coordinates": [ [ [ 886.403078348892677, 265.273445981289683 ], [ 890.024169094989475, 265.273445981289683 ], [ 890.265575145012463, 273.239845620807387 ], [ 937.098348781504228, 270.342973022529293 ], [ 936.132724584160883, 264.307821785195415 ], [ 952.065523862439022, 262.376573387009614 ], [ 953.031148060282135, 273.72265772035388 ], [ 959.06629930535928, 273.72265772035388 ], [ 959.790517449930917, 291.103893298028709 ], [ 955.203802505741237, 291.828111446348828 ], [ 954.962396456218016, 295.932014290494521 ], [ 876.505430313692727, 296.173420341267217 ], [ 875.056994013554913, 265.997664128610381 ], [ 886.403078348892677, 265.273445981289683 ] ] ] } },
{ "type": "Feature", "properties": { "feature_type": "building", "subtype": "no-damage", "uid": "85878d25-c8fe-4251-b277-aa9d427ca327" }, "geometry": { "type": "Polygon", "coordinates": [ [ [ 863.843297306320437, 423.259099680152076 ], [ 866.308114026258863, 422.026691319682584 ], [ 873.394462104702598, 425.107712222855525 ], [ 874.934972556288358, 424.799610131238921 ], [ 882.637524811218327, 425.107712222855525 ], [ 914.372040109536215, 441.12902091895478 ], [ 915.912550560872091, 440.204714647103401 ], [ 928.852838354791743, 446.67485854106792 ], [ 941.17692196497876, 453.14500243703128 ], [ 930.085246715510607, 480.257986380355192 ], [ 876.167380916757224, 453.453104528647998 ], [ 874.934972555288823, 457.150329613055192 ], [ 856.14074505114047, 448.523471083771199 ], [ 861.070378493516159, 442.97763345766009 ], [ 855.832642957524968, 436.199387472079081 ], [ 863.843297306320437, 423.259099680152076 ] ] ] } },
{ "type": "Feature", "properties": { "feature_type": "building", "subtype": "no-damage", "uid": "69de6da9-6dab-424f-b313-941249a37a65" }, "geometry": { "type": "Polygon", "coordinates": [ [ [ 819.989112246494074, 519.60297481639077 ], [ 873.822661322657609, 542.777955587623296 ], [ 867.304697982531934, 560.159191163299056 ], [ 861.269546742452235, 559.193566965205719 ], [ 858.372674143675681, 563.538875861123643 ], [ 810.815682356615412, 540.846707190437087 ], [ 819.989112246494074, 519.60297481639077 ] ] ] } },
{ "type": "Feature", "properties": { "feature_type": "building", "subtype": "no-damage", "uid": "bbed19a1-382d-42c4-ae7e-673b249c20cb" }, "geometry": { "type": "Polygon", "coordinates": [ [ [ 718.291560605094446, 476.881239038535682 ], [ 710.566567016603017, 472.0531180440708 ], [ 721.912651352190778, 455.396100617714694 ], [ 747.260286569371033, 471.570305946523376 ], [ 745.087632119164255, 475.915614841441823 ], [ 781.539945624158122, 501.504656104409491 ], [ 766.572770544722516, 520.81714007927053 ], [ 747.018880520597463, 508.988243646379772 ], [ 725.775148145561843, 493.055444368343785 ], [ 722.154057403712955, 496.917941162716374 ], [ 712.256409363765329, 490.399977820838387 ], [ 714.429063812472918, 488.227323371879891 ], [ 712.497815413788317, 485.330450778599413 ], [ 718.291560605094446, 476.881239038535682 ] ] ] } },
{ "type": "Feature", "properties": { "feature_type": "building", "subtype": "no-damage", "uid": "7b822c90-39d8-4e78-8f8b-a2959a88f085" }, "geometry": { "type": "Polygon", "coordinates": [ [ [ 631.352812319842201, 428.039146491231577 ], [ 622.652006312032881, 422.932151661373325 ], [ 635.703215321497964, 405.530539649744298 ], [ 641.566801977304976, 410.826682437152385 ], [ 645.538909070607815, 411.015830395701812 ], [ 698.122041020819097, 448.845421727763608 ], [ 684.503388140703692, 465.86873782629192 ], [ 631.352812319842201, 428.039146491231577 ] ] ] } },
{ "type": "Feature", "properties": { "feature_type": "building", "subtype": "no-damage", "uid": "f3793581-1718-4b95-9ab4-1671cedf4829" }, "geometry": { "type": "Polygon", "coordinates": [ [ [ 597.563042369428331, 433.218854098399788 ], [ 597.94133828402812, 436.056073447654796 ], [ 572.217216178448325, 470.859297472911692 ], [ 572.973808003899876, 477.290327997623081 ], [ 555.004752121129172, 492.04386861954589 ], [ 537.413992150209651, 476.344588215870772 ], [ 576.567619183602346, 429.625042919944917 ], [ 582.998649708560492, 421.49168078128281 ], [ 597.563042369428331, 433.218854098399788 ] ] ] } },
{ "type": "Feature", "properties": { "feature_type": "building", "subtype": "no-damage", "uid": "2e7a3bdd-57a2-46de-a473-2192ab2262cc" }, "geometry": { "type": "Polygon", "coordinates": [ [ [ 452.578839449693476, 348.506494277941101 ], [ 475.378394128614389, 364.527802971041922 ], [ 461.51380006559242, 386.094949291253272 ], [ 438.098041204188121, 372.230355229474014 ], [ 452.578839449693476, 348.506494277941101 ] ] ] } },
{ "type": "Feature", "properties": { "feature_type": "building", "subtype": "no-damage", "uid": "3ec90573-305c-4b53-8007-a2e22064229b" }, "geometry": { "type": "Polygon", "coordinates": [ [ [ 438.714245385422089, 343.26875874344671 ], [ 450.868520979592915, 349.206727421696712 ], [ 439.318662994587612, 366.885452131482111 ], [ 428.724237794285727, 359.686043207001489 ], [ 438.714245385422089, 343.26875874344671 ] ] ] } },
{ "type": "Feature", "properties": { "feature_type": "building", "subtype": "no-damage", "uid": "e4d7f05a-b926-485e-a428-5cd3ef32d20c" }, "geometry": { "type": "Polygon", "coordinates": [ [ [ 603.47787610713101, 269.946008556164088 ], [ 685.546343102836317, 293.550936217277126 ], [ 689.352208364037097, 298.711862417235693 ], [ 686.887391642599368, 299.944270775706286 ], [ 684.114472829295323, 306.106312582052226 ], [ 680.417247744889892, 307.338720943521196 ], [ 677.336226841218718, 317.506089921892908 ], [ 612.634787882864657, 303.64149586011348 ], [ 614.483400425567083, 297.787556143385416 ], [ 603.083623085981685, 295.322739420447192 ], [ 608.629460711090587, 279.301430730344919 ], [ 603.083623085232148, 276.836614005407682 ], [ 603.47787610713101, 269.946008556164088 ] ] ] } },
{ "type": "Feature", "properties": { "feature_type": "building", "subtype": "no-damage", "uid": "430bb0a6-0da3-4034-b000-6777daae627e" }, "geometry": { "type": "Polygon", "coordinates": [ [ [ 344.852670921078413, 725.854361404409474 ], [ 346.032345972865699, 717.989861061155921 ], [ 367.266496900289724, 720.349211165731163 ], [ 355.862971400678475, 794.275514396112612 ], [ 330.696570303628675, 791.129714260010587 ], [ 334.235595456741692, 767.536213228250972 ], [ 331.876245353167121, 764.783638108911759 ], [ 338.167845628866417, 725.854361405409009 ], [ 344.852670921078413, 725.854361404409474 ] ] ] } },
{ "type": "Feature", "properties": { "feature_type": "building", "subtype": "no-damage", "uid": "67920977-65b1-480b-9ef6-e2fd92c686e9" }, "geometry": { "type": "Polygon", "coordinates": [ [ [ 0.056403956458102, 147.549382225297904 ], [ 10.3935431293771, 148.54766682185749 ], [ 15.412201521999441, 166.614837038405 ], [ 18.423396558922171, 183.678275574978386 ], [ 22.438323273319892, 198.232384917113393 ], [ 48.033481081915717, 191.708129006776204 ], [ 58.070797865911018, 195.723055719676609 ], [ 106.751784282668595, 187.191336451389901 ], [ 106.249918443431298, 179.161483022590602 ], [ 159.447697416072714, 170.1278979148166 ], [ 161.455160772022197, 176.652153824154311 ], [ 171.994343400002407, 174.142824628716511 ], [ 183.0353918654707, 226.838737757898087 ], [ 168.481282523592512, 232.359261992259093 ], [ 173.499940920462706, 274.515992500202117 ], [ 128.332015378615807, 283.047711767489318 ], [ 118.294698589373098, 244.905907978443707 ], [ 62.085724579808989, 254.441358923706105 ], [ 54.055871150513788, 255.946956442168187 ], [ 26.955115826954859, 259.460017318579673 ], [ 25.449518307993738, 254.943224763193513 ], [ 18.42339655992167, 256.448822281655509 ], [ 20.430859913872151, 263.976809872966498 ], [ 0.056488100413506, 266.979679467167102 ], [ 0.056403956458102, 147.549382225297904 ] ] ] } },
{ "type": "Feature", "properties": { "feature_type": "building", "subtype": "no-damage", "uid": "927c6f58-d32d-4107-b0f4-5a49b29802d7" }, "geometry": { "type": "Polygon", "coordinates": [ [ [ 396.597107648132123, 553.380416397365025 ], [ 381.261331979894578, 606.859018738085751 ], [ 358.061055968407288, 597.028393309018838 ], [ 372.610381600120888, 545.909141073872888 ], [ 385.193582149520523, 546.30236608963628 ], [ 387.946157272356515, 541.583665884483707 ], [ 399.349682768719276, 543.549790969297646 ], [ 396.597107648132123, 553.380416397365025 ] ] ] } },
{ "type": "Feature", "properties": { "feature_type": "building", "subtype": "no-damage", "uid": "5c27b1be-c720-4572-9ad8-c250731a59a2" }, "geometry": { "type": "Polygon", "coordinates": [ [ [ 360.02718105272038, 628.093169667269194 ], [ 361.600081119521292, 621.408344373304772 ], [ 382.047782014419511, 626.127044579456765 ], [ 367.891681393471515, 699.660122792075754 ], [ 340.759155207360777, 694.54819757115979 ], [ 353.735580774772302, 629.27284471855728 ], [ 360.02718105272038, 628.093169667269194 ] ] ] } },
{ "type": "Feature", "properties": { "feature_type": "building", "subtype": "no-damage", "uid": "31e1ca46-caca-43a3-8ad9-675eed20f612" }, "geometry": { "type": "Polygon", "coordinates": [ [ [ 903.087117206851531, 149.399009638911309 ], [ 905.446467313424591, 149.005784620149512 ], [ 930.612868411473983, 166.700910392469893 ], [ 932.578993497036549, 172.992510667672406 ], [ 963.250544839008967, 170.239935548333307 ], [ 966.789569991122562, 206.023412111736093 ], [ 951.847019338398241, 207.596312178787599 ], [ 951.453794321635542, 200.518261870059291 ], [ 944.375744015909163, 201.304711904584593 ], [ 943.982518995398436, 193.440211563330109 ], [ 916.84999281053706, 194.226661598854804 ], [ 917.636442843812574, 202.484386956872214 ], [ 881.459741262664807, 202.484386956872214 ], [ 881.459741260915621, 191.474086475517709 ], [ 877.527491091539673, 191.867311494279505 ], [ 877.527491090790022, 180.070560977400191 ], [ 872.80879088514007, 180.070560979399204 ], [ 873.202015902152652, 170.633160567095189 ], [ 903.087117206851531, 149.399009638911309 ] ] ] } },
{ "type": "Feature", "properties": { "feature_type": "building", "subtype": "no-damage", "uid": "c9fd7ad0-fabf-4d7f-814f-14adf6e7a66e" }, "geometry": { "type": "Polygon", "coordinates": [ [ [ 471.698697951789427, 740.685051673833414 ], [ 472.076993866139389, 749.196709724596758 ], [ 479.26461622279578, 749.764153595247421 ], [ 474.346769344742711, 800.455805979730371 ], [ 470.942106125338512, 800.266658023180071 ], [ 470.374662259685692, 804.049617158185356 ], [ 461.295560335527512, 803.482173285535737 ], [ 460.160672595726112, 809.913203813245559 ], [ 442.19161671445471, 808.210872201293796 ], [ 447.676907454662398, 778.514643005895209 ], [ 449.568387022164075, 778.514643005895209 ], [ 451.27071863286568, 745.224602633041172 ], [ 454.297085940168927, 745.602898545142352 ], [ 454.486233897968475, 738.982720063880606 ], [ 471.698697951789427, 740.685051673833414 ] ] ] } }
]
}
