{
"type": "FeatureCollection",
"name": "hurricane-michael_00000132_post_disaster",
"features": [
{ "type": "Feature", "properties": { "feature_type": "building", "subtype": "no-damage", "uid": "589154d8-9027-43b8-9f4c-d4cdabb41ae0" }, "geometry": { "type": "Polygon", "coordinates": [ [ [ 0.070664089154367, 1009.091548068059979 ], [ 8.147588980399794, 1008.33957759726195 ], [ 8.740398473947236, 1012.933851171443962 ], [ 14.668493410920879, 1012.785648797245017 ], [ 14.937871460660009, 1022.977456073375947 ], [ 0.070646776208799, 1022.977137445014023 ], [ 0.070664089154367, 1009.091548068059979 ] ] ] } },
{ "type": "Feature", "properties": { "feature_type": "building", "subtype": "no-damage", "uid": "5bc24638-b1cf-4a33-9df2-87ab8d65faeb" }, "geometry": { "type": "Polygon", "coordinates": [ [ [ 120.894713897766295, 955.616914003356442 ], [ 121.618932051144, 996.414536401605574 ], [ 100.375199676914505, 996.897348498526981 ], [ 99.892387575995343, 975.170804028121097 ], [ 82.511152002872763, 975.412210078080989 ], [ 81.786933851743825, 955.858320054315868 ], [ 120.894713897766295, 955.616914003356442 ] ] ] } },
{ "type": "Feature", "properties": { "feature_type": "building", "subtype": "no-damage", "uid": "3c37f9fe-1d69-4592-967b-7b807185dc95" }, "geometry": { "type": "Polygon", "coordinates": [ [ [ 85.578885199901237, 1004.415311842216965 ], [ 124.391974336211803, 1004.503618905838948 ], [ 125.222261171879197, 1011.080620637495031 ], [ 132.464442660930104, 1011.21020447493197 ], [ 132.686589679348288, 1022.979647853105007 ], [ 85.35006630503257, 1022.978837540886957 ], [ 85.578885199901237, 1004.415311842216965 ] ] ] } },
{ "type": "Feature", "properties": { "feature_type": "building", "subtype": "no-damage", "uid": "807cf80c-ccee-4d98-946e-b466fb871c02" }, "geometry": { "type": "Polygon", "coordinates": [ [ [ 92.221940541427799, 906.716911262460712 ], [ 126.457720698308293, 907.662651043577512 ], [ 127.214312524450904, 949.842645381336865 ], [ 101.301042461886198, 949.086053554444447 ], [ 101.490190416860202, 925.064263059105201 ], [ 85.601762057619638, 924.685967145658992 ], [ 86.16920592878833, 906.716911262460712 ], [ 92.221940541427799, 906.716911262460712 ] ] ] } },
{ "type": "Feature", "properties": { "feature_type": "building", "subtype": "no-damage", "uid": "a256dd3f-1b70-4d27-9f86-51b44ff9e74a" }, "geometry": { "type": "Polygon", "coordinates": [ [ [ 0.070718800541065, 962.39007112044726 ], [ 10.713434338107589, 962.565554105262549 ], [ 10.34138787778352, 978.971430708699927 ], [ 5.084157404932475, 979.142232586669593 ], [ 5.279554817276304, 991.45226942290742 ], [ 0.070685846025823, 991.066706803848206 ], [ 0.070718800541065, 962.39007112044726 ] ] ] } },
{ "type": "Feature", "properties": { "feature_type": "building", "subtype": "no-damage", "uid": "c8d49695-1240-4449-832c-6fddc546a7f1" }, "geometry": { "type": "Polygon", "coordinates": [ [ [ 0.070794674609972, 888.095436616291977 ], [ 8.200526197714048, 888.035722445980809 ], [ 8.071612398356059, 899.529288909981005 ], [ 1.709261518761011, 899.279906798391494 ], [ 1.633695371815371, 912.465077958428196 ], [ 10.934168222325489, 910.732361524264547 ], [ 10.55587230912923, 925.399215796435669 ], [ 0.070758168951928, 925.518876602481782 ], [ 0.070794674609972, 888.095436616291977 ] ] ] } },
{ "type": "Feature", "properties": { "feature_type": "building", "subtype": "no-damage", "uid": "641f344f-567c-4d46-a49b-fef4072c39ee" }, "geometry": { "type": "Polygon", "coordinates": [ [ [ 87.892050111003371, 900.664176648320677 ], [ 86.946310325888817, 899.340140951758599 ], [ 82.974203237952707, 890.450186989270719 ], [ 85.433126676102191, 880.425345285444564 ], [ 96.214560203070306, 879.668753458552146 ], [ 96.214560204569523, 857.349294573221073 ], [ 106.806845777812995, 858.295034358335897 ], [ 120.803794570822305, 857.349294572221652 ], [ 121.560386399713593, 886.288931941362307 ], [ 130.261192403977304, 885.910636028915519 ], [ 131.206932188841989, 899.90758482242768 ], [ 87.892050111003371, 900.664176648320677 ] ] ] } },
{ "type": "Feature", "properties": { "feature_type": "building", "subtype": "no-damage", "uid": "26055945-23c6-47ac-a64c-c72fe5343cf5" }, "geometry": { "type": "Polygon", "coordinates": [ [ [ 0.070874888908998, 788.504367928894908 ], [ 8.248261447835514, 789.073131672288696 ], [ 7.863716079768095, 803.209232794049285 ], [ 0.070864746963096, 802.997016828077335 ], [ 0.070874888908998, 788.504367928894908 ] ] ] } },
{ "type": "Feature", "properties": { "feature_type": "building", "subtype": "no-damage", "uid": "392ae2d4-bc7b-468f-8a0e-4ec01cdbfb41" }, "geometry": { "type": "Polygon", "coordinates": [ [ [ 128.37000011500399, 806.480000041815515 ], [ 128.7400001180971, 815.370000043225787 ], [ 139.020000118395188, 815.560000042842262 ], [ 139.970000116726993, 819.350000044028093 ], [ 144.240000117771302, 819.350000043028558 ], [ 144.240000114772897, 835.810000041675494 ], [ 140.830000118817509, 836.19000004090833 ], [ 140.830000117068408, 838.590000044953058 ], [ 130.270000115165601, 838.210000040722775 ], [ 129.500000118811414, 849.950000044374974 ], [ 94.15000011606827, 849.950000045374509 ], [ 93.780000118222503, 838.800000041846261 ], [ 95.240000115577061, 829.000000040905434 ], [ 99.260000119427602, 829.000000041904968 ], [ 99.260000114929966, 827.070000044328481 ], [ 86.900000116740543, 826.880000044712119 ], [ 85.080000115431119, 816.320000041307821 ], [ 87.270000118334352, 805.740000044624708 ], [ 128.37000011500399, 806.480000041815515 ] ] ] } },
{ "type": "Feature", "properties": { "feature_type": "building", "subtype": "no-damage", "uid": "6280ceac-f7a6-4b44-916a-abf8e423577a" }, "geometry": { "type": "Polygon", "coordinates": [ [ [ 98.116720010682315, 757.638740798879212 ], [ 110.669834592853405, 758.604364996719937 ], [ 128.533882269143987, 757.397334746920365 ], [ 127.5682580700541, 802.781672085412538 ], [ 83.149544931411356, 802.298859989490666 ], [ 79.769860234471977, 791.676993803248138 ], [ 81.942514682111778, 780.813721566046183 ], [ 95.944065561543297, 780.572315516086292 ], [ 98.116720010682315, 757.638740798879212 ] ] ] } },
{ "type": "Feature", "properties": { "feature_type": "building", "subtype": "no-damage", "uid": "1077f43e-b690-4c49-b200-b0de67514ec9" }, "geometry": { "type": "Polygon", "coordinates": [ [ [ 0.070907300208334, 735.932564263323798 ], [ 12.95790059366065, 734.971591841668214 ], [ 13.44014396626693, 750.32601386337376 ], [ 12.967952346482329, 760.264938668554805 ], [ 0.070894011907933, 758.853529446143739 ], [ 0.070907300208334, 735.932564263323798 ] ] ] } },
{ "type": "Feature", "properties": { "feature_type": "building", "subtype": "no-damage", "uid": "f13f9f7e-71d8-462c-a746-318b9424d2d1" }, "geometry": { "type": "Polygon", "coordinates": [ [ [ 80.494078382852351, 702.839567520945593 ], [ 122.526324674296305, 703.73392091943299 ], [ 125.6289679196002, 748.975716657219664 ], [ 99.814604109927075, 749.038945704298726 ], [ 97.151095811092745, 722.876269642631655 ], [ 82.532232982060918, 723.082040297412505 ], [ 80.494078382852351, 702.839567520945593 ] ] ] } },
{ "type": "Feature", "properties": { "feature_type": "building", "subtype": "no-damage", "uid": "198983b2-480a-4dbc-b5b4-4333911013d1" }, "geometry": { "type": "Polygon", "coordinates": [ [ [ 0.070929305449896, 691.584785004228934 ], [ 13.30973517127107, 691.239161986308318 ], [ 13.392288707658251, 709.727112651680386 ], [ 0.07092073443242, 710.049356690485183 ], [ 0.070929305449896, 691.584785004228934 ] ] ] } },
{ "type": "Feature", "properties": { "feature_type": "building", "subtype": "no-damage", "uid": "476b44c3-e916-42d4-ba34-cbf9de158c2e" }, "geometry": { "type": "Polygon", "coordinates": [ [ [ 84.618580416830056, 654.858541369947147 ], [ 116.725585024511005, 655.099947419907153 ], [ 118.415427372980702, 695.897569815157794 ], [ 104.655282540510598, 696.380381912079201 ], [ 92.343574008299427, 696.863194014997475 ], [ 92.584980056510204, 675.378055590553572 ], [ 81.963113873768179, 675.136649544591592 ], [ 80.03186547259007, 655.099947419907153 ], [ 84.618580416830056, 654.858541369947147 ] ] ] } },
{ "type": "Feature", "properties": { "feature_type": "building", "subtype": "no-damage", "uid": "3752802a-b1b4-4544-927b-5aa302f8df0e" }, "geometry": { "type": "Polygon", "coordinates": [ [ [ 103.689658341670594, 597.645307595412874 ], [ 111.8974640300613, 597.886713648371256 ], [ 123.243548365181596, 598.297383238830093 ], [ 123.243548365931204, 637.235899743862433 ], [ 105.849823526023201, 637.960117894741643 ], [ 105.869707944496099, 644.458196818939655 ], [ 81.28047357549471, 644.647344775163106 ], [ 82.037065404385928, 637.459722420684329 ], [ 81.091325618521765, 627.056584805411035 ], [ 101.3301569851414, 625.921697064072873 ], [ 100.951861067697394, 619.11237062603891 ], [ 93.953386672442065, 619.301518581262712 ], [ 93.953386672941804, 604.169682049410881 ], [ 103.221636549373699, 603.791386133965716 ], [ 103.689658341670594, 597.645307595412874 ] ] ] } },
{ "type": "Feature", "properties": { "feature_type": "building", "subtype": "minor-damage", "uid": "021266d4-b1c4-4aa9-8c3d-10da93c20fee" }, "geometry": { "type": "Polygon", "coordinates": [ [ [ 224.843772684326012, 626.110845023294701 ], [ 253.783410054459807, 625.732549108848957 ], [ 254.729149838574813, 649.186895734518771 ], [ 265.321435411318589, 649.186895734518771 ], [ 267.212914977299874, 669.804023010840979 ], [ 219.547629898079009, 670.182318924287188 ], [ 217.277854417902006, 641.620977468592741 ], [ 221.060813551363907, 641.431829512369404 ], [ 222.573997206397706, 640.10779381580744 ], [ 222.006553333979696, 636.324834685343149 ], [ 224.654624728602414, 636.135686726121321 ], [ 224.843772684326012, 626.110845023294701 ] ] ] } },
{ "type": "Feature", "properties": { "feature_type": "building", "subtype": "minor-damage", "uid": "d7c4b8d6-cd33-4d9f-ac31-3d56831ec12f" }, "geometry": { "type": "Polygon", "coordinates": [ [ [ 115.137957818679197, 537.967897217311702 ], [ 117.218585342133196, 535.319825822188704 ], [ 130.269794351527196, 543.83148387222991 ], [ 137.835712619200507, 532.860902387286956 ], [ 145.212482929900887, 538.157045172535618 ], [ 156.110921907129693, 543.400929866046567 ], [ 145.969074754794292, 559.71991223397265 ], [ 134.809345311131693, 557.828432665742071 ], [ 114.570513949259606, 590.361881212122057 ], [ 103.032488592900506, 581.282779294410261 ], [ 92.154816769486274, 574.756176196962087 ], [ 115.137957818679197, 537.967897217311702 ] ] ] } },
{ "type": "Feature", "properties": { "feature_type": "building", "subtype": "no-damage", "uid": "966e8a16-87df-4273-bb31-a3f6d9f677f6" }, "geometry": { "type": "Polygon", "coordinates": [ [ [ 158.74554211903569, 415.214953679533608 ], [ 158.745542115287691, 455.046951876943581 ], [ 125.431507261305597, 455.288357923905096 ], [ 126.155725409436101, 425.354007765856295 ], [ 145.951021482157302, 426.078225914736493 ], [ 145.951021486654895, 415.214953679533608 ], [ 158.74554211903569, 415.214953679533608 ] ] ] } },
{ "type": "Feature", "properties": { "feature_type": "building", "subtype": "minor-damage", "uid": "deef6d1f-ba61-46ca-b1df-a60a421b2f29" }, "geometry": { "type": "Polygon", "coordinates": [ [ [ 71.214010533807425, 419.766033222598821 ], [ 95.596021548020062, 414.696506180436927 ], [ 100.665548591929905, 424.835560266759614 ], [ 102.596796992358406, 434.250396203202513 ], [ 74.352289179537593, 439.561329295324299 ], [ 51.418714456588567, 444.148044239565309 ], [ 48.521841861567879, 428.939463112080205 ], [ 73.117665280836704, 425.076966314720607 ], [ 71.214010533807425, 419.766033222598821 ] ] ] } },
{ "type": "Feature", "properties": { "feature_type": "building", "subtype": "no-damage", "uid": "84ac6f83-aa27-468d-9eb4-6ef3b2c4d7aa" }, "geometry": { "type": "Polygon", "coordinates": [ [ [ 0.070964491548051, 457.187807183096993 ], [ 8.93124971437638, 457.666783020329376 ], [ 22.69139454584699, 467.0816189607703 ], [ 9.414061813796364, 482.773012188175187 ], [ 10.379686011886729, 499.671435666379182 ], [ 0.070968394506858, 505.185812223370078 ], [ 0.070964491548051, 457.187807183096993 ] ] ] } },
{ "type": "Feature", "properties": { "feature_type": "building", "subtype": "no-damage", "uid": "886b1525-4731-4f2f-bfe8-6d4101521eff" }, "geometry": { "type": "Polygon", "coordinates": [ [ [ 214.975425985769192, 299.924804785915683 ], [ 229.456224226929407, 299.924804784916205 ], [ 246.401839192131689, 299.616702692068372 ], [ 252.563880999113593, 299.924804784916205 ], [ 250.715268458768207, 321.183849015510305 ], [ 255.028697721156789, 356.923691485018992 ], [ 225.4508970558893, 356.923691487017891 ], [ 224.83469287144311, 327.037788727646785 ], [ 214.051119712223198, 326.421584545948974 ], [ 211.89440508327769, 301.773417326011725 ], [ 214.975425985769192, 299.924804785915683 ] ] ] } },
{ "type": "Feature", "properties": { "feature_type": "building", "subtype": "minor-damage", "uid": "e87e55aa-5c19-4217-98fc-4249690f2f2f" }, "geometry": { "type": "Polygon", "coordinates": [ [ [ 235.828611441159609, 400.05798412390709 ], [ 248.152695054123996, 399.749882034057691 ], [ 261.709187025236417, 399.441779943208815 ], [ 265.714514199774612, 417.927905362159606 ], [ 266.330718379973121, 441.959868404397014 ], [ 262.941595387132509, 442.267970492247514 ], [ 263.557799567580787, 460.137891727501483 ], [ 250.001307594719293, 459.521687545803672 ], [ 235.52050935305931, 461.98650426959648 ], [ 234.288100991413103, 447.813808117532915 ], [ 222.888323650995289, 447.505706026683981 ], [ 222.888323651744912, 433.949214054319327 ], [ 221.039711109650312, 418.236007451009584 ], [ 236.752917712956503, 417.619803270311309 ], [ 235.828611441159609, 400.05798412390709 ] ] ] } },
{ "type": "Feature", "properties": { "feature_type": "building", "subtype": "minor-damage", "uid": "11d6bf01-0ebb-4aeb-83e1-ca752d9ef56e" }, "geometry": { "type": "Polygon", "coordinates": [ [ [ 228.029657898976097, 198.412655505216492 ], [ 242.510456141635586, 213.509657928827409 ], [ 238.813231056946705, 218.131189280566701 ], [ 258.839866926389618, 238.157825152762513 ], [ 256.375050202347381, 241.238846052256292 ], [ 266.234317091769412, 248.941398312484608 ], [ 252.369723029308403, 264.65460491379531 ], [ 235.424108068104005, 246.784683678541199 ], [ 232.651189252713294, 249.557602490184507 ], [ 224.948636994235812, 240.006437691859105 ], [ 222.175718186591098, 243.087458593351812 ], [ 204.613899038691613, 222.136516455605488 ], [ 228.029657898976097, 198.412655505216492 ] ] ] } },
{ "type": "Feature", "properties": { "feature_type": "building", "subtype": "no-damage", "uid": "9b362e38-0515-4039-aa18-509b2b67d76d" }, "geometry": { "type": "Polygon", "coordinates": [ [ [ 208.619226210731114, 262.497890281850914 ], [ 208.619226211230909, 272.357157170025687 ], [ 209.235430390929594, 290.843282588976479 ], [ 203.073388585196994, 291.151384677826513 ], [ 167.567714842426511, 289.42021209225129 ], [ 168.345576759604398, 277.609394905011072 ], [ 169.724429474120512, 262.439170303591027 ], [ 201.840980224550208, 261.881686101152582 ], [ 208.619226210731114, 262.497890281850914 ] ] ] } },
{ "type": "Feature", "properties": { "feature_type": "building", "subtype": "minor-damage", "uid": "10c56eb2-ebc8-4c8c-a14b-fbeca33bba11" }, "geometry": { "type": "Polygon", "coordinates": [ [ [ 100.338950109689094, 237.940684670244991 ], [ 146.06423834129879, 237.54162097006531 ], [ 140.518400717264001, 255.719644296168298 ], [ 140.210298626914891, 268.043727908135793 ], [ 98.273197089074898, 264.609124107630691 ], [ 100.338950109689094, 237.940684670244991 ] ] ] } },
{ "type": "Feature", "properties": { "feature_type": "building", "subtype": "no-damage", "uid": "b879cae4-947d-483e-93a2-56b5841b3f39" }, "geometry": { "type": "Polygon", "coordinates": [ [ [ 129.085399592427905, 28.00609227537025 ], [ 151.783154392699402, 27.438648408699091 ], [ 152.161450301148193, 35.95030645474241 ], [ 161.051404267382196, 35.382862585072822 ], [ 161.240552223105794, 68.294607046898008 ], [ 134.948986246095501, 69.618642744459507 ], [ 135.138134205817011, 65.268239740327729 ], [ 130.409435285241614, 65.268239740327729 ], [ 129.84199141632169, 59.215505126187708 ], [ 116.412486495230695, 59.215505126187708 ], [ 115.4667467098663, 39.92241354742692 ], [ 129.085399588929704, 39.922413546427443 ], [ 129.085399592427905, 28.00609227537025 ] ] ] } },
{ "type": "Feature", "properties": { "feature_type": "building", "subtype": "no-damage", "uid": "ab803a1a-f59e-46b9-bf4b-c21d85768d81" }, "geometry": { "type": "Polygon", "coordinates": [ [ [ 278.090462542949183, 24.460870074765179 ], [ 252.155047204059088, 47.580440323870143 ], [ 233.481548155190808, 68.180570220587924 ], [ 224.589405751479404, 58.843820701024157 ], [ 216.586477590712803, 49.655273551661452 ], [ 229.331881701358213, 37.354476558113078 ], [ 227.108846100617711, 34.83503621172278 ], [ 234.667167142285706, 28.31413178095039 ], [ 237.334809863873801, 30.24076263454273 ], [ 260.602582483924323, 6.676585267838253 ], [ 268.457308271991224, 16.013334792399409 ], [ 278.090462542949183, 24.460870074765179 ] ] ] } },
{ "type": "Feature", "properties": { "feature_type": "building", "subtype": "no-damage", "uid": "d000a619-78aa-40b0-9ba1-4486c1b3a4e6" }, "geometry": { "type": "Polygon", "coordinates": [ [ [ 17.027375772176089, 41.414094153009913 ], [ 18.475812070436039, 23.308640426005841 ], [ 39.719544440167851, 23.308640426005841 ], [ 40.443762589547703, 30.068009815888161 ], [ 62.41171310990871, 30.309415869845989 ], [ 81.724197088207319, 61.933608377614178 ], [ 64.101555457878661, 72.072662459938968 ], [ 52.0312529751276, 52.760178489132187 ], [ 43.582041237026949, 51.553148237333659 ], [ 42.616417037687242, 59.760953928974423 ], [ 17.51018786984698, 58.312517628215453 ], [ 17.027375772176089, 41.414094153009913 ] ] ] } },
{ "type": "Feature", "properties": { "feature_type": "building", "subtype": "no-damage", "uid": "6fe449ba-fbaa-47a5-9c6f-e7afe4df285b" }, "geometry": { "type": "Polygon", "coordinates": [ [ [ 109.747039692130201, 0.003267514135099 ], [ 109.675773937888394, 10.52884594154966 ], [ 95.204335199087311, 10.95657319508565 ], [ 95.418139907418791, 0.003018268487141 ], [ 109.747039692130201, 0.003267514135099 ] ] ] } },
{ "type": "Feature", "properties": { "feature_type": "building", "subtype": "minor-damage", "uid": "d4afb1df-e665-4a97-9c7c-6bdad3cacc67" }, "geometry": { "type": "Polygon", "coordinates": [ [ [ 0.070875005348102, 239.519995169600207 ], [ 58.457300095965529, 241.220262751066912 ], [ 56.565820527485513, 255.784655414248704 ], [ 57.889856225546453, 263.161425726949687 ], [ 35.570397342219259, 265.052905293181311 ], [ 35.570397339220833, 272.618823558107692 ], [ 0.070895628562445, 271.674968786157024 ], [ 0.070875005348102, 239.519995169600207 ] ] ] } },
{ "type": "Feature", "properties": { "feature_type": "building", "subtype": "un-classified", "uid": "952a5a5b-cf5d-4d42-b195-4cce8e19ffc0" }, "geometry": { "type": "Polygon", "coordinates": [ [ [ 211.196095332661997, 463.809202896312399 ], [ 223.828281032227409, 463.079888374764892 ], [ 225.368791484972405, 477.868788706527312 ], [ 212.736605782158705, 477.560686613679479 ], [ 211.196095332661997, 463.809202896312399 ] ] ] } },
{ "type": "Feature", "properties": { "feature_type": "building", "subtype": "minor-damage", "uid": "738bdec0-1af2-4a8a-b852-d01ba7812a04" }, "geometry": { "type": "Polygon", "coordinates": [ [ [ 215.448073454650995, 383.44834147230722 ], [ 226.118644340004209, 383.448341473306584 ], [ 227.007858577451799, 396.19374558245562 ], [ 215.003466335052593, 395.897340836056628 ], [ 215.448073454650995, 383.44834147230722 ] ] ] } },
{ "type": "Feature", "properties": { "feature_type": "building", "subtype": "no-damage", "uid": "b89c0fc0-9e6b-47b2-8446-e1008e66a1f3" }, "geometry": { "type": "Polygon", "coordinates": [ [ [ 200.247047154848389, 529.768900926475567 ], [ 212.163368423903989, 534.497599841055148 ], [ 206.544763620102088, 540.508175608691431 ], [ 204.611125206867399, 547.226346832647209 ], [ 193.760182733371295, 545.230037001200799 ], [ 194.194312541459311, 533.741008015162151 ], [ 200.247047154848389, 529.768900926475567 ] ] ] } },
{ "type": "Feature", "properties": { "feature_type": "building", "subtype": "no-damage", "uid": "f8af4580-6288-46d2-b0dc-473b912c7f0e" }, "geometry": { "type": "Polygon", "coordinates": [ [ [ 183.223731057018512, 564.572124951533965 ], [ 192.870276844897489, 564.382976995310628 ], [ 197.409827807500506, 563.815533121643057 ], [ 198.166419632643709, 583.108624704401791 ], [ 194.005164587734612, 582.541180837730622 ], [ 183.602026971464113, 582.541180836731201 ], [ 183.223731057018512, 564.572124951533965 ] ] ] } },
{ "type": "Feature", "properties": { "feature_type": "building", "subtype": "no-damage", "uid": "d4a51f11-d71b-4a99-855c-70a82d0bf24e" }, "geometry": { "type": "Polygon", "coordinates": [ [ [ 243.37278127496441, 534.875895754501357 ], [ 254.34336276115431, 535.632487581393775 ], [ 264.746500381922488, 532.795268231046975 ], [ 266.448831988432175, 594.835798018236119 ], [ 255.2891025472683, 595.781537800352453 ], [ 242.237893536874907, 596.159833714798197 ], [ 243.751077190659402, 574.59696665536012 ], [ 234.861123223425892, 572.901472569420889 ], [ 235.800025485470798, 557.475657816130933 ], [ 242.994485362767591, 557.195354640831965 ], [ 243.37278127496441, 534.875895754501357 ] ] ] } },
{ "type": "Feature", "properties": { "feature_type": "building", "subtype": "no-damage", "uid": "e1cd23c2-66d6-4587-91a6-7e92df0e30eb" }, "geometry": { "type": "Polygon", "coordinates": [ [ [ 170.000369277652794, 670.117613374398843 ], [ 189.293460853410892, 670.117613374398843 ], [ 193.265567945344912, 670.117613373399422 ], [ 193.83301181651359, 687.519225387927577 ], [ 170.000369277152998, 687.33007742970517 ], [ 170.000369277652794, 670.117613374398843 ] ] ] } },
{ "type": "Feature", "properties": { "feature_type": "building", "subtype": "no-damage", "uid": "14a8759d-20be-4911-a47b-fc990eb20107" }, "geometry": { "type": "Polygon", "coordinates": [ [ [ 173.377111229857093, 690.195218048613128 ], [ 190.211279372712994, 690.573513962059337 ], [ 189.454687541822807, 698.706876099653755 ], [ 190.77872324263231, 705.705350494910704 ], [ 173.566259181832692, 705.705350494910704 ], [ 172.998815312163202, 690.573513963058758 ], [ 173.377111229857093, 690.195218048613128 ] ] ] } },
{ "type": "Feature", "properties": { "feature_type": "building", "subtype": "no-damage", "uid": "790b90a6-a628-4179-a2c3-7536bea81816" }, "geometry": { "type": "Polygon", "coordinates": [ [ [ 178.360839178762205, 740.031531832725818 ], [ 192.3623900559449, 740.514343934644558 ], [ 193.392987873976693, 755.711303764908166 ], [ 178.219270637909801, 756.523738127923139 ], [ 178.360839178762205, 740.031531832725818 ] ] ] } },
{ "type": "Feature", "properties": { "feature_type": "building", "subtype": "major-damage", "uid": "b1d85bb5-e3bf-46d5-8eb5-ed1b10f01288" }, "geometry": { "type": "Polygon", "coordinates": [ [ [ 238.736262962200414, 695.84916621557386 ], [ 266.30190441128201, 696.293773338170809 ], [ 268.524940011772514, 751.128651488947526 ], [ 238.588060587001991, 749.49842537975519 ], [ 238.884465337398808, 737.790437884002245 ], [ 229.399513437141593, 737.494033137603196 ], [ 228.954906319292292, 711.706820170907463 ], [ 239.477274826948388, 711.558617795708983 ], [ 238.736262962200414, 695.84916621557386 ] ] ] } },
{ "type": "Feature", "properties": { "feature_type": "building", "subtype": "minor-damage", "uid": "b9fcb08e-99af-4662-92ef-8d967f21a296" }, "geometry": { "type": "Polygon", "coordinates": [ [ [ 177.255132672290301, 810.542157091612467 ], [ 192.9465258969432, 810.059344988694193 ], [ 200.188707389242495, 812.231999440332402 ], [ 199.947301341281587, 827.923392666737868 ], [ 194.877774295872513, 826.716362419936672 ], [ 176.53091452141129, 826.957768466898187 ], [ 173.875447974601286, 817.060120432534291 ], [ 177.255132672290301, 810.542157091612467 ] ] ] } },
{ "type": "Feature", "properties": { "feature_type": "building", "subtype": "minor-damage", "uid": "34bb6cf0-9e37-4691-a5c2-ac0db014eec4" }, "geometry": { "type": "Polygon", "coordinates": [ [ [ 185.704344407892307, 839.028070949901689 ], [ 198.498865040272989, 839.510883049821587 ], [ 205.499640484611405, 839.993695151740326 ], [ 206.465264682451902, 863.892894068787086 ], [ 199.223083191651909, 862.92726986994694 ], [ 184.497314158592701, 862.444457769027622 ], [ 185.704344407892307, 839.028070949901689 ] ] ] } },
{ "type": "Feature", "properties": { "feature_type": "building", "subtype": "minor-damage", "uid": "325c9205-bcc3-4dd3-b362-318ed453ab25" }, "geometry": { "type": "Polygon", "coordinates": [ [ [ 234.468366441314913, 767.813286296682463 ], [ 246.297262879353411, 768.77891049652203 ], [ 262.471468205175427, 767.089068149801051 ], [ 264.402716603854799, 823.578083773456228 ], [ 233.502742244723805, 822.129647476695141 ], [ 233.744148294683612, 807.886690544052385 ], [ 225.536342607042599, 808.128096593012742 ], [ 226.019154702714502, 797.50623040876917 ], [ 225.536342604543904, 788.574206568248201 ], [ 235.433990641654106, 788.574206568248201 ], [ 234.468366441314913, 767.813286296682463 ] ] ] } },
{ "type": "Feature", "properties": { "feature_type": "building", "subtype": "minor-damage", "uid": "b6c13c64-dcc1-44e8-857f-53dcf48c4e4b" }, "geometry": { "type": "Polygon", "coordinates": [ [ [ 228.19180915185359, 846.270252441702837 ], [ 268.023807346756087, 847.477282690502989 ], [ 268.748025498634718, 903.483486216237225 ], [ 239.537893488722887, 903.483486216237225 ], [ 240.262111633855, 865.099924317587238 ], [ 227.226184956011991, 864.858518268626767 ], [ 228.19180915185359, 846.270252441702837 ] ] ] } },
{ "type": "Feature", "properties": { "feature_type": "building", "subtype": "no-damage", "uid": "3b5c3b54-813a-4772-b720-81af30132398" }, "geometry": { "type": "Polygon", "coordinates": [ [ [ 229.640245448614309, 916.519412898080986 ], [ 264.402716601855786, 915.553788700240261 ], [ 267.782401297296019, 967.456089379654372 ], [ 246.055856830892708, 967.697495430613685 ], [ 244.84882657759519, 933.900648476204765 ], [ 229.881651499073911, 935.107678725004803 ], [ 229.640245448614309, 916.519412898080986 ] ] ] } },
{ "type": "Feature", "properties": { "feature_type": "building", "subtype": "no-damage", "uid": "5e865f40-968e-4ea8-8371-e683522a7a5b" }, "geometry": { "type": "Polygon", "coordinates": [ [ [ 150.941873254151005, 1003.690511978565041 ], [ 156.870955809863688, 1003.955433177426016 ], [ 160.356709192590898, 1004.06150186496302 ], [ 160.598115240801604, 1013.829566066886969 ], [ 157.942648697489886, 1013.829566065888002 ], [ 150.700467203691403, 1013.588160017926953 ], [ 150.941873254151005, 1003.690511978565041 ] ] ] } },
{ "type": "Feature", "properties": { "feature_type": "building", "subtype": "no-damage", "uid": "c7b0e0bb-4bd6-43f5-b2bc-897e5b3c276c" }, "geometry": { "type": "Polygon", "coordinates": [ [ [ 218.443549884723609, 997.079741914282067 ], [ 240.871029568159713, 996.769601521437039 ], [ 241.744636488769203, 994.068126335761121 ], [ 268.288496333310718, 995.424545352292739 ], [ 270.304395494057076, 1022.981462851886022 ], [ 239.560116750013293, 1022.981127181437046 ], [ 241.215815751733203, 1014.404163233480972 ], [ 218.259515326763392, 1014.794958050173022 ], [ 218.05275506678251, 1006.805275476144971 ], [ 218.443549884723609, 997.079741914282067 ] ] ] } },
{ "type": "Feature", "properties": { "feature_type": "building", "subtype": "no-damage", "uid": "6e72d117-6449-41ff-a11b-3a998f6b9449" }, "geometry": { "type": "Polygon", "coordinates": [ [ [ 234.709772492274311, 970.835774076094708 ], [ 248.469917325494009, 971.559992227973453 ], [ 248.952729422915013, 981.457640261337815 ], [ 234.709772492773993, 980.009203963577193 ], [ 234.709772492274311, 970.835774076094708 ] ] ] } },
{ "type": "Feature", "properties": { "feature_type": "building", "subtype": "no-damage", "uid": "0831c60c-4cde-49db-96ef-0cc475a412dc" }, "geometry": { "type": "Polygon", "coordinates": [ [ [ 174.786097965445208, 250.189496086534405 ], [ 185.403173426168792, 249.009821033343712 ], [ 185.796398444398704, 256.087871343492793 ], [ 185.009948408688501, 258.447221446875915 ], [ 173.99964792723631, 258.840446461607712 ], [ 174.786097965445208, 250.189496086534405 ] ] ] } },
{ "type": "Feature", "properties": { "feature_type": "building", "subtype": "no-damage", "uid": "3135ecc9-1391-498c-a881-56a946c7f1b9" }, "geometry": { "type": "Polygon", "coordinates": [ [ [ 675.080072374523752, 33.219233320386117 ], [ 742.673766284826002, 29.11533047706444 ], [ 747.501887277026981, 59.291086686072617 ], [ 677.494132871123952, 62.67077138051404 ], [ 675.080072374523752, 33.219233320386117 ] ] ] } },
{ "type": "Feature", "properties": { "feature_type": "building", "subtype": "no-damage", "uid": "8e469503-36f4-4b7c-8b30-d0a9ad66fdd4" }, "geometry": { "type": "Polygon", "coordinates": [ [ [ 558.520780858297599, 227.221336046974699 ], [ 574.963681805509395, 225.540771063320591 ], [ 574.963681809007539, 217.676270721708903 ], [ 598.557182838085168, 217.283045704978207 ], [ 600.130082906507141, 231.654476149743203 ], [ 614.176199113136136, 230.349578614186498 ], [ 615.087871631462122, 246.542034596669907 ], [ 559.30723089725609, 245.630362079842911 ], [ 558.520780858297599, 227.221336046974699 ] ] ] } },
{ "type": "Feature", "properties": { "feature_type": "building", "subtype": "no-damage", "uid": "b7e9ec46-2ae6-43ff-90c7-2a491ace2ff1" }, "geometry": { "type": "Polygon", "coordinates": [ [ [ 393.751559005071101, 378.028542465559724 ], [ 429.141810554059816, 377.635317448829028 ], [ 429.535035569041327, 406.733968721887379 ], [ 440.938561068473575, 407.127193740617088 ], [ 442.11823611841578, 426.001994564683002 ], [ 403.188959418351317, 425.608769547952193 ], [ 403.582184434582189, 400.835593465928525 ], [ 394.931234056012727, 400.049143429468586 ], [ 396.110909107704003, 388.645617931283084 ], [ 393.751559005071101, 378.028542465559724 ] ] ] } },
{ "type": "Feature", "properties": { "feature_type": "building", "subtype": "no-damage", "uid": "de112d2a-ed96-4e5a-b4f1-054185607310" }, "geometry": { "type": "Polygon", "coordinates": [ [ [ 514.471639281316811, 371.506341965613672 ], [ 551.23037633198112, 371.408342351062686 ], [ 549.692992685209788, 401.215826317382778 ], [ 529.807414956551497, 402.801718550581825 ], [ 526.268389801227841, 400.442368449197772 ], [ 513.685189251103793, 399.655918412737776 ], [ 514.260304575957775, 385.486825631161025 ], [ 514.471639281316811, 371.506341965613672 ] ] ] } },
{ "type": "Feature", "properties": { "feature_type": "building", "subtype": "major-damage", "uid": "1f5cd820-3af5-46c6-9f36-0c5b73aa22a3" }, "geometry": { "type": "Polygon", "coordinates": [ [ [ 519.824970556521521, 505.612622201628483 ], [ 525.088714745288826, 497.175722677907402 ], [ 538.851590350352467, 488.131547280106474 ], [ 545.929640659000711, 497.175722677907402 ], [ 551.828015918956226, 501.894422881674984 ], [ 548.39362082505113, 506.081062135993022 ], [ 549.324368336168618, 505.978492021750412 ], [ 561.362524901042093, 519.982773675277713 ], [ 576.270198865826615, 537.160210658260667 ], [ 562.445091378430561, 547.11529986168398 ], [ 555.367041070281971, 552.620450099912659 ], [ 545.143190622041175, 538.071124462883631 ], [ 536.099015227240784, 542.396599652918894 ], [ 523.909039695846332, 524.308248861315178 ], [ 531.38031502497347, 521.555673740201883 ], [ 519.824970556521521, 505.612622201628483 ] ] ] } },
{ "type": "Feature", "properties": { "feature_type": "building", "subtype": "no-damage", "uid": "783d8576-c7d0-4bee-a89c-ad0377b87770" }, "geometry": { "type": "Polygon", "coordinates": [ [ [ 406.036345108341891, 492.897308953373624 ], [ 432.402745494736507, 494.245379345121023 ], [ 437.027085914870725, 551.619214078565278 ], [ 409.85572660990681, 547.556494015216686 ], [ 406.036345108341891, 492.897308953373624 ] ] ] } },
{ "type": "Feature", "properties": { "feature_type": "building", "subtype": "no-damage", "uid": "f0d5b708-5b77-4a68-bc26-71a2e4f456a1" }, "geometry": { "type": "Polygon", "coordinates": [ [ [ 413.889483126790424, 580.86155751360161 ], [ 423.748750015462804, 579.629149153204366 ], [ 437.9214461675233, 580.553455422752677 ], [ 439.770058712866216, 635.7037295837589 ], [ 425.597362556307985, 635.395627495908457 ], [ 413.273278944343076, 636.936137945155565 ], [ 413.889483126790424, 580.86155751360161 ] ] ] } },
{ "type": "Feature", "properties": { "feature_type": "building", "subtype": "minor-damage", "uid": "f4724578-950e-49ec-8429-2ca137962c96" }, "geometry": { "type": "Polygon", "coordinates": [ [ [ 413.828404921600679, 646.815764238641691 ], [ 426.511489125949026, 646.138481849005643 ], [ 438.537650348721172, 646.487302744480417 ], [ 441.002467071264107, 709.956333342415405 ], [ 413.889483124541584, 710.880639611963716 ], [ 412.657074765393986, 691.16210583261568 ], [ 409.884155953751417, 690.854003743765702 ], [ 409.576053862402773, 663.432917710186189 ], [ 413.581381038190386, 662.816713530487391 ], [ 413.828404921600679, 646.815764238641691 ] ] ] } },
{ "type": "Feature", "properties": { "feature_type": "building", "subtype": "no-damage", "uid": "4dee0ff2-7b8c-4bd3-8661-af09293d51ca" }, "geometry": { "type": "Polygon", "coordinates": [ [ [ 416.818329810053228, 721.834592449460274 ], [ 448.216890621834693, 720.74924632353941 ], [ 448.137744457189001, 737.530515258956143 ], [ 441.638269547073776, 739.561601170991139 ], [ 442.856921092095718, 759.872460271352338 ], [ 450.168830367474527, 765.965718002460221 ], [ 449.919222227844614, 778.957275363847657 ], [ 410.387299285966606, 779.524719233517203 ], [ 409.630707458574591, 769.689025487913455 ], [ 410.387299284967128, 761.555663349319502 ], [ 419.6555491606494, 761.744811305542839 ], [ 419.466401204925774, 741.505979943666262 ], [ 409.063263587905624, 741.505979943666262 ], [ 409.819855417296594, 731.291990283616769 ], [ 408.117523803540678, 721.078000622567856 ], [ 416.818329810053228, 721.834592449460274 ] ] ] } },
{ "type": "Feature", "properties": { "feature_type": "building", "subtype": "no-damage", "uid": "1533a568-20e3-45f4-a121-8f0e13ead49e" }, "geometry": { "type": "Polygon", "coordinates": [ [ [ 596.50888864574415, 712.377194617302735 ], [ 598.589516170447496, 734.696653503633229 ], [ 593.10422542622814, 734.507505546410357 ], [ 594.428261119041849, 771.013061182476463 ], [ 566.623511490995611, 770.634765270029789 ], [ 566.812659446969064, 766.284362267896881 ], [ 562.840552356784087, 766.662658180343669 ], [ 562.083960529642013, 755.881224650624631 ], [ 565.677771706380781, 755.124632821733258 ], [ 565.488623749657677, 751.530821644493926 ], [ 558.301001399678285, 752.287413474384721 ], [ 557.166113657840697, 730.346250500501014 ], [ 563.786292143647756, 730.157102543278143 ], [ 562.651404400310867, 713.322934401418024 ], [ 596.50888864574415, 712.377194617302735 ] ] ] } },
{ "type": "Feature", "properties": { "feature_type": "building", "subtype": "no-damage", "uid": "13bb76da-1b29-47b7-9cc8-bd623f15f4e2" }, "geometry": { "type": "Polygon", "coordinates": [ [ [ 600.670143690653276, 783.496826323203322 ], [ 600.670143691153044, 783.307678366979871 ], [ 602.750771213857433, 848.942019328410083 ], [ 574.000281801446135, 848.374575458740424 ], [ 573.432837929777747, 837.782289883245767 ], [ 577.215797063989271, 836.647402144906096 ], [ 576.459205236347316, 825.10937678929406 ], [ 569.460730839842654, 826.055116572409929 ], [ 568.325843100004022, 803.357361772633112 ], [ 579.485572543916419, 803.168213816409775 ], [ 579.485572542916884, 799.006958768501363 ], [ 574.000281799946947, 798.62866285705411 ], [ 572.676246103135327, 789.360412981119907 ], [ 576.837501150543062, 788.22552524078128 ], [ 576.080909323900642, 783.875122234650576 ], [ 585.91660306950223, 783.496826322203788 ], [ 600.670143690653276, 783.496826323203322 ] ] ] } },
{ "type": "Feature", "properties": { "feature_type": "building", "subtype": "destroyed", "uid": "be2f2340-7f2e-49a6-aab8-d0ec7ac6b07f" }, "geometry": { "type": "Polygon", "coordinates": [ [ [ 509.500828580118991, 865.397891559822369 ], [ 520.282262106337498, 865.776187470270202 ], [ 524.632665109718687, 866.721927253385957 ], [ 524.065221239549487, 876.935916915434404 ], [ 519.903966193890824, 875.61188121587395 ], [ 508.555088795004508, 876.368473044765324 ], [ 509.500828580118991, 865.397891559822369 ] ] ] } },
{ "type": "Feature", "properties": { "feature_type": "building", "subtype": "destroyed", "uid": "8395e580-8cc5-4b26-a818-f8e7728b037a" }, "geometry": { "type": "Polygon", "coordinates": [ [ [ 487.559665607989075, 856.12964168088979 ], [ 494.74728795996748, 856.507937596334955 ], [ 497.962803220511603, 856.507937596334955 ], [ 497.395359350092576, 868.235110910169283 ], [ 487.181369692044314, 867.856814993724583 ], [ 487.559665607989075, 856.12964168088979 ] ] ] } },
{ "type": "Feature", "properties": { "feature_type": "building", "subtype": "no-damage", "uid": "6d0e7db5-cf9b-47cc-b401-85a81cc45c91" }, "geometry": { "type": "Polygon", "coordinates": [ [ [ 413.006813534083676, 786.189765951857908 ], [ 443.227276239453204, 785.863776439883964 ], [ 443.764344164823285, 810.540785206089708 ], [ 439.189486863199477, 814.175977678481445 ], [ 439.975936896161102, 841.423414961966159 ], [ 414.109881188638781, 842.24816869412075 ], [ 413.006813534083676, 786.189765951857908 ] ] ] } },
{ "type": "Feature", "properties": { "feature_type": "building", "subtype": "major-damage", "uid": "8b557d66-d378-47cf-9c57-8f41536305e3" }, "geometry": { "type": "Polygon", "coordinates": [ [ [ 411.80757856221129, 874.166630595048218 ], [ 457.028455540711093, 872.986955542857004 ], [ 461.353930729496085, 922.140082692172541 ], [ 413.773703649612798, 924.106207774826885 ], [ 411.807578562960884, 899.726256712532404 ], [ 404.729528252313685, 899.333031694802116 ], [ 403.549853201621886, 887.536281177886963 ], [ 413.380478633131986, 885.963381110963951 ], [ 411.80757856221129, 874.166630595048218 ] ] ] } },
{ "type": "Feature", "properties": { "feature_type": "building", "subtype": "no-damage", "uid": "3e898eff-eefb-4913-a2a2-6650c66e3d51" }, "geometry": { "type": "Polygon", "coordinates": [ [ [ 573.83479453275902, 858.287743456377143 ], [ 605.686020926174137, 857.89451843964639 ], [ 607.258920995845415, 881.881244486209653 ], [ 601.360545736889435, 882.667694522669535 ], [ 602.54022079057961, 891.711869915473017 ], [ 605.6860209254246, 915.698595965034656 ], [ 576.194144635142038, 918.057946068417664 ], [ 573.834794535007859, 891.318644898742264 ], [ 575.800919620410355, 890.925419880012555 ], [ 573.83479453275902, 858.287743456377143 ] ] ] } },
{ "type": "Feature", "properties": { "feature_type": "building", "subtype": "minor-damage", "uid": "5d7d99fe-5597-4112-9a26-a04f8deb641f" }, "geometry": { "type": "Polygon", "coordinates": [ [ [ 581.610854290915199, 929.624350184328705 ], [ 601.665330168167316, 932.770150321173332 ], [ 609.373924532956494, 935.181469082663853 ], [ 604.668216492467309, 973.129413278374159 ], [ 577.009083566890695, 969.616372454352359 ], [ 581.610854290915199, 929.624350184328705 ] ] ] } },
{ "type": "Feature", "properties": { "feature_type": "building", "subtype": "minor-damage", "uid": "62296626-855f-432e-a35e-e7f4b2b407ff" }, "geometry": { "type": "Polygon", "coordinates": [ [ [ 412.081993489732781, 1022.982491136107001 ], [ 413.130440856196515, 1010.640973764756041 ], [ 416.345956120488609, 1010.830121721979026 ], [ 417.2916959063528, 1002.455822965917946 ], [ 446.231333272738482, 1002.722096062754986 ], [ 446.987925099630786, 1013.478193115102954 ], [ 467.41590442022499, 1014.045636986771001 ], [ 468.264989399222316, 1022.982662327576008 ], [ 412.081993489732781, 1022.982491136107001 ] ] ] } },
{ "type": "Feature", "properties": { "feature_type": "building", "subtype": "no-damage", "uid": "16883592-497d-45ea-a897-36720cd7d7af" }, "geometry": { "type": "Polygon", "coordinates": [ [ [ 566.369056471467161, 1022.982639681419982 ], [ 566.217345891511513, 1018.859906532088985 ], [ 560.921203105764334, 1016.590131049413003 ], [ 569.054565245106119, 999.945110865775177 ], [ 579.268554903404265, 1006.186993434140049 ], [ 598.750794437634454, 1011.67228417960996 ], [ 594.759443389774447, 1022.982556828750944 ], [ 566.369056471467161, 1022.982639681419982 ] ] ] } },
{ "type": "Feature", "properties": { "feature_type": "building", "subtype": "minor-damage", "uid": "88d1e23f-be14-4371-8d52-c0b6476ab1c5" }, "geometry": { "type": "Polygon", "coordinates": [ [ [ 565.773134613643379, 640.705326061670576 ], [ 592.442996500351796, 640.705326061670576 ], [ 593.38873628521651, 661.700749249440037 ], [ 588.660037367889345, 661.700749251438992 ], [ 588.660037367639461, 673.99536643494298 ], [ 592.632144461572466, 673.806218478719643 ], [ 592.442996502350752, 680.237249006305888 ], [ 598.68487907196311, 684.96594792188489 ], [ 599.252322941132888, 698.395452845727505 ], [ 559.531252044530675, 699.34119262884326 ], [ 559.909547953978972, 687.046575445339386 ], [ 565.016542788500146, 687.614019312010441 ], [ 565.773134613643379, 640.705326061670576 ] ] ] } },
{ "type": "Feature", "properties": { "feature_type": "building", "subtype": "minor-damage", "uid": "108b5e3b-a359-476c-b3c4-e3992c580d20" }, "geometry": { "type": "Polygon", "coordinates": [ [ [ 590.423662892523907, 570.684552386150813 ], [ 591.872099189784308, 602.067338846957568 ], [ 584.629917700483475, 602.308744897916881 ], [ 584.871323752442322, 607.136865891118305 ], [ 604.908025871375344, 607.378271939079355 ], [ 607.080680323262982, 627.173568010805411 ], [ 564.83462162501371, 627.173568014803323 ], [ 564.351809530091373, 611.240768734440053 ], [ 554.69556753844347, 610.275144536599328 ], [ 554.212755441522177, 592.652502908515658 ], [ 562.179155080952455, 593.135315010434397 ], [ 562.661967179123053, 570.20174029022894 ], [ 574.00805151299403, 570.443146340188832 ], [ 590.423662892523907, 570.684552386150813 ] ] ] } },
{ "type": "Feature", "properties": { "feature_type": "building", "subtype": "no-damage", "uid": "acc4a534-1f15-4048-8fb0-6179bdbae357" }, "geometry": { "type": "Polygon", "coordinates": [ [ [ 627.948914754496286, 380.007757866157988 ], [ 628.761757815267742, 379.0787943672766 ], [ 639.909319815085951, 385.465418421836773 ], [ 636.541827128393038, 388.1361884878674 ], [ 638.748115440234983, 389.761874612409201 ], [ 642.23172856553731, 386.858863676155806 ], [ 658.720830685421902, 396.032378234356713 ], [ 644.902498625820385, 420.533790542092277 ], [ 642.928451190447845, 419.14034529377011 ], [ 614.827305319305538, 400.793316173370386 ], [ 627.948914754496286, 380.007757866157988 ] ] ] } },
{ "type": "Feature", "properties": { "feature_type": "building", "subtype": "no-damage", "uid": "9101a490-ea3d-4e33-a25a-0688b92a329c" }, "geometry": { "type": "Polygon", "coordinates": [ [ [ 700.290840297784371, 525.543285534141091 ], [ 718.46886362263399, 522.770366723497318 ], [ 737.263091132429622, 523.078468813346831 ], [ 742.808928754715339, 575.147722068862436 ], [ 719.085067802332674, 577.304436702805788 ], [ 717.852659443934726, 561.283128007647747 ], [ 706.760984193116428, 561.283128007647747 ], [ 705.528575831719991, 544.645615131791374 ], [ 701.215146567832107, 545.87802349418746 ], [ 700.290840297784371, 525.543285534141091 ] ] ] } },
{ "type": "Feature", "properties": { "feature_type": "building", "subtype": "no-damage", "uid": "89bcc5dd-4c59-4b16-87e7-813cd1131769" }, "geometry": { "type": "Polygon", "coordinates": [ [ [ 707.993392553263448, 589.936622400624856 ], [ 739.111703673024977, 589.01231613207608 ], [ 738.495499491077339, 592.093337034568208 ], [ 755.133012366430421, 592.401439125417141 ], [ 755.749216545379454, 639.54105893834469 ], [ 725.555211703161831, 639.84916102919351 ], [ 724.322803341765507, 616.741504257503948 ], [ 705.83667792156939, 616.125300075806081 ], [ 707.993392553263448, 589.936622400624856 ] ] ] } },
{ "type": "Feature", "properties": { "feature_type": "building", "subtype": "no-damage", "uid": "d37b52ee-72f5-40d1-92b3-87571bb43136" }, "geometry": { "type": "Polygon", "coordinates": [ [ [ 760.99058442564808, 734.365534709203416 ], [ 760.374380247198701, 762.40282492747906 ], [ 756.369053073160217, 762.710927018327993 ], [ 756.98525725210925, 778.732235708488702 ], [ 759.758176065001294, 779.964644069885367 ], [ 760.990584426647501, 795.061646494495676 ], [ 729.564171218785759, 795.369748581346585 ], [ 730.180375398734327, 775.035010623299286 ], [ 734.493804664621166, 775.035010625298241 ], [ 736.34241720546629, 750.694945494210856 ], [ 729.256069128436593, 749.462537136812102 ], [ 729.564171219535297, 739.603270244639475 ], [ 735.110008847068343, 739.603270244639475 ], [ 736.342417203217565, 732.516922167108419 ], [ 738.191029745312107, 732.825024257957352 ], [ 746.81788827283799, 732.825024258956773 ], [ 760.99058442564808, 734.365534709203416 ] ] ] } },
{ "type": "Feature", "properties": { "feature_type": "building", "subtype": "minor-damage", "uid": "d271c02f-d8d8-4b90-b8ab-8c28cb88f255" }, "geometry": { "type": "Polygon", "coordinates": [ [ [ 752.979930081568909, 658.880522591149202 ], [ 754.520440532314979, 677.058545918251752 ], [ 760.374380249197657, 677.058545918251752 ], [ 769.617442954922922, 677.366648009100572 ], [ 771.157953406668412, 696.468977604751899 ], [ 757.293359341958649, 696.468977604751899 ], [ 759.758176067749787, 719.884736465291439 ], [ 730.488477489333263, 721.425246918536459 ], [ 727.715558677690638, 685.993506535878737 ], [ 717.240087607570445, 685.993506535878737 ], [ 714.775270886776639, 668.123585298625699 ], [ 730.79657958293069, 666.274972757530236 ], [ 731.720885849730166, 659.496726770848113 ], [ 752.979930081568909, 658.880522591149202 ] ] ] } },
{ "type": "Feature", "properties": { "feature_type": "building", "subtype": "minor-damage", "uid": "57b645e9-88f2-4b42-bc8d-cffa2176c9fa" }, "geometry": { "type": "Polygon", "coordinates": [ [ [ 722.081153346347151, 806.768115376462788 ], [ 758.050654750137596, 811.11342427474176 ], [ 757.567842647219436, 823.425132806705733 ], [ 765.292836236689823, 825.114975153426712 ], [ 764.810024142017369, 840.564962332870664 ], [ 756.119406352957412, 839.599338133030983 ], [ 754.188157956526766, 866.878221747517614 ], [ 719.184280750576818, 863.257130999118431 ], [ 720.149904952165343, 853.60088901571396 ], [ 721.356935196967243, 841.047774432790561 ], [ 728.116304586598289, 841.530586528712433 ], [ 727.874898539387004, 828.736065898827519 ], [ 719.667092850496601, 828.494659847868206 ], [ 722.081153346347151, 806.768115376462788 ] ] ] } },
{ "type": "Feature", "properties": { "feature_type": "building", "subtype": "minor-damage", "uid": "f211973f-5daa-4f19-b912-35e0549b3031" }, "geometry": { "type": "Polygon", "coordinates": [ [ [ 705.182729872144819, 871.706342739719616 ], [ 750.084255108708362, 874.84462138620006 ], [ 746.463164363308351, 928.919576513254469 ], [ 718.460062602196444, 926.505516013655324 ], [ 720.632717046837797, 895.122729559844856 ], [ 700.354608875696158, 893.191481162164564 ], [ 705.182729872144819, 871.706342739719616 ] ] ] } },
{ "type": "Feature", "properties": { "feature_type": "building", "subtype": "major-damage", "uid": "9f056fb1-fbdf-48f6-a501-e34ae4b2cb13" }, "geometry": { "type": "Polygon", "coordinates": [ [ [ 746.704570411768941, 942.766864327398025 ], [ 743.807697816248492, 1000.221504149893008 ], [ 701.078827023576764, 996.117601303573224 ], [ 704.45851172176549, 976.080899181887162 ], [ 712.183505310236455, 976.080899181887162 ], [ 716.77022025322708, 938.904367533036748 ], [ 727.874898539387004, 941.318428030636937 ], [ 746.704570411768941, 942.766864327398025 ] ] ] } },
{ "type": "Feature", "properties": { "feature_type": "building", "subtype": "no-damage", "uid": "daa57c20-9498-40cc-bd51-3e9a0fc76730" }, "geometry": { "type": "Polygon", "coordinates": [ [ [ 697.212961071989184, 1022.981973039064997 ], [ 698.566353613325305, 1015.855172503612039 ], [ 719.492535894630919, 1018.857624744432997 ], [ 723.06795413862028, 1022.981755234972979 ], [ 697.212961071989184, 1022.981973039064997 ] ] ] } },
{ "type": "Feature", "properties": { "feature_type": "building", "subtype": "no-damage", "uid": "2d4be87f-4202-4e09-8d6d-53dc0ecb83d3" }, "geometry": { "type": "Polygon", "coordinates": [ [ [ 900.129306045582666, 0.003500831113532 ], [ 906.906667158040364, 26.81645501527656 ], [ 872.399233047437178, 31.437986369014791 ], [ 870.550620504343215, 20.654413208293288 ], [ 856.686026440632872, 22.811127840237699 ], [ 857.918434803528385, 28.356965466522631 ], [ 835.735084303390977, 33.286598910110293 ], [ 834.19457385214514, 12.335656771364571 ], [ 827.108225774865559, 13.259963042911799 ], [ 823.720288071135201, 0.004637496653106 ], [ 900.129306045582666, 0.003500831113532 ] ] ] } },
{ "type": "Feature", "properties": { "feature_type": "building", "subtype": "no-damage", "uid": "2c4470f5-f637-4003-a31a-0da9ffc15b0e" }, "geometry": { "type": "Polygon", "coordinates": [ [ [ 976.79463919097509, 403.62688442819001 ], [ 996.821275059668437, 405.475496969285473 ], [ 997.12937715001749, 409.172722053475525 ], [ 998.97798969561029, 409.172722054474889 ], [ 998.053683420814991, 401.47016979924399 ], [ 1016.539808838762042, 402.7025781586417 ], [ 1014.691196300165984, 427.350745380577905 ], [ 1018.388421380857039, 429.199357921673425 ], [ 1021.161340194248965, 452.615116783212386 ], [ 986.037701900448496, 453.847525144609108 ], [ 975.562230830578187, 444.604462438132089 ], [ 975.25412874222809, 434.128991367260028 ], [ 976.79463919097509, 403.62688442819001 ] ] ] } },
{ "type": "Feature", "properties": { "feature_type": "building", "subtype": "no-damage", "uid": "f42bfaec-e83f-450e-9d52-c7dbc3ed00ca" }, "geometry": { "type": "Polygon", "coordinates": [ [ [ 940.935985178275473, 403.264241142634887 ], [ 961.837663925591983, 423.469197263795877 ], [ 945.232441365598675, 438.91321544994122 ], [ 954.63819680401491, 448.783452635801382 ], [ 941.168226053995227, 461.556700756915518 ], [ 912.950959746991998, 431.133146139063115 ], [ 940.935985178275473, 403.264241142634887 ] ] ] } },
{ "type": "Feature", "properties": { "feature_type": "building", "subtype": "minor-damage", "uid": "dc955026-1b51-4da6-b460-8c308bdcaa0d" }, "geometry": { "type": "Polygon", "coordinates": [ [ [ 890.191354001413174, 460.859978133254117 ], [ 904.009686063763297, 465.388675195048677 ], [ 921.427751687026785, 466.898240880981007 ], [ 921.195510807059236, 471.659178816996189 ], [ 931.878591056937012, 474.097708005807874 ], [ 930.601266243226746, 482.226138626517809 ], [ 929.440061870374734, 490.58681012544622 ], [ 915.970091121104588, 488.032160501023498 ], [ 911.673634936280109, 511.140127556438983 ], [ 891.817040126954112, 508.353237059794594 ], [ 878.695430693012781, 504.753503498880377 ], [ 890.191354001413174, 460.859978133254117 ] ] ] } },
{ "type": "Feature", "properties": { "feature_type": "building", "subtype": "no-damage", "uid": "8dda0f0b-1e47-45b3-890f-c54a8372b11d" }, "geometry": { "type": "Polygon", "coordinates": [ [ [ 896.869442410377928, 539.46708214123953 ], [ 901.398139471421928, 530.641928893869817 ], [ 903.488307345154112, 532.499855895630617 ], [ 908.82984746846887, 524.139184395702728 ], [ 925.551190466821822, 533.196578519291961 ], [ 925.318949591851606, 535.054505518054384 ], [ 931.705573653656529, 539.699323018458585 ], [ 933.795741527638597, 537.02855295642587 ], [ 937.976077274353315, 531.454771956140689 ], [ 944.47882177476788, 536.79631208120577 ], [ 954.813540708567189, 542.13785220427178 ], [ 929.499285340815163, 583.476727946474853 ], [ 922.880420402290952, 579.993114823170686 ], [ 914.868110216944046, 576.50950170086594 ], [ 920.093529903148465, 566.755384950616872 ], [ 914.171387593282816, 556.885147763757232 ], [ 912.429581033630029, 560.949363076111126 ], [ 892.805227095776104, 547.595512766946854 ], [ 896.869442410377928, 539.46708214123953 ] ] ] } },
{ "type": "Feature", "properties": { "feature_type": "building", "subtype": "no-damage", "uid": "998609b2-df34-4bb2-b21e-53bbdec6278d" }, "geometry": { "type": "Polygon", "coordinates": [ [ [ 955.638118695384037, 556.308588604258716 ], [ 1009.166990430520968, 556.119440647035844 ], [ 1008.788694520573017, 576.925715880581038 ], [ 1013.706541391375026, 577.304011794027247 ], [ 1014.084837303822042, 587.139705539630995 ], [ 1010.491026126583051, 586.761409628183742 ], [ 1009.166990430770966, 594.894771761780362 ], [ 957.718746220087382, 595.651363591671156 ], [ 957.340450304642218, 586.572261669961449 ], [ 967.743587921412541, 585.626521884846625 ], [ 966.797848136547827, 575.223384270572751 ], [ 955.448970740909772, 574.845088356127121 ], [ 955.638118695384037, 556.308588604258716 ] ] ] } },
{ "type": "Feature", "properties": { "feature_type": "building", "subtype": "no-damage", "uid": "e9eeaf3e-9d59-4cee-ba21-3e8553b3695f" }, "geometry": { "type": "Polygon", "coordinates": [ [ [ 1005.951475166228988, 605.86535325272007 ], [ 1007.301996565632976, 625.230455403943097 ], [ 1001.388075484427986, 625.321438804877175 ], [ 1002.661843103251954, 648.067289112365643 ], [ 969.543885056549698, 649.795973733112191 ], [ 968.361100843157146, 640.424683406914596 ], [ 963.993897581079977, 640.060749805177124 ], [ 962.720129967253115, 624.775538396274101 ], [ 968.270117437475619, 624.04767118680229 ], [ 968.361100838909351, 615.950148477680159 ], [ 985.556963672922052, 616.587032287217426 ], [ 985.738930472791253, 606.942791756218639 ], [ 1005.951475166228988, 605.86535325272007 ] ] ] } },
{ "type": "Feature", "properties": { "feature_type": "building", "subtype": "no-damage", "uid": "8dbc7734-c639-4b51-a3c6-340253ff6d86" }, "geometry": { "type": "Polygon", "coordinates": [ [ [ 1008.169600994963048, 659.731123292694633 ], [ 1011.304852806684949, 659.731123292694633 ], [ 1013.85950243035802, 713.030404091741957 ], [ 970.778820131009866, 713.378765406571119 ], [ 971.011061002481938, 696.076820222662832 ], [ 980.881298189089534, 695.96069978605226 ], [ 981.345779941028809, 687.019426101072554 ], [ 970.546579253790924, 686.671064789241882 ], [ 969.849856628130738, 676.568586727162142 ], [ 971.940024501113271, 676.800827602382242 ], [ 971.359422318060524, 667.162831290742702 ], [ 987.035681376174125, 666.698349541301923 ], [ 987.50016312786363, 659.266641542254433 ], [ 1008.169600994963048, 659.731123292694633 ] ] ] } },
{ "type": "Feature", "properties": { "feature_type": "building", "subtype": "no-damage", "uid": "5a34c6d3-8d72-489a-97fb-e1fa412aa69c" }, "geometry": { "type": "Polygon", "coordinates": [ [ [ 1007.783881995438037, 719.004813584841827 ], [ 1009.525688553091982, 738.745287953563661 ], [ 1013.125422114505, 738.861408391173768 ], [ 1013.822144741414945, 753.492583515048068 ], [ 1010.222411179502046, 753.84094482687874 ], [ 1010.686892929442024, 762.201616324807787 ], [ 961.684068316480648, 763.24670026329818 ], [ 960.522863937132001, 744.086828077629207 ], [ 973.528352934712643, 743.390105450969372 ], [ 972.599389436581077, 733.752109146326234 ], [ 964.703199687844631, 733.519868268107643 ], [ 964.006477063683747, 719.933777082723736 ], [ 1007.783881995438037, 719.004813584841827 ] ] ] } },
{ "type": "Feature", "properties": { "feature_type": "building", "subtype": "minor-damage", "uid": "ae2d5499-057b-433e-8fc0-f1333577fa4b" }, "geometry": { "type": "Polygon", "coordinates": [ [ [ 970.471544309533556, 778.40017971520092 ], [ 1005.716827564943969, 778.882991812122327 ], [ 1006.441045716072949, 810.748590370849911 ], [ 1012.717603007532944, 810.989996419810382 ], [ 1013.683227202624948, 830.302480393615497 ], [ 965.402017267372798, 830.785292492535859 ], [ 964.194987021821248, 805.679063324690105 ], [ 970.47154430978344, 805.437657276729169 ], [ 970.471544309533556, 778.40017971520092 ] ] ] } },
{ "type": "Feature", "properties": { "feature_type": "building", "subtype": "no-damage", "uid": "276339f5-81ae-441f-96ae-986e74163a3f" }, "geometry": { "type": "Polygon", "coordinates": [ [ [ 965.160611218162558, 837.061849785496861 ], [ 1001.130112619454053, 838.751692131218306 ], [ 1000.164488423862963, 871.582914887786615 ], [ 1015.13166349963501, 872.065726988705933 ], [ 1013.683227201624959, 891.1368049105522 ], [ 973.851229008222049, 888.722744414950967 ], [ 974.575447155103234, 884.618841571629332 ], [ 963.953580970112284, 884.136029470710014 ], [ 963.712174919152972, 869.410260442145272 ], [ 971.437168509123126, 868.927448341225954 ], [ 969.747326162402601, 862.168078949344704 ], [ 964.677799117493237, 861.443860802463405 ], [ 965.160611218162558, 837.061849785496861 ] ] ] } },
{ "type": "Feature", "properties": { "feature_type": "building", "subtype": "no-damage", "uid": "45a3cd58-73e0-4bd4-935b-b6e94d94a377" }, "geometry": { "type": "Polygon", "coordinates": [ [ [ 969.02004134634717, 898.514008704548473 ], [ 996.540331009288366, 898.272602656587537 ], [ 1002.575482250539039, 948.002248885362974 ], [ 971.19269579073864, 950.41630938596154 ], [ 969.02004134634717, 898.514008704548473 ] ] ] } },
{ "type": "Feature", "properties": { "feature_type": "building", "subtype": "no-damage", "uid": "9156f1ae-6c2a-4d87-84ab-f1aa003ef5f5" }, "geometry": { "type": "Polygon", "coordinates": [ [ [ 995.356543356181078, 954.761618278243645 ], [ 995.884710414831829, 957.210353498441464 ], [ 1007.422735770441022, 957.021205540219057 ], [ 1008.368475556055955, 973.477077771631457 ], [ 995.317266544412746, 972.909633902961332 ], [ 995.884710414581946, 983.501919475457498 ], [ 998.15448589400944, 984.258511302349916 ], [ 1000.235113416964055, 1007.902005884242953 ], [ 969.593144441069853, 1007.902005883243987 ], [ 968.836552615177084, 988.041470433813743 ], [ 958.433414994158966, 987.66317452336591 ], [ 955.407047689588353, 969.315822723723045 ], [ 971.484624004802299, 969.315822724722466 ], [ 970.733126287510913, 953.0717759325222 ], [ 983.769052970851021, 954.761618278243645 ], [ 995.356543356181078, 954.761618278243645 ] ] ] } },
{ "type": "Feature", "properties": { "feature_type": "building", "subtype": "no-damage", "uid": "295da76c-b261-47dc-93c8-097b2da083fc" }, "geometry": { "type": "Polygon", "coordinates": [ [ [ 928.169741928712824, 1002.60586309899395 ], [ 937.627139762617389, 1001.660123311880966 ], [ 938.383731590509115, 1010.17178136491998 ], [ 928.358889884686278, 1010.360929321143999 ], [ 928.169741928712824, 1002.60586309899395 ] ] ] } },
{ "type": "Feature", "properties": { "feature_type": "building", "subtype": "no-damage", "uid": "43349b95-884a-445d-8381-a054875b6394" }, "geometry": { "type": "Polygon", "coordinates": [ [ [ 484.396916880274887, 625.084166278141538 ], [ 496.467219366773975, 624.359948130260705 ], [ 496.708625415484505, 641.016965557505387 ], [ 484.638322932233677, 641.741183705386106 ], [ 484.396916880274887, 625.084166278141538 ] ] ] } },
{ "type": "Feature", "properties": { "feature_type": "building", "subtype": "no-damage", "uid": "ce0144b0-9ffe-481d-8f04-821fb8da200d" }, "geometry": { "type": "Polygon", "coordinates": [ [ [ 0.07095525188027, 617.191771246068924 ], [ 5.606678426383002, 616.952644417107763 ], [ 5.789972828434563, 632.560574931362453 ], [ 0.070951107797568, 632.2562483699636 ], [ 0.07095525188027, 617.191771246068924 ] ] ] } },
{ "type": "Feature", "properties": { "feature_type": "building", "subtype": "no-damage", "uid": "9ef703ce-138a-42a1-bc49-59f487134ac6" }, "geometry": { "type": "Polygon", "coordinates": [ [ [ 0.07094019075703, 664.90875633590656 ], [ 7.687121937822757, 664.620454906584314 ], [ 7.678103654260884, 683.757030104257296 ], [ 0.07093287758172, 683.294402487130924 ], [ 0.07094019075703, 664.90875633590656 ] ] ] } },
{ "type": "Feature", "properties": { "feature_type": "building", "subtype": "no-damage", "uid": "bfbb582e-5e42-4123-bb27-a2e19cadedd5" }, "geometry": { "type": "Polygon", "coordinates": [ [ [ 0.070948708052602, 640.156334136887835 ], [ 4.777254260301278, 640.248927755700151 ], [ 4.416326749169883, 659.094516182447592 ], [ 0.070942331637379, 659.082684971008234 ], [ 0.070948708052602, 640.156334136887835 ] ] ] } },
{ "type": "Feature", "properties": { "feature_type": "building", "subtype": "no-damage", "uid": "24de4e74-91e8-416d-a62e-b4d0418027b8" }, "geometry": { "type": "Polygon", "coordinates": [ [ [ 400.621888874399019, 54.536558419888287 ], [ 429.903813680666815, 52.308585880848113 ], [ 428.948968307899179, 47.216077218757007 ], [ 449.000721164753486, 45.624668261728608 ], [ 450.273848331775184, 72.678620533210392 ], [ 420.35535994224648, 71.723775156194819 ], [ 420.991923523758373, 91.457246225545845 ], [ 419.400514565231106, 91.138964432541002 ], [ 400.303607078145887, 90.18411905952334 ], [ 400.621888874399019, 54.536558419888287 ] ] ] } },
{ "type": "Feature", "properties": { "feature_type": "building", "subtype": "no-damage", "uid": "4ab61720-a41b-44c5-b863-a95f9ab64b71" }, "geometry": { "type": "Polygon", "coordinates": [ [ [ 0.070817580630438, 862.57218882344489 ], [ 8.485449155680218, 862.765955480151547 ], [ 7.899256920897557, 877.029966418839081 ], [ 0.070804802563192, 877.029966430832815 ], [ 0.070817580630438, 862.57218882344489 ] ] ] } },
{ "type": "Feature", "properties": { "feature_type": "building", "subtype": "no-damage", "uid": "97ec3483-2b1e-4de3-b5af-63921cd0fae5" }, "geometry": { "type": "Polygon", "coordinates": [ [ [ 698.747733612333377, 503.203274097511382 ], [ 689.810955603928619, 486.954586817222378 ], [ 694.68556179301163, 480.048894723099579 ], [ 685.342566602599732, 460.956687165761821 ], [ 681.686611963036285, 462.987773074798383 ], [ 672.749833958879321, 452.0199091576049 ], [ 671.937399594615272, 440.64582806140271 ], [ 698.341516427577631, 425.209575144128678 ], [ 704.840991344689201, 430.490398511222111 ], [ 712.152900617819114, 443.083131155445017 ], [ 700.778819520869774, 449.176388885553308 ], [ 712.559117800825788, 473.95563699199181 ], [ 722.308330170995873, 472.736985444970685 ], [ 729.214022262868411, 488.985672729257487 ], [ 700.372602340111939, 503.203274099510281 ], [ 698.747733612333377, 503.203274097511382 ] ] ] } },
{ "type": "Feature", "properties": { "feature_type": "building", "subtype": "minor-damage", "uid": "7b406f6d-e1bc-4b8c-972f-9ea684536aed" }, "geometry": { "type": "Polygon", "coordinates": [ [ [ 494.365991002776013, 243.296702137859199 ], [ 498.513571000796219, 219.966564644523487 ], [ 516.659233494165164, 217.374327145041889 ], [ 520.288365992339209, 209.597614648595993 ], [ 547.766083484189721, 213.226747147270601 ], [ 547.766083482690533, 217.374327144042411 ], [ 557.098138480422449, 219.448117146426313 ], [ 554.505900980691536, 243.296702137859199 ], [ 497.476676003602392, 245.888939636341291 ], [ 494.365991002776013, 243.296702137859199 ] ] ] } },
{ "type": "Feature", "properties": { "feature_type": "building", "subtype": "minor-damage", "uid": "23dc621c-3f9c-42ad-8f6f-6c4d658f071a" }, "geometry": { "type": "Polygon", "coordinates": [ [ [ 825.373103317019627, 891.039214959752712 ], [ 825.37310331651986, 876.39825255549124 ], [ 834.921557061936483, 877.989661510520705 ], [ 835.239838853442052, 893.58546928779981 ], [ 826.009666903029142, 892.312342125775217 ], [ 825.373103317019627, 891.039214959752712 ] ] ] } },
{ "type": "Feature", "properties": { "feature_type": "building", "subtype": "minor-damage", "uid": "d292ec02-b8a8-47ab-9ea6-3aa5c9bb658e" }, "geometry": { "type": "Polygon", "coordinates": [ [ [ 843.515165430837442, 894.858596458819761 ], [ 843.196883635334075, 879.581070468548546 ], [ 853.700182753768104, 879.581070467549125 ], [ 854.97330992128957, 896.131723620844355 ], [ 846.061419762382229, 895.495160039832058 ], [ 843.515165430837442, 894.858596458819761 ] ] ] } },
{ "type": "Feature", "properties": { "feature_type": "building", "subtype": "no-damage", "uid": "22fe09bc-dab8-49a4-b0a2-a8143a72cc31" }, "geometry": { "type": "Polygon", "coordinates": [ [ [ 955.780007930267857, 293.954133354860915 ], [ 957.853797933150986, 240.035593371839894 ], [ 968.222747925578005, 239.517145873742692 ], [ 968.741195426673585, 235.8880133730691 ], [ 981.702382924078847, 236.406460872165894 ], [ 984.294620424809295, 237.961803374453496 ], [ 985.849962921599399, 280.474498359355493 ], [ 983.776172923213949, 291.880343354475997 ], [ 959.409140433189464, 292.917238354668427 ], [ 955.780007930267857, 293.954133354860915 ] ] ] } },
{ "type": "Feature", "properties": { "feature_type": "building", "subtype": "no-damage", "uid": "ed056e72-dced-4502-a426-784fd7f719b6" }, "geometry": { "type": "Polygon", "coordinates": [ [ [ 1023.047682707088029, 267.474266295717882 ], [ 1018.512155409414049, 261.291940864790718 ], [ 1017.99370791131696, 267.513310864945822 ], [ 999.848045415448837, 266.994863361851174 ], [ 998.81115042050385, 262.328835864983091 ], [ 992.589780418600981, 260.773493365693923 ], [ 993.626675417293995, 242.10938337322429 ], [ 995.700465420926776, 241.072488370033398 ], [ 996.737360418120488, 238.480250872550812 ], [ 1018.512155411661979, 238.998698372646999 ], [ 1020.067497908701966, 244.183173370610689 ], [ 1023.047667720426034, 244.183173431578808 ], [ 1023.047682707088029, 267.474266295717882 ] ] ] } },
{ "type": "Feature", "properties": { "feature_type": "building", "subtype": "minor-damage", "uid": "c8f9ecc0-8429-4991-bf34-1344fdf39360" }, "geometry": { "type": "Polygon", "coordinates": [ [ [ 892.010965451679454, 258.18125586521279 ], [ 864.014800459483013, 257.144360867019373 ], [ 865.570142961270562, 235.369565873972391 ], [ 883.197357955043117, 237.961803376452394 ], [ 884.234252954485669, 229.666643376911907 ], [ 913.785760444721632, 230.185090876008587 ], [ 913.26731294712431, 257.144360867019373 ], [ 890.455622952390627, 257.662808368115122 ], [ 892.010965451679454, 258.18125586521279 ] ] ] } }
]
}
