{
"type": "FeatureCollection",
"name": "hurricane-florence_00000175_post_disaster",
"features": [
{ "type": "Feature", "properties": { "feature_type": "building", "subtype": "no-damage", "uid": "f2967c3b-e113-4eec-a19c-0b922fb09587" }, "geometry": { "type": "Polygon", "coordinates": [ [ [ 779.250312308706157, 0.010483712177226 ], [ 774.238844958761206, 12.44523292858193 ], [ 779.254535061400816, 14.953077976812949 ], [ 761.142320796565514, 60.372938366209837 ], [ 710.985419760171112, 44.768569155593838 ], [ 723.524645017184184, 13.83848018427852 ], [ 719.590113435030275, 12.469947461513151 ], [ 724.717532872998959, 0.011130467954224 ], [ 779.250312308706157, 0.010483712177226 ] ] ] } },
{ "type": "Feature", "properties": { "feature_type": "building", "subtype": "no-damage", "uid": "cb3101c2-1589-4a28-88b2-85516dca3c9c" }, "geometry": { "type": "Polygon", "coordinates": [ [ [ 593.841140958225765, 0.012084606139573 ], [ 591.963788515430679, 5.18915378141942 ], [ 583.068325809303474, 3.478487875160772 ], [ 580.673393537395327, 8.610485591898945 ], [ 550.87217129567216, 0.012213761057666 ], [ 593.841140958225765, 0.012084606139573 ] ] ] } },
{ "type": "Feature", "properties": { "feature_type": "building", "subtype": "no-damage", "uid": "6615afa1-3c4c-40d5-9398-8e659eb931ee" }, "geometry": { "type": "Polygon", "coordinates": [ [ [ 526.953833026852067, 354.93797618732458 ], [ 537.716890173304591, 354.803941036928506 ], [ 537.632596190592267, 365.214633896181624 ], [ 526.026599183265716, 365.030857582113583 ], [ 526.953833026852067, 354.93797618732458 ] ] ] } },
{ "type": "Feature", "properties": { "feature_type": "building", "subtype": "no-damage", "uid": "0a5f2f9d-cd9a-4d7c-8da1-7c1a4051053a" }, "geometry": { "type": "Polygon", "coordinates": [ [ [ 221.246320971822001, 776.897194646817297 ], [ 247.220354887732697, 784.10963431248399 ], [ 236.958885518093012, 811.619105383826195 ], [ 219.055896406044894, 806.815864403859564 ], [ 217.309263319780598, 810.745788844515005 ], [ 206.705660773206603, 807.860247539502438 ], [ 208.587393270256996, 796.056652791004581 ], [ 199.349797374841586, 793.832787113072186 ], [ 200.547263509999709, 788.187589622622454 ], [ 203.96859532143489, 780.489593051590646 ], [ 206.7056607691311, 781.515992589843904 ], [ 209.784859400830101, 772.791596472407832 ], [ 221.246320971822001, 776.897194646817297 ] ] ] } },
{ "type": "Feature", "properties": { "feature_type": "building", "subtype": "no-damage", "uid": "68f82313-d916-4229-845f-c645232c3def" }, "geometry": { "type": "Polygon", "coordinates": [ [ [ 178.937049982333406, 891.036950090436562 ], [ 217.799636103125493, 915.926471535694077 ], [ 206.88317933065801, 930.336194478650555 ], [ 195.966722551758807, 924.441307819195799 ], [ 182.866974421842997, 942.99928433992784 ], [ 169.767226291608893, 936.886068545390572 ], [ 164.308997902636889, 931.646169291183469 ], [ 167.802264073382389, 924.441307822252384 ], [ 160.815731732273406, 918.764750298899116 ], [ 178.937049982333406, 891.036950090436562 ] ] ] } }
]
}
