{
"type": "FeatureCollection",
"name": "hurricane-michael_00000508_post_disaster",
"features": [
{ "type": "Feature", "properties": { "feature_type": "building", "subtype": "no-damage", "uid": "6cb61a0d-133f-4865-a739-2f25fc7f2f82" }, "geometry": { "type": "Polygon", "coordinates": [ [ [ 982.556600115265951, 182.380565825936202 ], [ 983.641278499479313, 226.476386809877596 ], [ 959.396002171044302, 225.299500295513496 ], [ 960.396002172056001, 184.299500293494305 ], [ 960.39600217130635, 181.299500293955987 ], [ 951.396002169947224, 180.299500293443486 ], [ 951.396002174195019, 177.299500292905691 ], [ 960.396002170306815, 177.299500291906298 ], [ 967.396002171641612, 177.299500291906298 ], [ 969.556600114857474, 182.944958316218106 ], [ 982.556600115265951, 182.380565825936202 ] ] ] } },
{ "type": "Feature", "properties": { "feature_type": "building", "subtype": "no-damage", "uid": "bd6160e2-26a9-491c-8f6e-112ab85c8678" }, "geometry": { "type": "Polygon", "coordinates": [ [ [ 910.492503990156138, 194.299500293621094 ], [ 910.492503988656836, 214.299500292875194 ], [ 891.49250398992433, 214.299500294874207 ], [ 891.4925039919234, 194.299500293621094 ], [ 910.492503990156138, 194.299500293621094 ] ] ] } },
{ "type": "Feature", "properties": { "feature_type": "building", "subtype": "no-damage", "uid": "4ffe6dbf-5257-4adc-a8f4-a52911f85aa2" }, "geometry": { "type": "Polygon", "coordinates": [ [ [ 998.072903051729668, 231.602428713987706 ], [ 999.878959017182524, 267.767626020366322 ], [ 978.847146054285872, 265.945663571468515 ], [ 978.072903049736624, 232.602428711501688 ], [ 998.072903051729668, 231.602428713987706 ] ] ] } },
{ "type": "Feature", "properties": { "feature_type": "building", "subtype": "minor-damage", "uid": "722eb028-27c3-402a-9303-ba50c2abba9f" }, "geometry": { "type": "Polygon", "coordinates": [ [ [ 955.787006848108604, 452.926098285486773 ], [ 955.061449824812712, 509.926098286709419 ], [ 951.512356359665318, 515.282687137347125 ], [ 921.872514662414119, 515.28268713834666 ], [ 923.730388551723308, 509.37721232927862 ], [ 923.730388554472029, 452.37721232905551 ], [ 955.787006848108604, 452.926098285486773 ] ] ] } },
{ "type": "Feature", "properties": { "feature_type": "building", "subtype": "no-damage", "uid": "47da1039-04e5-4e27-9ce3-477b60ec76a1" }, "geometry": { "type": "Polygon", "coordinates": [ [ [ 953.787006847334624, 534.299500291935715 ], [ 953.787006847834391, 553.299500293675919 ], [ 951.787006850808439, 553.299500292676385 ], [ 951.787006847560065, 569.29950029387885 ], [ 923.787006845969131, 569.29950029387885 ], [ 881.787006847705698, 569.299500295877806 ], [ 853.787006848113833, 568.299500292366815 ], [ 853.787006846114764, 553.299500292676385 ], [ 851.787006848089391, 553.299500292676385 ], [ 852.787006847851671, 533.299500291423215 ], [ 881.787006847455814, 533.299500293422284 ], [ 923.787006845719247, 533.299500293422284 ], [ 953.787006847334624, 534.299500291935715 ] ] ] } },
{ "type": "Feature", "properties": { "feature_type": "building", "subtype": "minor-damage", "uid": "452ce47f-2543-4003-8f2d-5bb964df8a26" }, "geometry": { "type": "Polygon", "coordinates": [ [ [ 793.000000092382038, 555.68482532441476 ], [ 793.786450125907436, 580.11192525969193 ], [ 763.369650679529968, 579.3254752231677 ], [ 763.36965067803078, 556.684825323927726 ], [ 793.000000092382038, 555.68482532441476 ] ] ] } },
{ "type": "Feature", "properties": { "feature_type": "building", "subtype": "no-damage", "uid": "b1047947-7f57-473a-87a2-cb98ba0b9335" }, "geometry": { "type": "Polygon", "coordinates": [ [ [ 995.901217662936688, 724.367734390231817 ], [ 995.885375332877288, 764.644243086905362 ], [ 975.510944335815452, 763.18386721269485 ], [ 975.510944336814873, 746.183867211979532 ], [ 974.510944337052592, 746.183867213978488 ], [ 974.510944338551781, 735.183867211340271 ], [ 975.510944336814873, 735.183867211340271 ], [ 975.510944336315106, 724.1838672136995 ], [ 995.901217662936688, 724.367734390231817 ] ] ] } },
{ "type": "Feature", "properties": { "feature_type": "building", "subtype": "no-damage", "uid": "d75358ce-7950-4cb8-bdba-e5e57e09462e" }, "geometry": { "type": "Polygon", "coordinates": [ [ [ 995.780546743603168, 772.71292978208578 ], [ 997.906288786116534, 811.919335929427461 ], [ 973.022539061894008, 811.183867211304573 ], [ 973.022539062393776, 803.183867211203051 ], [ 970.022539060358099, 803.183867211203051 ], [ 970.022539060857866, 790.183867213537042 ], [ 973.022539061894008, 790.183867212537507 ], [ 972.989207367362951, 773.947596501820499 ], [ 995.780546743603168, 772.71292978208578 ] ] ] } },
{ "type": "Feature", "properties": { "feature_type": "building", "subtype": "major-damage", "uid": "535f7b44-4d94-4a14-8bd2-b575c8b62aa6" }, "geometry": { "type": "Polygon", "coordinates": [ [ [ 817.36446441122655, 894.31776787393153 ], [ 797.364464411482345, 895.31776787444403 ], [ 797.36446441023304, 884.317767875803725 ], [ 817.364464414724807, 884.317767875803725 ], [ 817.36446441122655, 894.31776787393153 ] ] ] } },
{ "type": "Feature", "properties": { "feature_type": "building", "subtype": "minor-damage", "uid": "0888fe68-1c25-4d0b-af1e-006d6a0f4f17" }, "geometry": { "type": "Polygon", "coordinates": [ [ [ 767.705580490070247, 897.552961342053777 ], [ 766.705580491057617, 942.552961339126227 ], [ 754.705580490661305, 942.552961341125183 ], [ 743.705580491526689, 942.552961339126227 ], [ 743.705580490027387, 932.552961340998422 ], [ 736.129270946152474, 933.00000003631942 ], [ 736.576309638474754, 917.552961339308922 ], [ 743.705580490277271, 917.552961341307878 ], [ 743.258541801703018, 902.44703872575019 ], [ 754.705580491910723, 901.552961339105991 ], [ 754.705580490411421, 897.552961341054242 ], [ 767.705580490070247, 897.552961342053777 ] ] ] } },
{ "type": "Feature", "properties": { "feature_type": "building", "subtype": "minor-damage", "uid": "19902146-1ff7-42ef-bb92-2e45da133224" }, "geometry": { "type": "Polygon", "coordinates": [ [ [ 872.364464411897416, 925.576309580257657 ], [ 873.364464410910159, 931.576309581333248 ], [ 873.364464410910159, 955.576309580638167 ], [ 850.36446441062958, 955.576309578639098 ], [ 846.36446441432895, 955.576309580638167 ], [ 846.364464414578833, 943.57630958048594 ], [ 850.364464411878998, 943.57630958048594 ], [ 850.364464410379696, 931.576309579334293 ], [ 854.364464415176144, 931.576309579334293 ], [ 854.364464414426493, 925.576309581257192 ], [ 872.364464411897416, 925.576309580257657 ] ] ] } },
{ "type": "Feature", "properties": { "feature_type": "building", "subtype": "no-damage", "uid": "2ed4b645-1210-4242-b32a-ea18c63815a2" }, "geometry": { "type": "Polygon", "coordinates": [ [ [ 746.666723646143851, 1022.981370392869962 ], [ 745.000000095794576, 1009.000000033285005 ], [ 749.000000093344511, 1009.000000035283961 ], [ 749.000000092594973, 999.000000036156962 ], [ 771.341116171817134, 998.55296134083585 ], [ 771.341116174315857, 1007.658883953318991 ], [ 777.023348335033234, 1009.894077419928976 ], [ 776.193854755137409, 1022.981057477295963 ], [ 746.666723646143851, 1022.981370392869962 ] ] ] } },
{ "type": "Feature", "properties": { "feature_type": "building", "subtype": "minor-damage", "uid": "f02603cb-39f8-49a3-a076-bb0270c807d5" }, "geometry": { "type": "Polygon", "coordinates": [ [ [ 841.715509831284976, 1022.980230890864959 ], [ 841.447038784790152, 1021.447038726759956 ], [ 841.447038784790152, 1001.44703872650598 ], [ 878.447038785741256, 1001.44703872650598 ], [ 878.447038784741721, 1021.447038726759956 ], [ 860.447038785021846, 1021.447038728758002 ], [ 860.17861429415268, 1022.979965050908959 ], [ 841.715509831284976, 1022.980230890864959 ] ] ] } },
{ "type": "Feature", "properties": { "feature_type": "building", "subtype": "no-damage", "uid": "62f46c19-4b31-4fff-a3e5-f06e850b33b3" }, "geometry": { "type": "Polygon", "coordinates": [ [ [ 35.167376075396717, 0.001717378971876 ], [ 34.543808570551263, 9.65351200392284 ], [ 15.970166574061979, 9.514916791648101 ], [ 16.10874250316467, 0.001323857435395 ], [ 35.167376075396717, 0.001717378971876 ] ] ] } },
{ "type": "Feature", "properties": { "feature_type": "building", "subtype": "no-damage", "uid": "c582c280-cf32-4851-876a-1f96b104526e" }, "geometry": { "type": "Polygon", "coordinates": [ [ [ 160.866657351973203, 186.234666322778992 ], [ 181.509321384250995, 186.234666322778992 ], [ 182.213320258304805, 196.530667454111693 ], [ 160.866657355221605, 197.234666324417788 ], [ 160.866657351973203, 186.234666322778992 ] ] ] } },
{ "type": "Feature", "properties": { "feature_type": "building", "subtype": "no-damage", "uid": "1a112c1d-99d2-4ee6-8e37-6de8c86b8dd0" }, "geometry": { "type": "Polygon", "coordinates": [ [ [ 244.458659608900405, 226.653337128037492 ], [ 261.631991062270401, 227.826668580213408 ], [ 261.631991060521273, 241.1733314852045 ], [ 243.989327028280087, 240.234666324463291 ], [ 244.458659608900405, 226.653337128037492 ] ] ] } },
{ "type": "Feature", "properties": { "feature_type": "building", "subtype": "major-damage", "uid": "50b13fe0-2b80-4506-8cda-e4aa912b4189" }, "geometry": { "type": "Polygon", "coordinates": [ [ [ 156.386651708151788, 212.653337129859011 ], [ 156.68265284010721, 335.703998906038578 ], [ 100.581329287435807, 337.111996646650823 ], [ 100.298807678154503, 288.434279806359712 ], [ 93.457982604328066, 289.192196753368989 ], [ 92.029765585202796, 253.343856480996692 ], [ 102.866657355263698, 253.122669712236103 ], [ 102.866657351015803, 214.122669710242292 ], [ 156.386651708151788, 212.653337129859011 ] ] ] } },
{ "type": "Feature", "properties": { "feature_type": "building", "subtype": "no-damage", "uid": "90675304-6e79-4d9a-8889-d9d2f79e8f69" }, "geometry": { "type": "Polygon", "coordinates": [ [ [ 33.305772360704701, 866.24846818497349 ], [ 33.857373898047243, 851.90682823155214 ], [ 71.36627840010766, 851.355226692959945 ], [ 72.469481470544821, 867.167804079628581 ], [ 62.356786631342473, 866.800069721566615 ], [ 61.069716380125293, 871.396749194842187 ], [ 57.024638440946077, 872.13221790896705 ], [ 56.105302547790671, 886.473857868385494 ], [ 33.489639541234837, 886.106123508324458 ], [ 33.30577236220396, 873.787022522744564 ], [ 29.996163141647049, 872.316085090496813 ], [ 33.305772360704701, 866.24846818497349 ] ] ] } },
{ "type": "Feature", "properties": { "feature_type": "building", "subtype": "no-damage", "uid": "5f1c1816-4b16-4252-9213-c9912ee59d23" }, "geometry": { "type": "Polygon", "coordinates": [ [ [ 25.63782205061797, 805.986283721149675 ], [ 55.747353933615777, 788.986643713624517 ], [ 59.204907833784333, 797.342398971848638 ], [ 48.255987151125012, 803.249053549921314 ], [ 55.171094951462088, 823.850312205903833 ], [ 38.027390194408667, 833.790779669049471 ], [ 33.417318326434483, 821.257146778214974 ], [ 27.078469513748349, 822.697794240596409 ], [ 25.63782205061797, 805.986283721149675 ] ] ] } },
{ "type": "Feature", "properties": { "feature_type": "building", "subtype": "no-damage", "uid": "0513ce23-1ed0-4a85-a15b-ea8dc2db9079" }, "geometry": { "type": "Polygon", "coordinates": [ [ [ 129.39831638618611, 821.131041742026241 ], [ 140.485933339673892, 811.637269721696498 ], [ 139.585064462387294, 808.5188774530111 ], [ 140.208742917373513, 805.746973211514387 ], [ 142.703456731321012, 803.945235458939351 ], [ 145.336765762540807, 803.252259398565116 ], [ 148.455158031724409, 803.945235458939351 ], [ 151.296359872610509, 804.984699548501112 ], [ 152.682311993358212, 806.925032515349926 ], [ 156.840168354101991, 802.975068974015699 ], [ 163.839226556731489, 809.281151120022514 ], [ 157.741037230389111, 810.667103238771801 ], [ 159.057691742500708, 812.330245781071199 ], [ 159.542774983962801, 815.656530867668835 ], [ 159.819965411760592, 818.28983989689084 ], [ 164.047119373394395, 822.37839864850082 ], [ 157.117358778151612, 827.437123885034566 ], [ 154.553347353319111, 823.833648375886355 ], [ 142.010480672946187, 836.168622237353475 ], [ 129.39831638618611, 821.131041742026241 ] ] ] } },
{ "type": "Feature", "properties": { "feature_type": "building", "subtype": "minor-damage", "uid": "f7a36306-4bc8-492f-80e5-3d040323e3c0" }, "geometry": { "type": "Polygon", "coordinates": [ [ [ 128.695368943882386, 900.725068623305106 ], [ 143.730722609276597, 899.752192797120642 ], [ 144.261382149332206, 906.296993803636951 ], [ 162.480693058808214, 904.705015178971507 ], [ 159.738952094107987, 928.496251272036602 ], [ 143.730722606028195, 926.462056363741453 ], [ 142.404073753140494, 934.687279247851052 ], [ 127.1918335771431, 934.687279247851052 ], [ 128.695368943882386, 900.725068623305106 ] ] ] } },
{ "type": "Feature", "properties": { "feature_type": "building", "subtype": "minor-damage", "uid": "dbb57bd5-3502-45f5-9059-97a984b68bb0" }, "geometry": { "type": "Polygon", "coordinates": [ [ [ 120.750002595809306, 983.597010463792571 ], [ 154.893347360629605, 983.885139953870066 ], [ 155.032006477912404, 1022.979838194917988 ], [ 125.504139210821194, 1022.979372328316003 ], [ 125.504139207322893, 999.588197251548763 ], [ 120.605937853019498, 999.011938267395863 ], [ 120.750002595809306, 983.597010463792571 ] ] ] } },
{ "type": "Feature", "properties": { "feature_type": "building", "subtype": "minor-damage", "uid": "d3f4dad2-a9f5-4c4c-b59f-d0ca117a5a4d" }, "geometry": { "type": "Polygon", "coordinates": [ [ [ 187.740109409357188, 982.300427749948085 ], [ 221.739389428139305, 981.291974531178653 ], [ 227.069785025804606, 1019.901326415454946 ], [ 206.612591114620813, 1018.604743700611039 ], [ 205.748202639391309, 997.571290809012339 ], [ 184.714749749552112, 996.706902334781944 ], [ 183.850361272823307, 983.164816225178015 ], [ 187.740109409357188, 982.300427749948085 ] ] ] } },
{ "type": "Feature", "properties": { "feature_type": "building", "subtype": "no-damage", "uid": "ab41b84b-5d11-44ed-8337-e5926eebc5f8" }, "geometry": { "type": "Polygon", "coordinates": [ [ [ 300.607963674233815, 898.655801966269792 ], [ 323.22612877174231, 898.223607729654304 ], [ 323.802387756394808, 923.723067740942156 ], [ 297.582604010930424, 920.121449097482355 ], [ 297.294474518604204, 906.867492480954411 ], [ 300.607963674233815, 898.655801966269792 ] ] ] } },
{ "type": "Feature", "properties": { "feature_type": "building", "subtype": "no-damage", "uid": "da374388-3d05-4391-8ff2-cd61e68facad" }, "geometry": { "type": "Polygon", "coordinates": [ [ [ 209.245107546777291, 958.408958129225766 ], [ 229.846366201250589, 956.53611643522629 ], [ 229.846366202749891, 971.951044238829581 ], [ 209.965431278217608, 975.552662884288452 ], [ 209.245107546777291, 958.408958129225766 ] ] ] } },
{ "type": "Feature", "properties": { "feature_type": "building", "subtype": "no-damage", "uid": "21523839-d237-4e9a-93fe-71a3454b5a9a" }, "geometry": { "type": "Polygon", "coordinates": [ [ [ 304.599680734947526, 991.283954189037445 ], [ 337.765902049643387, 990.487964876704723 ], [ 337.854345305070012, 1004.196669687219014 ], [ 327.329597743392128, 1005.877091568809988 ], [ 327.418041000068001, 1020.683377898756021 ], [ 306.45698913113921, 1020.860264414606945 ], [ 304.599680734947526, 991.283954189037445 ] ] ] } },
{ "type": "Feature", "properties": { "feature_type": "building", "subtype": "no-damage", "uid": "49ada074-0461-43f4-a4e3-3b29fb9bfb20" }, "geometry": { "type": "Polygon", "coordinates": [ [ [ 402.464816452952675, 979.763737402889774 ], [ 402.897010689817876, 942.306903486919509 ], [ 429.693053417185979, 942.162838741380938 ], [ 428.396470703592115, 958.586219764753196 ], [ 422.922010365635686, 965.357262819055336 ], [ 422.489816124772574, 978.899348931657755 ], [ 402.464816452952675, 979.763737402889774 ] ] ] } },
{ "type": "Feature", "properties": { "feature_type": "building", "subtype": "no-damage", "uid": "9861fa6f-4bef-47a7-a040-0dfa4de31fbb" }, "geometry": { "type": "Polygon", "coordinates": [ [ [ 404.742216949183103, 931.425250663824386 ], [ 402.71040398027128, 903.318504653584682 ], [ 410.724777339821173, 903.995775642722606 ], [ 410.273263349644878, 895.98140227992053 ], [ 427.656552045770127, 895.191252794925163 ], [ 428.559580030870279, 903.995775640723537 ], [ 424.608832599149082, 905.011682125429843 ], [ 425.737617578462903, 931.086615169255538 ], [ 404.742216949183103, 931.425250663824386 ] ] ] } },
{ "type": "Feature", "properties": { "feature_type": "building", "subtype": "no-damage", "uid": "3f65bf31-786d-41db-983a-ae64b6900190" }, "geometry": { "type": "Polygon", "coordinates": [ [ [ 401.888624065970987, 886.42316544149071 ], [ 402.032688814257995, 854.8729861025937 ], [ 423.066141703097685, 855.593309832285058 ], [ 421.913623737541002, 888.440071884027134 ], [ 401.888624065970987, 886.42316544149071 ] ] ] } },
{ "type": "Feature", "properties": { "feature_type": "building", "subtype": "no-damage", "uid": "690aaf22-dd14-4644-8c5f-1be5d425634e" }, "geometry": { "type": "Polygon", "coordinates": [ [ [ 386.588274428250486, 814.067684379260413 ], [ 396.384677143603881, 805.135670138882347 ], [ 400.274425282386687, 808.161029802187272 ], [ 405.892950369379776, 801.822180984500505 ], [ 412.663993423928616, 808.881353531878744 ], [ 412.087734439775886, 813.059231160490981 ], [ 424.47730258256712, 821.991245400869047 ], [ 411.223345964796181, 836.973978967856851 ], [ 386.588274428250486, 814.067684379260413 ] ] ] } },
{ "type": "Feature", "properties": { "feature_type": "building", "subtype": "no-damage", "uid": "2b6e05d6-d205-4494-94cd-47dad23bcb17" }, "geometry": { "type": "Polygon", "coordinates": [ [ [ 305.529288194180197, 821.126856925639117 ], [ 326.562741084769016, 803.695022680498937 ], [ 329.588100749821479, 807.152576580419236 ], [ 339.096373973598418, 801.24592199934807 ], [ 350.333424149583379, 817.093044041565804 ], [ 318.062921081510297, 837.5502379530094 ], [ 305.529288194180197, 821.126856925639117 ] ] ] } },
{ "type": "Feature", "properties": { "feature_type": "building", "subtype": "minor-damage", "uid": "eb80172f-1aeb-4e65-8e90-4145586ffcae" }, "geometry": { "type": "Polygon", "coordinates": [ [ [ 283.715512017889012, 853.717246840315624 ], [ 300.63129247523699, 853.901114018846897 ], [ 300.631292474237512, 857.946191957528299 ], [ 324.901760091821416, 857.210723240404832 ], [ 325.453361628164373, 878.355448817472507 ], [ 303.940901695294087, 880.010253427251996 ], [ 302.10222990548499, 870.265292944107728 ], [ 283.899379192172205, 867.875019618204306 ], [ 283.715512017889012, 853.717246840315624 ] ] ] } },
{ "type": "Feature", "properties": { "feature_type": "building", "subtype": "no-damage", "uid": "83a6a1d0-63d8-4755-9587-c28daf933a39" }, "geometry": { "type": "Polygon", "coordinates": [ [ [ 564.468697761320414, 1020.774041952603966 ], [ 566.346028083801457, 990.971423069334492 ], [ 608.351294065682509, 992.614087103380257 ], [ 605.769964873145568, 1021.71270711534396 ], [ 564.468697761320414, 1020.774041952603966 ] ] ] } },
{ "type": "Feature", "properties": { "feature_type": "building", "subtype": "no-damage", "uid": "f2a3a7fd-4f5d-4691-a27f-19b938a4c0c9" }, "geometry": { "type": "Polygon", "coordinates": [ [ [ 499.175508222043788, 946.812141819328531 ], [ 518.263129573444871, 946.550516489542247 ], [ 519.436461022621756, 976.587801664246626 ], [ 494.561834240751921, 977.761133114423501 ], [ 493.153836497391922, 956.896052544705526 ], [ 483.505559552701527, 956.896052544705526 ], [ 483.297852302367176, 949.131845686328347 ], [ 498.210998135817704, 950.033693983134299 ], [ 499.175508222043788, 946.812141819328531 ] ] ] } },
{ "type": "Feature", "properties": { "feature_type": "building", "subtype": "no-damage", "uid": "5d9c7527-e3d5-44b4-88e3-a94ed46bcd30" }, "geometry": { "type": "Polygon", "coordinates": [ [ [ 497.614902502347888, 905.412584750697761 ], [ 513.824739776886986, 905.163202637662948 ], [ 516.817325119060001, 934.091527618762711 ], [ 489.135910699899227, 932.345852835515302 ], [ 490.382821261574179, 918.879218792606821 ], [ 498.113666728916996, 918.380454568536265 ], [ 497.614902502347888, 905.412584750697761 ] ] ] } },
{ "type": "Feature", "properties": { "feature_type": "building", "subtype": "no-damage", "uid": "daaf894a-3bcf-46a6-963f-ab81a1ff57de" }, "geometry": { "type": "Polygon", "coordinates": [ [ [ 491.629731817751974, 865.012682627969184 ], [ 512.82721133149505, 864.513918403898629 ], [ 513.575357663852401, 892.943479154930856 ], [ 491.380349708965184, 893.941007604071501 ], [ 491.629731817751974, 865.012682627969184 ] ] ] } },
{ "type": "Feature", "properties": { "feature_type": "building", "subtype": "no-damage", "uid": "530073c4-cd2f-4934-b2ce-70a7458de1a4" }, "geometry": { "type": "Polygon", "coordinates": [ [ [ 495.830817341669672, 819.692578497736008 ], [ 513.89649741361859, 818.773984596530227 ], [ 513.896497414118357, 825.204141910968133 ], [ 526.909911025189558, 834.849377881625628 ], [ 526.297515090386355, 839.595446377852454 ], [ 518.489466925892543, 839.289248409451147 ], [ 516.192982169130914, 849.393781327712986 ], [ 496.290114289523785, 848.322088445305099 ], [ 498.127302092934087, 840.054743327455867 ], [ 494.606025471313615, 839.442347391652788 ], [ 494.606025469564372, 829.490913453593635 ], [ 496.749411243124996, 829.337814471391994 ], [ 495.830817341669672, 819.692578497736008 ] ] ] } },
{ "type": "Feature", "properties": { "feature_type": "building", "subtype": "minor-damage", "uid": "be3c55f4-2a5a-4289-9c40-90cbe5f7c0dc" }, "geometry": { "type": "Polygon", "coordinates": [ [ [ 497.86084697761919, 807.52460903859992 ], [ 497.860846978868608, 780.534270589831181 ], [ 505.897969986588805, 780.654227648741653 ], [ 506.377798222730405, 769.1383499073753 ], [ 520.652688336273059, 768.7784787286447 ], [ 523.171786594632067, 809.563879051073172 ], [ 497.86084697761919, 807.52460903859992 ] ] ] } },
{ "type": "Feature", "properties": { "feature_type": "building", "subtype": "no-damage", "uid": "5708dcd9-d694-48a7-9af6-632022c1c30c" }, "geometry": { "type": "Polygon", "coordinates": [ [ [ 462.619171150918078, 733.189892791388274 ], [ 484.691270147363582, 711.957493211303699 ], [ 514.000881664597046, 744.5888607002762 ], [ 491.725576910659981, 764.128601712774071 ], [ 462.619171150918078, 733.189892791388274 ] ] ] } },
{ "type": "Feature", "properties": { "feature_type": "building", "subtype": "no-damage", "uid": "5153375a-cbe0-43f4-8c1f-aa21e4b593a4" }, "geometry": { "type": "Polygon", "coordinates": [ [ [ 375.328248362469992, 703.013624247208213 ], [ 408.741205490377126, 702.6228294253591 ], [ 409.327397723400395, 727.633697922755687 ], [ 376.500632823769081, 728.610684971881369 ], [ 375.328248362469992, 703.013624247208213 ] ] ] } },
{ "type": "Feature", "properties": { "feature_type": "building", "subtype": "no-damage", "uid": "e0cbe179-cb5d-4647-85da-9fa47de03714" }, "geometry": { "type": "Polygon", "coordinates": [ [ [ 334.490189649167689, 707.898559501831983 ], [ 369.075531239373277, 706.335380216434373 ], [ 369.46632605947309, 729.392274610582149 ], [ 334.294792237743479, 730.955453894980337 ], [ 334.490189649167689, 707.898559501831983 ] ] ] } },
{ "type": "Feature", "properties": { "feature_type": "building", "subtype": "no-damage", "uid": "22f6248e-2fdf-4da8-98b7-4a683eb15ccb" }, "geometry": { "type": "Polygon", "coordinates": [ [ [ 0.062119039006667, 673.26248395334369 ], [ 4.422819228513307, 673.564381334861537 ], [ 7.873550408050985, 696.10545517687649 ], [ 0.062105670896654, 705.335585025192472 ], [ 0.062119039006667, 673.26248395334369 ] ] ] } },
{ "type": "Feature", "properties": { "feature_type": "building", "subtype": "no-damage", "uid": "01f830b6-225c-4e50-b590-671f195a31a7" }, "geometry": { "type": "Polygon", "coordinates": [ [ [ 29.68048498583806, 900.059879719953074 ], [ 53.072111642042707, 900.539707959593102 ], [ 53.671896939843357, 923.811377557148489 ], [ 23.082846699036331, 922.731764016958778 ], [ 29.68048498583806, 900.059879719953074 ] ] ] } },
{ "type": "Feature", "properties": { "feature_type": "building", "subtype": "no-damage", "uid": "f4a3ec74-4674-40d1-80cb-0f7cd53fa749" }, "geometry": { "type": "Polygon", "coordinates": [ [ [ 5.534873127213205, 946.749591451314473 ], [ 36.920164784631467, 945.065502631104437 ], [ 37.379461731236162, 971.55162680786043 ], [ 3.850784306254334, 973.235715625071975 ], [ 5.534873127213205, 946.749591451314473 ] ] ] } },
{ "type": "Feature", "properties": { "feature_type": "building", "subtype": "no-damage", "uid": "a700b490-6ca1-4225-ad69-eef92bf93ce4" }, "geometry": { "type": "Polygon", "coordinates": [ [ [ 210.357633501255492, 852.009113861922856 ], [ 251.415984594814091, 853.28224102821946 ], [ 246.323475930629286, 890.202928830834026 ], [ 209.721069917357795, 887.338392706916238 ], [ 210.357633501255492, 852.009113861922856 ] ] ] } },
{ "type": "Feature", "properties": { "feature_type": "building", "subtype": "no-damage", "uid": "6b51d846-2ceb-4aef-8769-878d2d9ddfb2" }, "geometry": { "type": "Polygon", "coordinates": [ [ [ 148.929247759453091, 845.325196241113986 ], [ 179.802581527390714, 845.961759825761533 ], [ 178.211172567771399, 862.194131186299501 ], [ 160.069110456797688, 861.55756760465033 ], [ 160.0691104570476, 854.555368192517221 ], [ 150.221860393499412, 852.3733566032829 ], [ 148.929247759453091, 845.325196241113986 ] ] ] } },
{ "type": "Feature", "properties": { "feature_type": "building", "subtype": "no-damage", "uid": "0e5fdc78-a4f2-4f06-8d82-2c3ee58ee660" }, "geometry": { "type": "Polygon", "coordinates": [ [ [ 35.353781214813829, 721.460695778447985 ], [ 19.465352857594461, 719.001772342293748 ], [ 14.73665393709101, 701.600160327666231 ], [ 19.27620489804567, 694.223390020203055 ], [ 56.160056449836553, 694.601685933303884 ], [ 58.429831928939571, 719.758364168495177 ], [ 47.270102484227621, 719.190920299843583 ], [ 47.270102483228108, 728.270022218259101 ], [ 37.434408737366567, 728.270022219258635 ], [ 35.353781214813829, 721.460695778447985 ] ] ] } },
{ "type": "Feature", "properties": { "feature_type": "building", "subtype": "minor-damage", "uid": "c3697d5b-d981-4978-b46a-000c2a80bb53" }, "geometry": { "type": "Polygon", "coordinates": [ [ [ 172.804117906180494, 732.541807292715589 ], [ 171.025689422561101, 714.609320113633544 ], [ 188.513569484040403, 712.830891631262716 ], [ 190.588402710640196, 732.54180729071652 ], [ 172.804117906180494, 732.541807292715589 ] ] ] } },
{ "type": "Feature", "properties": { "feature_type": "building", "subtype": "no-damage", "uid": "82639298-82e5-4039-92db-aafd58859480" }, "geometry": { "type": "Polygon", "coordinates": [ [ [ 127.392589918767996, 740.469461143401759 ], [ 128.430006533567109, 725.797426176335875 ], [ 142.361029631555795, 726.538438045156454 ], [ 141.620017765234309, 741.8032825026811 ], [ 127.392589918767996, 740.469461143401759 ] ] ] } },
{ "type": "Feature", "properties": { "feature_type": "building", "subtype": "minor-damage", "uid": "d6c10116-4f0a-4f3b-903d-0a72809479d5" }, "geometry": { "type": "Polygon", "coordinates": [ [ [ 244.663590454534614, 709.389542634310601 ], [ 273.792375784266028, 708.632950807109637 ], [ 274.548967610966884, 723.575639385582804 ], [ 246.176774108186208, 724.143083254234398 ], [ 244.663590454534614, 709.389542634310601 ] ] ] } },
{ "type": "Feature", "properties": { "feature_type": "building", "subtype": "no-damage", "uid": "b3d46485-3161-48dc-a997-1d546ba22a1c" }, "geometry": { "type": "Polygon", "coordinates": [ [ [ 663.223131136077882, 749.105893986090791 ], [ 637.560514453540009, 748.52529179822227 ], [ 637.676634890613968, 734.010237114502161 ], [ 662.642528949459006, 734.706959740943944 ], [ 663.223131136077882, 749.105893986090791 ] ] ] } },
{ "type": "Feature", "properties": { "feature_type": "building", "subtype": "no-damage", "uid": "2d0f26bd-5bee-4b93-9c07-39e13b13c878" }, "geometry": { "type": "Polygon", "coordinates": [ [ [ 666.242262511743434, 744.925558239434281 ], [ 666.358382947318091, 732.849032740764073 ], [ 683.544207696224703, 732.96515317533931 ], [ 683.311966823825969, 746.667364798042399 ], [ 666.242262511743434, 744.925558239434281 ] ] ] } },
{ "type": "Feature", "properties": { "feature_type": "building", "subtype": "no-damage", "uid": "6b3264ef-4967-48d1-a24a-333b1cc2dc5d" }, "geometry": { "type": "Polygon", "coordinates": [ [ [ 807.240809930216528, 705.262595602293345 ], [ 807.619105846065736, 732.121605447437446 ], [ 776.031397083429624, 731.932457490887145 ], [ 776.031397079681483, 703.749411946891883 ], [ 807.240809930216528, 705.262595602293345 ] ] ] } },
{ "type": "Feature", "properties": { "feature_type": "building", "subtype": "no-damage", "uid": "71d25659-a4ab-4846-b2e3-45a1044fb7ee" }, "geometry": { "type": "Polygon", "coordinates": [ [ [ 896.703272957304193, 737.495626984199248 ], [ 874.762109984978792, 734.090963764293747 ], [ 878.166773204133051, 707.988545744351541 ], [ 899.72964026535692, 711.771504878357291 ], [ 896.703272957304193, 737.495626984199248 ] ] ] } },
{ "type": "Feature", "properties": { "feature_type": "building", "subtype": "minor-damage", "uid": "5bc4d819-dae2-4405-9e88-3e11cd1bf62e" }, "geometry": { "type": "Polygon", "coordinates": [ [ [ 969.153155206850442, 677.173678282480864 ], [ 999.416828274634099, 677.551974196581114 ], [ 996.390460968580442, 711.03116252498603 ], [ 980.123736693512797, 708.950535000932973 ], [ 980.123736694262448, 705.545871781027472 ], [ 975.395037778256778, 705.545871784025962 ], [ 975.395037779006429, 702.708652432772055 ], [ 968.018267468798172, 702.519504476221641 ], [ 969.153155206850442, 677.173678282480864 ] ] ] } },
{ "type": "Feature", "properties": { "feature_type": "building", "subtype": "no-damage", "uid": "0db0f482-bc4b-4cb4-b176-7c0f208bd696" }, "geometry": { "type": "Polygon", "coordinates": [ [ [ 870.937561761670622, 742.330111229015529 ], [ 890.798097214441668, 742.708407143115778 ], [ 888.717469688390679, 783.753513739532195 ], [ 887.015138078188897, 785.834141262585717 ], [ 866.019714889864304, 785.834141261586183 ], [ 866.965454670866507, 766.351901727903282 ], [ 862.047607799809839, 766.351901727903282 ], [ 862.804199626760465, 753.30069271593311 ], [ 869.424378108518795, 753.489840673482945 ], [ 870.937561761670622, 742.330111229015529 ] ] ] } },
{ "type": "Feature", "properties": { "feature_type": "building", "subtype": "no-damage", "uid": "079834bc-3e0c-464b-92ce-f673d07f80d9" }, "geometry": { "type": "Polygon", "coordinates": [ [ [ 867.092701071135707, 787.431308062266453 ], [ 890.781270316920427, 787.663548934415417 ], [ 887.994379817901404, 821.454596242377534 ], [ 867.208821509958739, 820.061150992492571 ], [ 867.092701071135707, 787.431308062266453 ] ] ] } },
{ "type": "Feature", "properties": { "feature_type": "building", "subtype": "no-damage", "uid": "cdc98a0b-c4f3-422e-b975-227f5122d5e9" }, "geometry": { "type": "Polygon", "coordinates": [ [ [ 745.797290105066168, 828.501097521618817 ], [ 787.220692615312942, 829.446837305370195 ], [ 786.653248749660179, 868.03302046663191 ], [ 755.822131812475504, 865.763244986028553 ], [ 755.254687939576229, 860.088806287518651 ], [ 752.795764501424173, 860.088806286519116 ], [ 753.363208373823682, 845.902709537245755 ], [ 747.688769673067668, 844.767821795944656 ], [ 746.364733977215678, 843.254638143541683 ], [ 745.797290105066168, 828.501097521618817 ] ] ] } },
{ "type": "Feature", "properties": { "feature_type": "building", "subtype": "no-damage", "uid": "2b01a493-ecdd-4745-a093-6a6c7d2cfa96" }, "geometry": { "type": "Polygon", "coordinates": [ [ [ 821.078176859051041, 828.690245479168652 ], [ 834.696829737667144, 828.879393437718022 ], [ 834.129385872764033, 838.1476433176814 ], [ 820.889028904749694, 838.336791269234254 ], [ 821.078176859051041, 828.690245479168652 ] ] ] } },
{ "type": "Feature", "properties": { "feature_type": "building", "subtype": "no-damage", "uid": "2362e7f6-0b81-4427-bcbd-081902a30128" }, "geometry": { "type": "Polygon", "coordinates": [ [ [ 890.066835306781741, 879.128241629587706 ], [ 862.501193856033638, 876.164194165299818 ], [ 863.835015216311945, 848.153945595444952 ], [ 888.584811573638945, 849.191362209994736 ], [ 887.547394958589962, 867.123849389076668 ], [ 891.993466161516494, 867.716658881534499 ], [ 890.066835306781741, 879.128241629587706 ] ] ] } },
{ "type": "Feature", "properties": { "feature_type": "building", "subtype": "minor-damage", "uid": "4f420459-53cf-4dca-8487-c776876355ca" }, "geometry": { "type": "Polygon", "coordinates": [ [ [ 995.702200643884225, 833.312751944087495 ], [ 994.220176914489571, 854.357488964819709 ], [ 970.804201916191346, 852.282655735720141 ], [ 970.507797171711786, 830.645109222530095 ], [ 974.361058879931875, 830.348704478800073 ], [ 974.064654129954988, 820.270943087027604 ], [ 1002.667712193003013, 823.383192926678817 ], [ 1002.519509821138968, 833.164549570723125 ], [ 995.702200643884225, 833.312751944087495 ] ] ] } },
{ "type": "Feature", "properties": { "feature_type": "building", "subtype": "minor-damage", "uid": "cafebfb8-9fae-4873-8f1b-acdfa1c28d3b" }, "geometry": { "type": "Polygon", "coordinates": [ [ [ 972.58493993865477, 884.361458225654587 ], [ 995.259903065633921, 884.657862972383214 ], [ 994.66709357317643, 927.043741761575802 ], [ 972.288535192675909, 925.265313276206484 ], [ 972.58493993865477, 884.361458225654587 ] ] ] } },
{ "type": "Feature", "properties": { "feature_type": "building", "subtype": "no-damage", "uid": "2d275a0f-c6ad-41ff-8d71-0c2dbbc1524f" }, "geometry": { "type": "Polygon", "coordinates": [ [ [ 654.675935728847435, 909.237491433209925 ], [ 669.240328394712719, 908.859195518110141 ], [ 670.75351204511594, 934.394169669400753 ], [ 657.513155077851138, 934.015873757299573 ], [ 654.675935728847435, 909.237491433209925 ] ] ] } },
{ "type": "Feature", "properties": { "feature_type": "building", "subtype": "minor-damage", "uid": "9a40961a-0185-43f7-a975-2c94772875ee" }, "geometry": { "type": "Polygon", "coordinates": [ [ [ 651.391597807198309, 946.418048821694811 ], [ 674.089352605974568, 946.796344734795525 ], [ 676.169980130776253, 962.495625136471745 ], [ 670.6846893898188, 966.656880184577744 ], [ 653.093929416900323, 966.656880185577279 ], [ 651.391597807198309, 946.418048821694811 ] ] ] } },
{ "type": "Feature", "properties": { "feature_type": "building", "subtype": "minor-damage", "uid": "1ff9c29e-8dec-4515-8b8f-da4ae17eb5cc" }, "geometry": { "type": "Polygon", "coordinates": [ [ [ 640.264897547025157, 992.824926644644847 ], [ 677.167288518721534, 994.455152753651419 ], [ 677.019086143608092, 1017.574723002484006 ], [ 673.165824435637887, 1020.242365724040951 ], [ 661.161432193633345, 1019.945960976313017 ], [ 660.1240155793339, 1021.279782336592007 ], [ 643.821754507267428, 1019.797758602948988 ], [ 643.67355213540236, 1009.719997212176054 ], [ 637.300850077241421, 1009.719997211175951 ], [ 637.893659573447053, 993.565938513465539 ], [ 640.264897547025157, 992.824926644644847 ] ] ] } },
{ "type": "Feature", "properties": { "feature_type": "building", "subtype": "no-damage", "uid": "d770763d-710b-49ef-a9ff-24c00e08afd2" }, "geometry": { "type": "Polygon", "coordinates": [ [ [ 618.723875993561478, 990.71281777348679 ], [ 633.840518077964362, 990.861020145851626 ], [ 634.433327576168949, 1002.420805268268964 ], [ 629.839054000877695, 1003.161817135090018 ], [ 628.949839756694246, 1002.569007643631949 ], [ 622.725340076395241, 1002.717210014997022 ], [ 622.428935329916612, 1000.790579164259952 ], [ 617.98286412699008, 999.901364925073267 ], [ 618.723875993561478, 990.71281777348679 ] ] ] } },
{ "type": "Feature", "properties": { "feature_type": "building", "subtype": "no-damage", "uid": "4be0779f-8f80-416d-8e06-45620e06953f" }, "geometry": { "type": "Polygon", "coordinates": [ [ [ 470.713049654485587, 986.281282245637613 ], [ 494.167396279712875, 985.335542461886234 ], [ 494.545692193813011, 1001.223970823111017 ], [ 472.037085350587404, 1001.980562649313015 ], [ 470.713049654485587, 986.281282245637613 ] ] ] } },
{ "type": "Feature", "properties": { "feature_type": "building", "subtype": "no-damage", "uid": "3cb657a4-33d0-4c43-adcb-e5b36898c3d9" }, "geometry": { "type": "Polygon", "coordinates": [ [ [ 496.626319716615626, 1000.656526952461036 ], [ 497.00461563246472, 986.659578158738327 ], [ 530.862099873704096, 987.037874070839507 ], [ 530.294656005802381, 1019.76047057604103 ], [ 499.274391114316415, 1017.868991007538966 ], [ 497.572059499616785, 1015.410067571384957 ], [ 497.761207455917202, 1005.574373824769054 ], [ 496.626319720363711, 1003.115450387615965 ], [ 496.626319716615626, 1000.656526952461036 ] ] ] } },
{ "type": "Feature", "properties": { "feature_type": "building", "subtype": "no-damage", "uid": "2cbeee15-39a3-4a55-9eed-42489fde4965" }, "geometry": { "type": "Polygon", "coordinates": [ [ [ 390.041353550556778, 1022.982226121827011 ], [ 389.208378327505386, 1007.907626089232963 ], [ 389.652985447847982, 996.347840964816555 ], [ 398.396925479837023, 996.644245713544251 ], [ 398.841532599430025, 987.45569856395673 ], [ 418.700650631239114, 988.789519926234675 ], [ 413.098751546052995, 1022.982334082201987 ], [ 390.041353550556778, 1022.982226121827011 ] ] ] } },
{ "type": "Feature", "properties": { "feature_type": "building", "subtype": "no-damage", "uid": "24efda74-cd77-4df1-b757-db316da429d9" }, "geometry": { "type": "Polygon", "coordinates": [ [ [ 160.274174135453308, 1022.979917033758966 ], [ 160.07215794509969, 1016.161870502248007 ], [ 171.4519608173226, 1016.51023181696803 ], [ 173.309887818750894, 1016.626352254540961 ], [ 173.710124751420494, 1022.980113767040962 ], [ 160.274174135453308, 1022.979917033758966 ] ] ] } },
{ "type": "Feature", "properties": { "feature_type": "building", "subtype": "no-damage", "uid": "9356a4aa-1987-4d5b-8bd4-50c5d5abecf1" }, "geometry": { "type": "Polygon", "coordinates": [ [ [ 125.361419066664595, 942.595759750006209 ], [ 154.972130625457197, 943.989204999891285 ], [ 154.972130623708011, 954.55616481110269 ], [ 151.488517500746411, 957.92365749874125 ], [ 148.12102481360921, 973.948277869920048 ], [ 146.146977375356812, 977.083529681411733 ], [ 126.406503003827893, 976.38680705796844 ], [ 124.5485760041487, 974.528880056789149 ], [ 125.129178191517198, 962.452354561117431 ], [ 123.619612504309103, 962.220113683971022 ], [ 123.735732943132206, 953.162719561217727 ], [ 125.129178193766094, 952.814358250495616 ], [ 125.361419066664595, 942.595759750006209 ] ] ] } },
{ "type": "Feature", "properties": { "feature_type": "building", "subtype": "minor-damage", "uid": "574b068d-d85a-4687-9663-f1a8a810cc5e" }, "geometry": { "type": "Polygon", "coordinates": [ [ [ 931.589380859833341, 435.745435596558707 ], [ 935.594708034106134, 302.64533259688028 ], [ 958.086160627157597, 302.64533259688028 ], [ 959.318568985627508, 303.569638866732703 ], [ 973.799367227384778, 303.569638865733225 ], [ 972.25885678029681, 436.669741867410607 ], [ 969.177835872627611, 437.594048137262973 ], [ 934.670401763754398, 437.902150226880678 ], [ 931.589380859833341, 435.745435596558707 ] ] ] } },
{ "type": "Feature", "properties": { "feature_type": "building", "subtype": "no-damage", "uid": "28e58207-dd5b-45a6-adf0-cc5108ed8964" }, "geometry": { "type": "Polygon", "coordinates": [ [ [ 859.29501156645938, 80.776667292662253 ], [ 1002.690205074711002, 82.225103593300588 ], [ 1004.138641374599047, 118.436011044290893 ], [ 1001.241768776322033, 122.057101787890701 ], [ 857.36376316927408, 120.850071542023102 ], [ 859.29501156645938, 80.776667292662253 ] ] ] } },
{ "type": "Feature", "properties": { "feature_type": "building", "subtype": "no-damage", "uid": "9ac57dce-a21a-4ee9-af84-d987ea7507ea" }, "geometry": { "type": "Polygon", "coordinates": [ [ [ 791.47369714837771, 94.61002558435753 ], [ 843.542950406927275, 93.993821405122247 ], [ 844.159154586162231, 115.560967725333597 ], [ 837.997112781818487, 122.955417890150002 ], [ 793.630411784445869, 121.723009527681398 ], [ 791.47369714837771, 94.61002558435753 ] ] ] } },
{ "type": "Feature", "properties": { "feature_type": "building", "subtype": "no-damage", "uid": "5beeadf3-ec40-4ae5-8d62-8d444e983bce" }, "geometry": { "type": "Polygon", "coordinates": [ [ [ 986.505341899699147, 0.001758016786931 ], [ 981.966778334801461, 8.082365824709132 ], [ 850.130652538551999, 7.514921954058538 ], [ 848.807344681429981, 0.00413110006819 ], [ 986.505341899699147, 0.001758016786931 ] ] ] } },
{ "type": "Feature", "properties": { "feature_type": "building", "subtype": "no-damage", "uid": "59c35216-ca78-4b2d-9d7b-a3986eb5d689" }, "geometry": { "type": "Polygon", "coordinates": [ [ [ 126.389166325516499, 852.370811471458751 ], [ 149.321063659129095, 852.064766901863777 ], [ 151.653537723876013, 870.856936888497216 ], [ 156.583171170999208, 870.548834798879625 ], [ 160.8966004321409, 888.726858126300385 ], [ 146.415802188384589, 887.802551854449007 ], [ 146.107700099266907, 884.105326771041291 ], [ 124.540553779815497, 885.645837221128545 ], [ 126.389166325516499, 852.370811471458751 ] ] ] } },
{ "type": "Feature", "properties": { "feature_type": "building", "subtype": "no-damage", "uid": "ba735979-75b3-4037-ae64-0905ada7e8b8" }, "geometry": { "type": "Polygon", "coordinates": [ [ [ 103.747204703824494, 907.100101274355552 ], [ 117.670719147637897, 907.332159849052232 ], [ 117.206602001243297, 914.293917067963775 ], [ 104.4433804286639, 914.061858496265586 ], [ 103.747204703824494, 907.100101274355552 ] ] ] } }
]
}
