{
"type": "FeatureCollection",
"name": "hurricane-michael_00000453_post_disaster",
"features": [
{ "type": "Feature", "properties": { "feature_type": "building", "subtype": "major-damage", "uid": "a6ed9203-a25e-4dc2-9e14-e8bc1aa1e211" }, "geometry": { "type": "Polygon", "coordinates": [ [ [ 301.166156669806583, 80.246171305467655 ], [ 320.664581404595481, 56.68557474593765 ], [ 351.130870059952088, 79.83995412249314 ], [ 342.600309237232125, 92.432686766707405 ], [ 339.229176617401095, 90.807818038808733 ], [ 338.837044557369097, 89.743238884902453 ], [ 331.223245532115072, 100.282421510284294 ], [ 326.497904962630287, 104.493935068996194 ], [ 334.136667955242785, 109.904725523209706 ], [ 344.95824886392262, 124.863969721623505 ], [ 335.409795125469202, 136.640396002970903 ], [ 330.898323378162615, 142.182564018331988 ], [ 318.222578388154204, 133.139296293597994 ], [ 311.220378976905522, 128.046787633690712 ], [ 292.123471489999986, 111.814416273049602 ], [ 291.486907906886586, 108.313316565676402 ], [ 269.525464298720124, 91.444381623421833 ], [ 283.529863121717483, 74.893728468474549 ], [ 287.985808201762211, 76.166855633701331 ], [ 288.940653576432283, 74.893728468474549 ], [ 290.532062535965792, 73.30231951194105 ], [ 298.807389109442113, 80.941082504301662 ], [ 301.166156669806583, 80.246171305467655 ] ] ] } },
{ "type": "Feature", "properties": { "feature_type": "building", "subtype": "no-damage", "uid": "34d34b84-3e83-4dbb-84a4-e2989b7f2d9f" }, "geometry": { "type": "Polygon", "coordinates": [ [ [ 297.137106654858087, 157.594682298228292 ], [ 316.552295933070411, 166.188290667508596 ], [ 331.141051850117492, 172.639645294808503 ], [ 323.236213550262676, 186.876607110442791 ], [ 322.28136817709219, 188.149734274669697 ], [ 319.154984598929786, 193.448563724966391 ], [ 305.094151443026817, 214.248841170817713 ], [ 284.724116787894673, 199.926160556017095 ], [ 295.545697697074388, 176.373307991322605 ], [ 287.588652912655277, 171.599081122721998 ], [ 295.227415906267595, 157.276400510921007 ], [ 297.137106654858087, 157.594682298228292 ] ] ] } },
{ "type": "Feature", "properties": { "feature_type": "building", "subtype": "minor-damage", "uid": "e631d727-067e-4f4e-92ff-12405a711ff1" }, "geometry": { "type": "Polygon", "coordinates": [ [ [ 457.888835436886325, 173.512241616912007 ], [ 475.669999756519815, 182.10972766027129 ], [ 467.85410335287321, 202.040263492239887 ], [ 461.601386233155324, 199.890891980900193 ], [ 460.429001769583806, 201.844866079936708 ], [ 468.635692992837903, 205.948211694312306 ], [ 459.256617309511682, 225.487952701674402 ], [ 449.291349392275094, 220.407620042779797 ], [ 447.728170114595287, 221.580004500601888 ], [ 439.716876299645207, 217.672056300529192 ], [ 433.073364352820988, 213.764108099456791 ], [ 430.704293463759086, 211.052846327623911 ], [ 432.877966944267087, 207.12059615513391 ], [ 433.073364352820988, 202.040263493239792 ], [ 442.647837450450311, 184.063701760307595 ], [ 442.452440039146722, 179.764958737628092 ], [ 448.705157163363879, 168.627306363321708 ], [ 457.888835436886325, 173.512241616912007 ] ] ] } },
{ "type": "Feature", "properties": { "feature_type": "building", "subtype": "no-damage", "uid": "fda60620-a207-488b-8fea-ae2c7b298375" }, "geometry": { "type": "Polygon", "coordinates": [ [ [ 453.347076779678673, 244.488226421580094 ], [ 467.811239266982398, 252.967218225299007 ], [ 461.327304360871778, 265.436323820238272 ], [ 445.86561342126339, 256.458567791242103 ], [ 451.601401994956973, 244.986990644857713 ], [ 453.347076779678673, 244.488226421580094 ] ] ] } },
{ "type": "Feature", "properties": { "feature_type": "building", "subtype": "no-damage", "uid": "b68438c4-9104-49cc-a1bd-300917f27d05" }, "geometry": { "type": "Polygon", "coordinates": [ [ [ 532.193711848704197, 239.300851341054909 ], [ 541.670232098980705, 243.041583019136709 ], [ 538.428264648175059, 253.515631719965597 ], [ 562.119565273366561, 262.992151972239526 ], [ 555.386248253617396, 287.43159893484119 ], [ 552.892427137228538, 287.680981044980172 ], [ 509.749321779707486, 271.221761663819677 ], [ 519.22584203123381, 247.779843143773888 ], [ 526.956687501537886, 249.774900041883797 ], [ 530.198654952343531, 239.051469228916091 ], [ 532.193711848704197, 239.300851341054909 ] ] ] } },
{ "type": "Feature", "properties": { "feature_type": "building", "subtype": "no-damage", "uid": "2c4d7167-4552-4ca1-ac7e-aae031687333" }, "geometry": { "type": "Polygon", "coordinates": [ [ [ 348.502479386278708, 338.299347489530987 ], [ 357.414369546867817, 340.209038238371022 ], [ 366.962823292820076, 344.346701529357517 ], [ 371.77497560998961, 343.89704217190399 ], [ 363.461723586445885, 369.490963047585922 ], [ 370.14564120363832, 373.310344542266478 ], [ 368.23595045604759, 383.177080078773201 ], [ 362.825160001832614, 382.540516499159423 ], [ 359.005778504401576, 386.359897993839922 ], [ 355.504678799277087, 401.63742398256062 ], [ 330.042135483986499, 396.226633527347076 ], [ 328.450726526952678, 393.04381561428022 ], [ 323.358217866044185, 387.951306951373283 ], [ 325.904472199997883, 382.858798287466527 ], [ 323.994781448657818, 379.039416790786277 ], [ 332.906671611746617, 353.576873478251628 ], [ 339.890362134408008, 352.622028103331672 ], [ 345.637943265267609, 337.662783906917582 ], [ 348.502479386278708, 338.299347489530987 ] ] ] } },
{ "type": "Feature", "properties": { "feature_type": "building", "subtype": "no-damage", "uid": "f7f3dcb1-364f-4725-9701-20d4679f6c2e" }, "geometry": { "type": "Polygon", "coordinates": [ [ [ 329.271729101960887, 413.929247408694494 ], [ 337.865337474242892, 431.434745934562272 ], [ 319.086711779644077, 440.983199679762379 ], [ 310.49310341261139, 424.432546522815414 ], [ 329.271729101960887, 413.929247408694494 ] ] ] } },
{ "type": "Feature", "properties": { "feature_type": "building", "subtype": "no-damage", "uid": "6e156d7e-6aa3-4636-9ee5-2459cf0eb797" }, "geometry": { "type": "Polygon", "coordinates": [ [ [ 451.164864377534514, 464.347250857599988 ], [ 465.681394377110792, 498.046338350153803 ], [ 456.867786875145214, 502.193918346960686 ], [ 462.049926801908384, 518.133054709666112 ], [ 434.677692739777001, 530.227762784319907 ], [ 428.948620498004686, 514.950236797599018 ], [ 421.309857499892985, 516.541645752132695 ], [ 408.260304052315803, 483.122057654930927 ], [ 412.079685552496528, 481.212366906090779 ], [ 413.671094507780481, 478.666112573637577 ], [ 411.443121968133084, 472.937040331116918 ], [ 449.318655148137623, 458.296077926009389 ], [ 451.164864377534514, 464.347250857599988 ] ] ] } },
{ "type": "Feature", "properties": { "feature_type": "building", "subtype": "minor-damage", "uid": "b2ebf0bb-2220-498c-9c29-9921aed3fa12" }, "geometry": { "type": "Polygon", "coordinates": [ [ [ 484.953622209928312, 531.180116585366477 ], [ 493.865512368767781, 555.051250938368071 ], [ 499.9128664045964, 555.051250939367947 ], [ 503.095684319663917, 563.963141097955145 ], [ 467.129841887250222, 578.285821710756068 ], [ 458.940326751502994, 556.128832888129295 ], [ 453.788063573491627, 558.083089443433209 ], [ 443.57698932229988, 537.864034203806909 ], [ 453.443724858059227, 531.498398374673457 ], [ 477.314859212066608, 523.223071798699607 ], [ 481.13424071074752, 524.177917170619935 ], [ 484.953622209928312, 531.180116585366477 ] ] ] } },
{ "type": "Feature", "properties": { "feature_type": "building", "subtype": "minor-damage", "uid": "4b955356-08b4-4cb9-8b7f-6827762f0a49" }, "geometry": { "type": "Polygon", "coordinates": [ [ [ 434.388884858240885, 762.371328912339891 ], [ 443.865405113516715, 772.595995498030561 ], [ 453.840689584571408, 784.316954758553265 ], [ 459.327096048375779, 782.072515749304557 ], [ 471.319550984791988, 798.326110854166814 ], [ 458.578949712959172, 807.010726940183076 ], [ 443.86540511126708, 796.536678238354398 ], [ 418.677811810993092, 816.986011413735014 ], [ 406.95685255121731, 805.514434267350566 ], [ 399.22600708341281, 788.057686432635819 ], [ 399.475389198551113, 782.32189786144329 ], [ 405.709941993522705, 778.581166185361099 ], [ 410.697584230299924, 781.823133639165462 ], [ 418.179047585965577, 775.837962954834438 ], [ 420.174104482826124, 771.598467050475392 ], [ 431.645681627463489, 763.36885735989506 ], [ 434.388884858240885, 762.371328912339891 ] ] ] } },
{ "type": "Feature", "properties": { "feature_type": "building", "subtype": "no-damage", "uid": "8eba9473-d1e8-4305-8f18-f618058c80c7" }, "geometry": { "type": "Polygon", "coordinates": [ [ [ 222.111513316466613, 874.582911553609392 ], [ 220.838386153739208, 872.036657222156009 ], [ 220.52010435968279, 865.352739602715587 ], [ 225.61261302284089, 860.578512732115314 ], [ 222.613379155235009, 850.112138748357552 ], [ 228.477149144601896, 848.165522865154912 ], [ 257.759073956573673, 839.571914497874332 ], [ 262.533300825175502, 852.303186155141589 ], [ 270.172063821037511, 848.802086448768137 ], [ 274.309727109025516, 859.623667358195121 ], [ 294.043198175044893, 853.258031530061544 ], [ 301.681961173656475, 874.582911553609392 ], [ 281.311926519024382, 882.539956339276387 ], [ 228.795430936158596, 898.454045911610365 ], [ 222.111513316466613, 874.582911553609392 ] ] ] } },
{ "type": "Feature", "properties": { "feature_type": "building", "subtype": "no-damage", "uid": "b38f3c27-f2f6-4d6b-89be-80b296273c7b" }, "geometry": { "type": "Polygon", "coordinates": [ [ [ 99.457112971751172, 879.822436459070332 ], [ 113.461511798248097, 820.940305046334174 ], [ 118.872302247213796, 816.484359967040518 ], [ 167.887698124705111, 828.260786250387696 ], [ 159.612371548729186, 864.226628678043085 ], [ 139.878900480710001, 860.72552897466926 ], [ 137.014364359948786, 871.228828089789999 ], [ 141.788591233049999, 873.775082422243372 ], [ 137.650927941812512, 895.099962447790972 ], [ 120.980765751905295, 896.492598648723401 ], [ 116.962611501622803, 903.693570814071677 ], [ 97.547422224410425, 901.465598273924911 ], [ 97.547422223410578, 889.689171993577361 ], [ 99.457112971751172, 879.822436459070332 ] ] ] } },
{ "type": "Feature", "properties": { "feature_type": "building", "subtype": "no-damage", "uid": "475317f1-7792-4e7d-b610-19c016a9aa2a" }, "geometry": { "type": "Polygon", "coordinates": [ [ [ 142.795758232772698, 964.938420368478774 ], [ 147.035254133633288, 978.405054411973083 ], [ 150.853526203480811, 991.166964737419562 ], [ 142.047611899605812, 995.612420130549822 ], [ 116.860018596582194, 1000.350680254186955 ], [ 112.121758471693894, 978.654436522112178 ], [ 106.635352012388793, 980.400111308083297 ], [ 104.640295117527998, 975.661851182446298 ], [ 107.632880456944704, 974.664322733891254 ], [ 104.390913003139502, 961.197688690396831 ], [ 108.630408905999801, 959.701396017564321 ], [ 107.882262568333601, 953.466843221094564 ], [ 110.376083689971694, 952.2199326634003 ], [ 111.373612135777293, 949.726111546012248 ], [ 122.346425057886904, 946.484144089208257 ], [ 123.593335619080904, 947.980436762040767 ], [ 132.32170953619061, 947.232290425624569 ], [ 133.069855869607409, 950.474257879428933 ], [ 136.311823324412501, 951.222404215845131 ], [ 141.548847672328606, 962.693981363229341 ], [ 142.795758232772698, 964.938420368478774 ] ] ] } },
{ "type": "Feature", "properties": { "feature_type": "building", "subtype": "major-damage", "uid": "5c78ab9d-f7d6-4ec9-bd4b-0a8c895dbbc3" }, "geometry": { "type": "Polygon", "coordinates": [ [ [ 274.568438106334384, 1022.981642963829017 ], [ 268.439421194082513, 1012.653113961667032 ], [ 274.923356101942773, 1009.909910730140041 ], [ 276.918413000303076, 1005.919796941919003 ], [ 284.649258465358116, 1000.682772591005005 ], [ 291.881339708634926, 1000.18400836772696 ], [ 296.37021772313409, 1010.658057068555991 ], [ 302.106006299077421, 1007.914853833029952 ], [ 301.108477849272276, 1003.176593711393025 ], [ 310.584998100548717, 998.438333584755696 ], [ 324.301014252935715, 995.695130355228798 ], [ 333.196345792288184, 1022.982162025139019 ], [ 274.568438106334384, 1022.981642963829017 ] ] ] } },
{ "type": "Feature", "properties": { "feature_type": "building", "subtype": "no-damage", "uid": "1d4e1de1-83be-4ac1-8ac7-c8554766f1b2" }, "geometry": { "type": "Polygon", "coordinates": [ [ [ 364.420279844588322, 790.99316004947957 ], [ 382.700053036202519, 784.899902319859507 ], [ 395.699002863394526, 817.397276884831967 ], [ 317.705303905741516, 852.738171722627158 ], [ 304.706354082049018, 822.271883068527927 ], [ 320.548824180314796, 814.553756607009859 ], [ 324.610996004311914, 821.865665885553426 ], [ 367.263800120911185, 801.148589599846105 ], [ 364.420279844588322, 790.99316004947957 ] ] ] } },
{ "type": "Feature", "properties": { "feature_type": "building", "subtype": "no-damage", "uid": "0bf39ea2-5e72-4819-98fc-f8969dafb894" }, "geometry": { "type": "Polygon", "coordinates": [ [ [ 540.248126951543895, 743.224811813690621 ], [ 552.218468322958529, 755.44453529349164 ], [ 531.020988812656242, 779.13583592267662 ], [ 517.304972659269424, 763.674144988071362 ], [ 536.756777389849276, 742.227283364135701 ], [ 540.248126951543895, 743.224811813690621 ] ] ] } },
{ "type": "Feature", "properties": { "feature_type": "building", "subtype": "no-damage", "uid": "2389d8be-a33b-409d-91a3-cc32b9882bce" }, "geometry": { "type": "Polygon", "coordinates": [ [ [ 581.03782482050724, 696.056978747618132 ], [ 590.380820006676799, 708.649711390832522 ], [ 577.381870181734485, 716.774055031325702 ], [ 568.851309360764276, 703.775105203137059 ], [ 581.03782482050724, 696.056978747618132 ] ] ] } },
{ "type": "Feature", "properties": { "feature_type": "building", "subtype": "major-damage", "uid": "6392fcc9-75a1-4e0b-ac48-f379f1b806ca" }, "geometry": { "type": "Polygon", "coordinates": [ [ [ 531.718420817044944, 622.400594412263672 ], [ 536.84240911413076, 648.113082939739456 ], [ 542.5294496637772, 646.488214211840841 ], [ 547.810273027949393, 668.830159225446778 ], [ 549.530790414641842, 674.493577219291751 ], [ 514.787410071400018, 683.119786699803058 ], [ 508.4072063691479, 653.393906305410155 ], [ 513.68802973606978, 651.362820396536677 ], [ 510.032075098546784, 626.98978947205751 ], [ 531.718420817044944, 622.400594412263672 ] ] ] } },
{ "type": "Feature", "properties": { "feature_type": "building", "subtype": "no-damage", "uid": "1ea80e2b-b324-49da-a9f6-574c0c65e1d5" }, "geometry": { "type": "Polygon", "coordinates": [ [ [ 690.269689104309236, 599.64089981557936 ], [ 693.134225229319782, 613.327016845766707 ], [ 679.766389986686249, 618.419525509673463 ], [ 681.9943625295831, 628.604542833487585 ], [ 684.858898647594742, 636.243305827847848 ], [ 648.574774428123646, 644.518632403821698 ], [ 640.936011433261456, 607.916226390553334 ], [ 689.633125519196028, 598.367772650352549 ], [ 690.269689104309236, 599.64089981557936 ] ] ] } },
{ "type": "Feature", "properties": { "feature_type": "building", "subtype": "no-damage", "uid": "1b3fe903-05c9-4545-b2f4-c10216d112f0" }, "geometry": { "type": "Polygon", "coordinates": [ [ [ 705.135802852121628, 724.611449176209021 ], [ 705.454084646177989, 750.392274280050401 ], [ 696.223912695281911, 751.028837865663377 ], [ 694.314221942691916, 747.209456365983556 ], [ 685.40233178385256, 747.846019950596656 ], [ 685.40233178385256, 755.803064734263899 ], [ 666.193841548643377, 755.524432204833829 ], [ 665.196313098838345, 733.329424248481359 ], [ 661.455581420505609, 732.581277912065048 ], [ 661.704963531894577, 722.855375551651832 ], [ 664.44816676517155, 723.104757661790927 ], [ 665.4456952144767, 718.865261760431395 ], [ 672.927158566142907, 718.615879648292662 ], [ 674.423451240225631, 721.857847102097026 ], [ 682.653060930308015, 721.857847102097026 ], [ 683.65058937861329, 719.114643871570252 ], [ 694.374020189833914, 718.366497532154426 ], [ 694.623402301722763, 722.356611325374615 ], [ 704.099922553499027, 722.356611325374615 ], [ 705.135802852121628, 724.611449176209021 ] ] ] } },
{ "type": "Feature", "properties": { "feature_type": "building", "subtype": "no-damage", "uid": "5a631245-9f9c-4be5-ab87-7aad59a0904e" }, "geometry": { "type": "Polygon", "coordinates": [ [ [ 753.042351382770562, 681.055827556904319 ], [ 753.790497718437109, 689.285437246484776 ], [ 743.81521324313303, 691.280494141595 ], [ 743.067066907216599, 694.273079484260506 ], [ 733.091782430162766, 694.522461598398991 ], [ 732.593018206884949, 680.05829910934915 ], [ 753.042351382770562, 681.055827556904319 ] ] ] } },
{ "type": "Feature", "properties": { "feature_type": "building", "subtype": "no-damage", "uid": "53c58504-44aa-408a-89bc-e65e9e817172" }, "geometry": { "type": "Polygon", "coordinates": [ [ [ 766.195153335024543, 726.678661994381741 ], [ 768.938356565801882, 725.43175143468784 ], [ 778.165494704189541, 723.436694540577378 ], [ 791.382746633548777, 724.683605097271652 ], [ 791.632128747687261, 716.70337751783029 ], [ 810.086405026462444, 715.705849071274997 ], [ 810.335787136601539, 725.681133546826572 ], [ 813.328372479517725, 725.681133546826572 ], [ 812.580226145350935, 752.115637405538337 ], [ 802.355559557908009, 752.365019518676945 ], [ 780.908697936216754, 752.61440162881604 ], [ 779.911169487161601, 747.876141503179042 ], [ 767.192681783829698, 748.374905728456383 ], [ 764.200096438913874, 736.653946467933565 ], [ 766.195153335024543, 726.678661994381741 ] ] ] } },
{ "type": "Feature", "properties": { "feature_type": "building", "subtype": "no-damage", "uid": "10811875-68a6-4556-a6b5-10476d122702" }, "geometry": { "type": "Polygon", "coordinates": [ [ [ 852.05792844858945, 705.919087522722407 ], [ 867.02085516392026, 706.667233860138595 ], [ 866.522090938392807, 712.403022433330761 ], [ 867.020855164420141, 738.837526292042526 ], [ 843.080172422340638, 739.086908404181258 ], [ 843.080172422090641, 714.398079326441348 ], [ 850.811017890894959, 713.899315103163644 ], [ 852.05792844858945, 705.919087522722407 ] ] ] } },
{ "type": "Feature", "properties": { "feature_type": "building", "subtype": "no-damage", "uid": "3eb54375-86a6-48f6-bf92-bbaabb14396b" }, "geometry": { "type": "Polygon", "coordinates": [ [ [ 926.203468199927897, 706.553088758918989 ], [ 941.914541246675867, 706.553088759918865 ], [ 942.662687582092417, 716.777755347609059 ], [ 964.857695540200098, 716.278991123331593 ], [ 964.608313428311249, 743.461641318459669 ], [ 937.425663236675859, 744.708551881153198 ], [ 936.926899008398891, 741.466584425349083 ], [ 920.966443850761948, 741.217202314210226 ], [ 921.215825962150916, 717.525901683025495 ], [ 924.707175529844562, 716.029609010192985 ], [ 926.203468199927897, 706.553088758918989 ] ] ] } },
{ "type": "Feature", "properties": { "feature_type": "building", "subtype": "no-damage", "uid": "3139a026-c286-4f07-9a88-1d1dfe95f2c8" }, "geometry": { "type": "Polygon", "coordinates": [ [ [ 1023.054817871842033, 747.967495250789511 ], [ 1015.724673564247041, 746.525144298142664 ], [ 1016.361237146860958, 736.021845183021924 ], [ 1010.950446693395975, 732.202463686341616 ], [ 1011.268728483202949, 709.60445649456733 ], [ 1014.769828188326983, 707.058202164113823 ], [ 1014.769828188826978, 698.464593796833242 ], [ 1023.054845482262976, 696.464762223175057 ], [ 1023.054817871842033, 747.967495250789511 ] ] ] } },
{ "type": "Feature", "properties": { "feature_type": "building", "subtype": "minor-damage", "uid": "4c5cc180-89ef-4cca-be35-f687587ae647" }, "geometry": { "type": "Polygon", "coordinates": [ [ [ 733.338662841924361, 836.732202211426852 ], [ 743.087875209568779, 848.106283305717625 ], [ 747.962481394515748, 856.230626948210556 ], [ 724.808102018204522, 872.479314231196668 ], [ 717.089975558934157, 864.761187772678227 ], [ 704.091025736241477, 875.322834504019511 ], [ 689.060989996425974, 855.824409765236055 ], [ 724.808102016704765, 829.014075751908422 ], [ 733.338662841924361, 836.732202211426852 ] ] ] } },
{ "type": "Feature", "properties": { "feature_type": "building", "subtype": "no-damage", "uid": "2a1a352e-324c-4f3e-a575-db3606756de2" }, "geometry": { "type": "Polygon", "coordinates": [ [ [ 833.526217246716897, 841.244269844690962 ], [ 833.526217246216902, 852.618350940981486 ], [ 833.932434427441763, 863.9924320412714 ], [ 812.402923778529725, 865.617300768170253 ], [ 812.809140959754586, 872.522992863739319 ], [ 786.405024127145225, 872.929210045713944 ], [ 787.217458491844582, 863.179997676322273 ], [ 777.468246120700769, 861.961346130398283 ], [ 775.030943030851859, 855.868088397778706 ], [ 777.221583800216422, 838.86531437206304 ], [ 831.647770134922325, 838.228750788449815 ], [ 833.526217246716897, 841.244269844690962 ] ] ] } },
{ "type": "Feature", "properties": { "feature_type": "building", "subtype": "no-damage", "uid": "6ffd56af-0013-4ca9-8a99-be779018d7e7" }, "geometry": { "type": "Polygon", "coordinates": [ [ [ 880.076110463556802, 839.493306028166785 ], [ 879.817626920141834, 834.08858319447063 ], [ 885.039980212686032, 834.396001887785019 ], [ 886.545577728491253, 814.82323415707549 ], [ 902.018838105481336, 816.27389670569562 ], [ 901.763252763111154, 864.26381873426385 ], [ 852.634976722007423, 865.011965069680286 ], [ 852.1362124992296, 863.765054507986633 ], [ 850.157622071221112, 852.542859475740784 ], [ 852.703876401425305, 839.81158781847364 ], [ 880.076110463556802, 839.493306028166785 ] ] ] } },
{ "type": "Feature", "properties": { "feature_type": "building", "subtype": "no-damage", "uid": "f0a72cf2-c01b-402c-be39-5f928ea74968" }, "geometry": { "type": "Polygon", "coordinates": [ [ [ 904.5172603065663, 954.621597302780287 ], [ 904.766642422204541, 981.554865385769631 ], [ 846.411228237713885, 980.307954824075978 ], [ 846.411228237713885, 955.369743636196972 ], [ 863.86797607093331, 954.870979412919382 ], [ 864.616122406849854, 944.396930713090228 ], [ 878.830902783264492, 945.145077048506664 ], [ 879.828431230819888, 953.873450966363976 ], [ 904.5172603065663, 954.621597302780287 ] ] ] } },
{ "type": "Feature", "properties": { "feature_type": "building", "subtype": "no-damage", "uid": "fb3aff48-848c-460e-84aa-2c61ea433d28" }, "geometry": { "type": "Polygon", "coordinates": [ [ [ 969.834575914027596, 953.796568466646704 ], [ 970.789421287198024, 985.30646581900794 ], [ 956.148458882586965, 986.261311192928019 ], [ 956.148458883586841, 981.80536611063485 ], [ 922.72887078487679, 981.805366112634601 ], [ 923.047152574683878, 954.433132050260042 ], [ 941.825778271032391, 954.433132050260042 ], [ 942.462341852396094, 949.022341598046069 ], [ 958.694713217290541, 949.022341598046069 ], [ 959.967840382267696, 954.114850259953187 ], [ 969.834575914027596, 953.796568466646704 ] ] ] } },
{ "type": "Feature", "properties": { "feature_type": "building", "subtype": "destroyed", "uid": "6be16942-adda-4e4f-adf8-15bbab909c7c" }, "geometry": { "type": "Polygon", "coordinates": [ [ [ 1023.05456181867396, 1017.585506590496038 ], [ 1019.511122127473982, 1000.317857828654951 ], [ 1016.767918899696042, 985.604313230466005 ], [ 1010.283983990585966, 985.105549007188301 ], [ 1010.283983990585966, 970.641386517138585 ], [ 1017.51606523161297, 969.893240182722138 ], [ 1016.76791889669596, 948.446378559786353 ], [ 1023.054646060227014, 947.796027604238134 ], [ 1023.05456181867396, 1017.585506590496038 ] ] ] } },
{ "type": "Feature", "properties": { "feature_type": "building", "subtype": "no-damage", "uid": "be04fd41-c8d6-422b-b16e-39274e4b9ec5" }, "geometry": { "type": "Polygon", "coordinates": [ [ [ 1023.054649030789051, 945.12624521388409 ], [ 1019.511122127473982, 944.732519932248465 ], [ 1018.762975792556972, 939.246113467195642 ], [ 1012.777805105724951, 937.500438686223788 ], [ 1012.029658770307947, 917.549869737120389 ], [ 1010.034601877197019, 913.809138057038808 ], [ 1009.535837651170027, 892.61165854624187 ], [ 1023.054704466597968, 891.91240708667533 ], [ 1023.054649030789051, 945.12624521388409 ] ] ] } },
{ "type": "Feature", "properties": { "feature_type": "building", "subtype": "no-damage", "uid": "f0e604d4-71cb-4531-aa38-8291879497c0" }, "geometry": { "type": "Polygon", "coordinates": [ [ [ 561.540958800920407, 1022.982789287461969 ], [ 558.44674354143342, 1015.247250789548048 ], [ 575.952242067305633, 1010.791305708253958 ], [ 574.042551317715152, 997.741752262680052 ], [ 590.923447432227363, 994.877216137920186 ], [ 604.427089400355499, 1022.982659580625977 ], [ 561.540958800920407, 1022.982789287461969 ] ] ] } },
{ "type": "Feature", "properties": { "feature_type": "building", "subtype": "no-damage", "uid": "e53def2d-6414-4482-9b47-7fc97602b894" }, "geometry": { "type": "Polygon", "coordinates": [ [ [ 1018.09267520079004, 601.51904297053261 ], [ 1020.32064774318701, 640.667703316254347 ], [ 1019.047520574960004, 642.259112272787775 ], [ 990.720441138158549, 644.168803022627685 ], [ 990.083877556794846, 637.166603612880408 ], [ 980.853705605148775, 637.166603613880284 ], [ 980.217142024534951, 616.796568960253126 ], [ 988.492468598511209, 617.114850750559981 ], [ 987.855905016147631, 602.473888344452689 ], [ 1018.09267520079004, 601.51904297053261 ] ] ] } },
{ "type": "Feature", "properties": { "feature_type": "building", "subtype": "no-damage", "uid": "86494f90-ba38-4b8a-ab14-3277bc730309" }, "geometry": { "type": "Polygon", "coordinates": [ [ [ 938.374677852082755, 580.10576299195543 ], [ 956.82895412910807, 580.105762988955917 ], [ 957.327718351386011, 601.303242499752855 ], [ 937.875913626055308, 600.305714051197924 ], [ 938.374677852082755, 580.10576299195543 ] ] ] } },
{ "type": "Feature", "properties": { "feature_type": "building", "subtype": "major-damage", "uid": "c9593b2c-7022-4244-9fef-8175258419b9" }, "geometry": { "type": "Polygon", "coordinates": [ [ [ 1023.054888203201017, 504.961106526744516 ], [ 996.680755710947096, 506.49745999864939 ], [ 996.044192127333645, 517.637322698383286 ], [ 984.586047635790351, 517.000759113770187 ], [ 976.947284643177909, 516.364195532156714 ], [ 978.22041181240445, 499.176978796595677 ], [ 977.902130016348337, 471.168181152607588 ], [ 1000.500137207627972, 470.213335777687576 ], [ 1016.414226776966984, 469.258490402767677 ], [ 1018.323917527557001, 479.125225937274706 ], [ 1023.05488682940404, 480.186367318107216 ], [ 1023.054888203201017, 504.961106526744516 ] ] ] } },
{ "type": "Feature", "properties": { "feature_type": "building", "subtype": "minor-damage", "uid": "239dece0-5baa-4ec7-af98-c9c8baa4c91d" }, "geometry": { "type": "Polygon", "coordinates": [ [ [ 863.473654930834869, 470.387613595381708 ], [ 888.299634662512062, 470.387613593382014 ], [ 889.891043619795823, 481.845758085422403 ], [ 905.168569609520091, 481.845758083422709 ], [ 904.532006024406883, 497.759847655756573 ], [ 905.805133191633786, 499.351256611290182 ], [ 907.39654214591792, 519.084727679304478 ], [ 890.527607199909767, 519.084727678304716 ], [ 887.981352872705088, 515.901909763237995 ], [ 885.753380328558364, 515.583627973931016 ], [ 884.161971371774484, 515.583627973931016 ], [ 860.290837017517106, 516.220191556544364 ], [ 859.017709851790073, 483.437167038956375 ], [ 863.155373138028267, 482.800603458342721 ], [ 863.473654930834869, 470.387613595381708 ] ] ] } },
{ "type": "Feature", "properties": { "feature_type": "building", "subtype": "no-damage", "uid": "54a9f14a-2ee1-4073-90e1-88de316cb2af" }, "geometry": { "type": "Polygon", "coordinates": [ [ [ 739.378704604131258, 485.680610987223986 ], [ 758.475612089536867, 485.362329193917617 ], [ 760.067021045570868, 489.49999248390418 ], [ 791.576918396440078, 489.181710692597619 ], [ 791.895200186997045, 521.328171624572633 ], [ 739.378704603631377, 521.646453414879488 ], [ 739.378704604131258, 485.680610987223986 ] ] ] } },
{ "type": "Feature", "properties": { "feature_type": "building", "subtype": "no-damage", "uid": "f1de61fb-1a21-4735-932c-a438ba8e43b2" }, "geometry": { "type": "Polygon", "coordinates": [ [ [ 268.875005799061285, 789.445126463295196 ], [ 273.759941053152716, 786.709562723044428 ], [ 277.863286663529891, 786.123370492133631 ], [ 278.644876303994579, 798.2380099189578 ], [ 276.690902204707584, 799.019599556172693 ], [ 271.024377311651392, 796.674830641528388 ], [ 268.875005799061285, 789.445126463295196 ] ] ] } },
{ "type": "Feature", "properties": { "feature_type": "building", "subtype": "no-damage", "uid": "5f5d2a90-b824-49b5-9f8c-4316e4b0f0fa" }, "geometry": { "type": "Polygon", "coordinates": [ [ [ 295.772003132510179, 658.234969727002749 ], [ 305.996669718953285, 665.467050971027788 ], [ 300.510263256648727, 673.197896440330055 ], [ 289.786832445677987, 667.212725755999031 ], [ 293.776946239149197, 659.481880285696889 ], [ 295.772003132510179, 658.234969727002749 ] ] ] } },
{ "type": "Feature", "properties": { "feature_type": "building", "subtype": "no-damage", "uid": "9751f36b-c016-400a-b458-d3b67e93305d" }, "geometry": { "type": "Polygon", "coordinates": [ [ [ 278.394384946495222, 616.940625997025677 ], [ 282.85033002529002, 628.398770488066248 ], [ 266.617958663145203, 635.400969898813287 ], [ 261.525450001736772, 623.942825408772592 ], [ 278.394384946495222, 616.940625997025677 ] ] ] } },
{ "type": "Feature", "properties": { "feature_type": "building", "subtype": "no-damage", "uid": "d61b9957-86d7-4ef9-a187-746eec0772d5" }, "geometry": { "type": "Polygon", "coordinates": [ [ [ 268.739270593249728, 575.936764895643023 ], [ 271.285524922703985, 586.121782221456783 ], [ 249.324081315287486, 593.442263422510678 ], [ 247.096108779889391, 583.575527891003162 ], [ 268.739270593249728, 575.936764895643023 ] ] ] } },
{ "type": "Feature", "properties": { "feature_type": "building", "subtype": "no-damage", "uid": "cd2711bd-3aa7-4da7-9bd6-58086b1dab9c" }, "geometry": { "type": "Polygon", "coordinates": [ [ [ 908.132497144337663, 248.17980916634869 ], [ 907.726279962612921, 283.520704005143784 ], [ 871.979167940084494, 283.926921188118285 ], [ 873.197819486758704, 247.773591985373912 ], [ 908.132497144337663, 248.17980916634869 ] ] ] } },
{ "type": "Feature", "properties": { "feature_type": "building", "subtype": "no-damage", "uid": "4414a952-2ed3-403d-90f9-14bcef32c4e3" }, "geometry": { "type": "Polygon", "coordinates": [ [ [ 768.645208731987736, 257.565779076310093 ], [ 768.238991553762389, 250.253869799766193 ], [ 790.174719380899887, 250.253869799766193 ], [ 791.79958811129859, 279.907724089916087 ], [ 761.333299456691861, 279.907724088916325 ], [ 761.333299455192105, 283.157461545713375 ], [ 745.084612173701657, 283.157461545713375 ], [ 744.67839499372667, 258.378213440259515 ], [ 768.645208731987736, 257.565779076310093 ] ] ] } },
{ "type": "Feature", "properties": { "feature_type": "building", "subtype": "no-damage", "uid": "19c9105b-827a-4817-b993-c07c34ab1551" }, "geometry": { "type": "Polygon", "coordinates": [ [ [ 927.273253503882984, 248.106537281168102 ], [ 941.595934116937315, 248.106537281168102 ], [ 942.232497699051009, 253.517327735381713 ], [ 958.146587269639099, 254.153891320994688 ], [ 957.828305480582003, 283.117534335903315 ], [ 947.006724570902293, 283.435816132209311 ], [ 945.415315612618656, 285.3455068770499 ], [ 934.275452914131847, 283.75409791851672 ], [ 918.679645138849992, 283.117534335903315 ], [ 919.634490511520426, 254.153891322994411 ], [ 926.31840812846292, 254.153891319994813 ], [ 927.273253503882984, 248.106537281168102 ] ] ] } },
{ "type": "Feature", "properties": { "feature_type": "building", "subtype": "minor-damage", "uid": "2c07fd1c-8086-440a-9189-3183c7c28b15" }, "geometry": { "type": "Polygon", "coordinates": [ [ [ 983.869484005322875, 227.611837538634887 ], [ 1008.308930970679967, 226.364926981940613 ], [ 1009.306459417986048, 247.562406492737608 ], [ 992.348475809793854, 247.562406490737914 ], [ 990.60280102657191, 244.569821148072407 ], [ 984.368248230850327, 244.320439034933798 ], [ 983.869484005322875, 227.611837538634887 ] ] ] } },
{ "type": "Feature", "properties": { "feature_type": "building", "subtype": "no-damage", "uid": "ea975de9-4556-4c93-84d1-ddde89bd374c" }, "geometry": { "type": "Polygon", "coordinates": [ [ [ 1023.054721498332015, 154.223730243719814 ], [ 1001.555610073976027, 151.201490210493802 ], [ 973.624813543674691, 145.715083747440588 ], [ 974.871724098869549, 124.766986349782201 ], [ 998.064260506282494, 127.0114253570313 ], [ 999.311171065726739, 126.512661131753902 ], [ 1023.054698396745039, 130.113148629718893 ], [ 1023.054721498332015, 154.223730243719814 ] ] ] } },
{ "type": "Feature", "properties": { "feature_type": "building", "subtype": "major-damage", "uid": "99e1abdc-c9ed-4617-aad1-3f4eb3f43a28" }, "geometry": { "type": "Polygon", "coordinates": [ [ [ 872.899833775984121, 4.360313101785694 ], [ 899.833101857980296, 4.360313101785694 ], [ 900.581248194646719, 13.58745123992113 ], [ 907.563947326534731, 15.083743912753651 ], [ 907.065183106006543, 39.772572988493913 ], [ 888.610906823981963, 40.520719322910459 ], [ 887.613378377676327, 33.039255967746577 ], [ 858.934435510458457, 32.540491745468778 ], [ 861.428256629097064, 10.345483787116621 ], [ 871.902305329928595, 11.343012233671921 ], [ 872.899833775984121, 4.360313101785694 ] ] ] } },
{ "type": "Feature", "properties": { "feature_type": "building", "subtype": "no-damage", "uid": "5114bcef-a8ce-4bf5-a270-90d4b3ab7bb1" }, "geometry": { "type": "Polygon", "coordinates": [ [ [ 624.05904087250417, 250.403679957523195 ], [ 643.963682793267253, 250.809897140497696 ], [ 644.36989997424223, 279.245099884723572 ], [ 623.652823691529306, 278.026448335800012 ], [ 624.05904087250417, 250.403679957523195 ] ] ] } },
{ "type": "Feature", "properties": { "feature_type": "building", "subtype": "minor-damage", "uid": "78648813-d406-4a74-98d8-bbb6e070fde4" }, "geometry": { "type": "Polygon", "coordinates": [ [ [ 645.090768178464828, 131.090939115530603 ], [ 689.305931594394679, 127.761462287114995 ], [ 689.94249517925789, 145.560278641680412 ], [ 663.232830290450011, 144.777056145718007 ], [ 665.142521037790743, 166.738499750879498 ], [ 659.731730584075763, 170.239599456252989 ], [ 659.73173058432576, 176.286953493080006 ], [ 630.449805771854017, 178.514926033226686 ], [ 629.813242190240317, 161.964272882278891 ], [ 642.86279563981725, 160.054582132439009 ], [ 642.544513848010638, 132.364066280757413 ], [ 645.090768178464828, 131.090939115530603 ] ] ] } },
{ "type": "Feature", "properties": { "feature_type": "building", "subtype": "no-damage", "uid": "262f758d-8798-4d67-90cc-a43b27af8784" }, "geometry": { "type": "Polygon", "coordinates": [ [ [ 903.486938949867749, 373.165891010075484 ], [ 914.709133987115706, 372.417744678658607 ], [ 914.958516097254801, 368.926395109715884 ], [ 945.737970786764208, 371.186342195667805 ], [ 947.489848801217363, 395.364000583168377 ], [ 903.736321060256842, 395.360898971427218 ], [ 903.486938949867749, 373.165891010075484 ] ] ] } },
{ "type": "Feature", "properties": { "feature_type": "building", "subtype": "minor-damage", "uid": "db6a110e-a729-44fe-a1a1-f899ea47493d" }, "geometry": { "type": "Polygon", "coordinates": [ [ [ 1023.054873985552035, 408.641846264881508 ], [ 1002.35683832486302, 406.768797070302583 ], [ 1002.99340190747705, 398.811752283635713 ], [ 992.808384582410554, 398.175188703022002 ], [ 993.763229956330861, 379.396563006928091 ], [ 1023.054865682528998, 381.554894654420195 ], [ 1023.054873985552035, 408.641846264881508 ] ] ] } },
{ "type": "Feature", "properties": { "feature_type": "building", "subtype": "no-damage", "uid": "45cccc8c-adb5-498f-ba48-03d4d421d324" }, "geometry": { "type": "Polygon", "coordinates": [ [ [ 927.222082528073656, 443.891127609443174 ], [ 927.85864611143711, 466.170853011910481 ], [ 911.307992957485567, 465.534289427297381 ], [ 910.989711164928963, 443.254564027829701 ], [ 927.222082528073656, 443.891127609443174 ] ] ] } },
{ "type": "Feature", "properties": { "feature_type": "building", "subtype": "no-damage", "uid": "ba7d9f32-85e7-46dd-9696-70695c5f5fed" }, "geometry": { "type": "Polygon", "coordinates": [ [ [ 916.400501620643695, 427.658756252801709 ], [ 916.718783412700304, 439.116900739842777 ], [ 904.305793545486949, 438.798618947536227 ], [ 904.305793547486701, 427.340474457495475 ], [ 916.400501620643695, 427.658756252801709 ] ] ] } },
{ "type": "Feature", "properties": { "feature_type": "building", "subtype": "no-damage", "uid": "178e8c7f-4dbf-46bc-8b51-bc6c312ab0f0" }, "geometry": { "type": "Polygon", "coordinates": [ [ [ 953.184820371566502, 451.530520616720025 ], [ 952.187291924510987, 464.498390434937107 ], [ 939.468804219679441, 464.249008321798385 ], [ 940.466332666734957, 449.03669949633229 ], [ 953.683584598343714, 449.286081609471012 ], [ 953.184820371566502, 451.530520616720025 ] ] ] } },
{ "type": "Feature", "properties": { "feature_type": "building", "subtype": "no-damage", "uid": "203219f6-3891-49b7-92bf-6b2723470b21" }, "geometry": { "type": "Polygon", "coordinates": [ [ [ 830.158884810913946, 877.251876258775269 ], [ 841.617029300957483, 877.570158049082124 ], [ 841.935311091264339, 892.529402246496034 ], [ 831.113730184334258, 891.574556874575705 ], [ 830.158884810913946, 877.251876258775269 ] ] ] } },
{ "type": "Feature", "properties": { "feature_type": "building", "subtype": "major-damage", "uid": "84f3f430-3e71-4f80-8313-84e3fdb7aba3" }, "geometry": { "type": "Polygon", "coordinates": [ [ [ 924.526671304593492, 845.743125757968301 ], [ 924.844953096900213, 861.020651744689303 ], [ 911.795399647073168, 861.020651746688941 ], [ 912.431963233186252, 847.334534714501842 ], [ 924.526671304593492, 845.743125757968301 ] ] ] } },
{ "type": "Feature", "properties": { "feature_type": "building", "subtype": "no-damage", "uid": "57a571ce-820c-4907-925b-f55ab72eebc7" }, "geometry": { "type": "Polygon", "coordinates": [ [ [ 745.809340705066347, 91.795715804283802 ], [ 743.217103208061189, 68.984025814846589 ], [ 820.465780681855108, 66.391788314342605 ], [ 823.576465681960713, 90.240373303981414 ], [ 745.809340705066347, 91.795715804283802 ] ] ] } },
{ "type": "Feature", "properties": { "feature_type": "building", "subtype": "no-damage", "uid": "d1b2e391-6d31-498a-9c97-da8adc64b689" }, "geometry": { "type": "Polygon", "coordinates": [ [ [ 618.254674086396449, 76.661248347863392 ], [ 697.577141559844108, 73.032115849157535 ], [ 700.16937906034866, 94.288463342291777 ], [ 619.810016584949494, 98.43604334109844 ], [ 617.736226587545275, 88.585540844182589 ], [ 618.254674086396449, 76.661248347863392 ] ] ] } },
{ "type": "Feature", "properties": { "feature_type": "building", "subtype": "no-damage", "uid": "bd480358-36fa-490f-90c6-5d43cf652473" }, "geometry": { "type": "Polygon", "coordinates": [ [ [ 1023.054719871822044, 875.740671269216932 ], [ 1015.525098444693981, 874.043403201220372 ], [ 1013.517635084122048, 828.875477655584973 ], [ 1023.054768757599049, 818.775870002610418 ], [ 1023.054719871822044, 875.740671269216932 ] ] ] } },
{ "type": "Feature", "properties": { "feature_type": "building", "subtype": "destroyed", "uid": "c56d3fe3-7211-4558-90b5-9d1868a19f12" }, "geometry": { "type": "Polygon", "coordinates": [ [ [ 808.756372630404258, 928.24491384718408 ], [ 838.366457149484404, 930.75424304627461 ], [ 839.872054667539373, 980.940826981092414 ], [ 808.756372630904139, 983.450156178183192 ], [ 808.756372630404258, 928.24491384718408 ] ] ] } }
]
}
