{
"type": "FeatureCollection",
"name": "mexico-earthquake_00000016_post_disaster",
"features": [
{ "type": "Feature", "properties": { "feature_type": "building", "subtype": "no-damage", "uid": "288931f1-27f9-4a24-90ca-08e323505c5d" }, "geometry": { "type": "Polygon", "coordinates": [ [ [ 527.442158979909209, 139.055975181037098 ], [ 519.711601757284939, 150.192298224125892 ], [ 578.669791380448601, 178.636206272750798 ], [ 578.900000000300338, 178.240000000795987 ], [ 608.286287963042582, 192.803972397325396 ], [ 608.898613071977252, 194.94711028496809 ], [ 627.760000001306139, 206.679999999699703 ], [ 633.724993591721159, 218.000000000640313 ], [ 634.887540599168574, 224.843048648860503 ], [ 635.1289466487151, 232.568042237235289 ], [ 631.266449854889288, 241.01725397689421 ], [ 623.541456266275986, 251.880526210576193 ], [ 620.207805688420763, 263.381235576632378 ], [ 593.365700055173193, 269.261761788506419 ], [ 387.826570113613684, 350.690617788509485 ], [ 230.773813442319891, 257.674271403540217 ], [ 216.1382786457267, 212.688291467030695 ], [ 248.3964550693116, 153.628263994400896 ], [ 252.017545814913206, 148.800142999623091 ], [ 283.883144370196874, 163.525912028935011 ], [ 313.093276383113789, 112.830641597712898 ], [ 278.81361732875888, 92.552533425223999 ], [ 294.505010555772287, 65.273649811797995 ], [ 297.160477103187986, 66.963492160306799 ], [ 320.93656146238618, 24.029853429409229 ], [ 527.442158979909209, 139.055975181037098 ] ] ] } },
{ "type": "Feature", "properties": { "feature_type": "building", "subtype": "no-damage", "uid": "db4abe88-7382-4493-b548-fa861f5138f5" }, "geometry": { "type": "Polygon", "coordinates": [ [ [ 670.271353565476488, 160.731480850416887 ], [ 677.297475315614179, 168.761334278323403 ], [ 684.876249562391308, 172.377993952858702 ], [ 717.521777876036367, 160.397983562156895 ], [ 734.293792425707579, 205.023522270117809 ], [ 701.888901441577218, 222.460979089709411 ], [ 681.814267869291371, 234.505759235415809 ], [ 631.519999998850267, 208.430000001321588 ], [ 609.326406431397686, 194.624359573986595 ], [ 608.706323184038069, 192.454068195064394 ], [ 579.150000002953334, 177.809999999776494 ], [ 590.902976353581039, 157.412305550826687 ], [ 611.438427301630554, 135.281696795520304 ], [ 670.271353565476488, 160.731480850416887 ] ] ] } },
{ "type": "Feature", "properties": { "feature_type": "building", "subtype": "no-damage", "uid": "ac4286a7-93c7-4d43-9c1b-61b400a9af26" }, "geometry": { "type": "Polygon", "coordinates": [ [ [ 610.718577667554882, 0.418110927411538 ], [ 730.948006581257346, 146.574091195615011 ], [ 716.672443714780343, 157.103986844761891 ], [ 703.271663926760993, 145.974870981721494 ], [ 683.83232291935326, 162.595321274793207 ], [ 548.352443713739945, 0.418110928373214 ], [ 610.718577667554882, 0.418110927411538 ] ] ] } },
{ "type": "Feature", "properties": { "feature_type": "building", "subtype": "no-damage", "uid": "b6a328b4-65c1-4112-9259-305dee95f2cb" }, "geometry": { "type": "Polygon", "coordinates": [ [ [ 649.853260020156995, 1002.884053447333031 ], [ 623.737313471526591, 1001.266300106565041 ], [ 625.737313467746958, 977.266300108638916 ], [ 654.382246659020552, 981.559780065468885 ], [ 649.853260020156995, 1002.884053447333031 ] ] ] } },
{ "type": "Feature", "properties": { "feature_type": "building", "subtype": "no-damage", "uid": "380aadb6-52e3-448d-9495-17f824caaa6e" }, "geometry": { "type": "Polygon", "coordinates": [ [ [ 420.422509092268513, 552.96950026009381 ], [ 422.126007274720905, 559.465002598514957 ], [ 420.652004160279887, 563.106002078123083 ], [ 419.915002599152615, 567.517501298870116 ], [ 417.647001560498779, 571.208500780475447 ], [ 413.710000002221079, 574.590000000279019 ], [ 409.389999998993915, 577.830000001407939 ], [ 405.110000002148809, 578.89999999971792 ], [ 400.890000001593478, 578.89999999971792 ], [ 396.69000000380862, 577.850000001052763 ], [ 392.33000000201298, 575.66999999937309 ], [ 390.149999999612476, 571.309999999860338 ], [ 389.100000001789113, 567.110000001353114 ], [ 389.099999998783915, 562.890000001277713 ], [ 390.160000003642324, 558.629999999027632 ], [ 392.340000000152486, 555.370000000177129 ], [ 396.610000001142112, 552.169999999299648 ], [ 405.083003640213519, 546.906996364051679 ], [ 416.384508055954484, 546.906996364051679 ], [ 420.422509092268513, 552.96950026009381 ] ] ] } },
{ "type": "Feature", "properties": { "feature_type": "building", "subtype": "no-damage", "uid": "eedf2cc3-34b1-4915-8924-2035e26e1a07" }, "geometry": { "type": "Polygon", "coordinates": [ [ [ -0.000000000120209, 587.939054802709848 ], [ 3.741166314807951, 587.108039433448653 ], [ 4.660624940860486, 608.258074752389803 ], [ 0.000000001923351, 608.558430579459014 ], [ -0.000000000120209, 587.939054802709848 ] ] ] } },
{ "type": "Feature", "properties": { "feature_type": "building", "subtype": "no-damage", "uid": "13aca3f1-9047-4283-b8f5-5b1f845245e2" }, "geometry": { "type": "Polygon", "coordinates": [ [ [ 0.00000000216377, 547.564588463328164 ], [ 35.856310966167563, 492.250334881032984 ], [ 83.885874903233997, 524.228887732185513 ], [ 83.638936269410024, 524.352357049999 ], [ 49.067527782527421, 579.296202681738464 ], [ 0.00000000216377, 547.564588463328164 ] ] ] } },
{ "type": "Feature", "properties": { "feature_type": "building", "subtype": "no-damage", "uid": "ea20fc84-6c92-4a72-abfd-cb1721b5e246" }, "geometry": { "type": "Polygon", "coordinates": [ [ [ 15.096830953870191, 574.512412980851082 ], [ 41.0420222410091, 575.962531148855419 ], [ 41.659368821061157, 584.358444639008098 ], [ 14.743057928627319, 584.234975323117851 ], [ 15.096830953870191, 574.512412980851082 ] ] ] } },
{ "type": "Feature", "properties": { "feature_type": "building", "subtype": "no-damage", "uid": "1fe59e68-a696-4d45-a50d-f102465951d1" }, "geometry": { "type": "Polygon", "coordinates": [ [ [ 43.881816511412367, 482.002381652526878 ], [ 65.242008181093652, 449.159543588219492 ], [ 79.934856787174283, 458.666680923307581 ], [ 80.305264735566155, 460.642189978512988 ], [ 114.382795963095305, 482.619728231978115 ], [ 111.543001690287795, 488.052378136918378 ], [ 160.066442889592793, 517.438075352452529 ], [ 140.187883011194998, 545.589079406199403 ], [ 106.233821105205905, 523.364602519992104 ], [ 100.307293933941295, 532.130923960700557 ], [ 60.599444317889017, 504.646928570094815 ], [ 65.488946815999498, 495.830945047619878 ], [ 64.871600236909103, 495.830945046658201 ], [ 43.881816511412367, 482.002381652526878 ] ] ] } },
{ "type": "Feature", "properties": { "feature_type": "building", "subtype": "no-damage", "uid": "932cf0bf-b42b-426e-abda-e6dc0d0b18de" }, "geometry": { "type": "Polygon", "coordinates": [ [ [ 131.421561574335414, 447.430973163832789 ], [ 152.505211964418493, 405.8356667688073 ], [ 157.96403731969491, 402.190321634861505 ], [ 200.869053438701997, 428.859693897925524 ], [ 172.783782444555612, 476.693201063476806 ], [ 159.449096309781112, 468.91463415277542 ], [ 151.917468033506509, 480.273811228140289 ], [ 131.051153624260593, 466.815655779756412 ], [ 139.323597800925199, 453.357500333295775 ], [ 131.421561574335414, 447.430973163832789 ] ] ] } },
{ "type": "Feature", "properties": { "feature_type": "building", "subtype": "no-damage", "uid": "81e557af-ff33-40c9-bc6b-6590b4bf7d60" }, "geometry": { "type": "Polygon", "coordinates": [ [ [ 60.601401032315252, 410.855911818416814 ], [ 90.287276946085072, 366.118042481521172 ], [ 97.971141982530909, 358.387944866403984 ], [ 126.932738469825594, 375.641661922085689 ], [ 118.613982033194105, 386.425235080804782 ], [ 121.645596575150506, 387.859810755966578 ], [ 91.541609731084193, 435.524456591474689 ], [ 59.347068245512979, 411.274022746790024 ], [ 60.601401032315252, 410.855911818416814 ] ] ] } },
{ "type": "Feature", "properties": { "feature_type": "building", "subtype": "no-damage", "uid": "6f19cb6f-b5f7-44af-9a01-2aee88b84199" }, "geometry": { "type": "Polygon", "coordinates": [ [ [ 112.447156149619701, 316.362842004147126 ], [ 145.059808567290503, 267.443863382557709 ], [ 148.807986878946792, 265.033011511744121 ], [ 163.904989301943289, 273.967972128748727 ], [ 160.9480238439061, 279.569080305380908 ], [ 142.954047163318506, 310.015916692181918 ], [ 129.589704214720513, 329.324280782755011 ], [ 112.447156149619701, 316.362842004147126 ] ] ] } },
{ "type": "Feature", "properties": { "feature_type": "building", "subtype": "no-damage", "uid": "22190dc4-fcdd-4330-82e8-48c4a6598508" }, "geometry": { "type": "Polygon", "coordinates": [ [ [ 137.1157009265184, 325.143171499984476 ], [ 153.840138059158988, 296.711628370605979 ], [ 167.637798697274889, 296.293517440309415 ], [ 165.965354982820713, 301.728959510122877 ], [ 204.84967132248201, 326.815615213477372 ], [ 216.556777320415307, 324.725060570649589 ], [ 214.88433360283571, 336.014055636726425 ], [ 220.319775673729708, 339.358943065635515 ], [ 185.660417465833007, 395.385807466684525 ], [ 130.469774918538405, 357.755823914056919 ], [ 146.44607461094779, 332.074888454107509 ], [ 137.1157009265184, 325.143171499984476 ] ] ] } },
{ "type": "Feature", "properties": { "feature_type": "building", "subtype": "no-damage", "uid": "017d94ec-9251-4ce9-bff2-1a805586ed3a" }, "geometry": { "type": "Polygon", "coordinates": [ [ [ 235.78988002305411, 410.437800891005224 ], [ 252.096206232490488, 399.148805822043414 ], [ 261.294646653814027, 410.855911818416814 ], [ 245.406431377799493, 422.14490688449348 ], [ 235.78988002305411, 410.437800891005224 ] ] ] } },
{ "type": "Feature", "properties": { "feature_type": "building", "subtype": "no-damage", "uid": "64327cd1-5d87-4699-9de9-d912f381aa8b" }, "geometry": { "type": "Polygon", "coordinates": [ [ [ 520.94153317748453, 488.206433567461318 ], [ 534.739193815480235, 461.029223223202507 ], [ 546.9307993288528, 444.488970114479002 ], [ 574.812756863052869, 441.935379873553018 ], [ 598.145343752504914, 514.272530644067956 ], [ 578.64084129561877, 526.49769656458443 ], [ 557.972516214438883, 531.933138632474538 ], [ 535.003011014596268, 538.979078356100445 ], [ 523.868309678500509, 502.00409420473909 ], [ 520.94153317748453, 488.206433567461318 ] ] ] } },
{ "type": "Feature", "properties": { "feature_type": "building", "subtype": "no-damage", "uid": "400b242d-3e66-41cf-ac41-9b6b301d57ec" }, "geometry": { "type": "Polygon", "coordinates": [ [ [ 718.606187487973671, 469.313405245694184 ], [ 743.376547076669112, 416.291353886306922 ], [ 778.472851935268523, 378.511261489113679 ], [ 824.223911480216884, 404.177517697403403 ], [ 828.213238418708556, 414.502834474095096 ], [ 825.866575515997511, 425.297483833949684 ], [ 819.295919380568648, 437.500130933676189 ], [ 845.813210195954071, 452.988106101117921 ], [ 834.314561965925805, 479.740063207730373 ], [ 850.983540270149547, 487.532214378603214 ], [ 836.720118208796748, 504.13753279018232 ], [ 823.858731936493541, 516.872642988902157 ], [ 816.479923896738342, 533.947976290410566 ], [ 830.794567613361778, 534.182642579587878 ], [ 836.895891164545787, 547.558621133855695 ], [ 806.929408190824915, 577.754835865426571 ], [ 746.721434507019922, 545.069519827180102 ], [ 745.048990790402058, 537.543523117423888 ], [ 723.725333444214698, 527.508860835505061 ], [ 704.910341666943737, 483.18910242794442 ], [ 718.606187487973671, 469.313405245694184 ] ] ] } },
{ "type": "Feature", "properties": { "feature_type": "building", "subtype": "no-damage", "uid": "71bdd238-4d71-4b90-9254-54bd6fceb7ab" }, "geometry": { "type": "Polygon", "coordinates": [ [ [ 444.664454621238008, 547.453627553460933 ], [ 458.880226186885523, 527.802413917996546 ], [ 474.599446228934994, 507.679564767617592 ], [ 500.955469087775612, 495.856655261281276 ], [ 511.351910552448373, 494.421432884422813 ], [ 517.718396441032382, 504.640124777290907 ], [ 524.781844830363411, 510.256456436919905 ], [ 523.515617692398905, 521.038465790282658 ], [ 521.51393783475396, 531.746301865094324 ], [ 523.847660989616315, 539.459135345115669 ], [ 526.566952033766938, 548.200974623943239 ], [ 529.668670947274222, 556.05306745563621 ], [ 534.087001570284315, 564.30856970991249 ], [ 512.816535952306367, 572.958394184227018 ], [ 474.768441469271124, 582.993056466145845 ], [ 473.095997750970298, 588.42849853499763 ], [ 445.500676480628783, 570.867839542360912 ], [ 450.099896690569324, 568.777284900494919 ], [ 444.664454621238008, 547.453627553460933 ] ] ] } },
{ "type": "Feature", "properties": { "feature_type": "building", "subtype": "no-damage", "uid": "990992c2-95fe-4a4f-a937-672cf6df87aa" }, "geometry": { "type": "Polygon", "coordinates": [ [ [ 668.534690900045575, 565.975066246802498 ], [ 693.202319047871356, 541.296094424654711 ], [ 727.825648540684028, 531.021553643143079 ], [ 735.928839064617137, 534.471097663118258 ], [ 744.083580562706516, 538.163138483380294 ], [ 745.214978421847491, 542.532891134996589 ], [ 747.160730071381863, 549.43146516906711 ], [ 751.936665941251363, 565.881910941436445 ], [ 736.686772222579066, 575.173506671974906 ], [ 675.224465753173945, 590.225500092448897 ], [ 668.534690900045575, 565.975066246802498 ] ] ] } },
{ "type": "Feature", "properties": { "feature_type": "building", "subtype": "no-damage", "uid": "41c520ee-a923-43fd-ba1c-ab7781201477" }, "geometry": { "type": "Polygon", "coordinates": [ [ [ 916.545491405347775, 386.187367042473795 ], [ 946.078785533257019, 350.83449490153231 ], [ 1013.728295670562034, 299.55977929133752 ], [ 1022.975555806955981, 309.222057571146024 ], [ 1022.975549280906989, 476.628895442827684 ], [ 1000.534566358242046, 497.78486753015909 ], [ 967.819470639046017, 456.033334055954924 ], [ 979.47535498267041, 443.886675158938999 ], [ 960.865249813378682, 419.218130384919277 ], [ 947.485700107001776, 428.416570810091685 ], [ 915.291158622752846, 386.605477971808682 ], [ 916.545491405347775, 386.187367042473795 ] ] ] } },
{ "type": "Feature", "properties": { "feature_type": "building", "subtype": "no-damage", "uid": "7b3c81a8-57e1-4282-ad29-5e811f57e0cc" }, "geometry": { "type": "Polygon", "coordinates": [ [ [ 610.718577667554882, 0.418110927411538 ], [ 706.943401716489575, 0.003024467180522 ], [ 707.647205327132838, 0.003020805120634 ], [ 793.59484386125439, 90.015422512455871 ], [ 785.258659895709229, 101.035713887133497 ], [ 757.24522769206601, 122.359371234167398 ], [ 770.206666473315522, 134.066477229579107 ], [ 737.594014058289304, 155.390134576613008 ], [ 610.718577667554882, 0.418110927411538 ] ] ] } },
{ "type": "Feature", "properties": { "feature_type": "building", "subtype": "no-damage", "uid": "75e41765-1390-456a-8f10-22ab2b7b7522" }, "geometry": { "type": "Polygon", "coordinates": [ [ [ 858.665293700283087, 43.217795101389463 ], [ 891.696057041518543, 36.109909319044817 ], [ 894.204722612117848, 45.308349743255533 ], [ 910.51104881770766, 41.545351387896588 ], [ 919.884431656330776, 72.479612912834853 ], [ 901.312608392537527, 79.175334943409197 ], [ 906.748050462950687, 97.154104862495728 ], [ 874.553508976057174, 106.770656217002994 ], [ 858.665293700283087, 43.217795101389463 ] ] ] } },
{ "type": "Feature", "properties": { "feature_type": "building", "subtype": "no-damage", "uid": "960e9fd2-98c7-4012-aabd-7686884cae5c" }, "geometry": { "type": "Polygon", "coordinates": [ [ [ 993.47763825163554, 0.000444121890626 ], [ 985.115683662625543, 14.068640783581641 ], [ 972.990466739805242, 6.960755002198681 ], [ 976.75311115197826, 0.000654718222769 ], [ 993.47763825163554, 0.000444121890626 ] ] ] } },
{ "type": "Feature", "properties": { "feature_type": "building", "subtype": "no-damage", "uid": "163b7e00-994e-4f87-87a9-579c0345bfdd" }, "geometry": { "type": "Polygon", "coordinates": [ [ [ 1022.975556192468048, 303.522483616664317 ], [ 1011.87478307730305, 290.021853515672888 ], [ 1022.97555781012602, 281.114646427307775 ], [ 1022.975556192468048, 303.522483616664317 ] ] ] } },
{ "type": "Feature", "properties": { "feature_type": "building", "subtype": "no-damage", "uid": "bee57f25-e2b8-4feb-a789-8f73616e2975" }, "geometry": { "type": "Polygon", "coordinates": [ [ [ 808.67287188364196, 601.932606086898886 ], [ 833.341416661622588, 600.6782733017792 ], [ 833.759527585668138, 611.549157439482769 ], [ 801.983097031355101, 614.894044867430239 ], [ 801.146875173166336, 609.040491870205187 ], [ 811.181537453159422, 609.040491870205187 ], [ 808.67287188364196, 601.932606086898886 ] ] ] } },
{ "type": "Feature", "properties": { "feature_type": "building", "subtype": "no-damage", "uid": "043b06f2-2572-436c-8484-4465cc7a6172" }, "geometry": { "type": "Polygon", "coordinates": [ [ [ 930.116172890654752, 1022.977202666932044 ], [ 932.55355978860473, 1012.517537757088007 ], [ 991.387347584976624, 1018.789201683648002 ], [ 992.395295425085465, 1022.97645813784402 ], [ 930.116172890654752, 1022.977202666932044 ] ] ] } },
{ "type": "Feature", "properties": { "feature_type": "building", "subtype": "no-damage", "uid": "65d7b918-2b1a-4434-821a-6925eb7f5be3" }, "geometry": { "type": "Polygon", "coordinates": [ [ [ 734.391667082130084, 1002.124232788284985 ], [ 734.42362870116915, 1009.784971985420952 ], [ 734.460000002051856, 1009.790000000378996 ], [ 733.203082466808723, 1022.978878392069987 ], [ 704.688967708510518, 1022.979035620227023 ], [ 704.563250716452671, 999.556098977518786 ], [ 734.391667082130084, 1002.124232788284985 ] ] ] } },
{ "type": "Feature", "properties": { "feature_type": "building", "subtype": "no-damage", "uid": "038f5ec0-3954-452c-b554-c3661d24de33" }, "geometry": { "type": "Polygon", "coordinates": [ [ [ 756.280000002981637, 1010.419999999769971 ], [ 756.059648367637124, 1022.978736757479965 ], [ 733.710341874021765, 1022.978875400297966 ], [ 734.95999999990488, 1009.800000001162971 ], [ 756.280000002981637, 1010.419999999769971 ] ] ] } },
{ "type": "Feature", "properties": { "feature_type": "building", "subtype": "no-damage", "uid": "b21a8848-0302-40b8-8aec-f341abdce1a3" }, "geometry": { "type": "Polygon", "coordinates": [ [ [ 760.798648205012, 1010.549465304982959 ], [ 784.115694436498188, 1012.46069860244495 ], [ 782.86098794384111, 1022.978552989006971 ], [ 756.559585226331706, 1022.978733505094056 ], [ 756.78000000035388, 1010.430000000553946 ], [ 760.798648205012, 1010.549465304982959 ] ] ] } },
{ "type": "Feature", "properties": { "feature_type": "building", "subtype": "no-damage", "uid": "f8987447-493e-4d0e-a382-5cbaecfb8184" }, "geometry": { "type": "Polygon", "coordinates": [ [ [ 364.216677804390315, 389.083263061443176 ], [ 377.411954383774514, 388.603434822306383 ], [ 377.651868503703383, 396.16072958654712 ], [ 364.216677805832774, 397.000429004796104 ], [ 364.216677804390315, 389.083263061443176 ] ] ] } },
{ "type": "Feature", "properties": { "feature_type": "building", "subtype": "no-damage", "uid": "d001bfb1-d0fe-4dc4-8b75-e0f1773aec8d" }, "geometry": { "type": "Polygon", "coordinates": [ [ [ 365.896076641849504, 400.719097858827524 ], [ 379.571181456643785, 397.120386064820707 ], [ 381.490494414032014, 401.798711397125714 ], [ 377.891782620386721, 403.718024353672888 ], [ 378.251653797815891, 408.276392624029882 ], [ 370.6943590321344, 410.555576759689302 ], [ 371.054230213650726, 406.117165547433501 ], [ 365.896076640767603, 407.436693205781012 ], [ 365.896076641849504, 400.719097858827524 ] ] ] } },
{ "type": "Feature", "properties": { "feature_type": "building", "subtype": "no-damage", "uid": "1ae6e2c1-b813-44a2-ae35-59fbec6a43b9" }, "geometry": { "type": "Polygon", "coordinates": [ [ [ 344.063891765458095, 420.152141542425227 ], [ 356.779340098132423, 410.675533820675582 ], [ 361.937493668491072, 417.033257987555203 ], [ 350.421615931134113, 426.389908650241921 ], [ 344.063891765458095, 420.152141542425227 ] ] ] } },
{ "type": "Feature", "properties": { "feature_type": "building", "subtype": "no-damage", "uid": "808c8b6f-7acf-424a-861c-d3835b70c8cf" }, "geometry": { "type": "Polygon", "coordinates": [ [ [ 80.383541052659595, 528.612032883976781 ], [ 95.418518550299268, 538.462535380641953 ], [ 69.496143555873488, 574.753860371139808 ], [ 55.498061063285633, 566.458700373037004 ], [ 80.383541052659595, 528.612032883976781 ] ] ] } },
{ "type": "Feature", "properties": { "feature_type": "building", "subtype": "no-damage", "uid": "8a3e6c6e-a939-4fde-bf76-0de42df02100" }, "geometry": { "type": "Polygon", "coordinates": [ [ [ 300.723728483941613, 401.073947925887808 ], [ 332.349025973695916, 400.037052926846172 ], [ 332.34902597573938, 407.295317923984101 ], [ 301.242175984664414, 406.776870424463311 ], [ 300.723728483941613, 401.073947925887808 ] ] ] } },
{ "type": "Feature", "properties": { "feature_type": "building", "subtype": "no-damage", "uid": "86991068-6702-4399-a628-494dbb63bf12" }, "geometry": { "type": "Polygon", "coordinates": [ [ [ 0.000000001562723, 519.118190417854635 ], [ 4.696603668658791, 521.876067087672936 ], [ 0.00000000216377, 527.798250128015411 ], [ 0.000000001562723, 519.118190417854635 ] ] ] } },
{ "type": "Feature", "properties": { "feature_type": "building", "subtype": "no-damage", "uid": "c1cb235f-b3c3-408b-af2f-a3732875a4b2" }, "geometry": { "type": "Polygon", "coordinates": [ [ [ 94.660942040234431, 646.638590336686093 ], [ 106.394256555352698, 635.374608395591963 ], [ 114.8422430109309, 643.822594851172198 ], [ 102.170263332852898, 655.790575662683068 ], [ 94.660942040234431, 646.638590336686093 ] ] ] } },
{ "type": "Feature", "properties": { "feature_type": "building", "subtype": "no-damage", "uid": "43c7c95b-6559-496f-85ea-9408db0c8019" }, "geometry": { "type": "Polygon", "coordinates": [ [ [ 84.759089261572925, 1022.977111342390003 ], [ 97.432798397800781, 1005.659599626313025 ], [ 95.961860969630465, 1003.085459120854011 ], [ 103.316548122983804, 993.524365817609123 ], [ 105.155219912494204, 994.811436069858019 ], [ 123.174203445536705, 969.437765379368898 ], [ 122.622601909476899, 967.5990935905794 ], [ 127.035414204325903, 958.957336180287257 ], [ 128.690218814188, 959.876672075162787 ], [ 131.632093679544397, 956.56706285495693 ], [ 137.699710581610788, 960.979875149205895 ], [ 123.725804983159094, 984.331006872699618 ], [ 98.168267114710858, 1018.346434972518978 ], [ 97.065064040067, 1020.920575476054978 ], [ 97.432798397199733, 1022.023778551059991 ], [ 97.166666116284688, 1022.977250037137992 ], [ 84.759089261572925, 1022.977111342390003 ] ] ] } },
{ "type": "Feature", "properties": { "feature_type": "building", "subtype": "no-damage", "uid": "49190f41-80a7-4e3d-a74f-00eb449f6641" }, "geometry": { "type": "Polygon", "coordinates": [ [ [ 943.469143283300241, 123.724191886799602 ], [ 958.743656534494789, 109.348179416611003 ], [ 967.129663803921062, 117.734186691448699 ], [ 951.256150036461236, 129.714197081188786 ], [ 943.469143283300241, 123.724191886799602 ] ] ] } },
{ "type": "Feature", "properties": { "feature_type": "building", "subtype": "no-damage", "uid": "c92cd497-789a-4cc3-9106-9f9a46fb5c65" }, "geometry": { "type": "Polygon", "coordinates": [ [ [ 589.137731103964597, 439.502474031791508 ], [ 599.802027480768743, 435.825130453250722 ], [ 608.25991771297322, 460.831066787328211 ], [ 598.698824407206757, 463.77294164823752 ], [ 589.137731103964597, 439.502474031791508 ] ] ] } },
{ "type": "Feature", "properties": { "feature_type": "building", "subtype": "no-damage", "uid": "cccb73db-eb00-421a-a7ab-7419eb382c40" }, "geometry": { "type": "Polygon", "coordinates": [ [ [ 669.119953936606862, 497.052901033310491 ], [ 683.829328247160333, 490.801416950272028 ], [ 692.28721847936481, 513.784814315430708 ], [ 675.739172376896818, 518.933095324426176 ], [ 669.119953936606862, 497.052901033310491 ] ] ] } },
{ "type": "Feature", "properties": { "feature_type": "building", "subtype": "no-damage", "uid": "eafc031b-3ce3-4e0c-83be-6ce153b68621" }, "geometry": { "type": "Polygon", "coordinates": [ [ [ 665.258743177336783, 469.105089838323693 ], [ 680.335851848028256, 463.772941649199083 ], [ 687.874406183193628, 486.57247183615209 ], [ 672.061828798356942, 491.904620024315022 ], [ 665.258743177336783, 469.105089838323693 ] ] ] } },
{ "type": "Feature", "properties": { "feature_type": "building", "subtype": "no-damage", "uid": "93897a81-a3ef-4f95-a6a9-178a89d94877" }, "geometry": { "type": "Polygon", "coordinates": [ [ [ 657.904056019776135, 442.6282160728299 ], [ 673.900500586424869, 438.399270957748399 ], [ 680.519719027916835, 460.463332428993226 ], [ 665.44261035482134, 464.876144722280515 ], [ 657.904056019776135, 442.6282160728299 ] ] ] } },
{ "type": "Feature", "properties": { "feature_type": "building", "subtype": "no-damage", "uid": "2793d3ca-45d2-4d77-8844-92fc80ff84c4" }, "geometry": { "type": "Polygon", "coordinates": [ [ [ 652.75577501138298, 423.138295106082808 ], [ 667.465149327586232, 419.277084350297912 ], [ 672.613430336219835, 436.560599168958788 ], [ 658.823391916454739, 440.789544285002023 ], [ 652.75577501138298, 423.138295106082808 ] ] ] } },
{ "type": "Feature", "properties": { "feature_type": "building", "subtype": "no-damage", "uid": "1f803e8f-2a13-41a6-99a7-815164b2a01d" }, "geometry": { "type": "Polygon", "coordinates": [ [ [ 688.426007720455459, 408.428920794804583 ], [ 701.848311782126189, 404.199975678761518 ], [ 710.306202016013572, 427.734974580460914 ], [ 696.516163592642215, 432.331654053877287 ], [ 688.426007720455459, 408.428920794804583 ] ] ] } },
{ "type": "Feature", "properties": { "feature_type": "building", "subtype": "no-damage", "uid": "a53a94db-7619-4e22-8391-c883c2c93362" }, "geometry": { "type": "Polygon", "coordinates": [ [ [ 695.964562057303738, 443.915286325078796 ], [ 714.902881487986406, 438.399270957748399 ], [ 719.131826601263811, 454.763449881533688 ], [ 701.664444603920401, 459.543996533156019 ], [ 695.964562057303738, 443.915286325078796 ] ] ] } },
{ "type": "Feature", "properties": { "feature_type": "building", "subtype": "no-damage", "uid": "36da61a0-96f3-4fbc-8e2b-4f98b3cfbe1d" }, "geometry": { "type": "Polygon", "coordinates": [ [ [ 835.316296464370112, 382.045111524631409 ], [ 863.00691873393589, 368.199800391047177 ], [ 871.454905185667371, 390.727764270350519 ], [ 872.158904060411601, 395.186423787798674 ], [ 868.16957711879445, 400.583748467726025 ], [ 864.414916477654288, 404.573075403934581 ], [ 852.681601954602115, 411.378397825657203 ], [ 847.753609855434661, 400.349082176625416 ], [ 844.468281790364927, 389.78909910787138 ], [ 841.182953722410161, 391.666429432829489 ], [ 835.316296464370112, 382.045111524631409 ] ] ] } },
{ "type": "Feature", "properties": { "feature_type": "building", "subtype": "no-damage", "uid": "1c2eb887-895c-4552-86ec-d88860dd6042" }, "geometry": { "type": "Polygon", "coordinates": [ [ [ 857.84426034258604, 351.773160064011392 ], [ 883.422885998377524, 340.274511832778387 ], [ 895.860199389682521, 364.679806036078219 ], [ 900.553525197629142, 375.709121684148272 ], [ 900.31885890652859, 383.453109267388299 ], [ 886.942880355148986, 389.78909910787138 ], [ 880.137557930663206, 388.14643507593712 ], [ 874.270900670459355, 390.493097980211473 ], [ 857.84426034258604, 351.773160064011392 ] ] ] } },
{ "type": "Feature", "properties": { "feature_type": "building", "subtype": "no-damage", "uid": "1dc24229-07ae-4f1e-a286-19667283968f" }, "geometry": { "type": "Polygon", "coordinates": [ [ [ 888.585544386241281, 345.202503932427817 ], [ 895.625533101466999, 337.223850058087123 ], [ 915.806834071321987, 327.837198442912893 ], [ 924.254820525457717, 338.162515218642909 ], [ 931.529475528538228, 352.946491514706111 ], [ 926.836149722635241, 357.639817323254874 ], [ 909.940176813522498, 374.301123942353001 ], [ 899.849526323846703, 364.914472326217094 ], [ 898.206862292754295, 365.383804906495016 ], [ 888.585544386241281, 345.202503932427817 ] ] ] } },
{ "type": "Feature", "properties": { "feature_type": "building", "subtype": "no-damage", "uid": "75f01957-6ecd-4bbd-a8d3-205b4243d50a" }, "geometry": { "type": "Polygon", "coordinates": [ [ [ 870.046907442309703, 402.930411372000378 ], [ 903.604186974243021, 403.399743951316623 ], [ 904.777518423254492, 419.357051699036219 ], [ 905.950849875872223, 419.357051699997783 ], [ 905.246851003051461, 435.314359447717379 ], [ 895.625533097019229, 435.549025736894691 ], [ 895.390866807481416, 439.773018965165591 ], [ 873.801568088618865, 436.253024609234785 ], [ 872.628236638886165, 425.458375250341874 ], [ 868.873575990052586, 418.653052828619309 ], [ 870.046907442309703, 402.930411372000378 ] ] ] } },
{ "type": "Feature", "properties": { "feature_type": "building", "subtype": "no-damage", "uid": "0ccb4fbe-d54a-4fc8-b7a3-60f865702d75" }, "geometry": { "type": "Polygon", "coordinates": [ [ [ 944.905454080999903, 530.119540770594199 ], [ 961.801426992396614, 531.527538512389469 ], [ 962.97475844453345, 538.332860935073768 ], [ 973.769407802822798, 538.332860935073768 ], [ 973.300075220381245, 557.106164166383905 ], [ 961.332094412479478, 558.279495619001978 ], [ 961.566760700334385, 565.319484331825151 ], [ 921.204158750647025, 566.962148364721088 ], [ 921.204158751127807, 562.972821426589121 ], [ 920.04000000217161, 530.969999999736729 ], [ 944.889999998942926, 529.900000002388424 ], [ 944.905454080999903, 530.119540770594199 ] ] ] } },
{ "type": "Feature", "properties": { "feature_type": "building", "subtype": "no-damage", "uid": "b65902b2-faf3-4be1-b99f-b67e0b489927" }, "geometry": { "type": "Polygon", "coordinates": [ [ [ 907.286180884396686, 499.152099278020785 ], [ 915.286093490731218, 500.093265466803473 ], [ 920.702526992809794, 501.741745227778324 ], [ 926.502105095624529, 501.509762104300307 ], [ 929.032173791976447, 504.039830800893185 ], [ 932.740000001203612, 506.030000001191809 ], [ 932.937473270573605, 515.335564475492561 ], [ 943.732122629584183, 515.100898184392008 ], [ 944.84999999941283, 529.400000000688578 ], [ 919.380000003553505, 530.50000000038915 ], [ 896.094865678258657, 527.30354528508019 ], [ 894.217535357147653, 495.623596079779986 ], [ 896.407535356004701, 495.404263499871206 ], [ 899.790509330142868, 495.404263500832883 ], [ 907.286180884396686, 499.152099278020785 ] ] ] } },
{ "type": "Feature", "properties": { "feature_type": "building", "subtype": "no-damage", "uid": "287fbfa3-3752-452d-9b1a-1903a3bc9e72" }, "geometry": { "type": "Polygon", "coordinates": [ [ [ 936.692133917003048, 463.239648006948016 ], [ 939.508129402997156, 477.788958009987198 ], [ 940.681460853931981, 477.788958009987198 ], [ 941.620126018574638, 485.767611885289512 ], [ 943.497456343893077, 486.002278174466824 ], [ 942.089458596688701, 503.836916245221175 ], [ 932.702806980915625, 504.306248825499097 ], [ 932.729999999698293, 505.450000000912382 ], [ 929.333451458956574, 503.634001688587489 ], [ 926.700861767204287, 501.001411997315472 ], [ 920.767125349972162, 501.2387614531537 ], [ 915.388909492439211, 499.601913150259918 ], [ 907.43151435201969, 498.665749016007908 ], [ 899.90854331887283, 494.904263500094714 ], [ 898.890861163045201, 494.904263500094714 ], [ 896.564198259257751, 468.871638974129212 ], [ 895.469999999586776, 468.97000000052509 ], [ 922.239999999408496, 462.660000001018489 ], [ 936.692133917003048, 463.239648006948016 ] ] ] } },
{ "type": "Feature", "properties": { "feature_type": "building", "subtype": "no-damage", "uid": "1e15cc52-30e1-44d5-9fd4-f49687e3704a" }, "geometry": { "type": "Polygon", "coordinates": [ [ [ 919.092162141560834, 462.535649133646075 ], [ 920.369999999557308, 462.590000000338193 ], [ 892.752180906487752, 469.097640076619712 ], [ 892.780000001554413, 469.219999999932497 ], [ 873.332235509783686, 470.98363558922631 ], [ 870.985572608635266, 459.484987357993191 ], [ 870.516240026794776, 458.780988487576394 ], [ 870.281573735934671, 438.130354931307977 ], [ 883.892218578054212, 438.834353803648185 ], [ 892.340205031709047, 440.477017836544121 ], [ 918.388163267898562, 437.661022351030113 ], [ 919.092162141560834, 462.535649133646075 ] ] ] } },
{ "type": "Feature", "properties": { "feature_type": "building", "subtype": "no-damage", "uid": "5e2bb94a-9e18-4915-a42a-b552266b05ef" }, "geometry": { "type": "Polygon", "coordinates": [ [ [ 1022.975549323700989, 550.101738864411232 ], [ 1009.467525023847998, 549.81535590476858 ], [ 1008.85132083987105, 535.950761843832993 ], [ 1005.770299935612002, 536.258863932515965 ], [ 1005.15409575560102, 518.388942696583399 ], [ 1022.975549083041983, 517.223527485551131 ], [ 1022.975549323700989, 550.101738864411232 ] ] ] } },
{ "type": "Feature", "properties": { "feature_type": "building", "subtype": "no-damage", "uid": "07961a07-d41f-4325-ba19-06da1a1b8d02" }, "geometry": { "type": "Polygon", "coordinates": [ [ [ 968.750935528709988, 497.540163700237088 ], [ 988.165446441402878, 494.42791386010822 ], [ 995.575565110149341, 493.24229487137751 ], [ 1000.53456636076703, 499.118688891038687 ], [ 1003.282088527401015, 499.170389807337813 ], [ 1003.726695647574047, 521.845352935558708 ], [ 997.205791222057996, 530.144685845133836 ], [ 979.421506415022805, 528.662662110182055 ], [ 978.828696921619212, 522.586364801111245 ], [ 970.084756890430754, 521.252543442155002 ], [ 968.750935528709988, 497.540163700237088 ] ] ] } },
{ "type": "Feature", "properties": { "feature_type": "building", "subtype": "no-damage", "uid": "c27caa48-099e-44f9-8913-505a7f0bb1f6" }, "geometry": { "type": "Polygon", "coordinates": [ [ [ 957.667617996092531, 476.177637977540996 ], [ 965.21544643072707, 475.48091535277581 ], [ 972.763274864760433, 466.191280355264723 ], [ 994.477796674466731, 491.505535726223172 ], [ 989.949099613493672, 493.247342286212984 ], [ 983.56247555186485, 492.666740098267496 ], [ 972.647154430945989, 491.041053975097384 ], [ 973.45999748976601, 488.718645226200522 ], [ 967.305614305262679, 489.87984960112982 ], [ 966.144409929011317, 487.673561289052714 ], [ 959.8739063066065, 487.905802162692225 ], [ 957.667617996092531, 476.177637977540996 ] ] ] } },
{ "type": "Feature", "properties": { "feature_type": "building", "subtype": "no-damage", "uid": "14deed1c-260b-4bed-813e-f110eb8409fd" }, "geometry": { "type": "Polygon", "coordinates": [ [ [ 958.248220182354999, 469.558773041309507 ], [ 948.145742120135765, 461.894824167929983 ], [ 950.816512185862507, 453.534152669785385 ], [ 950.700391747239564, 444.941240297039485 ], [ 953.371161806354735, 438.902977547791807 ], [ 960.802869806934382, 433.445316986489615 ], [ 969.511902620104138, 434.142039611254802 ], [ 976.943610614432828, 444.128397235454486 ], [ 966.260530368235322, 455.972681857425414 ], [ 971.021468307055102, 462.707667231438393 ], [ 963.8220011799948, 463.056028541897717 ], [ 958.248220182354999, 469.558773041309507 ] ] ] } }
]
}
