{
"type": "FeatureCollection",
"name": "mexico-earthquake_00000165_post_disaster",
"features": [
{ "type": "Feature", "properties": { "feature_type": "building", "subtype": "no-damage", "uid": "8b94725c-12e5-4294-aada-b495bdf57936" }, "geometry": { "type": "Polygon", "coordinates": [ [ [ 590.154126981210766, 808.769996182338218 ], [ 640.089187538699662, 789.666052558011643 ], [ 629.118606050795165, 761.293859059002671 ], [ 619.093764348322452, 762.807042712424163 ], [ 611.149550168342216, 731.030185990572136 ], [ 616.067397045326857, 730.841038036418809 ], [ 652.572952679544414, 718.735568810008203 ], [ 758.306660454654434, 686.391268218964569 ], [ 760.387287977627693, 691.119967135305842 ], [ 767.19661441754215, 688.282747785501101 ], [ 776.153008549119363, 684.752711543976261 ], [ 848.865101854656359, 660.104544321436492 ], [ 852.324408911626278, 660.026526007906 ], [ 860.030932323107663, 685.369131856924582 ], [ 777.482210350554851, 713.231178052668383 ], [ 781.483674434154295, 725.680177417031018 ], [ 777.037603230622381, 728.199617763756351 ], [ 781.335472060442726, 740.94502187434 ], [ 785.929745631555534, 740.204010008787463 ], [ 787.856376487761622, 747.317723929631825 ], [ 798.994642208780192, 779.986891682048508 ], [ 599.593245177591371, 836.958719405808779 ], [ 589.937003189360439, 809.438429742595645 ], [ 590.154126981210766, 808.769996182338218 ] ] ] } },
{ "type": "Feature", "properties": { "feature_type": "building", "subtype": "no-damage", "uid": "0456774b-961f-48e8-bc28-b44ed1911ba2" }, "geometry": { "type": "Polygon", "coordinates": [ [ [ 788.081238778221405, 748.244400381239075 ], [ 786.911555490123646, 744.164347964483795 ], [ 785.929745631555534, 740.204010008787463 ], [ 779.927854934981724, 717.225684346537832 ], [ 896.073594411785052, 676.914358751365967 ], [ 919.413802344660894, 742.986887675900107 ], [ 865.650039793597102, 760.521073732812738 ], [ 866.811244168405892, 762.379000732507279 ], [ 807.357580179516731, 780.95827072945292 ], [ 806.521355343139589, 775.62663810219874 ], [ 806.52135534073534, 774.576288383546057 ], [ 798.994642208780192, 779.986891682048508 ], [ 788.081238778221405, 748.244400381239075 ] ] ] } },
{ "type": "Feature", "properties": { "feature_type": "building", "subtype": "no-damage", "uid": "2400730d-8446-4246-a00d-03e0f5e360c4" }, "geometry": { "type": "Polygon", "coordinates": [ [ [ 987.325204552763921, 1022.976520612127047 ], [ 993.454789412700848, 1021.070095855102977 ], [ 989.008718211212567, 1006.546263263346987 ], [ 975.52230223111269, 1010.251322597840954 ], [ 970.928028655071444, 993.20804965839784 ], [ 982.043206657349742, 985.056919123856574 ], [ 993.158384665638437, 982.092871655876365 ], [ 990.194337194894274, 969.199265172182209 ], [ 1007.385812509367042, 948.599135271354953 ], [ 1021.465037977460952, 945.19048068308166 ], [ 1013.462109814469954, 956.305658687526375 ], [ 1022.975847838319964, 953.671085097428545 ], [ 1022.975855144047955, 1019.83228250096704 ], [ 1020.822821490535034, 1015.583038682171036 ], [ 1008.630175551737011, 1019.879494868544043 ], [ 1009.781358585343014, 1022.976230461198043 ], [ 987.325204552763921, 1022.976520612127047 ] ] ] } },
{ "type": "Feature", "properties": { "feature_type": "building", "subtype": "no-damage", "uid": "23e1a17d-fae6-4dd7-8e88-65012fc7cbb4" }, "geometry": { "type": "Polygon", "coordinates": [ [ [ 0.000000002404188, 24.39653126519471 ], [ 19.197470029282119, 17.777312823821251 ], [ 38.503523817578369, 80.108286477924281 ], [ 2.83329110790492, 91.508051569958297 ], [ 0.000000003125445, 75.163222953310608 ], [ 0.000000002404188, 24.39653126519471 ] ] ] } },
{ "type": "Feature", "properties": { "feature_type": "building", "subtype": "no-damage", "uid": "3c932a2d-dfc5-434c-935a-4cbefc944e6d" }, "geometry": { "type": "Polygon", "coordinates": [ [ [ 36.923812634470949, 17.0620164034443 ], [ 40.093237044429053, 11.587556062587099 ], [ 71.067157397475384, 1.935218092371155 ], [ 87.634603169037362, 48.035936761787383 ], [ 92.100610291335059, 55.815433036548143 ], [ 83.168596048182167, 63.162735073822198 ], [ 55.508164848678888, 72.382878806551432 ], [ 36.923812635312423, 17.35014589734601 ], [ 36.923812634470949, 17.0620164034443 ] ] ] } },
{ "type": "Feature", "properties": { "feature_type": "building", "subtype": "no-damage", "uid": "aae9e504-d4d8-46f1-a55c-0aa6ca2b0521" }, "geometry": { "type": "Polygon", "coordinates": [ [ [ 125.485666897513397, 0.001548282953958 ], [ 142.191083213440692, 43.009397816976303 ], [ 136.660036809266501, 46.508631256264373 ], [ 109.230561788821404, 55.764668094864973 ], [ 88.083274841864267, 0.001146649805446 ], [ 125.485666897513397, 0.001548282953958 ] ] ] } },
{ "type": "Feature", "properties": { "feature_type": "building", "subtype": "no-damage", "uid": "34c6d5e3-98da-401d-a948-c681e7a6ee7c" }, "geometry": { "type": "Polygon", "coordinates": [ [ [ 185.440174675313102, 0.002114646288528 ], [ 195.12465548616251, 25.33415768361726 ], [ 188.668297735931105, 30.463866580894639 ], [ 162.400650454534002, 38.865975980181638 ], [ 150.01916526118589, 0.001791567594307 ], [ 185.440174675313102, 0.002114646288528 ] ] ] } },
{ "type": "Feature", "properties": { "feature_type": "building", "subtype": "no-damage", "uid": "374d19fd-17f0-4866-868c-57f1b6e82a60" }, "geometry": { "type": "Polygon", "coordinates": [ [ [ 229.548338757899302, 0.002470420984358 ], [ 230.252798116599394, 1.250021046187991 ], [ 216.352897298187486, 5.64803653838585 ], [ 214.506816725884903, 5.050775175520937 ], [ 213.480818703541587, 0.002346799536229 ], [ 229.548338757899302, 0.002470420984358 ] ] ] } },
{ "type": "Feature", "properties": { "feature_type": "building", "subtype": "no-damage", "uid": "1bd2b0e8-2bc1-44bf-b0cf-0fca630214a6" }, "geometry": { "type": "Polygon", "coordinates": [ [ [ 1022.975825835187038, 433.191763503231982 ], [ 1021.518447987111017, 434.331578742261172 ], [ 1020.937845798684975, 435.957264867354581 ], [ 1006.306670677776992, 446.872585989959077 ], [ 999.339444429284868, 437.466830554666615 ], [ 999.339444430607159, 434.912180930206773 ], [ 992.139977307273284, 424.925823306006976 ], [ 1004.100382364859001, 415.868429184058812 ], [ 1015.944666991274971, 430.6157247447955 ], [ 1020.821725362346001, 426.319268555537519 ], [ 1010.835367741515029, 412.733177371653426 ], [ 1022.975826454986986, 404.405619508622124 ], [ 1022.975825835187038, 433.191763503231982 ] ] ] } }
]
}
