{
"type": "FeatureCollection",
"name": "mexico-earthquake_00000099_post_disaster",
"features": [
{ "type": "Feature", "properties": { "feature_type": "building", "subtype": "no-damage", "uid": "a4b2f1ba-6b6d-41a5-891b-ad58617d52f1" }, "geometry": { "type": "Polygon", "coordinates": [ [ [ 845.863486287107776, 719.096759128252984 ], [ 843.932237887816314, 718.131134928547453 ], [ 838.138492696675144, 715.958480483298104 ], [ 836.207244300509842, 717.648322830137545 ], [ 826.068190213577964, 714.027232085810851 ], [ 827.033814413404116, 708.716298992720908 ], [ 824.619753918948959, 706.302238496823747 ], [ 824.861159965869433, 696.404590458739676 ], [ 837.172868498171624, 670.815549192995604 ], [ 881.10876953873742, 690.610845267239938 ], [ 875.315024345792722, 701.956929601515526 ], [ 865.900188408279519, 719.579571227624797 ], [ 862.279097663831408, 728.028782967593315 ], [ 845.863486287107776, 719.096759128252984 ] ] ] } },
{ "type": "Feature", "properties": { "feature_type": "building", "subtype": "no-damage", "uid": "230e2827-be9f-420f-82d3-2d8ca6857850" }, "geometry": { "type": "Polygon", "coordinates": [ [ [ 145.668737162745288, 541.068571408109278 ], [ 172.467333763668194, 576.348011109129743 ], [ 155.821705252664088, 584.16592387607318 ], [ 132.995824065829908, 549.958525372836107 ], [ 145.668737162745288, 541.068571408109278 ] ] ] } },
{ "type": "Feature", "properties": { "feature_type": "building", "subtype": "no-damage", "uid": "f0a9b988-683c-4949-a73d-a55a2cfccb13" }, "geometry": { "type": "Polygon", "coordinates": [ [ [ 165.17206613786351, 454.301201053781881 ], [ 179.137464403708407, 470.012274099650483 ], [ 145.470879296989807, 492.456664169986709 ], [ 133.999302151381301, 476.246826896271386 ], [ 165.17206613786351, 454.301201053781881 ] ] ] } }
]
}
