{
"type": "FeatureCollection",
"name": "mexico-earthquake_00000137_post_disaster",
"features": [
{ "type": "Feature", "properties": { "feature_type": "building", "subtype": "no-damage", "uid": "bd51d9e7-11fe-45f4-86fd-8784bf7e4c2f" }, "geometry": { "type": "Polygon", "coordinates": [ [ [ 938.192459818624684, 1022.97711108754504 ], [ 987.734243393484462, 983.853404378361574 ], [ 999.937839635444107, 995.683896975001517 ], [ 963.460679161249573, 1022.976815933981015 ], [ 938.192459818624684, 1022.97711108754504 ] ] ] } },
{ "type": "Feature", "properties": { "feature_type": "building", "subtype": "no-damage", "uid": "eccbb210-f42c-40cc-8eee-fc63d4d109a5" }, "geometry": { "type": "Polygon", "coordinates": [ [ [ 1022.975825751281036, 582.280326373677781 ], [ 925.543626115418306, 577.8469274154819 ], [ 940.543626116162386, 532.846927413479307 ], [ 1022.975825370457983, 553.383038368129746 ], [ 1022.975825751281036, 582.280326373677781 ] ] ] } },
{ "type": "Feature", "properties": { "feature_type": "building", "subtype": "no-damage", "uid": "61856ba7-0f17-4c57-a1d2-cd488650934e" }, "geometry": { "type": "Polygon", "coordinates": [ [ [ 1022.97583844864198, 849.447394955082245 ], [ 988.01171779536935, 875.976987196184496 ], [ 959.011717796559424, 840.976987196443361 ], [ 968.613693902193972, 831.453941787613076 ], [ 999.712974134791693, 808.471128299821089 ], [ 1022.975836986655054, 830.310311489026276 ], [ 1022.97583844864198, 849.447394955082245 ] ] ] } },
{ "type": "Feature", "properties": { "feature_type": "building", "subtype": "no-damage", "uid": "90c99ef1-2d06-4624-8eef-4bab367ab507" }, "geometry": { "type": "Polygon", "coordinates": [ [ [ 1022.975832117812956, 756.008931626146591 ], [ 997.758576956537809, 775.747281945585883 ], [ 966.333474262363097, 798.804602560425678 ], [ 956.551884506161173, 787.80460256053459 ], [ 946.793307552984402, 794.758576953037959 ], [ 933.620922920595149, 781.126359026347359 ], [ 970.758576956112165, 751.747281946697626 ], [ 1020.029710113468013, 712.025140045012336 ], [ 1022.975829711940946, 709.236653745654621 ], [ 1022.975832117812956, 756.008931626146591 ] ] ] } },
{ "type": "Feature", "properties": { "feature_type": "building", "subtype": "no-damage", "uid": "16aa3b34-3efa-4f76-9c38-1dc60ed2c072" }, "geometry": { "type": "Polygon", "coordinates": [ [ [ 950.333474263749167, 744.953974393417525 ], [ 926.609627911507005, 766.333051475681714 ], [ 901.609627911268603, 733.333051475046659 ], [ 924.574897310516121, 715.149371832550059 ], [ 950.333474263749167, 744.953974393417525 ] ] ] } },
{ "type": "Feature", "properties": { "feature_type": "building", "subtype": "no-damage", "uid": "1e1a4217-d881-4190-8642-0eda316aec48" }, "geometry": { "type": "Polygon", "coordinates": [ [ [ 162.207115235070205, 485.264435852520421 ], [ 138.161089630978807, 467.861923177719916 ], [ 133.16108962924821, 461.861923177516985 ], [ 120.1841024315965, 445.815897567800107 ], [ 104.988704993109593, 418.81589756832949 ], [ 117.1610896319566, 413.861923177817175 ], [ 132.528871703598412, 438.689538539737612 ], [ 151.701256339434707, 462.689538540549222 ], [ 169.793307553101499, 476.482846095508478 ], [ 162.207115235070205, 485.264435852520421 ] ] ] } },
{ "type": "Feature", "properties": { "feature_type": "building", "subtype": "no-damage", "uid": "4d120493-c90e-41a5-9f79-3898eae8de85" }, "geometry": { "type": "Polygon", "coordinates": [ [ [ 824.423300107522891, 23.94886673937711 ], [ 831.423300109080174, 62.948866740215081 ], [ 762.423300109648494, 59.948866738671121 ], [ 760.423300107778232, 23.948866740338779 ], [ 824.423300107522891, 23.94886673937711 ] ] ] } },
{ "type": "Feature", "properties": { "feature_type": "building", "subtype": "no-damage", "uid": "cbb51be4-85ef-4fc3-82a2-9e28030ac20f" }, "geometry": { "type": "Polygon", "coordinates": [ [ [ 738.390553527915813, 962.796851176704536 ], [ 737.390553527761995, 996.796851176892574 ], [ 708.390553526187205, 995.79685117733959 ], [ 709.390553531630303, 961.796851176189875 ], [ 738.390553527915813, 962.796851176704536 ] ] ] } },
{ "type": "Feature", "properties": { "feature_type": "building", "subtype": "no-damage", "uid": "6fcca759-d9ba-461a-8ae0-d026386638bc" }, "geometry": { "type": "Polygon", "coordinates": [ [ [ 630.857670429711106, 1022.979342135022989 ], [ 631.342654649141423, 1010.962558023638962 ], [ 644.192318400037038, 1011.609531802360948 ], [ 651.114424111973221, 1006.014982043210011 ], [ 675.07910948783308, 1008.243778590916008 ], [ 675.437607125338218, 1022.979174229384967 ], [ 630.857670429711106, 1022.979342135022989 ] ] ] } },
{ "type": "Feature", "properties": { "feature_type": "building", "subtype": "no-damage", "uid": "437a6077-fd17-4646-b625-d9c79fe71757" }, "geometry": { "type": "Polygon", "coordinates": [ [ [ 306.623648001862477, 147.847547107447895 ], [ 343.162969128191492, 111.308225975941198 ], [ 326.749584238549573, 95.676430841113373 ], [ 341.404392176846102, 81.998610097177362 ], [ 347.07091791237832, 86.29735376021668 ], [ 376.185136356758221, 57.769327636270901 ], [ 380.483880016190312, 53.470583973231577 ], [ 424.252906397303889, 85.51576400251362 ], [ 416.437008830132299, 90.791494862441354 ], [ 333.775928893142179, 171.019550465938408 ], [ 306.623648001862477, 147.847547107447895 ] ] ] } },
{ "type": "Feature", "properties": { "feature_type": "building", "subtype": "no-damage", "uid": "ecc0848a-231e-46b5-af17-29c6b9162b9f" }, "geometry": { "type": "Polygon", "coordinates": [ [ [ 935.559363493917658, 343.503240677128019 ], [ 936.927145566050967, 337.445920061420509 ], [ 978.546800115164615, 333.92876615608418 ], [ 1009.028800630596038, 339.790689331644728 ], [ 1022.975828286737965, 347.800027481730183 ], [ 1022.975827742430056, 362.73359422643108 ], [ 1001.799095380619974, 352.29612544143032 ], [ 981.673159143091198, 349.169766414464675 ], [ 955.489902289616225, 348.97436897527939 ], [ 939.271914837356462, 353.273112637356974 ], [ 935.559363493917658, 343.503240677128019 ] ] ] } },
{ "type": "Feature", "properties": { "feature_type": "building", "subtype": "no-damage", "uid": "0a5354ce-8ef8-47e4-9cb4-b2cab7e4a69d" }, "geometry": { "type": "Polygon", "coordinates": [ [ [ 150.973557160048699, 205.125651846564296 ], [ 171.49028827522659, 189.884651587222095 ], [ 190.248442439299396, 181.287164263066813 ], [ 213.117233241841404, 169.556027492160808 ], [ 224.271898251977092, 190.470843904778093 ], [ 201.386096472140309, 200.436113304192588 ], [ 207.05262220995661, 209.619792944942191 ], [ 172.662672913824508, 226.033177840358093 ], [ 155.663095699654491, 240.883383219406198 ], [ 138.077326170933901, 262.377101531717813 ], [ 127.330467015982705, 256.71057579534272 ], [ 144.52544166561151, 236.975434433775888 ], [ 160.938826560422399, 222.125229055689488 ], [ 150.973557160048699, 205.125651846564296 ] ] ] } },
{ "type": "Feature", "properties": { "feature_type": "building", "subtype": "no-damage", "uid": "2a327f7b-3824-44cc-9d20-6c0ebb8ce02d" }, "geometry": { "type": "Polygon", "coordinates": [ [ [ 557.145240580548261, 892.050875702998042 ], [ 568.983361220403935, 798.78270466554693 ], [ 577.022063912286853, 791.520019216882929 ], [ 620.59817660942997, 796.871471653702315 ], [ 684.433359248205647, 873.320792174610915 ], [ 682.159097588679288, 884.098865171337252 ], [ 688.623556201375209, 891.540509390664397 ], [ 692.832971113030226, 897.929799882918928 ], [ 700.049110963814201, 901.011692942010654 ], [ 703.820035932186556, 908.834197301101312 ], [ 696.53121758407724, 1010.369131933787003 ], [ 685.828312710801583, 1009.604638728663986 ], [ 588.355429049166901, 995.461514432935928 ], [ 596.764854303589459, 900.282110381716848 ], [ 568.438466095493823, 896.554030435753702 ], [ 566.2585905148959, 899.560755373681218 ], [ 556.110893854561937, 896.554030435753702 ], [ 557.145240580548261, 892.050875702998042 ] ] ] } },
{ "type": "Feature", "properties": { "feature_type": "building", "subtype": "no-damage", "uid": "3cba9aca-2552-4d50-9c70-2e77a3e142b1" }, "geometry": { "type": "Polygon", "coordinates": [ [ [ 920.05255380311894, 795.803555750215423 ], [ 957.894967457997723, 843.966627678705095 ], [ 891.580924250493354, 896.723498398326797 ], [ 889.37732800358026, 898.588079836867109 ], [ 909.209694201996285, 927.912860624903033 ], [ 913.108364479836496, 939.269856651255395 ], [ 905.480531326479422, 949.948823063505642 ], [ 900.570000001103494, 954.510000001085587 ], [ 870.562720664461494, 911.404224378558069 ], [ 811.431291117130627, 832.732236209536495 ], [ 802.242145133148142, 838.688164161415784 ], [ 793.039517828531302, 830.489459835720709 ], [ 776.852962469192221, 821.79983537905764 ], [ 736.03603703364513, 822.480117469650281 ], [ 732.691996943294839, 824.592142788834508 ], [ 729.29857355582476, 832.227345409531949 ], [ 717.054775053204139, 841.02218658797733 ], [ 723.218311693556302, 846.098040292985843 ], [ 737.223910085390116, 834.494347531795825 ], [ 758.804384511498029, 833.663091717721727 ], [ 776.474265988104548, 840.234947504735032 ], [ 786.761166530433229, 851.693545573766642 ], [ 797.750769141705177, 863.592781872015053 ], [ 812.33112525301533, 853.08136235072709 ], [ 827.955790678677545, 869.667262960942935 ], [ 858.807179554777576, 909.841732597614168 ], [ 895.229999999760594, 959.479999999383153 ], [ 825.711865225624365, 1022.978218983756051 ], [ 802.73971051403305, 1022.978403887006039 ], [ 753.306571469220216, 958.654031331394322 ], [ 757.129037496034016, 946.804386651033383 ], [ 787.326519104497606, 923.869590494472277 ], [ 778.917093843944372, 910.49095940290465 ], [ 740.692433584821629, 938.012714792124257 ], [ 679.915223771704291, 863.474627282098595 ], [ 629.927382419156743, 794.656815940608226 ], [ 633.749848445008865, 788.15862369802835 ], [ 692.713627421110004, 794.137054693451091 ], [ 819.135770587463071, 797.458811160563641 ], [ 913.317336284154408, 797.068016282192957 ], [ 920.05255380311894, 795.803555750215423 ] ] ] } },
{ "type": "Feature", "properties": { "feature_type": "building", "subtype": "no-damage", "uid": "bf40cbe1-3057-4ba5-b29b-a483235bdfc1" }, "geometry": { "type": "Polygon", "coordinates": [ [ [ 452.625621931333683, 883.142228479770097 ], [ 452.795129333897478, 869.073113997971177 ], [ 456.524292212659986, 867.208532561354332 ], [ 509.749616874219782, 869.41212880550313 ], [ 506.189961404993198, 884.837302512621022 ], [ 452.625621931333683, 883.142228479770097 ] ] ] } },
{ "type": "Feature", "properties": { "feature_type": "building", "subtype": "no-damage", "uid": "6db22113-ccdf-44e1-8f67-6024676bcfd7" }, "geometry": { "type": "Polygon", "coordinates": [ [ [ 280.020771129540094, 793.340956261260771 ], [ 285.105993233020286, 793.001941453728818 ], [ 285.275500634622517, 785.374108302533728 ], [ 310.193088935076219, 785.882630511908133 ], [ 311.379640759273684, 789.442285982337694 ], [ 324.092696011783516, 789.103271175767418 ], [ 324.601218225846026, 786.052137914712375 ], [ 341.182183955635082, 786.936500742409635 ], [ 340.704421544177194, 812.725346724047199 ], [ 373.927872611609075, 814.529381684880377 ], [ 374.26688741793879, 830.802092411789772 ], [ 360.367280338466628, 832.836181252172537 ], [ 357.655161883862206, 888.095594757734261 ], [ 325.109740434859702, 850.973473415698777 ], [ 309.854074127904994, 830.463077604257819 ], [ 280.020771129540094, 793.340956261260771 ] ] ] } },
{ "type": "Feature", "properties": { "feature_type": "building", "subtype": "no-damage", "uid": "4c65169d-8870-43f2-913c-12f306d73d3c" }, "geometry": { "type": "Polygon", "coordinates": [ [ [ 370.876739351756783, 901.656187029196985 ], [ 377.657035484481412, 895.723427910852706 ], [ 391.726149966877927, 911.826631233996181 ], [ 386.301913057548802, 918.437419965480785 ], [ 370.876739351756783, 901.656187029196985 ] ] ] } },
{ "type": "Feature", "properties": { "feature_type": "building", "subtype": "no-damage", "uid": "b93648ed-d085-4c58-8024-b7c9da9239e0" }, "geometry": { "type": "Polygon", "coordinates": [ [ [ 993.997189598351838, 647.362624089598626 ], [ 994.84472661658026, 642.446909391926624 ], [ 1005.862707836118943, 634.310554027510307 ], [ 1011.286944744847005, 641.42986497125446 ], [ 1009.252855907711023, 645.837057458590266 ], [ 998.743396893819522, 653.125875804176985 ], [ 993.997189598351838, 647.362624089598626 ] ] ] } },
{ "type": "Feature", "properties": { "feature_type": "building", "subtype": "no-damage", "uid": "ca947872-2163-4b78-9c4e-6bf43c5fc4fb" }, "geometry": { "type": "Polygon", "coordinates": [ [ [ 1022.975828793301048, 688.082506999957332 ], [ 1011.286944748574001, 675.61436348858058 ], [ 1000.607978335365033, 655.103967679062976 ], [ 1005.342462780291044, 649.849238172897458 ], [ 1019.084285304375044, 662.053771218079532 ], [ 1022.975827753489057, 660.577668978189422 ], [ 1022.975828793301048, 688.082506999957332 ] ] ] } },
{ "type": "Feature", "properties": { "feature_type": "building", "subtype": "no-damage", "uid": "7f2b05da-5376-4d14-a1cc-6c4157fffe75" }, "geometry": { "type": "Polygon", "coordinates": [ [ [ 811.710667896017412, 797.458811160563641 ], [ 831.250411815989992, 779.87304163195904 ], [ 845.90521975608965, 797.849606038934439 ], [ 811.710667896017412, 797.458811160563641 ] ] ] } },
{ "type": "Feature", "properties": { "feature_type": "building", "subtype": "no-damage", "uid": "0b993455-f9f9-4244-89e2-3b149127fb73" }, "geometry": { "type": "Polygon", "coordinates": [ [ [ 843.755847923969441, 790.03370847055885 ], [ 833.790578528885021, 777.332874921587859 ], [ 869.352912458566152, 748.609451357495004 ], [ 876.387220273804928, 754.666771975125812 ], [ 860.560027696549923, 766.586015766393757 ], [ 860.950822573117421, 772.643336382101211 ], [ 847.077604391922705, 781.436221144480101 ], [ 850.790155734520113, 787.688939199372953 ], [ 843.755847923969441, 790.03370847055885 ] ] ] } },
{ "type": "Feature", "properties": { "feature_type": "building", "subtype": "no-damage", "uid": "e853cdb2-0aaf-4658-8c91-691d06f1b15b" }, "geometry": { "type": "Polygon", "coordinates": [ [ [ 0.000000000961675, 811.473287754994999 ], [ 0.000000000841466, 789.784172002536479 ], [ 13.087279599832691, 787.048607852979899 ], [ 20.531907942853739, 804.238979943065601 ], [ 23.63874131836333, 820.656967396706364 ], [ 7.029958984126685, 829.645249600194006 ], [ 0.000000000961675, 811.473287754994999 ] ] ] } },
{ "type": "Feature", "properties": { "feature_type": "building", "subtype": "no-damage", "uid": "61243f16-199e-47d8-8b56-281c78c1ab74" }, "geometry": { "type": "Polygon", "coordinates": [ [ [ 19.934352677804849, 799.86716873295461 ], [ 33.704010717922948, 791.347351516019216 ], [ 41.715305725241542, 825.346505937154689 ], [ 38.741805681779518, 829.125723949082499 ], [ 37.24180568305146, 828.859057282342746 ], [ 32.034184485536862, 836.414415246771682 ], [ 21.355218071125378, 837.770474474975799 ], [ 17.448025582605279, 824.299274762539312 ], [ 23.73874132043429, 820.656967396706364 ], [ 19.934352677804849, 799.86716873295461 ] ] ] } },
{ "type": "Feature", "properties": { "feature_type": "building", "subtype": "no-damage", "uid": "60ff8907-86fb-4c6e-9b76-28745adddb4b" }, "geometry": { "type": "Polygon", "coordinates": [ [ [ 36.86485837373786, 798.976579205200323 ], [ 43.645154511270761, 800.332638433404441 ], [ 50.806320996991893, 801.991538397301838 ], [ 56.319194955369341, 823.582804557724103 ], [ 50.714087697906798, 826.078634098368298 ], [ 49.386435836992959, 825.672197117779774 ], [ 41.948639059119643, 826.113172604632723 ], [ 36.86485837373786, 798.976579205200323 ] ] ] } },
{ "type": "Feature", "properties": { "feature_type": "building", "subtype": "no-damage", "uid": "05eb83d5-51db-4a41-8e63-164473a173bd" }, "geometry": { "type": "Polygon", "coordinates": [ [ [ 50.189276575588018, 799.14608660992792 ], [ 52.053858012925723, 788.806135003286158 ], [ 83.582235041737036, 792.535297875558285 ], [ 85.446816481118304, 823.385645293641005 ], [ 76.632431507169983, 822.707615681462244 ], [ 76.971446311696525, 826.77579336126621 ], [ 63.24134663791363, 830.504956236423368 ], [ 60.436405408343802, 826.528084829478075 ], [ 56.726413684888101, 824.36434740201662 ], [ 50.189276575588018, 799.14608660992792 ] ] ] } },
{ "type": "Feature", "properties": { "feature_type": "building", "subtype": "no-damage", "uid": "7ce3176e-0db1-434b-8129-a606f821b608" }, "geometry": { "type": "Polygon", "coordinates": [ [ [ 84.599279464572817, 797.281505171387607 ], [ 86.972383111044437, 792.874312684051802 ], [ 130.027263571894593, 797.959534785489723 ], [ 129.857756170412699, 828.30135999227457 ], [ 127.993174732594198, 828.809882204534119 ], [ 115.958149093224506, 828.979389607338362 ], [ 117.086556459493593, 836.171048688027781 ], [ 89.175979355072457, 835.929193145393128 ], [ 86.294353496461696, 825.758748941555609 ], [ 84.599279464572817, 797.281505171387607 ] ] ] } },
{ "type": "Feature", "properties": { "feature_type": "building", "subtype": "no-damage", "uid": "e3eb8e2f-2cf6-436c-9128-ed80d9ab5c92" }, "geometry": { "type": "Polygon", "coordinates": [ [ [ 144.442488669523101, 800.456719603721922 ], [ 183.768206258462612, 799.778689989619807 ], [ 176.987910120208511, 840.121451998399607 ], [ 170.546628794895497, 838.765392772118844 ], [ 169.154395495334001, 844.434325958973773 ], [ 144.611996072928292, 838.087363157055165 ], [ 144.442488669523101, 800.456719603721922 ] ] ] } },
{ "type": "Feature", "properties": { "feature_type": "building", "subtype": "no-damage", "uid": "dddea99b-3ce6-44fd-ae91-cd4cf9ffb416" }, "geometry": { "type": "Polygon", "coordinates": [ [ [ 176.500415547545401, 845.262060166812375 ], [ 201.555121311162111, 852.534196982373487 ], [ 198.503988049626912, 861.518089361772809 ], [ 201.5551213154896, 863.89119300872585 ], [ 199.351525070259498, 872.02754837218049 ], [ 191.985048973901513, 870.51854963771018 ], [ 183.566219146384213, 868.188337811417341 ], [ 184.092396014969097, 864.50509976474018 ], [ 174.095035596482688, 860.671525469002745 ], [ 176.500415547545401, 845.262060166812375 ] ] ] } },
{ "type": "Feature", "properties": { "feature_type": "building", "subtype": "no-damage", "uid": "bf050931-bcf7-40ff-a47d-b8f65acd2154" }, "geometry": { "type": "Polygon", "coordinates": [ [ [ 146.295707804652011, 839.312619518442602 ], [ 153.754033554964508, 841.007693551293528 ], [ 154.093048360572908, 847.10996007244205 ], [ 160.364822286447492, 848.127004492152651 ], [ 161.890388918537411, 842.872274988872164 ], [ 176.298518207744507, 846.431930460263288 ], [ 174.095035596482688, 860.671525469002745 ], [ 171.213296103663197, 859.653507925155964 ], [ 168.5011776499002, 865.925281850070292 ], [ 157.652703836170588, 862.196118974913247 ], [ 157.822211236931309, 857.788926487577328 ], [ 144.939648580535305, 854.398778418990446 ], [ 146.295707804652011, 839.312619518442602 ] ] ] } },
{ "type": "Feature", "properties": { "feature_type": "building", "subtype": "no-damage", "uid": "3f74f7df-ea89-4408-98d0-cc9045144326" }, "geometry": { "type": "Polygon", "coordinates": [ [ [ 0.000000001682932, 851.290178560106483 ], [ 17.46997484729836, 843.492838003222005 ], [ 20.003191081238931, 853.207841894270359 ], [ 22.555196948614849, 862.308159780850247 ], [ 18.995541475180929, 864.342248621233125 ], [ 13.81600085022815, 863.15853753493036 ], [ 0.000000000601047, 871.604744829490414 ], [ 0.000000000961675, 863.491870869076365 ], [ 0.000000001682932, 851.290178560106483 ] ] ] } },
{ "type": "Feature", "properties": { "feature_type": "building", "subtype": "no-damage", "uid": "7be282c6-1462-4106-90f3-bc2c68cb5c12" }, "geometry": { "type": "Polygon", "coordinates": [ [ [ 27.97943385866521, 874.512692825070644 ], [ 24.91890578167455, 866.768434164771406 ], [ 23.93824845175374, 863.092673972259718 ], [ 20.35160070218263, 845.187912038957961 ], [ 36.45480402808699, 839.594167726222281 ], [ 48.320322262488617, 869.257963319866803 ], [ 27.97943385866521, 874.512692825070644 ] ] ] } },
{ "type": "Feature", "properties": { "feature_type": "building", "subtype": "no-damage", "uid": "981b57c7-b21b-4d50-bbc0-6f78b92613db" }, "geometry": { "type": "Polygon", "coordinates": [ [ [ 40.3803541831277, 845.039057870156171 ], [ 40.371798545212322, 832.328062497359838 ], [ 87.325349285225059, 831.989047689827885 ], [ 93.427615809737944, 872.331809695722654 ], [ 86.138797461388208, 870.806243067599326 ], [ 78.171949502542844, 872.670824505177961 ], [ 68.67953491148738, 869.958706050693081 ], [ 63.812664416147783, 846.0890356050744 ], [ 40.3803541831277, 845.039057870156171 ] ] ] } },
{ "type": "Feature", "properties": { "feature_type": "building", "subtype": "no-damage", "uid": "a1ac30c2-3378-41f4-8ec8-b781503f3c43" }, "geometry": { "type": "Polygon", "coordinates": [ [ [ 89.528945529253079, 840.089228982405757 ], [ 88.975979357421849, 836.329193145983709 ], [ 117.4532231257799, 836.47104868847066 ], [ 116.331823679576701, 829.623773005687212 ], [ 138.686092513894891, 829.410262568232156 ], [ 138.177570305241801, 834.325977266865721 ], [ 144.449344230034512, 833.1394254433892 ], [ 144.600633772522713, 854.532111751879484 ], [ 148.889870054798905, 855.681069358039281 ], [ 149.5345663299085, 870.431054189190604 ], [ 146.313925667732889, 878.05888734327084 ], [ 117.497667089198401, 874.668739274683844 ], [ 95.122689842107661, 872.973665241832919 ], [ 89.528945529253079, 840.089228982405757 ] ] ] } },
{ "type": "Feature", "properties": { "feature_type": "building", "subtype": "no-damage", "uid": "3d7c54fc-9dff-4e1c-87d3-58bb7a89c860" }, "geometry": { "type": "Polygon", "coordinates": [ [ [ 191.399987689143813, 896.96484341827022 ], [ 204.282550343496212, 857.300111023592422 ], [ 209.537279850141289, 833.060552339879337 ], [ 223.775901737385595, 833.569074549253855 ], [ 231.912257097472491, 815.940304597025374 ], [ 248.015460420131205, 821.195034103190892 ], [ 239.140090250960412, 841.302589176867514 ], [ 227.335557206251593, 836.789715214074818 ], [ 222.419842506897908, 858.486662848992296 ], [ 225.3014683691149, 864.927944178634334 ], [ 209.537279849540198, 904.084154361052583 ], [ 191.399987689143813, 896.96484341827022 ] ] ] } },
{ "type": "Feature", "properties": { "feature_type": "building", "subtype": "no-damage", "uid": "9b1da80f-e1e6-4651-943b-998acadfe8b1" }, "geometry": { "type": "Polygon", "coordinates": [ [ [ 233.607331132727211, 853.909962957890457 ], [ 245.133834564044804, 829.161882061917936 ], [ 278.357285629913974, 842.213952124006255 ], [ 261.91506749852141, 869.674151473502093 ], [ 248.184967824498102, 865.944988598344935 ], [ 247.167923403946304, 861.198781302515499 ], [ 233.607331132727211, 853.909962957890457 ] ] ] } },
{ "type": "Feature", "properties": { "feature_type": "building", "subtype": "no-damage", "uid": "5c2c8b1a-e5d5-481f-bde0-1463896bb6b2" }, "geometry": { "type": "Polygon", "coordinates": [ [ [ 258.185904625288515, 876.962969819088698 ], [ 273.272063525351882, 851.536859309014176 ], [ 293.44344453129969, 861.876810916617615 ], [ 281.916941097938491, 889.676025072683501 ], [ 272.933048722267927, 884.590802972207257 ], [ 268.525856232769286, 888.828488055777143 ], [ 257.677382413509974, 881.70917711299478 ], [ 258.185904625288515, 876.962969819088698 ] ] ] } },
{ "type": "Feature", "properties": { "feature_type": "building", "subtype": "no-damage", "uid": "ac2cb63f-8d52-4115-b282-bd702a45e0b2" }, "geometry": { "type": "Polygon", "coordinates": [ [ [ 283.273000329628417, 886.624891810666782 ], [ 298.02014442456408, 857.130603620788179 ], [ 321.073151282270715, 873.233806944893217 ], [ 308.699110837412888, 883.573758551534979 ], [ 289.375266850054118, 892.388143528130058 ], [ 283.273000329628417, 886.624891810666782 ] ] ] } },
{ "type": "Feature", "properties": { "feature_type": "building", "subtype": "no-damage", "uid": "967f6c92-5c6d-4d83-b91e-ba74da5283df" }, "geometry": { "type": "Polygon", "coordinates": [ [ [ 287.680192814559007, 894.252724964746903 ], [ 312.936795921582814, 879.505580869807659 ], [ 320.225614269932578, 886.963906619160298 ], [ 323.615762335513523, 901.711050713137865 ], [ 302.427336909735118, 914.254598563928425 ], [ 287.680192814559007, 894.252724964746903 ] ] ] } },
{ "type": "Feature", "properties": { "feature_type": "building", "subtype": "no-damage", "uid": "8e6e0479-170b-4d22-aed2-66ad7216b730" }, "geometry": { "type": "Polygon", "coordinates": [ [ [ 295.986055584301994, 916.797209615609063 ], [ 320.395121668048603, 909.169376463452181 ], [ 322.59871791243728, 905.101198782686538 ], [ 328.361969628697125, 899.337947068108178 ], [ 335.820295379009622, 905.779228394865186 ], [ 326.497388190157324, 919.339820666328023 ], [ 312.767288518057285, 936.1210536035735 ], [ 295.986055584301994, 916.797209615609063 ] ] ] } },
{ "type": "Feature", "properties": { "feature_type": "building", "subtype": "no-damage", "uid": "e8bacc1a-b697-4eb9-baa1-d8ad7342f235" }, "geometry": { "type": "Polygon", "coordinates": [ [ [ 317.852510622138709, 931.205338905901499 ], [ 345.482217370344927, 896.286813805129782 ], [ 362.771972517681888, 919.509328069132266 ], [ 358.534287432430119, 924.764057576259461 ], [ 353.110050523581776, 932.730905534024828 ], [ 340.057980462578485, 946.800020016785425 ], [ 335.820295379490517, 943.240364545394186 ], [ 333.277684327810391, 945.61346819138555 ], [ 317.852510622138709, 931.205338905901499 ] ] ] } },
{ "type": "Feature", "properties": { "feature_type": "building", "subtype": "no-damage", "uid": "b7a16914-3e75-4730-8789-96bc81fe8ac2" }, "geometry": { "type": "Polygon", "coordinates": [ [ [ 337.006847201043286, 950.529182890019229 ], [ 363.958524340316728, 922.560461331148986 ], [ 377.010594402281697, 943.070857143551621 ], [ 372.77290931690959, 945.613468193308904 ], [ 350.397932069217802, 965.784849197217909 ], [ 337.006847201043286, 950.529182890019229 ] ] ] } },
{ "type": "Feature", "properties": { "feature_type": "building", "subtype": "no-damage", "uid": "8287b21f-06fd-406a-bbfe-6aa0318cfd3a" }, "geometry": { "type": "Polygon", "coordinates": [ [ [ 319.649921799692493, 974.394559876232051 ], [ 341.007854630078214, 960.155937991628889 ], [ 366.942487349280611, 997.44756673839197 ], [ 346.262584135040413, 1012.703233043666955 ], [ 319.649921799692493, 974.394559876232051 ] ] ] } },
{ "type": "Feature", "properties": { "feature_type": "building", "subtype": "no-damage", "uid": "ddcfdabc-d513-46ea-b9f3-143448205d8b" }, "geometry": { "type": "Polygon", "coordinates": [ [ [ 306.844043769813084, 983.509617347100743 ], [ 291.079855253964979, 965.711339991106342 ], [ 316.166950955419793, 936.047544395538466 ], [ 332.60916908741342, 952.150747719643618 ], [ 306.844043769813084, 983.509617347100743 ] ] ] } },
{ "type": "Feature", "properties": { "feature_type": "building", "subtype": "no-damage", "uid": "7987bd26-131a-4671-a635-cf77ab7acec4" }, "geometry": { "type": "Polygon", "coordinates": [ [ [ 273.543908076465698, 948.45992715678301 ], [ 294.430144506224508, 918.946467811236971 ], [ 313.039133069652109, 938.119975550141248 ], [ 288.291052173444996, 968.461800757887772 ], [ 273.543908076465698, 948.45992715678301 ] ] ] } },
{ "type": "Feature", "properties": { "feature_type": "building", "subtype": "no-damage", "uid": "bcf66186-1635-4e0a-9332-e4b4d4fd2763" }, "geometry": { "type": "Polygon", "coordinates": [ [ [ 261.678389838818418, 936.255394112562726 ], [ 266.933119348468779, 929.475097979235443 ], [ 244.388634693885592, 913.880416864504923 ], [ 255.067601110220409, 885.742187902830437 ], [ 277.442578357671778, 897.777213543284802 ], [ 276.086519130189288, 905.57455410016928 ], [ 292.698244662222407, 920.999727806325609 ], [ 273.374400678109225, 946.764853122970408 ], [ 261.678389838818418, 936.255394112562726 ] ] ] } },
{ "type": "Feature", "properties": { "feature_type": "building", "subtype": "no-damage", "uid": "b9d3504f-be47-43ea-9eba-48c9b66b4cbf" }, "geometry": { "type": "Polygon", "coordinates": [ [ [ 220.627105622903088, 899.81130238366768 ], [ 227.068386950860713, 876.927802925273681 ], [ 245.883708727162201, 880.148443590094757 ], [ 244.866664307932695, 891.674947020212926 ], [ 251.79578018941379, 893.557183110991673 ], [ 244.036953462638905, 913.638582075786871 ], [ 232.662131262633409, 910.320761394075362 ], [ 234.526712699249913, 906.7611059236458 ], [ 228.593953581748508, 905.40504669640336 ], [ 228.593953583431386, 901.506376417480283 ], [ 220.627105622903088, 899.81130238366768 ] ] ] } },
{ "type": "Feature", "properties": { "feature_type": "building", "subtype": "no-damage", "uid": "d4e67f07-48dd-4e85-a6d7-2f8d008b8ae9" }, "geometry": { "type": "Polygon", "coordinates": [ [ [ 347.771569103006925, 1022.979175241066969 ], [ 347.572760530888218, 1019.440270883961034 ], [ 359.438278772141814, 1009.947856293263953 ], [ 364.353993466086081, 1019.101256077390985 ], [ 368.252663744647577, 1014.863570991897973 ], [ 370.625767392080888, 1017.406182041655029 ], [ 374.20746130528488, 1022.979281022474993 ], [ 347.771569103006925, 1022.979175241066969 ] ] ] } },
{ "type": "Feature", "properties": { "feature_type": "building", "subtype": "no-damage", "uid": "c2256da8-72a6-48b9-a6c8-d75c0e876ee0" }, "geometry": { "type": "Polygon", "coordinates": [ [ [ 377.236556124766025, 1005.879678613459987 ], [ 394.695818674666782, 995.200712199286727 ], [ 403.340696247013, 1006.049186016265026 ], [ 412.663603434182392, 1001.641993526043962 ], [ 418.25734774499341, 1013.338004362812967 ], [ 430.970403000388274, 1006.218693419069041 ], [ 435.377595489886914, 1001.472486124201055 ], [ 452.531424403290828, 1022.979485348683966 ], [ 389.032984199093619, 1022.979332212456029 ], [ 384.016852261217025, 1015.880615412570023 ], [ 377.236556124766025, 1005.879678613459987 ] ] ] } },
{ "type": "Feature", "properties": { "feature_type": "building", "subtype": "no-damage", "uid": "b65157d7-e34a-43b2-835e-b737d2658733" }, "geometry": { "type": "Polygon", "coordinates": [ [ [ 867.564360365139009, 59.343770869896922 ], [ 864.967539104294588, 29.639518610978289 ], [ 903.276212270879228, 34.894248115220464 ], [ 974.13030689055347, 71.168832440349576 ], [ 960.400207216049353, 85.06843951934421 ], [ 913.446656475796203, 62.184940061911938 ], [ 867.564360365139009, 59.343770869896922 ] ] ] } },
{ "type": "Feature", "properties": { "feature_type": "building", "subtype": "no-damage", "uid": "79a87311-bfae-447d-9829-4a5f856879d0" }, "geometry": { "type": "Polygon", "coordinates": [ [ [ 1022.975849523415945, 53.922774407898643 ], [ 963.798672342306304, 24.75569310388352 ], [ 939.334889776347495, 24.373446500360568 ], [ 940.777348534166663, 0.001082394502538 ], [ 941.261120992597625, 0.001076867754067 ], [ 1022.975855579085987, 0.18290673472122 ], [ 1022.975849523415945, 53.922774407898643 ] ] ] } },
{ "type": "Feature", "properties": { "feature_type": "building", "subtype": "no-damage", "uid": "132bcdc9-bbc6-4d31-ad31-c50fe3dd578e" }, "geometry": { "type": "Polygon", "coordinates": [ [ [ 910.635601205359421, 0.001414419662918 ], [ 907.584739550766585, 15.88904233440496 ], [ 881.652899404908908, 0.001710891684103 ], [ 910.635601205359421, 0.001414419662918 ] ] ] } },
{ "type": "Feature", "properties": { "feature_type": "building", "subtype": "no-damage", "uid": "edce8e4b-9726-441a-b530-977fdfb8d8cf" }, "geometry": { "type": "Polygon", "coordinates": [ [ [ 266.128158192450883, 418.374883036494111 ], [ 265.619635981513909, 392.609757719849313 ], [ 284.434957756613187, 392.60975772081099 ], [ 284.265450358376995, 417.357838616783511 ], [ 266.128158192450883, 418.374883036494111 ] ] ] } },
{ "type": "Feature", "properties": { "feature_type": "building", "subtype": "no-damage", "uid": "9a0c8aee-b5d2-486d-af48-4794e8a61050" }, "geometry": { "type": "Polygon", "coordinates": [ [ [ 266.467172996737077, 311.076696688268385 ], [ 306.640427606068783, 311.924233707098097 ], [ 306.809935006468891, 333.282166533522002 ], [ 265.789143383716976, 331.078570288411527 ], [ 266.467172996737077, 311.076696688268385 ] ] ] } },
{ "type": "Feature", "properties": { "feature_type": "building", "subtype": "no-damage", "uid": "e9019e04-47d1-4004-8c65-2ec62e9c84d1" }, "geometry": { "type": "Polygon", "coordinates": [ [ [ 838.672990278188763, 464.866475087766275 ], [ 844.339516017928304, 439.269410551600799 ], [ 857.040349561847506, 442.786564457898692 ], [ 851.764618703964516, 470.142205945770684 ], [ 838.672990278188763, 464.866475087766275 ] ] ] } },
{ "type": "Feature", "properties": { "feature_type": "building", "subtype": "no-damage", "uid": "b87849d8-fcdc-4a0d-828f-6f6359d4b47a" }, "geometry": { "type": "Polygon", "coordinates": [ [ [ 729.699760028357105, 115.658532831823507 ], [ 744.923749313646454, 93.187827321661857 ], [ 759.595568222626298, 103.543891599446994 ], [ 763.89431188506353, 94.946404274329993 ], [ 823.685928281174938, 149.657687251997402 ], [ 841.662492688867246, 180.921277522614702 ], [ 864.459176997884924, 235.187435823603693 ], [ 822.904338525515641, 240.90829135924821 ], [ 809.812710097816534, 212.380265236263995 ], [ 784.020248124154705, 166.852661901269613 ], [ 728.91817027173613, 118.589494418642104 ], [ 729.699760028357105, 115.658532831823507 ] ] ] } },
{ "type": "Feature", "properties": { "feature_type": "building", "subtype": "no-damage", "uid": "090f1528-6dc9-4d40-9082-20fc210c2f30" }, "geometry": { "type": "Polygon", "coordinates": [ [ [ 837.120763267339498, 427.227301252531902 ], [ 841.028712051766661, 392.251159634507985 ], [ 861.545443168146676, 393.423544271543392 ], [ 856.269712308941394, 430.549057719644509 ], [ 837.120763267339498, 427.227301252531902 ] ] ] } },
{ "type": "Feature", "properties": { "feature_type": "building", "subtype": "no-damage", "uid": "43ea716b-6c1e-4e9b-8220-6f7f6912de28" }, "geometry": { "type": "Polygon", "coordinates": [ [ [ 183.727648869351611, 932.649703758559895 ], [ 189.896465576776308, 917.668291754244024 ], [ 218.978030057743695, 930.005925168375029 ], [ 223.824957471518701, 922.074589401667026 ], [ 234.8407015887515, 927.802776345625148 ], [ 219.859289584679601, 953.359302704910419 ], [ 183.727648869351611, 932.649703758559895 ] ] ] } },
{ "type": "Feature", "properties": { "feature_type": "building", "subtype": "no-damage", "uid": "43ce15e3-507b-4c53-aea5-3c72909491c9" }, "geometry": { "type": "Polygon", "coordinates": [ [ [ 584.257245850480899, 97.161127250847613 ], [ 612.36173285764346, 99.168590609747582 ], [ 642.975549058742104, 102.681651484216204 ], [ 665.057645985479667, 110.711504914046102 ], [ 689.14720627953136, 117.235760826383896 ], [ 712.233034885838833, 125.767480092813202 ], [ 716.932716602264009, 128.282167221400186 ], [ 743.194123422029293, 144.935742278092903 ], [ 777.782317776750347, 173.75923757177739 ], [ 791.87380436589774, 196.818033805378604 ], [ 803.403202479930883, 224.360484863489006 ], [ 809.808423655275192, 247.4192810961286 ], [ 814.29207847906207, 269.19703309607911 ], [ 815.573122717400565, 298.661050505627315 ], [ 815.573122717039951, 322.360368857015487 ], [ 816.854166947925592, 346.700209325229196 ], [ 812.370512125340724, 376.164226736700698 ], [ 808.527379423548155, 425.484429792838284 ], [ 804.04372459639535, 449.18374814518819 ], [ 796.357459188722942, 480.569331909059201 ], [ 792.87960612952179, 501.496329343584591 ], [ 784.347886857444678, 528.597084668058187 ], [ 775.816167588492931, 553.69037663555514 ], [ 763.26952160715166, 577.779936924083017 ], [ 747.711680584936744, 605.382558089002828 ], [ 726.131449493476339, 629.472118377530705 ], [ 709.068010958578043, 650.048617791589777 ], [ 682.97098730899279, 664.602727132795735 ], [ 659.38329285983491, 674.138178080117655 ], [ 633.28626921289424, 684.175494866924055 ], [ 581.594087760420621, 687.688555742354424 ], [ 497.640151396950728, 674.749237354728621 ], [ 503.615082995188175, 620.285734420954782 ], [ 512.437707930613669, 620.303076804692182 ], [ 522.48944744300843, 621.308250758251916 ], [ 539.569633412989219, 622.312967578453026 ], [ 554.160766466838936, 621.80982505911004 ], [ 568.746526170141578, 618.289124439155557 ], [ 585.329119331654283, 613.264096210411026 ], [ 593.391979071338028, 609.73659507311902 ], [ 612.498316136212225, 597.166636479113663 ], [ 620.040131002098178, 590.127609271464621 ], [ 630.087535840084001, 581.084944915099413 ], [ 642.668361710642102, 566.491186906359303 ], [ 649.209645035425751, 551.899093343266941 ], [ 651.245219094133518, 546.810158190065067 ], [ 650.180000000716859, 540.580000000268001 ], [ 651.059197412041044, 540.271545222905502 ], [ 660.132058244404561, 509.020580136477292 ], [ 677.201544862340711, 417.648622358805483 ], [ 679.710000000934201, 289.460000001123603 ], [ 680.447160256652637, 289.279241291481981 ], [ 679.532191946641319, 281.197021206330419 ], [ 677.158712363107838, 269.032938347615413 ], [ 674.487194598611495, 256.269020139343297 ], [ 670.178983953472084, 244.235742128496298 ], [ 665.400954111652027, 234.381055572617697 ], [ 664.759999999903243, 233.950000002069004 ], [ 665.074219443025868, 233.689455426260594 ], [ 661.545731866240885, 228.004669888982306 ], [ 647.149516999563616, 210.956520699459503 ], [ 635.671893294265146, 200.1419696520353 ], [ 627.947909662436359, 194.051905634699807 ], [ 617.701252025137705, 187.369302826927992 ], [ 608.644812729289811, 182.766850071861199 ], [ 600.64667630266149, 179.064009132081509 ], [ 593.4791543067156, 175.032278007144697 ], [ 590.370000000497384, 175.170000000494895 ], [ 588.10034008441653, 173.7578864476653 ], [ 546.280516427515636, 170.385857690747088 ], [ 511.235054486004913, 179.001755508416011 ], [ 509.270000002919289, 180.410000000729809 ], [ 506.960612282315083, 180.15221067203791 ], [ 502.336160426373795, 183.042493081130402 ], [ 497.98523727456751, 186.447563372511212 ], [ 485.118448467152973, 194.583915117181391 ], [ 473.182248024838088, 204.814944070521506 ], [ 465.418975346512013, 212.388868631460213 ], [ 461.099999999758495, 216.840000000081602 ], [ 460.567457997102622, 216.778024406388312 ], [ 460.199999999391707, 217.76999999991591 ], [ 459.764718580265992, 218.213215774023809 ], [ 459.049767356035602, 218.213215773062103 ], [ 457.068951112829211, 218.873487855854108 ], [ 453.013733720217715, 226.360043042955311 ], [ 449.005226646174208, 234.685403890277399 ], [ 442.222321311406688, 249.176156196861314 ], [ 436.053425149640077, 265.523731028570182 ], [ 430.504453348907873, 284.636856125595273 ], [ 428.169999999691413, 293.030000000239397 ], [ 427.679688318579622, 292.968821370022624 ], [ 424.360000003876621, 313.390000000293185 ], [ 422.870733919566419, 314.871877178800389 ], [ 421.344326189110006, 323.267119713803027 ], [ 417.370903303715977, 341.620549212856474 ], [ 412.640503639203473, 377.760802652482084 ], [ 409.610191119295621, 405.601798934664714 ], [ 410.420000001138987, 410.610000001109313 ], [ 410.35354484005029, 410.774115639085778 ], [ 409.386392902821115, 438.821521779430611 ], [ 408.903616573244278, 474.305581976649705 ], [ 408.179167952365674, 487.345657153910224 ], [ 408.420320144492393, 499.644418802473183 ], [ 407.451420985766788, 505.700038524073875 ], [ 409.769999998857315, 518.260000000397895 ], [ 409.489342067239591, 518.449456794679577 ], [ 410.071624166857021, 525.630936036478488 ], [ 414.054500496487094, 535.872618021085145 ], [ 417.647717702250588, 546.841386341327166 ], [ 420.10922631472522, 553.468524897914904 ], [ 423.003920470377807, 560.80175010103585 ], [ 425.076593338843907, 560.990174907030564 ], [ 427.311392927116174, 567.50834036948072 ], [ 433.775459160024525, 574.352645795687067 ], [ 437.250000000616581, 578.409999999763272 ], [ 437.009167398345994, 578.85592957277845 ], [ 441.681789638440591, 583.723244409752624 ], [ 450.017979691751577, 591.112140138620589 ], [ 459.295599019141378, 598.307028595474549 ], [ 466.302327115103992, 603.420046394056158 ], [ 475.009800960625512, 609.098833684959914 ], [ 481.896644445100321, 614.089081839390246 ], [ 487.452900071289321, 615.259350102968142 ], [ 502.614817977011114, 619.399180175460856 ], [ 503.22213278973669, 620.892618227960384 ], [ 497.249999999145075, 674.850000000966475 ], [ 473.083517297364324, 677.636021344541064 ], [ 442.971566933586416, 674.624826307633612 ], [ 395.796178032746411, 661.576314484881436 ], [ 369.699154386166185, 629.456900765562068 ], [ 356.650642565460714, 619.921449818240148 ], [ 336.467368166780375, 598.449859548961854 ], [ 320.692245504037828, 578.592507618040486 ], [ 301.445400235874672, 535.607988807911966 ], [ 294.921144322095984, 482.912075675495089 ], [ 300.943534394947676, 430.216162543078326 ], [ 302.732717337333725, 375.889169358894208 ], [ 310.59721768099439, 328.308942279019675 ], [ 316.102367921232428, 277.976140078424578 ], [ 331.044918574921212, 228.823012929841695 ], [ 343.628119124826583, 205.622736914948888 ], [ 339.302643940086625, 200.904036709785089 ], [ 354.24519458860641, 183.60213595303 ], [ 357.784219745243092, 184.781811005042186 ], [ 361.323244898393909, 180.063110798916711 ], [ 359.750344831368693, 173.7715105240828 ], [ 382.809141067368614, 150.712714289519909 ], [ 400.155997516651325, 136.812643252156306 ], [ 425.667640614865775, 121.752553379821705 ], [ 451.262798424004984, 110.209639074561494 ], [ 476.857956233024026, 104.689114841192904 ], [ 501.449382357303989, 96.659261413286387 ], [ 528.048271842046233, 95.153663893870984 ], [ 561.171417239845937, 95.153663892909307 ], [ 584.257245850480899, 97.161127250847613 ] ] ] } },
{ "type": "Feature", "properties": { "feature_type": "building", "subtype": "no-damage", "uid": "046559bc-bc8a-4a49-8876-f5ed02a02d62" }, "geometry": { "type": "Polygon", "coordinates": [ [ [ 299.484480633245312, 555.824640592365881 ], [ 303.023505791805519, 557.790765679694005 ], [ 362.400483383132723, 630.930618875600658 ], [ 315.999931355161323, 667.893770491211967 ], [ 286.508055066523525, 628.571268773499582 ], [ 289.653855203218484, 626.211918669475153 ], [ 280.609679810430805, 614.808393173742843 ], [ 291.226755273249012, 608.516792896023844 ], [ 256.622953764315014, 567.621391110564673 ], [ 292.406430325140718, 534.197264647143356 ], [ 304.596405857628611, 549.533040317531913 ], [ 299.484480633245312, 555.824640592365881 ] ] ] } },
{ "type": "Feature", "properties": { "feature_type": "building", "subtype": "no-damage", "uid": "77fe4f6a-7be3-405c-a93f-78a6df3d6e87" }, "geometry": { "type": "Polygon", "coordinates": [ [ [ 0.000000000601047, 981.913547751489205 ], [ 5.415882097484528, 974.014356738670244 ], [ 29.839490080401109, 986.904594284020618 ], [ 0.177713901583964, 1022.976056070017989 ], [ -0.000000000360628, 1022.976053653326971 ], [ 0.000000000601047, 981.913547751489205 ] ] ] } }
]
}
