{
"type": "FeatureCollection",
"name": "midwest-flooding_00000218_post_disaster",
"features": [
{ "type": "Feature", "properties": { "feature_type": "building", "subtype": "no-damage", "uid": "cb7382aa-124b-4284-8bdc-72feb87b4aa7" }, "geometry": { "type": "Polygon", "coordinates": [ [ [ 81.975345054892344, 277.381091023652175 ], [ 100.928385555671497, 262.16878220071942 ], [ 111.651816368894799, 277.630473137271792 ], [ 122.896130093026002, 269.072546788585498 ], [ 135.399932855309999, 285.593352137169916 ], [ 124.619686186460896, 295.835367308231014 ], [ 132.888763153551707, 307.267477180978119 ], [ 113.725807807901205, 321.771106940789082 ], [ 81.975345054892344, 277.381091023652175 ] ] ] } },
{ "type": "Feature", "properties": { "feature_type": "building", "subtype": "no-damage", "uid": "ac5bb9ed-27e3-4f5d-9659-dad71bd4361e" }, "geometry": { "type": "Polygon", "coordinates": [ [ [ 45.742897010516693, 474.403898825111298 ], [ 48.45858691504187, 469.99381097240672 ], [ 61.179292406995323, 456.427337097960788 ], [ 68.604393991223432, 463.461643861964774 ], [ 77.201880039457805, 455.059555230007277 ], [ 73.293931838773403, 449.928158014883991 ], [ 87.903580241014936, 432.416034333616608 ], [ 108.8758855533614, 454.716871363695589 ], [ 96.937018458641106, 468.15118170668859 ], [ 95.988517289198796, 467.077972753704501 ], [ 88.534929827195342, 474.794693652011119 ], [ 89.438273645927467, 475.842370331190921 ], [ 70.552382355301077, 497.545390075889713 ], [ 60.266621171916043, 490.832118115579192 ], [ 55.512767512998153, 483.782974513531826 ], [ 45.742897010516693, 474.403898825111298 ] ] ] } },
{ "type": "Feature", "properties": { "feature_type": "building", "subtype": "major-damage", "uid": "7cc30983-b480-4d52-894b-db12635bc582" }, "geometry": { "type": "Polygon", "coordinates": [ [ [ 310.315515469086506, 485.794388534300992 ], [ 335.270649807219002, 492.990040771248005 ], [ 325.166116883497409, 528.202807017203099 ], [ 300.057883558944411, 521.160253765135622 ], [ 310.315515469086506, 485.794388534300992 ] ] ] } }
]
}
