{
"type": "FeatureCollection",
"name": "midwest-flooding_00000052_post_disaster",
"features": [
{ "type": "Feature", "properties": { "feature_type": "building", "subtype": "no-damage", "uid": "1399d1f4-a7f7-4fec-8da1-106b29d6bebe" }, "geometry": { "type": "Polygon", "coordinates": [ [ [ 1022.982728168180984, 93.120664583813124 ], [ 976.450391120275413, 153.393345955907904 ], [ 946.809332202170935, 130.726653839590512 ], [ 955.81788932851714, 118.812110553646406 ], [ 890.142601923397592, 67.957352606022411 ], [ 946.526447357478219, 0.001967092937116 ], [ 952.055992712831994, 0.001847154033034 ], [ 960.601172114672181, 7.334960755906183 ], [ 974.608989183335211, 5.546985468056571 ], [ 1022.982698020678981, 42.053261265165517 ], [ 1022.982728168180984, 93.120664583813124 ] ] ] } },
{ "type": "Feature", "properties": { "feature_type": "building", "subtype": "no-damage", "uid": "11265a1b-9965-42e1-91fe-362e51f9c96d" }, "geometry": { "type": "Polygon", "coordinates": [ [ [ 861.867384277735709, 0.003614177346045 ], [ 859.471074251973505, 3.12174193675626 ], [ 861.870161811956564, 4.686364258296577 ], [ 857.280603003451006, 11.362086155643089 ], [ 848.10148539154261, 5.207905030442451 ], [ 851.771100269433418, 0.003786905696555 ], [ 861.867384277735709, 0.003614177346045 ] ] ] } },
{ "type": "Feature", "properties": { "feature_type": "building", "subtype": "no-damage", "uid": "423f4318-6013-476f-af86-a7444ee5361c" }, "geometry": { "type": "Polygon", "coordinates": [ [ [ 1022.982827469479957, 350.94208544917808 ], [ 1020.511090085848991, 350.567395594366474 ], [ 1021.735041243127966, 342.47048794832682 ], [ 1014.485484399109964, 341.152386704144817 ], [ 1017.80153702983398, 324.666952328075013 ], [ 1022.982821650364031, 325.721895679450824 ], [ 1022.982827469479957, 350.94208544917808 ] ] ] } },
{ "type": "Feature", "properties": { "feature_type": "building", "subtype": "no-damage", "uid": "7da514ea-620e-454c-9210-bfe667af438e" }, "geometry": { "type": "Polygon", "coordinates": [ [ [ 979.524505446807211, 457.89716760815088 ], [ 992.579736849052665, 459.008251131030192 ], [ 993.190000004262856, 463.280000004742988 ], [ 991.613325691726004, 520.950022885795079 ], [ 988.554000046380793, 520.950022886815532 ], [ 988.762242034160295, 534.502379080395031 ], [ 884.698292301908396, 533.549974778642991 ], [ 885.614949318720619, 505.126590502438376 ], [ 894.165798873200401, 505.114877734942127 ], [ 898.527628516263235, 505.11487773698309 ], [ 898.527628518814595, 501.583872790143573 ], [ 905.174226069990482, 501.445402005313326 ], [ 905.168576378147236, 497.831774134060481 ], [ 951.024470893383182, 498.351456097612413 ], [ 951.118620983601886, 494.020552009294192 ], [ 961.228360843153155, 494.006354689412774 ], [ 962.438832621155711, 439.528857740900492 ], [ 965.371997239002553, 439.416043714929174 ], [ 965.456403230630144, 435.207754410760799 ], [ 980.550000003629975, 435.279999999735821 ], [ 979.524505446807211, 457.89716760815088 ] ] ] } },
{ "type": "Feature", "properties": { "feature_type": "building", "subtype": "no-damage", "uid": "d0ce1502-d59f-4976-8f48-aa4badf2603b" }, "geometry": { "type": "Polygon", "coordinates": [ [ [ 985.945229771377285, 445.5565670396781 ], [ 1003.096541506722019, 445.987612856007672 ], [ 1022.98284191674702, 447.312247226638817 ], [ 1022.982842980405053, 461.208473122112196 ], [ 1021.134873887125991, 464.028950794883826 ], [ 993.190000004262856, 463.280000004742988 ], [ 992.579736849052665, 459.008251131030192 ], [ 979.524505446807211, 457.89716760815088 ], [ 980.550000003629975, 435.279999999735821 ], [ 980.734505444964725, 431.187484926971308 ], [ 986.329321163349391, 431.187484924930175 ], [ 985.945229771377285, 445.5565670396781 ] ] ] } },
{ "type": "Feature", "properties": { "feature_type": "building", "subtype": "no-damage", "uid": "5c4c7ccf-42dc-492e-9c17-719b38764c5f" }, "geometry": { "type": "Polygon", "coordinates": [ [ [ 1022.98284191674702, 447.312247226638817 ], [ 1003.096541506722019, 445.987612856007672 ], [ 1022.982840111922997, 428.926336124933528 ], [ 1022.98284191674702, 447.312247226638817 ] ] ] } },
{ "type": "Feature", "properties": { "feature_type": "building", "subtype": "no-damage", "uid": "70582767-a9d3-4d36-84c4-190558fbe472" }, "geometry": { "type": "Polygon", "coordinates": [ [ [ 1009.78656249086896, 1022.976504447628031 ], [ 1012.036744605605008, 847.903627108053001 ], [ 1016.041110358845003, 844.247467075667714 ], [ 1022.982771464569055, 844.039464663361514 ], [ 1022.98267127361396, 1022.976174408217958 ], [ 1009.78656249086896, 1022.976504447628031 ] ] ] } },
{ "type": "Feature", "properties": { "feature_type": "building", "subtype": "no-damage", "uid": "49c37a49-046b-4ca8-aea6-20621a99889f" }, "geometry": { "type": "Polygon", "coordinates": [ [ [ 972.312278603650157, 859.825328354936573 ], [ 993.336984462251394, 860.211102770891785 ], [ 998.352051915590437, 864.840395808278117 ], [ 995.651630980433197, 998.318344923820518 ], [ 985.814383283773736, 1000.054329810927015 ], [ 969.033196041498741, 999.861442598867143 ], [ 970.784328183741081, 863.039204901369999 ], [ 972.312278603650157, 859.825328354936573 ] ] ] } },
{ "type": "Feature", "properties": { "feature_type": "building", "subtype": "no-damage", "uid": "560e67e9-f382-402a-976d-b53ccc3a72f5" }, "geometry": { "type": "Polygon", "coordinates": [ [ [ 865.912299978858073, 1022.979543017227002 ], [ 863.334900080130296, 1017.169985250091031 ], [ 865.388436584349506, 1012.093427108127003 ], [ 886.290161061624531, 1003.090901972051029 ], [ 895.854524747772189, 1022.978995148764056 ], [ 865.912299978858073, 1022.979543017227002 ] ] ] } },
{ "type": "Feature", "properties": { "feature_type": "building", "subtype": "no-damage", "uid": "ae5e7e1c-981b-4707-b530-7121e388186a" }, "geometry": { "type": "Polygon", "coordinates": [ [ [ 740.729945704091051, 1022.981352543969024 ], [ 747.928837930988379, 1012.975825410132984 ], [ 763.97048721867634, 1022.981075283798987 ], [ 740.729945704091051, 1022.981352543969024 ] ] ] } },
{ "type": "Feature", "properties": { "feature_type": "building", "subtype": "no-damage", "uid": "3a8e607f-6949-4f22-a826-6996df4d6561" }, "geometry": { "type": "Polygon", "coordinates": [ [ [ 711.286786653573927, 1022.981665383206973 ], [ 705.873157828548528, 1019.55877703436704 ], [ 712.965355813190513, 1009.77154381375999 ], [ 706.015001787771894, 1004.239629384145019 ], [ 721.192305476977481, 985.799914621820676 ], [ 746.440530309824567, 1007.076508580860036 ], [ 732.703508839807569, 1022.981442085084041 ], [ 711.286786653573927, 1022.981665383206973 ] ] ] } },
{ "type": "Feature", "properties": { "feature_type": "building", "subtype": "no-damage", "uid": "171eae29-20fb-49f3-98e9-0e35e8247910" }, "geometry": { "type": "Polygon", "coordinates": [ [ [ 651.902365092157311, 1022.982165688407008 ], [ 652.176007173182825, 1005.265756798684947 ], [ 664.015001578725673, 1004.743448221609015 ], [ 669.760395923237411, 1005.265756798684947 ], [ 674.112967394272573, 1007.006785388936009 ], [ 674.11296739656882, 1022.676042688956954 ], [ 673.376893578845966, 1022.982004930984999 ], [ 651.902365092157311, 1022.982165688407008 ] ] ] } },
{ "type": "Feature", "properties": { "feature_type": "building", "subtype": "no-damage", "uid": "b96ba7d6-41d1-4058-83b6-ab1e660f3614" }, "geometry": { "type": "Polygon", "coordinates": [ [ [ 561.790651503523122, 1022.982591182959027 ], [ 561.790651499185856, 1015.724131312613054 ], [ 586.468928549364819, 1015.724131311592032 ], [ 586.489980846552498, 1022.982514577181973 ], [ 561.790651503523122, 1022.982591182959027 ] ] ] } },
{ "type": "Feature", "properties": { "feature_type": "building", "subtype": "no-damage", "uid": "a4275c0e-a13f-4f55-b5dd-483dc0d82e88" }, "geometry": { "type": "Polygon", "coordinates": [ [ [ 819.079949331485182, 192.500587575213189 ], [ 829.497153196220438, 193.210851471510011 ], [ 832.338208790846124, 153.672827725931313 ], [ 835.754871701300544, 153.822360963958204 ], [ 835.963488011230311, 149.128494003419405 ], [ 845.45553008637512, 149.754342934484811 ], [ 845.246913777465807, 154.343901736103987 ], [ 860.27525551109045, 155.093355524648103 ], [ 857.197445279093131, 196.051907070984612 ], [ 865.720612073685857, 196.525416337563712 ], [ 864.300084275990343, 218.780351858617706 ], [ 854.948062260814254, 218.260385200265887 ], [ 854.571461902746023, 225.509942043266904 ], [ 821.618930793620393, 223.156189824283302 ], [ 821.99553114913715, 215.906632978220699 ], [ 817.42266690177587, 215.465786994604997 ], [ 819.079949331485182, 192.500587575213189 ] ] ] } },
{ "type": "Feature", "properties": { "feature_type": "building", "subtype": "no-damage", "uid": "6ae8bf26-e769-4fae-a02b-7bcb5b4b6893" }, "geometry": { "type": "Polygon", "coordinates": [ [ [ 854.571461902746023, 225.509942043266904 ], [ 894.88027656839472, 228.126991943453788 ], [ 895.351720042345278, 244.784661392268788 ], [ 890.794433118220468, 267.099652544821424 ], [ 887.965772267628836, 269.456869918912389 ], [ 815.677772769178091, 264.585287344634423 ], [ 815.992068418053236, 229.698470196249588 ], [ 821.618930793620393, 223.156189824283302 ], [ 854.571461902746023, 225.509942043266904 ] ] ] } },
{ "type": "Feature", "properties": { "feature_type": "building", "subtype": "no-damage", "uid": "83fc85c0-3a85-4373-948b-b1d00ba8d3e7" }, "geometry": { "type": "Polygon", "coordinates": [ [ [ 816.599175314794934, 291.465725579591378 ], [ 853.440632365068154, 291.658612789610117 ], [ 868.678721933573001, 294.744808144806086 ], [ 867.328511464718645, 349.524775702341003 ], [ 859.805910286496101, 355.311391993716086 ], [ 841.86739978461992, 354.154068734624673 ], [ 834.73057302745508, 345.667031508090872 ], [ 835.116347445451083, 334.865347762353679 ], [ 814.670303214099022, 333.322250087307111 ], [ 816.599175314794934, 291.465725579591378 ] ] ] } },
{ "type": "Feature", "properties": { "feature_type": "building", "subtype": "no-damage", "uid": "193f3b79-5839-4f51-80c6-687a2354f14c" }, "geometry": { "type": "Polygon", "coordinates": [ [ [ 912.518067835098464, 645.478007691452831 ], [ 931.669382314082782, 647.741344855718694 ], [ 938.459393813765701, 652.964430622392342 ], [ 934.455028055677985, 678.383448022721382 ], [ 929.754250864806636, 677.512933731677663 ], [ 925.40167939300602, 680.646785186987358 ], [ 906.424467774577693, 676.294213715439696 ], [ 912.518067835098464, 645.478007691452831 ] ] ] } },
{ "type": "Feature", "properties": { "feature_type": "building", "subtype": "no-damage", "uid": "048a5b40-29e5-46ee-a4c1-61597b1b09da" }, "geometry": { "type": "Polygon", "coordinates": [ [ [ 871.603895992518801, 626.904504197843039 ], [ 895.903859051350537, 619.206596914676652 ], [ 908.153451951592274, 652.604071895498009 ], [ 885.041012517867102, 660.000052515151083 ], [ 881.458584406292744, 649.021643781115358 ], [ 878.916216066980724, 649.830579161979927 ], [ 871.603895992518801, 626.904504197843039 ] ] ] } },
{ "type": "Feature", "properties": { "feature_type": "building", "subtype": "no-damage", "uid": "98948dd9-ce9a-40d4-a6a5-721d1dc229be" }, "geometry": { "type": "Polygon", "coordinates": [ [ [ 901.512509815445242, 619.468993389089292 ], [ 910.92751870285565, 617.491841524857364 ], [ 912.057319771192056, 621.634445433248402 ], [ 910.645068437047257, 623.89404756788133 ], [ 902.642310882250854, 625.682899257288682 ], [ 901.512509815445242, 619.468993389089292 ] ] ] } },
{ "type": "Feature", "properties": { "feature_type": "building", "subtype": "no-damage", "uid": "b1549aff-bba9-4b0c-a9d8-7467adce52f5" }, "geometry": { "type": "Polygon", "coordinates": [ [ [ 912.904670569637915, 622.199345966906549 ], [ 920.248377503874394, 622.481796233225396 ], [ 920.060077328284706, 633.120756280216938 ], [ 912.716370392517319, 632.838306006754237 ], [ 912.904670569637915, 622.199345966906549 ] ] ] } },
{ "type": "Feature", "properties": { "feature_type": "building", "subtype": "no-damage", "uid": "fd05f9d4-2a4c-43a0-bbb6-a28e750b5890" }, "geometry": { "type": "Polygon", "coordinates": [ [ [ 878.387981243085051, 566.535969041539602 ], [ 901.90537856297783, 566.341505224548996 ], [ 901.905378560681584, 572.081366171522745 ], [ 910.333036699153126, 572.082737359202611 ], [ 910.333036699153126, 583.083085111423884 ], [ 901.375610672662219, 583.083085111423884 ], [ 901.061315023532075, 608.3838849332667 ], [ 881.417836896762196, 608.226737110232307 ], [ 881.417836899823783, 601.155084982856579 ], [ 877.960584750461408, 601.155084982856579 ], [ 878.387981243085051, 566.535969041539602 ] ] ] } },
{ "type": "Feature", "properties": { "feature_type": "building", "subtype": "no-damage", "uid": "b4cce6a9-0681-4794-bb79-cbbad7d9b8d3" }, "geometry": { "type": "Polygon", "coordinates": [ [ [ 564.060282567532909, 847.563957558913103 ], [ 585.82313992857712, 847.968422397447739 ], [ 585.474934211547406, 886.04068937898785 ], [ 563.712076852544328, 886.040689380008416 ], [ 564.060282567532909, 847.563957558913103 ] ] ] } },
{ "type": "Feature", "properties": { "feature_type": "building", "subtype": "no-damage", "uid": "105b6adb-1d6f-4127-9282-50c295cd0695" }, "geometry": { "type": "Polygon", "coordinates": [ [ [ 562.709525276268323, 844.215388309761352 ], [ 562.933888151112114, 838.321716255883189 ], [ 560.744967926932645, 838.321716254862622 ], [ 560.860530121100851, 833.699228370768651 ], [ 553.233425109798304, 833.468103973757366 ], [ 553.464549502727209, 825.263187974260291 ], [ 552.424489730209871, 824.569814795473235 ], [ 552.424489732506117, 819.02282932945775 ], [ 560.976092320116663, 818.791704936528731 ], [ 561.207216714831588, 809.315604766226897 ], [ 585.244153725375213, 809.893415752121314 ], [ 585.013029332446195, 820.52513789217096 ], [ 587.093148879011778, 822.605257437717114 ], [ 586.515337893372816, 844.908761495692261 ], [ 562.709525276268323, 844.215388309761352 ] ] ] } },
{ "type": "Feature", "properties": { "feature_type": "building", "subtype": "no-damage", "uid": "64a01328-3fe4-4422-85bb-5511a4fde023" }, "geometry": { "type": "Polygon", "coordinates": [ [ [ 566.219191047163918, 890.005998625770303 ], [ 587.250315920080538, 890.180101483774934 ], [ 587.152918417060846, 898.362935853876934 ], [ 589.548974138413428, 898.362935853876934 ], [ 589.548974137137748, 908.983210244208294 ], [ 587.111534113082485, 909.003902393773728 ], [ 587.055520908683434, 922.56323324000914 ], [ 566.219191044867671, 922.56323324000914 ], [ 566.219191047163918, 890.005998625770303 ] ] ] } },
{ "type": "Feature", "properties": { "feature_type": "building", "subtype": "no-damage", "uid": "288861d3-ad21-4f28-9795-a0e322db3251" }, "geometry": { "type": "Polygon", "coordinates": [ [ [ 555.387312039644826, 966.219001311176044 ], [ 555.387312038624259, 946.345064381712518 ], [ 565.003733135669222, 946.345064382732971 ], [ 564.79003488782655, 930.317695889946208 ], [ 586.159859544524579, 930.531394133196613 ], [ 586.159859543759126, 951.260124049949013 ], [ 591.288617462387151, 956.175183720226642 ], [ 591.502315708443916, 965.79160481447002 ], [ 555.387312039644826, 966.219001311176044 ] ] ] } },
{ "type": "Feature", "properties": { "feature_type": "building", "subtype": "no-damage", "uid": "715716d0-6fc2-4aea-ab5b-843f05049daf" }, "geometry": { "type": "Polygon", "coordinates": [ [ [ 562.149565572823576, 973.454723114590138 ], [ 583.390114358833443, 973.454723115610705 ], [ 583.56421721479694, 1008.797603470169975 ], [ 562.323668430828207, 1008.797603469149976 ], [ 562.149565572823576, 973.454723114590138 ] ] ] } },
{ "type": "Feature", "properties": { "feature_type": "building", "subtype": "no-damage", "uid": "681746dd-1eb5-4443-b1d5-ef4c89d174d0" }, "geometry": { "type": "Polygon", "coordinates": [ [ [ 523.96221736999928, 931.093248651399904 ], [ 534.219733205214311, 931.520645147085474 ], [ 534.006034958902546, 947.76171188516355 ], [ 523.748519127514555, 947.761711887204683 ], [ 523.96221736999928, 931.093248651399904 ] ] ] } },
{ "type": "Feature", "properties": { "feature_type": "building", "subtype": "no-damage", "uid": "e0f31c85-9a92-4f32-b43a-7f21d3e27ce0" }, "geometry": { "type": "Polygon", "coordinates": [ [ [ 648.997557785034815, 953.308850296371475 ], [ 677.846821068770623, 948.393790626093846 ], [ 685.967354440101872, 953.949945035307337 ], [ 688.745431644707196, 973.182787226855567 ], [ 652.844126222985324, 978.738941639130644 ], [ 648.997557785034815, 953.308850296371475 ] ] ] } },
{ "type": "Feature", "properties": { "feature_type": "building", "subtype": "no-damage", "uid": "26578efd-4f22-47e1-adb0-c05d9dc4d905" }, "geometry": { "type": "Polygon", "coordinates": [ [ [ 679.561166317543552, 854.568568013934055 ], [ 696.660129183820573, 841.915844037096576 ], [ 700.885134487604205, 842.684026819510336 ], [ 707.158627209115821, 850.621915573160095 ], [ 706.518474893244502, 854.590859948964408 ], [ 717.441907631606909, 869.484109907604193 ], [ 694.950217477785031, 882.74236936365503 ], [ 684.059504350042857, 868.773846008245755 ], [ 685.480032150544957, 862.618225543737822 ], [ 679.561166317543552, 854.568568013934055 ] ] ] } },
{ "type": "Feature", "properties": { "feature_type": "building", "subtype": "no-damage", "uid": "b632c884-2d92-456d-affb-c2304a64aac2" }, "geometry": { "type": "Polygon", "coordinates": [ [ [ 704.193542866492521, 881.912498697854858 ], [ 723.472097471791244, 869.431166504629232 ], [ 739.948363028905419, 885.71913187901805 ], [ 743.149466049395187, 897.393742901831615 ], [ 728.556202271906272, 909.633254452180154 ], [ 721.466290562857921, 909.67694719327767 ], [ 712.014817290062638, 900.418361127689764 ], [ 711.821930078002993, 890.966887850042099 ], [ 704.193542866492521, 881.912498697854858 ] ] ] } },
{ "type": "Feature", "properties": { "feature_type": "building", "subtype": "no-damage", "uid": "08ef9122-a97a-4762-8e1a-42e9c3cea0c0" }, "geometry": { "type": "Polygon", "coordinates": [ [ [ 750.099711099310412, 902.052061288717027 ], [ 759.26859694272764, 910.841207051148331 ], [ 764.373741839735658, 905.500068103674948 ], [ 780.260265325058299, 921.10290367234461 ], [ 755.863104254950485, 946.492972459580415 ], [ 749.338282112049683, 946.634816422375707 ], [ 734.586510297197378, 932.024888567760058 ], [ 738.132609289773541, 928.336945619785638 ], [ 731.080567154594064, 921.712299974930261 ], [ 750.099711099310412, 902.052061288717027 ] ] ] } },
{ "type": "Feature", "properties": { "feature_type": "building", "subtype": "no-damage", "uid": "1ac16ed8-7274-42e6-bed1-cb6781e86bac" }, "geometry": { "type": "Polygon", "coordinates": [ [ [ 767.030021369680185, 940.978755327802219 ], [ 780.532126044446045, 925.933552972880307 ], [ 798.084862128070881, 933.263266937260937 ], [ 808.693658661998143, 948.115582086246491 ], [ 792.684020255715268, 967.982964684491321 ], [ 777.445930692313254, 956.79550652279886 ], [ 767.030021369680185, 940.978755327802219 ] ] ] } },
{ "type": "Feature", "properties": { "feature_type": "building", "subtype": "no-damage", "uid": "0531ad6e-8ef8-4a5a-984d-f1f152916186" }, "geometry": { "type": "Polygon", "coordinates": [ [ [ 816.794921468745656, 946.186709992182955 ], [ 828.946815680270106, 952.744875117509537 ], [ 844.377792457262672, 970.297611202674261 ], [ 833.961883133864262, 984.378377511584972 ], [ 827.596605216008243, 985.342813561678327 ], [ 801.556831906364096, 965.475430957310209 ], [ 816.794921468745656, 946.186709992182955 ] ] ] } },
{ "type": "Feature", "properties": { "feature_type": "building", "subtype": "no-damage", "uid": "0e35b668-f8a5-4748-99a3-a881fad66e09" }, "geometry": { "type": "Polygon", "coordinates": [ [ [ 849.859009242290313, 972.676608539788504 ], [ 854.416296164884329, 977.233895463915587 ], [ 859.9164700430332, 972.048017240507193 ], [ 866.202383039415395, 975.819565043339026 ], [ 869.659635191074017, 984.462695416366728 ], [ 871.702556913992453, 995.77733881669792 ], [ 855.51633093964665, 1009.920643067366996 ], [ 836.187148466854524, 986.034173667121422 ], [ 849.859009242290313, 972.676608539788504 ] ] ] } },
{ "type": "Feature", "properties": { "feature_type": "building", "subtype": "no-damage", "uid": "41563280-92dc-4d0e-b135-273ad00d6540" }, "geometry": { "type": "Polygon", "coordinates": [ [ [ 365.853211482557924, 1022.982128080505959 ], [ 365.805907775241906, 999.186736432504176 ], [ 392.322426695239415, 999.186736433524629 ], [ 395.726681727826701, 1003.158367300967029 ], [ 395.584837769368676, 1020.526716850659 ], [ 390.07505467758881, 1022.982288356233994 ], [ 365.853211482557924, 1022.982128080505959 ] ] ] } },
{ "type": "Feature", "properties": { "feature_type": "building", "subtype": "no-damage", "uid": "09b51cf8-4215-4339-906b-f1eb19c381be" }, "geometry": { "type": "Polygon", "coordinates": [ [ [ 462.370849743265921, 1022.982593888409042 ], [ 463.211779111779492, 1022.694371799733972 ], [ 463.597553531816573, 1010.365797623812 ], [ 481.150289616206976, 1010.45077888947003 ], [ 484.776524535343412, 1022.982636020361952 ], [ 462.370849743265921, 1022.982593888409042 ] ] ] } },
{ "type": "Feature", "properties": { "feature_type": "building", "subtype": "no-damage", "uid": "414f9d5e-5460-4016-a569-5513258d34f1" }, "geometry": { "type": "Polygon", "coordinates": [ [ [ 463.230912319146228, 1007.125422829617037 ], [ 463.410921846706799, 988.300410215727652 ], [ 460.537388106463084, 988.300410215727652 ], [ 460.7128631874848, 979.726903593255429 ], [ 463.818735544260392, 979.622595440459122 ], [ 464.017932937241881, 972.30113669658931 ], [ 481.961385716201107, 972.836980862471137 ], [ 481.795329553403292, 1007.765575147274944 ], [ 463.230912319146228, 1007.125422829617037 ] ] ] } },
{ "type": "Feature", "properties": { "feature_type": "building", "subtype": "no-damage", "uid": "fb077dd0-217c-469b-8819-8865974737d7" }, "geometry": { "type": "Polygon", "coordinates": [ [ [ 370.121990950672512, 921.045815385973015 ], [ 381.888110740118691, 919.116943289868573 ], [ 390.375147969199475, 921.238702592930053 ], [ 389.989373547631487, 944.765042089605686 ], [ 369.673887488208777, 943.99349325157209 ], [ 370.121990950672512, 921.045815385973015 ] ] ] } },
{ "type": "Feature", "properties": { "feature_type": "building", "subtype": "no-damage", "uid": "13f12391-23da-46e7-ac85-f42383ea9898" }, "geometry": { "type": "Polygon", "coordinates": [ [ [ 362.322777673249391, 959.26539680572148 ], [ 370.342353452808084, 959.392525601382431 ], [ 370.470383917819277, 950.942514992790279 ], [ 391.557602452427602, 951.070545455505339 ], [ 391.750489661935887, 993.511802665367213 ], [ 372.006749483666624, 993.448628948935152 ], [ 372.006749482390887, 979.109217014627461 ], [ 365.989317686819675, 972.963754754296929 ], [ 362.322777674780184, 972.960388696636073 ], [ 362.322777673249391, 959.26539680572148 ] ] ] } },
{ "type": "Feature", "properties": { "feature_type": "building", "subtype": "no-damage", "uid": "607b7a8c-28ce-4c32-8963-ebfa63be5c24" }, "geometry": { "type": "Polygon", "coordinates": [ [ [ 371.90499714803849, 840.383413557238669 ], [ 391.992632325079626, 840.810810051903559 ], [ 390.710442844912279, 866.240901390580689 ], [ 384.299495447647814, 865.813504897956705 ], [ 383.872098955024114, 873.934038269036932 ], [ 370.409109421049209, 873.29294353010107 ], [ 371.90499714803849, 840.383413557238669 ] ] ] } },
{ "type": "Feature", "properties": { "feature_type": "building", "subtype": "no-damage", "uid": "ba82161e-0d01-4236-8ab2-d369c9a9a48f" }, "geometry": { "type": "Polygon", "coordinates": [ [ [ 366.348842739083011, 878.849097939314561 ], [ 377.461151559290272, 878.208003199358131 ], [ 388.146063888404683, 880.772382160204302 ], [ 387.077572653273592, 910.47643843124365 ], [ 365.066653256874588, 909.621645444975229 ], [ 366.348842739083011, 878.849097939314561 ] ] ] } },
{ "type": "Feature", "properties": { "feature_type": "building", "subtype": "no-damage", "uid": "37db9e6c-02d3-46a3-94f4-9a58c5c9d1b8" }, "geometry": { "type": "Polygon", "coordinates": [ [ [ 372.471909117840084, 801.507930840067161 ], [ 383.226152764469077, 799.147243211232876 ], [ 391.882007407095728, 802.032528091259337 ], [ 391.882007405309821, 834.295259027846214 ], [ 372.471909116819518, 834.032960402760295 ], [ 372.471909117840084, 801.507930840067161 ] ] ] } },
{ "type": "Feature", "properties": { "feature_type": "building", "subtype": "no-damage", "uid": "a0fc568b-c69d-4b8c-8fc4-38f4b7727935" }, "geometry": { "type": "Polygon", "coordinates": [ [ [ 362.688054310060181, 765.496773252593243 ], [ 369.853707771517975, 765.345277802869646 ], [ 369.853707772793712, 762.007416852155302 ], [ 374.651882885871316, 757.626474355108144 ], [ 383.100843418000522, 757.417858045433377 ], [ 389.255024542432579, 760.860027147923461 ], [ 389.306489248739524, 764.532337205561475 ], [ 390.078038086262382, 796.165839599636911 ], [ 368.667557812471614, 796.551614017633142 ], [ 368.474670599646515, 780.34908839953755 ], [ 363.073828730607715, 780.541975612617875 ], [ 362.688054310060181, 765.496773252593243 ] ] ] } },
{ "type": "Feature", "properties": { "feature_type": "building", "subtype": "no-damage", "uid": "1d89f82b-da99-41c5-802a-236386aef066" }, "geometry": { "type": "Polygon", "coordinates": [ [ [ 372.708047314148416, 716.459876314261919 ], [ 378.508853893629805, 714.381215203337547 ], [ 387.946136883673773, 717.810086783372071 ], [ 392.961204335482023, 723.21092865675098 ], [ 389.489234560760679, 751.565348480508987 ], [ 387.560362463636579, 752.722671736538814 ], [ 368.657415911922783, 749.057814752307422 ], [ 372.708047314148416, 716.459876314261919 ] ] ] } },
{ "type": "Feature", "properties": { "feature_type": "building", "subtype": "no-damage", "uid": "805d0cb5-135d-453b-bd1e-f21838333cd8" }, "geometry": { "type": "Polygon", "coordinates": [ [ [ 402.55152062264159, 731.711556462841031 ], [ 404.287505510512574, 699.692279652810385 ], [ 420.297143916030109, 704.514459895112736 ], [ 419.911369497778821, 729.589797157738417 ], [ 418.175384609397724, 735.762187868130354 ], [ 402.55152062264159, 731.711556462841031 ] ] ] } },
{ "type": "Feature", "properties": { "feature_type": "building", "subtype": "no-damage", "uid": "17bd3db0-d210-4b33-8962-317a4161ebd8" }, "geometry": { "type": "Polygon", "coordinates": [ [ [ 382.469254362025822, 703.151529964671226 ], [ 385.769358684271822, 695.922730015281672 ], [ 402.11273248471349, 706.137338640084636 ], [ 401.798436835583288, 711.637512513643969 ], [ 399.912662937740208, 713.994729890796521 ], [ 382.469254362025822, 703.151529964671226 ] ] ] } },
{ "type": "Feature", "properties": { "feature_type": "building", "subtype": "no-damage", "uid": "c37b4d8a-e399-43c0-93f0-c2e7b5944fa9" }, "geometry": { "type": "Polygon", "coordinates": [ [ [ 428.347515059857187, 659.057342118030761 ], [ 453.940635316902274, 647.914759149603242 ], [ 463.342189697879576, 668.11069077917648 ], [ 438.44548087744522, 679.775582327741176 ], [ 428.347515059857187, 659.057342118030761 ] ] ] } },
{ "type": "Feature", "properties": { "feature_type": "building", "subtype": "no-damage", "uid": "9b32b9b9-8a8c-4484-8df8-e00a96f8c4a4" }, "geometry": { "type": "Polygon", "coordinates": [ [ [ 469.456252772101323, 647.714845476179562 ], [ 503.548919950216884, 647.951600114061534 ], [ 510.888313580658576, 656.948276173961972 ], [ 510.651558947113983, 665.944952236924109 ], [ 505.396844243597684, 670.696910522097141 ], [ 469.92976203663909, 670.506268659190937 ], [ 469.456252772101323, 647.714845476179562 ] ] ] } },
{ "type": "Feature", "properties": { "feature_type": "building", "subtype": "no-damage", "uid": "3b365162-2b6d-44e5-8963-1d7aff92320b" }, "geometry": { "type": "Polygon", "coordinates": [ [ [ 517.502284369387098, 654.778633192520488 ], [ 545.069358179334017, 654.564934946208609 ], [ 545.283056426156122, 672.301889412552555 ], [ 537.803617792739942, 672.729285903135406 ], [ 537.803617794781076, 676.789552590206313 ], [ 517.502284369131985, 676.789552590206313 ], [ 517.502284369387098, 654.778633192520488 ] ] ] } },
{ "type": "Feature", "properties": { "feature_type": "building", "subtype": "no-damage", "uid": "df4fc805-a416-4736-a830-346150d201b0" }, "geometry": { "type": "Polygon", "coordinates": [ [ [ 554.580337077389458, 655.750163145309784 ], [ 585.249403418039265, 643.212494511445584 ], [ 593.157779015788719, 662.69410269475577 ], [ 562.10293825459155, 674.845996906541586 ], [ 554.580337077389458, 655.750163145309784 ] ] ] } },
{ "type": "Feature", "properties": { "feature_type": "building", "subtype": "no-damage", "uid": "f22f20f2-9d3c-43f4-b0a3-7ba783cb48cb" }, "geometry": { "type": "Polygon", "coordinates": [ [ [ 461.433381677913928, 928.881677045677407 ], [ 475.135454948477275, 928.758372220686965 ], [ 489.076961997869091, 941.450910625243864 ], [ 488.820901069377385, 960.655480181505254 ], [ 479.85876861094988, 960.655480179464234 ], [ 473.199501469911525, 966.800942439794653 ], [ 461.819156095399705, 966.800942438774086 ], [ 461.433381677913928, 928.881677045677407 ] ] ] } },
{ "type": "Feature", "properties": { "feature_type": "building", "subtype": "no-damage", "uid": "9bc619c3-d2fc-4c9d-a620-833af79b9bcc" }, "geometry": { "type": "Polygon", "coordinates": [ [ [ 461.322736711176617, 925.932376668442771 ], [ 461.748268591398073, 888.201883383351742 ], [ 484.159614225744917, 888.201883383351742 ], [ 484.301458188795323, 904.655782706341597 ], [ 495.790818923394909, 904.797626668116436 ], [ 495.790818921353775, 925.932376667422318 ], [ 461.322736711176617, 925.932376668442771 ] ] ] } },
{ "type": "Feature", "properties": { "feature_type": "building", "subtype": "no-damage", "uid": "c6b3c76d-49f6-4bb9-84b3-4fc5608bbaa1" }, "geometry": { "type": "Polygon", "coordinates": [ [ [ 456.372448732442024, 866.242315830765392 ], [ 461.244031307227715, 860.113550657924634 ], [ 461.244031309524019, 850.370385509368703 ], [ 473.658709484611677, 848.013168132216151 ], [ 484.65905723351068, 852.099011585198923 ], [ 485.444796359653083, 882.899985283662545 ], [ 456.843892209709225, 883.685724411080969 ], [ 456.372448732442024, 866.242315830765392 ] ] ] } },
{ "type": "Feature", "properties": { "feature_type": "building", "subtype": "no-damage", "uid": "b9172795-6ad3-4ac0-aa35-1ff57ab05833" }, "geometry": { "type": "Polygon", "coordinates": [ [ [ 460.477129011026079, 842.258354290576563 ], [ 460.743092825124506, 820.695005643943887 ], [ 463.863272150075488, 818.383761700366108 ], [ 464.094396543514677, 805.671920013749855 ], [ 481.659850513268395, 805.903044407699326 ], [ 481.659850512502999, 824.046309362335819 ], [ 486.051214005451698, 825.895304519035108 ], [ 485.543107610873278, 838.965749853627017 ], [ 482.123935666311922, 842.384921798700475 ], [ 460.477129011026079, 842.258354290576563 ] ] ] } },
{ "type": "Feature", "properties": { "feature_type": "building", "subtype": "no-damage", "uid": "916490d8-dfb7-40bf-9ab0-c4a58afb4b9d" }, "geometry": { "type": "Polygon", "coordinates": [ [ [ 555.788575190650363, 759.55388140655657 ], [ 556.731462140592498, 757.510959680575411 ], [ 576.532088095244148, 746.039168456189259 ], [ 584.546627166179974, 752.796524934434615 ], [ 586.432401069125717, 761.753950957613142 ], [ 583.132296745093868, 763.639724857498322 ], [ 590.518244516493496, 776.368698684529249 ], [ 572.131948990581918, 787.369046432668483 ], [ 555.788575190650363, 759.55388140655657 ] ] ] } },
{ "type": "Feature", "properties": { "feature_type": "building", "subtype": "no-damage", "uid": "43e8acda-e11f-447e-9754-47333e48eac3" }, "geometry": { "type": "Polygon", "coordinates": [ [ [ 509.695770928030981, 742.368009172152256 ], [ 512.524431780918803, 742.05371352098075 ], [ 512.524431779643123, 739.539348320793692 ], [ 520.538970854405989, 737.967870071059565 ], [ 532.482205554012467, 737.967870073100585 ], [ 532.639353378832766, 745.353817843483398 ], [ 545.054031556216728, 745.510965671620511 ], [ 545.36832720483676, 761.225748172023827 ], [ 541.43963158177894, 765.468739448040992 ], [ 510.167214403001992, 765.468739450082126 ], [ 509.695770928030981, 742.368009172152256 ] ] ] } },
{ "type": "Feature", "properties": { "feature_type": "building", "subtype": "no-damage", "uid": "0f0f5af3-05f9-477f-aeac-a102743a3a63" }, "geometry": { "type": "Polygon", "coordinates": [ [ [ 467.737301653822612, 750.068252599829748 ], [ 474.577829383673418, 749.786347891472701 ], [ 481.72345807991951, 743.782339596810857 ], [ 491.309475403650197, 743.468043947680485 ], [ 500.266901427589687, 749.439661298507303 ], [ 500.581197079271305, 768.297400299399555 ], [ 487.53792760413711, 768.611695948529928 ], [ 487.695075431508712, 775.369052422693017 ], [ 484.709266757372518, 778.354861100147446 ], [ 477.009023330464174, 778.354861098106426 ], [ 476.851875504623422, 772.199613547914623 ], [ 468.051597302187474, 772.383243750341194 ], [ 467.737301653822612, 750.068252599829748 ] ] ] } },
{ "type": "Feature", "properties": { "feature_type": "building", "subtype": "no-damage", "uid": "7dcd0027-4dcb-4f32-afe8-662309c1fa8f" }, "geometry": { "type": "Polygon", "coordinates": [ [ [ 685.348642447627981, 698.732755308263904 ], [ 688.168646295136796, 696.745894452764901 ], [ 689.204297271723817, 691.567639564469687 ], [ 708.034315047565201, 679.328128012080015 ], [ 715.189721805191311, 689.967088051927703 ], [ 717.731774202825136, 688.460686630880218 ], [ 724.347682840166158, 698.38454959021351 ], [ 721.21383138026556, 700.647886758561526 ], [ 729.04846003333364, 712.835086878078641 ], [ 704.674059785127042, 728.678447036104217 ], [ 685.348642447627981, 698.732755308263904 ] ] ] } },
{ "type": "Feature", "properties": { "feature_type": "building", "subtype": "no-damage", "uid": "0402ba1b-8867-4bcc-a994-240bd5901d86" }, "geometry": { "type": "Polygon", "coordinates": [ [ [ 665.933355121473028, 721.330626299763026 ], [ 690.643234617843405, 726.963966704130485 ], [ 684.497772361598209, 759.867795877041999 ], [ 678.864431958764499, 761.404161442890086 ], [ 661.324258429033989, 757.179156143696673 ], [ 663.884867702214365, 745.784444869184995 ], [ 661.068197503093643, 745.144292552547995 ], [ 665.933355121473028, 721.330626299763026 ] ] ] } },
{ "type": "Feature", "properties": { "feature_type": "building", "subtype": "no-damage", "uid": "c5b12f81-3b82-4f22-b29d-d23c776afbf9" }, "geometry": { "type": "Polygon", "coordinates": [ [ [ 652.127183043676155, 778.373491843618353 ], [ 655.69330290759558, 777.96936930117397 ], [ 655.0204911901277, 772.008213922187224 ], [ 683.37491101616763, 769.114905781092148 ], [ 685.844207561967892, 790.759913025999936 ], [ 673.190976731390492, 792.30301070104656 ], [ 674.309212163154371, 800.748408175167583 ], [ 655.020491190637927, 802.870167480270197 ], [ 652.127183043676155, 778.373491843618353 ] ] ] } },
{ "type": "Feature", "properties": { "feature_type": "building", "subtype": "no-damage", "uid": "9fcb25b2-1b94-468c-b682-98cef990a497" }, "geometry": { "type": "Polygon", "coordinates": [ [ [ 684.736321614353983, 791.734413076311057 ], [ 704.362411674407213, 788.988951064295406 ], [ 706.348227108892615, 801.479518780715694 ], [ 686.527608555923734, 804.078545121691377 ], [ 684.736321614353983, 791.734413076311057 ] ] ] } },
{ "type": "Feature", "properties": { "feature_type": "building", "subtype": "no-damage", "uid": "068a61fa-972e-4f72-a211-0f10a20340d7" }, "geometry": { "type": "Polygon", "coordinates": [ [ [ 719.725947792751413, 825.011926347054327 ], [ 730.726295545222342, 817.468830751596101 ], [ 735.126434641975379, 823.911891573567118 ], [ 724.12608689129047, 831.297839348032085 ], [ 719.725947792751413, 825.011926347054327 ] ] ] } },
{ "type": "Feature", "properties": { "feature_type": "building", "subtype": "no-damage", "uid": "a9f3d5c8-3ce4-4dc1-a43c-0760eb220fc6" }, "geometry": { "type": "Polygon", "coordinates": [ [ [ 748.958419590302697, 853.355641137080966 ], [ 758.178276976052302, 846.547131071902754 ], [ 761.58253200481272, 847.540038791059487 ], [ 764.419411200506488, 851.795357580009863 ], [ 753.355582342811658, 859.596775366385714 ], [ 748.958419590302697, 853.355641137080966 ] ] ] } },
{ "type": "Feature", "properties": { "feature_type": "building", "subtype": "no-damage", "uid": "79dc87b1-def3-4127-9100-d832e2cf2e91" }, "geometry": { "type": "Polygon", "coordinates": [ [ [ 722.575443084689141, 783.852100878777151 ], [ 730.660548787466723, 783.852100878777151 ], [ 730.660548788742403, 793.355646181957923 ], [ 722.575443085709594, 793.497490140671061 ], [ 722.575443084689141, 783.852100878777151 ] ] ] } },
{ "type": "Feature", "properties": { "feature_type": "building", "subtype": "no-damage", "uid": "2961b634-24a4-457c-84d3-88f5b140ade1" }, "geometry": { "type": "Polygon", "coordinates": [ [ [ 664.190588971394504, 818.094032910654164 ], [ 693.420418729712424, 809.31156380742857 ], [ 700.178171325511357, 829.746116094609988 ], [ 690.131914945469248, 833.066878776615454 ], [ 692.22114925402559, 838.986375979389891 ], [ 673.069834771979686, 844.731770323139131 ], [ 664.190588971394504, 818.094032910654164 ] ] ] } },
{ "type": "Feature", "properties": { "feature_type": "building", "subtype": "no-damage", "uid": "cf0d14df-b5c9-4b38-a1b4-45903e6a8318" }, "geometry": { "type": "Polygon", "coordinates": [ [ [ 789.873203275394758, 561.765952773337744 ], [ 782.075496636245589, 561.815483107499972 ], [ 782.075496638286722, 551.299323165445571 ], [ 790.280412637014251, 551.068198772516553 ], [ 790.280412637524478, 545.290088911531029 ], [ 808.192553197947177, 544.943402323668238 ], [ 808.192553197181837, 553.148318321124293 ], [ 810.388234942252893, 553.032756128231654 ], [ 810.601933188819885, 582.309415902564979 ], [ 790.086901517624369, 582.309415900523845 ], [ 789.873203275394758, 561.765952773337744 ] ] ] } },
{ "type": "Feature", "properties": { "feature_type": "building", "subtype": "no-damage", "uid": "462ca7ea-0ced-43a4-9019-33debf569253" }, "geometry": { "type": "Polygon", "coordinates": [ [ [ 786.774523404919933, 505.756629543128724 ], [ 810.686741360264364, 505.519874909328792 ], [ 810.923495992278163, 541.269824521254122 ], [ 787.011278037699071, 541.506579158115528 ], [ 786.774523404919933, 505.756629543128724 ] ] ] } },
{ "type": "Feature", "properties": { "feature_type": "building", "subtype": "no-damage", "uid": "204104fe-6250-44a1-aeef-4a98dbe3a558" }, "geometry": { "type": "Polygon", "coordinates": [ [ [ 776.899997970247682, 500.036303018163323 ], [ 778.886751658383105, 460.20923838262172 ], [ 792.072573475482727, 459.861032664571326 ], [ 800.193106847324202, 463.280204612706314 ], [ 798.483520874278042, 498.96781178660359 ], [ 796.560236654409891, 500.891096006472822 ], [ 776.899997970247682, 500.036303018163323 ] ] ] } },
{ "type": "Feature", "properties": { "feature_type": "building", "subtype": "no-damage", "uid": "67f5fa4e-2e01-4a28-9fcc-41caa12b424d" }, "geometry": { "type": "Polygon", "coordinates": [ [ [ 731.971295838057927, 466.655586024505681 ], [ 742.028756638545701, 468.698507747425197 ], [ 743.757382714119899, 474.984420748403011 ], [ 743.443087067541001, 482.370368524908997 ], [ 731.34270453903207, 479.227412023399609 ], [ 731.971295838057927, 466.655586024505681 ] ] ] } },
{ "type": "Feature", "properties": { "feature_type": "building", "subtype": "no-damage", "uid": "620bfc9c-6db9-4459-bb49-1c5dc3253d08" }, "geometry": { "type": "Polygon", "coordinates": [ [ [ 725.498386663231486, 443.306180340960907 ], [ 745.12131629055466, 415.689634410451617 ], [ 763.838784778319905, 429.073197421154418 ], [ 744.424904855474779, 457.246998772916527 ], [ 725.498386663231486, 443.306180340960907 ] ] ] } },
{ "type": "Feature", "properties": { "feature_type": "building", "subtype": "no-damage", "uid": "62f7b1c2-649a-4679-90b5-b64ed1b22bea" }, "geometry": { "type": "Polygon", "coordinates": [ [ [ 695.372218050253423, 570.548490552748149 ], [ 692.594454714865833, 570.423512480798195 ], [ 692.670436461680197, 561.47722348776017 ], [ 695.358725343241076, 561.407988093303857 ], [ 695.429771131387497, 541.782947126409681 ], [ 716.444475157720262, 541.703596060800464 ], [ 716.653751819211038, 565.317126074785506 ], [ 722.889946236287756, 565.379618967889542 ], [ 722.889946238583889, 572.479771526193076 ], [ 716.865727577277767, 572.50935276049313 ], [ 716.932499927473941, 577.720043464724426 ], [ 713.102713015685595, 580.131390777136289 ], [ 695.36547169764026, 579.705858898955626 ], [ 695.372218050253423, 570.548490552748149 ] ] ] } },
{ "type": "Feature", "properties": { "feature_type": "building", "subtype": "no-damage", "uid": "7dfdc2f5-d537-4a9e-b8ca-d83f11fc474c" }, "geometry": { "type": "Polygon", "coordinates": [ [ [ 696.094820650974384, 583.617401914425955 ], [ 720.261521340644435, 583.744398183848716 ], [ 719.948596872050189, 618.791938157164395 ], [ 717.23658485138219, 621.191025716383365 ], [ 698.252500697775872, 620.982409406708598 ], [ 698.461117006940299, 612.950681496476022 ], [ 695.838759726054604, 612.926959186557156 ], [ 696.094820650974384, 583.617401914425955 ] ] ] } },
{ "type": "Feature", "properties": { "feature_type": "building", "subtype": "no-damage", "uid": "5056ba73-5087-499a-bad5-7cdf46b7a0e6" }, "geometry": { "type": "Polygon", "coordinates": [ [ [ 741.739639752833682, 586.734962559018641 ], [ 748.788933783599987, 586.619400366126001 ], [ 748.904495977768192, 596.673311515178511 ], [ 747.633311813087289, 598.060057887040216 ], [ 741.855201950063588, 598.175620080953422 ], [ 741.739639752833682, 586.734962559018641 ] ] ] } },
{ "type": "Feature", "properties": { "feature_type": "building", "subtype": "no-damage", "uid": "552d0d30-9992-48df-ae3b-042cb3c1212b" }, "geometry": { "type": "Polygon", "coordinates": [ [ [ 692.569429547233995, 539.576929741571121 ], [ 692.427585587245176, 509.647854239794185 ], [ 711.292832229270857, 509.789698200548514 ], [ 711.150988269026925, 537.165582423035971 ], [ 709.023328878124744, 539.576929739529987 ], [ 692.569429547233995, 539.576929741571121 ] ] ] } },
{ "type": "Feature", "properties": { "feature_type": "building", "subtype": "no-damage", "uid": "bfb25881-9a9b-4055-b1fd-6b87197c7327" }, "geometry": { "type": "Polygon", "coordinates": [ [ [ 596.72768919324119, 605.194813366690823 ], [ 611.965778759704904, 605.386017546858511 ], [ 621.224364826563829, 614.839173853336661 ], [ 620.645703195232386, 643.00070646605559 ], [ 595.956140353932369, 642.422044842122773 ], [ 596.72768919324119, 605.194813366690823 ] ] ] } },
{ "type": "Feature", "properties": { "feature_type": "building", "subtype": "no-damage", "uid": "3317fff2-fadd-4df8-a92f-afc9d258ab28" }, "geometry": { "type": "Polygon", "coordinates": [ [ [ 594.603093532573553, 561.780783035895752 ], [ 613.05799657647799, 561.084371599794963 ], [ 618.803390920479387, 566.655663087580592 ], [ 619.151596637764214, 597.29776625050124 ], [ 597.38873927620989, 597.471869109526438 ], [ 597.388739277995796, 589.811343319561615 ], [ 594.95129925317508, 587.548006153254732 ], [ 594.603093532573553, 561.780783035895752 ] ] ] } },
{ "type": "Feature", "properties": { "feature_type": "building", "subtype": "no-damage", "uid": "9806b1bf-aabc-4101-814a-08e03020d1f5" }, "geometry": { "type": "Polygon", "coordinates": [ [ [ 589.843108549922704, 556.13538732505333 ], [ 590.017211409202901, 529.845855631639438 ], [ 615.436228809774207, 530.019958488623502 ], [ 615.436228810794773, 553.001535864640914 ], [ 612.128274490338299, 556.309490184078527 ], [ 589.843108549922704, 556.13538732505333 ] ] ] } },
{ "type": "Feature", "properties": { "feature_type": "building", "subtype": "no-damage", "uid": "cc67f349-d19f-43fd-929c-3de73eb5f8c3" }, "geometry": { "type": "Polygon", "coordinates": [ [ [ 598.721110390680337, 516.910438433748368 ], [ 599.666506335948952, 481.436529506163083 ], [ 620.712989684806416, 481.86392599878701 ], [ 620.499291436453518, 500.669371695670179 ], [ 617.934912481221545, 503.6611471470992 ], [ 617.72121423108274, 517.551533175745817 ], [ 598.721110390680337, 516.910438433748368 ] ] ] } },
{ "type": "Feature", "properties": { "feature_type": "building", "subtype": "no-damage", "uid": "6367f9db-ee3b-4543-b461-47a9c2135866" }, "geometry": { "type": "Polygon", "coordinates": [ [ [ 598.42481717891053, 476.974791541302977 ], [ 599.295331475056628, 442.502425479828219 ], [ 611.134325881364816, 440.413191172546419 ], [ 627.151788896621497, 443.372939774954091 ], [ 626.629480320311586, 463.046562830513381 ], [ 620.884085980902569, 462.872459968426597 ], [ 620.535880261576722, 477.671202974342123 ], [ 598.42481717891053, 476.974791541302977 ] ] ] } },
{ "type": "Feature", "properties": { "feature_type": "building", "subtype": "no-damage", "uid": "1394225a-071b-4f35-b5c2-d7d585aa9cfb" }, "geometry": { "type": "Polygon", "coordinates": [ [ [ 616.2619296792775, 396.169366988897195 ], [ 628.573170604460188, 395.933656456807626 ], [ 641.121166167524621, 403.036295451412172 ], [ 641.357920796987059, 416.294554915627316 ], [ 654.616180259154362, 416.294554912565673 ], [ 654.616180255327322, 442.574319199031891 ], [ 637.333092032087166, 442.574319199031891 ], [ 631.414226202402574, 437.365717267682214 ], [ 616.261929676471027, 437.128962633882395 ], [ 616.2619296792775, 396.169366988897195 ] ] ] } },
{ "type": "Feature", "properties": { "feature_type": "building", "subtype": "no-damage", "uid": "90740604-4c39-4acd-a19e-438ca774210e" }, "geometry": { "type": "Polygon", "coordinates": [ [ [ 780.127151640336592, 678.248197482910086 ], [ 795.263353143756831, 686.522733004867519 ], [ 796.799718708328442, 683.706062802683846 ], [ 806.402003485178511, 687.675007180529292 ], [ 813.443678989358546, 695.48486546840229 ], [ 801.40881539770578, 716.60989198069808 ], [ 790.782286911481492, 710.720490648859368 ], [ 786.685312072453826, 718.018227080769407 ], [ 783.740611406280891, 718.7864098621626 ], [ 775.674692191195845, 714.177313169721174 ], [ 774.90650940954788, 710.848521114636014 ], [ 778.491362394143493, 704.959119781776849 ], [ 769.913321326922642, 700.09396216186417 ], [ 771.961808747201871, 696.381078712510543 ], [ 770.681504110866854, 693.052286656404931 ], [ 780.127151640336592, 678.248197482910086 ] ] ] } },
{ "type": "Feature", "properties": { "feature_type": "building", "subtype": "no-damage", "uid": "cfb7ba64-7da2-4750-aa76-4b1f68011361" }, "geometry": { "type": "Polygon", "coordinates": [ [ [ 817.631830593881887, 699.423684502131323 ], [ 826.557037999734007, 704.551813914370655 ], [ 827.362145837018943, 703.136567951484949 ], [ 850.023537913110204, 715.427492466022727 ], [ 845.798532611877818, 726.438112346265825 ], [ 838.244735254796637, 736.16842758813209 ], [ 807.517423961324084, 718.62825405941328 ], [ 817.631830593881887, 699.423684502131323 ] ] ] } },
{ "type": "Feature", "properties": { "feature_type": "building", "subtype": "no-damage", "uid": "005bc41f-1f73-49a9-89e1-900066abd4f4" }, "geometry": { "type": "Polygon", "coordinates": [ [ [ 852.121771991053151, 721.994624309543724 ], [ 881.754923515040446, 738.53299467130762 ], [ 872.882111868984111, 758.786151692651401 ], [ 862.080428126824245, 753.963971449328483 ], [ 858.608458350317051, 761.679459838849198 ], [ 838.548188542318826, 752.420873773261292 ], [ 852.121771991053151, 721.994624309543724 ] ] ] } },
{ "type": "Feature", "properties": { "feature_type": "building", "subtype": "no-damage", "uid": "42f1399a-fc5b-4be7-b46a-cc56a621eca4" }, "geometry": { "type": "Polygon", "coordinates": [ [ [ 897.885924773190936, 760.59443229355054 ], [ 911.388029451018269, 759.822883454496377 ], [ 926.240344601016773, 762.716191600694174 ], [ 926.047457390232807, 765.802386957931276 ], [ 931.255412054355816, 765.995274165908882 ], [ 930.483863215302108, 788.755964909331055 ], [ 923.925698085386443, 788.370190488273124 ], [ 923.925698083090197, 791.456385847551246 ], [ 896.728601514610318, 789.913288170463602 ], [ 897.885924773190936, 760.59443229355054 ] ] ] } },
{ "type": "Feature", "properties": { "feature_type": "building", "subtype": "no-damage", "uid": "bf70dce3-5771-4c7e-b0dd-5392d03cca64" }, "geometry": { "type": "Polygon", "coordinates": [ [ [ 0.006653885356631, 280.414592829706919 ], [ 20.571816212611409, 280.542581883011508 ], [ 20.18772482242527, 314.854746157014915 ], [ 0.00666361620071, 314.854746162117578 ], [ 0.006653885356631, 280.414592829706919 ] ] ] } },
{ "type": "Feature", "properties": { "feature_type": "building", "subtype": "no-damage", "uid": "518e82e9-4e9e-4807-ac8f-f87271b4c2e9" }, "geometry": { "type": "Polygon", "coordinates": [ [ [ 22.725159641648531, 293.068465425786428 ], [ 30.242889502940201, 293.068465425786428 ], [ 30.38473346445981, 283.99045200384802 ], [ 53.647142855422572, 284.132295964602179 ], [ 53.647142855422572, 316.330874819057215 ], [ 22.725159637821509, 316.189030858302885 ], [ 22.725159641648531, 293.068465425786428 ] ] ] } },
{ "type": "Feature", "properties": { "feature_type": "building", "subtype": "no-damage", "uid": "d7e24005-c862-4c3e-8746-3712f479121a" }, "geometry": { "type": "Polygon", "coordinates": [ [ [ 0.00664062599725, 240.416848838969088 ], [ 3.408325800068605, 240.416848838969088 ], [ 3.408325800834009, 252.189897493807393 ], [ 0.006644746935728, 252.189897493807393 ], [ 0.00664062599725, 240.416848838969088 ] ] ] } },
{ "type": "Feature", "properties": { "feature_type": "building", "subtype": "no-damage", "uid": "8713735d-bcf1-4404-8765-dcac9e3725dc" }, "geometry": { "type": "Polygon", "coordinates": [ [ [ 32.229014421895307, 149.095172819465489 ], [ 49.111175900686732, 148.240379836258711 ], [ 59.368691736156897, 152.300646520268003 ], [ 59.58238998093794, 189.056744929807195 ], [ 66.207035624514319, 188.843046682474693 ], [ 66.207035626300268, 206.793699395130687 ], [ 32.229014420619627, 206.366302900465712 ], [ 32.229014421895307, 149.095172819465489 ] ] ] } },
{ "type": "Feature", "properties": { "feature_type": "building", "subtype": "no-damage", "uid": "8b97e172-40d3-414d-aba1-7072904dde38" }, "geometry": { "type": "Polygon", "coordinates": [ [ [ 132.593337365615099, 218.783616260339613 ], [ 144.745231572547112, 217.819180210246287 ], [ 153.425156010626011, 219.362277890395603 ], [ 153.232268801372811, 254.081975637625987 ], [ 132.400450152024689, 253.88908842658671 ], [ 132.593337365615099, 218.783616260339613 ] ] ] } },
{ "type": "Feature", "properties": { "feature_type": "building", "subtype": "no-damage", "uid": "403cecbe-dbf5-408d-a812-dedadfc2b0f2" }, "geometry": { "type": "Polygon", "coordinates": [ [ [ 136.926469497286092, 290.397801462849316 ], [ 190.543486267170408, 293.234680657523882 ], [ 193.805897340024103, 303.73113367271759 ], [ 193.664053381821191, 315.504182330617482 ], [ 136.642781576288002, 313.802054814833184 ], [ 136.926469497286092, 290.397801462849316 ] ] ] } },
{ "type": "Feature", "properties": { "feature_type": "building", "subtype": "no-damage", "uid": "8bf3bb78-26ab-4237-8372-979c98c67c11" }, "geometry": { "type": "Polygon", "coordinates": [ [ [ 224.022975307554702, 265.965947880261012 ], [ 223.637200890834293, 279.235407891974319 ], [ 215.921712503613691, 278.849633472957521 ], [ 216.114599710570701, 265.733303212098974 ], [ 224.022975307554702, 265.965947880261012 ] ] ] } },
{ "type": "Feature", "properties": { "feature_type": "building", "subtype": "no-damage", "uid": "d1a9f713-ebd2-49c6-8772-6b8c48c0814c" }, "geometry": { "type": "Polygon", "coordinates": [ [ [ 217.027478121223709, 236.807906832975789 ], [ 227.240243223067893, 236.807906830934712 ], [ 226.956555301049292, 250.424926967414308 ], [ 216.743790201756411, 250.424926964352693 ], [ 217.027478121223709, 236.807906832975789 ] ] ] } },
{ "type": "Feature", "properties": { "feature_type": "building", "subtype": "no-damage", "uid": "1207fd9b-2331-4daf-b57f-676dd47ed694" }, "geometry": { "type": "Polygon", "coordinates": [ [ [ 129.957930969495891, 153.566604054181795 ], [ 135.403287532091298, 152.146076256485486 ], [ 166.6548991158364, 151.909321623706205 ], [ 175.888329814124404, 160.19573378628931 ], [ 176.361839077131407, 179.609613706848108 ], [ 158.368486954533097, 180.083122975468314 ], [ 158.3684869537677, 209.440697491126912 ], [ 130.431440236329905, 209.677452126967808 ], [ 129.957930969495891, 153.566604054181795 ] ] ] } },
{ "type": "Feature", "properties": { "feature_type": "building", "subtype": "no-damage", "uid": "abb41633-9863-4967-99a2-696b41db5fab" }, "geometry": { "type": "Polygon", "coordinates": [ [ [ 35.337632674636673, 85.136952591427061 ], [ 35.337632675402077, 65.420642189458547 ], [ 55.337630996317642, 65.420642189458547 ], [ 55.394493686565887, 85.306915126826084 ], [ 66.39135535751187, 85.431075655812961 ], [ 66.207342646932574, 109.343019819047996 ], [ 18.202140545493261, 108.8663343488317 ], [ 18.316357512465309, 85.13695258938597 ], [ 35.337632674636673, 85.136952591427061 ] ] ] } },
{ "type": "Feature", "properties": { "feature_type": "building", "subtype": "no-damage", "uid": "609f88fd-d85a-406f-90e4-5c029fbe7bd2" }, "geometry": { "type": "Polygon", "coordinates": [ [ [ 39.305891343829458, 12.97370166443722 ], [ 62.092325972107133, 13.44514513864309 ], [ 61.935178146266331, 24.445492887802811 ], [ 65.392430293842779, 28.059892865559181 ], [ 65.235282471829009, 44.717562316415318 ], [ 39.148743521050278, 44.560414489298772 ], [ 39.305891343829458, 12.97370166443722 ] ] ] } },
{ "type": "Feature", "properties": { "feature_type": "building", "subtype": "no-damage", "uid": "081d5d68-5633-4ba7-92f5-b343ab4a15f0" }, "geometry": { "type": "Polygon", "coordinates": [ [ [ 181.730484601867687, 0.003960187179471 ], [ 181.499401809445288, 22.001446671517019 ], [ 165.204115773595788, 22.102152211720831 ], [ 164.741866983400712, 34.909182422444907 ], [ 142.057650609892903, 35.101218986260953 ], [ 142.636312239948609, 13.112077083934 ], [ 139.55011688449909, 12.91918987085371 ], [ 139.550116884244005, 0.003226850971188 ], [ 181.730484601867687, 0.003960187179471 ] ] ] } },
{ "type": "Feature", "properties": { "feature_type": "building", "subtype": "no-damage", "uid": "dbf640aa-5cb8-4b1b-af91-f081b459d836" }, "geometry": { "type": "Polygon", "coordinates": [ [ [ 170.000145798891708, 24.656191151114271 ], [ 177.742813007934387, 24.656191149073191 ], [ 177.85837520465401, 31.589922980827151 ], [ 170.000145797360886, 31.589922980827151 ], [ 170.000145798891708, 24.656191151114271 ] ] ] } },
{ "type": "Feature", "properties": { "feature_type": "building", "subtype": "no-damage", "uid": "c645e353-e8b7-4543-a1fa-cf86dd269780" }, "geometry": { "type": "Polygon", "coordinates": [ [ [ 140.890774546981305, 39.96321208261093 ], [ 173.562913926891213, 40.436721347148968 ], [ 177.114233428018593, 51.090679840586581 ], [ 176.640724159398701, 66.006221733236217 ], [ 165.513256398111906, 66.006221733236217 ], [ 165.276501763036492, 79.264481194389759 ], [ 140.180510643541112, 78.790971928831183 ], [ 140.890774546981305, 39.96321208261093 ] ] ] } },
{ "type": "Feature", "properties": { "feature_type": "building", "subtype": "no-damage", "uid": "b01afdda-c7e5-4468-97a8-b980e5618f14" }, "geometry": { "type": "Polygon", "coordinates": [ [ [ 135.246338032793091, 89.600325663644568 ], [ 157.594647268634105, 89.896266250699284 ], [ 157.738028188400989, 118.247636286067902 ], [ 135.246338030241787, 118.484390917826701 ], [ 135.246338032793091, 89.600325663644568 ] ] ] } },
{ "type": "Feature", "properties": { "feature_type": "building", "subtype": "no-damage", "uid": "4fbe4642-dd6e-4014-b809-47db9e0a3909" }, "geometry": { "type": "Polygon", "coordinates": [ [ [ 199.336102904318409, 43.388705957567197 ], [ 211.131869141558809, 43.345400856150157 ], [ 213.653885422520091, 45.953084916372262 ], [ 213.653885419968702, 66.468116583751126 ], [ 199.336102900236199, 66.468116583751126 ], [ 199.336102904318409, 43.388705957567197 ] ] ] } },
{ "type": "Feature", "properties": { "feature_type": "building", "subtype": "no-damage", "uid": "08b34b6e-5a4a-4a4c-901a-4aded4c59c89" }, "geometry": { "type": "Polygon", "coordinates": [ [ [ 752.191995072260738, 327.28957693341448 ], [ 769.358956734317644, 327.28957693341448 ], [ 769.551843945101609, 338.477035095106885 ], [ 774.952685819498356, 338.477035097148018 ], [ 774.952685815671316, 355.065335132219275 ], [ 771.094941622698798, 357.958643277396618 ], [ 757.014175312519569, 357.958643277396618 ], [ 742.9334090084634, 351.786252565984114 ], [ 743.126296215675552, 337.898373468112482 ], [ 752.191995069964491, 338.091260676090087 ], [ 752.191995072260738, 327.28957693341448 ] ] ] } },
{ "type": "Feature", "properties": { "feature_type": "building", "subtype": "no-damage", "uid": "b3656725-ecad-46e1-8f7b-ac3893c9aa6e" }, "geometry": { "type": "Polygon", "coordinates": [ [ [ 748.609846502527489, 317.165816151676893 ], [ 749.678337736127787, 284.897380918770921 ], [ 763.568723760174976, 285.324777413435925 ], [ 769.979671157694611, 291.522026563626298 ], [ 769.979671158970291, 305.198714342899507 ], [ 765.492007984125394, 305.198714342899507 ], [ 765.278309735007042, 317.593212645321387 ], [ 748.609846502527489, 317.165816151676893 ] ] ] } },
{ "type": "Feature", "properties": { "feature_type": "building", "subtype": "no-damage", "uid": "3916a763-ae32-465a-8450-f16b51939f1f" }, "geometry": { "type": "Polygon", "coordinates": [ [ [ 750.862869893870425, 201.228127017815495 ], [ 774.469746188834847, 201.56832966719179 ], [ 774.207447561963136, 231.732671600030102 ], [ 750.60057126725394, 231.732671602071207 ], [ 750.862869893870425, 201.228127017815495 ] ] ] } },
{ "type": "Feature", "properties": { "feature_type": "building", "subtype": "no-damage", "uid": "4082485d-0b2c-40d2-8b4d-4850d7bbd0b4" }, "geometry": { "type": "Polygon", "coordinates": [ [ [ 753.099589891499477, 245.114019429747401 ], [ 780.452965451562704, 245.114019429747401 ], [ 780.452965452838384, 265.842749347520396 ], [ 777.888586495310278, 268.620826553657878 ], [ 769.554354875626132, 268.620826553657878 ], [ 769.554354875881245, 276.741359920656009 ], [ 752.672193397089927, 276.527661678426227 ], [ 753.099589891499477, 245.114019429747401 ] ] ] } },
{ "type": "Feature", "properties": { "feature_type": "building", "subtype": "no-damage", "uid": "dc223c7b-f219-4ee5-ba7b-e941839cf906" }, "geometry": { "type": "Polygon", "coordinates": [ [ [ 753.586078335740353, 160.089450747716313 ], [ 772.915260811083726, 158.832268147112586 ], [ 780.615504237992013, 163.860998546465993 ], [ 780.458356411896034, 172.975572399822795 ], [ 775.429626010248967, 172.975572396761208 ], [ 775.115330361373822, 199.376406999234888 ], [ 755.000408763715086, 198.7478156979125 ], [ 752.957487036204157, 196.5477461468559 ], [ 753.586078335740353, 160.089450747716313 ] ] ] } },
{ "type": "Feature", "properties": { "feature_type": "building", "subtype": "no-damage", "uid": "8801fabd-b6cf-4112-b966-e0ade6b51c72" }, "geometry": { "type": "Polygon", "coordinates": [ [ [ 748.401365323252662, 136.887376070838599 ], [ 748.594252535312307, 117.019993471573201 ], [ 779.456206087511418, 117.212880680571303 ], [ 779.456206085980625, 154.247224942922912 ], [ 755.731079294007941, 154.247224942922912 ], [ 755.92396650173032, 136.887376073900214 ], [ 748.401365323252662, 136.887376070838599 ] ] ] } },
{ "type": "Feature", "properties": { "feature_type": "building", "subtype": "no-damage", "uid": "46a37bdc-81d0-4264-a55c-e837e99e6483" }, "geometry": { "type": "Polygon", "coordinates": [ [ [ 759.477316920845169, 80.867530216086166 ], [ 764.106609953636848, 80.86753021404509 ], [ 765.26393321323792, 72.959154618587846 ], [ 782.238007666041767, 75.080913925731565 ], [ 787.831736747905666, 82.217740686216843 ], [ 786.674413490600728, 94.562522103939088 ], [ 788.217511169473596, 96.491394202084678 ], [ 787.25307511938081, 105.171318636595998 ], [ 781.85223324983167, 109.029062831866696 ], [ 759.091542501573485, 105.749980268693093 ], [ 759.86309134419912, 98.227379091232137 ], [ 757.355557614212785, 97.841604671194801 ], [ 759.477316920845169, 80.867530216086166 ] ] ] } },
{ "type": "Feature", "properties": { "feature_type": "building", "subtype": "no-damage", "uid": "3ed745a8-d3aa-40df-b6de-d6f7fb2eb04c" }, "geometry": { "type": "Polygon", "coordinates": [ [ [ 661.594701937217224, 321.795591341926922 ], [ 684.305888518966299, 323.010796538502916 ], [ 683.783579946738541, 340.246979568730126 ], [ 679.779214187885486, 340.072876711745891 ], [ 679.168709843984175, 357.997379011199087 ], [ 660.283208809747521, 357.210483133900482 ], [ 661.594701937217224, 321.795591341926922 ] ] ] } },
{ "type": "Feature", "properties": { "feature_type": "building", "subtype": "no-damage", "uid": "14a9f1f5-56a7-48e9-a9c3-77828421fe1c" }, "geometry": { "type": "Polygon", "coordinates": [ [ [ 660.627899711962755, 316.568990760694021 ], [ 660.976105427716789, 301.422042035707591 ], [ 650.181728178875915, 301.422042034687024 ], [ 650.355831036115092, 288.016121899952509 ], [ 661.324311144491276, 277.395847507580015 ], [ 671.248174104329905, 277.395847507580015 ], [ 679.431008474427699, 280.529698970033508 ], [ 678.734597034500212, 316.917196480785492 ], [ 660.627899711962755, 316.568990760694021 ] ] ] } },
{ "type": "Feature", "properties": { "feature_type": "building", "subtype": "no-damage", "uid": "7a8c1140-f933-44c3-aa02-a5bacd804350" }, "geometry": { "type": "Polygon", "coordinates": [ [ [ 659.020697839518675, 275.983507714601899 ], [ 659.039632770859498, 273.536965784290601 ], [ 654.596943405031197, 273.442815691775593 ], [ 654.828067798725556, 258.766416654547015 ], [ 659.334993488904161, 258.766416651485315 ], [ 659.649289139309985, 240.468099266935695 ], [ 680.549949866938164, 240.782394914024991 ], [ 680.078506391967153, 278.655020740884879 ], [ 672.378262965058866, 276.140655542739012 ], [ 659.020697839518675, 275.983507714601899 ] ] ] } },
{ "type": "Feature", "properties": { "feature_type": "building", "subtype": "no-damage", "uid": "295f5e73-fc10-42df-a4fa-459ebebb3f4b" }, "geometry": { "type": "Polygon", "coordinates": [ [ [ 649.573466708299293, 207.930316719209202 ], [ 675.61324001870878, 208.50897834824471 ], [ 674.841691183737225, 234.162977237864709 ], [ 655.552970208669535, 233.584315606788209 ], [ 648.99480508334625, 225.675940009289803 ], [ 649.573466708299293, 207.930316719209202 ] ] ] } },
{ "type": "Feature", "properties": { "feature_type": "building", "subtype": "no-damage", "uid": "60e55d88-1b7f-4a1d-a3df-7223c7b75b8a" }, "geometry": { "type": "Polygon", "coordinates": [ [ [ 661.532473710570571, 195.97130971438051 ], [ 659.410714407255, 187.484272491928891 ], [ 659.79648882372021, 171.667521294891202 ], [ 662.689796967875509, 171.667521293870607 ], [ 663.075571388677986, 161.058724759172605 ], [ 681.592743519844475, 161.6373863912697 ], [ 680.628307472302936, 191.534903891095013 ], [ 678.892322584942349, 196.549971346477605 ], [ 661.532473710570571, 195.97130971438051 ] ] ] } },
{ "type": "Feature", "properties": { "feature_type": "building", "subtype": "no-damage", "uid": "6e8aa93d-a619-43ad-8405-b2260722c878" }, "geometry": { "type": "Polygon", "coordinates": [ [ [ 662.882684177638907, 156.62231893690759 ], [ 664.232894649554851, 121.902621189677305 ], [ 677.542112117618785, 122.288395607673493 ], [ 681.785630729352761, 124.024380495800401 ], [ 680.628307471537596, 157.200980566963608 ], [ 662.882684177638907, 156.62231893690759 ] ] ] } },
{ "type": "Feature", "properties": { "feature_type": "building", "subtype": "no-damage", "uid": "bd50953c-a762-4be2-bcdd-f1e910340a23" }, "geometry": { "type": "Polygon", "coordinates": [ [ [ 364.393234991453426, 309.047972224654984 ], [ 370.163087647486179, 308.834273975281519 ], [ 379.779508742745122, 309.261670469946523 ], [ 385.549361399543272, 315.031523129553989 ], [ 385.549361400819009, 321.869867019700791 ], [ 395.379480742900114, 322.297263512324776 ], [ 395.165782495312612, 339.606821479921621 ], [ 383.83977542828319, 339.179424989338827 ], [ 383.626077182481595, 346.872561864733484 ], [ 363.324743757087674, 346.231467126818075 ], [ 364.393234991453426, 309.047972224654984 ] ] ] } },
{ "type": "Feature", "properties": { "feature_type": "building", "subtype": "no-damage", "uid": "9a875d67-f56d-442d-b6d0-3e2f093e64d2" }, "geometry": { "type": "Polygon", "coordinates": [ [ [ 364.393234993494502, 306.483593263808928 ], [ 361.82885603290481, 302.423326583881817 ], [ 362.042554281257708, 287.678147565905078 ], [ 364.179536743610811, 285.327466858514697 ], [ 364.393234993749616, 271.43708082782689 ], [ 371.017880635284882, 268.872701872083496 ], [ 380.420603485507684, 269.086400116354412 ], [ 384.480870168494391, 277.634329979037886 ], [ 384.053473674850125, 306.697291509100296 ], [ 364.393234993494502, 306.483593263808928 ] ] ] } },
{ "type": "Feature", "properties": { "feature_type": "building", "subtype": "no-damage", "uid": "d721fb4f-5e03-45ed-8f29-590fb302fe7c" }, "geometry": { "type": "Polygon", "coordinates": [ [ [ 363.810528251810126, 266.600107703287222 ], [ 363.631919597637307, 261.440787102627382 ], [ 363.806022457427787, 248.9053812589367 ], [ 365.895256764198223, 244.204604071379691 ], [ 365.895256764453393, 242.46357548010721 ], [ 361.194479575368007, 242.289472621082012 ], [ 361.36858243413792, 234.977152547126593 ], [ 366.06935962322342, 234.803049688101396 ], [ 366.243462483013786, 229.754066778411897 ], [ 386.091188398353722, 230.102272496462291 ], [ 385.496928102519007, 266.914403354458727 ], [ 363.810528251810126, 266.600107703287222 ] ] ] } },
{ "type": "Feature", "properties": { "feature_type": "building", "subtype": "no-damage", "uid": "e793d814-e10b-48cb-9b03-b88e1361f52a" }, "geometry": { "type": "Polygon", "coordinates": [ [ [ 365.587524859742985, 191.201572397382392 ], [ 379.689856426999199, 191.027469538357195 ], [ 387.002176501206122, 198.513892471337812 ], [ 387.002176501206122, 219.928544114087487 ], [ 383.520119322234791, 223.236498434545609 ], [ 365.587524855915888, 223.236498432504504 ], [ 365.587524859742985, 191.201572397382392 ] ] ] } },
{ "type": "Feature", "properties": { "feature_type": "building", "subtype": "no-damage", "uid": "fd5e3e88-3bee-41ea-b6c6-0c5e43fbf6a2" }, "geometry": { "type": "Polygon", "coordinates": [ [ [ 366.674640565343907, 187.555102341572393 ], [ 361.852460323043999, 183.50447093832409 ], [ 361.852460325595302, 167.109058113271487 ], [ 364.359994049968577, 167.109058112251006 ], [ 364.359994048182728, 153.028291801299105 ], [ 366.288866149388923, 150.134983660203886 ], [ 384.998925491084208, 150.327870871243192 ], [ 385.191812697020623, 187.555102341572393 ], [ 366.674640565343907, 187.555102341572393 ] ] ] } },
{ "type": "Feature", "properties": { "feature_type": "building", "subtype": "no-damage", "uid": "00aca8c6-1de6-4513-98ca-8e9d719546da" }, "geometry": { "type": "Polygon", "coordinates": [ [ [ 230.497716574016607, 304.143389100541981 ], [ 267.946779081363786, 305.855784248871601 ], [ 273.317327010355427, 311.54828414084318 ], [ 272.995375050950088, 334.728825126185825 ], [ 229.531860696821411, 333.119065335792072 ], [ 230.497716574016607, 304.143389100541981 ] ] ] } },
{ "type": "Feature", "properties": { "feature_type": "building", "subtype": "no-damage", "uid": "8500e398-5a4a-40f5-bd60-5a53c85fa152" }, "geometry": { "type": "Polygon", "coordinates": [ [ [ 262.428679482359598, 259.972055583324675 ], [ 285.584359714073685, 259.623849864253827 ], [ 290.633342622995315, 263.628215619792115 ], [ 291.329754058330309, 275.293107168356926 ], [ 283.495125409089212, 275.467210025340989 ], [ 283.669228267093786, 299.667507413514215 ], [ 257.727902291743419, 299.667507413514215 ], [ 257.727902294294722, 265.195141353060023 ], [ 262.428679482359598, 259.972055583324675 ] ] ] } },
{ "type": "Feature", "properties": { "feature_type": "building", "subtype": "no-damage", "uid": "b6bba5d6-7905-48ee-bb61-070c5e29ab93" }, "geometry": { "type": "Polygon", "coordinates": [ [ [ 260.175077452777316, 256.989796332026401 ], [ 260.600609331467979, 225.784125196728212 ], [ 283.153798925548415, 225.500437277260687 ], [ 285.706990200754376, 226.635188955130587 ], [ 285.848834159977685, 228.762848348075011 ], [ 283.01195496658022, 231.316039623282194 ], [ 282.870111010418384, 244.507527877498887 ], [ 289.536777113818289, 244.791215799007404 ], [ 289.536777114073516, 255.429512776996404 ], [ 281.167983490042616, 255.145824857528908 ], [ 281.167983489532276, 257.273484251493926 ], [ 260.175077452777316, 256.989796332026401 ] ] ] } },
{ "type": "Feature", "properties": { "feature_type": "building", "subtype": "no-damage", "uid": "1d0b87ac-0fb2-4c0d-a4a5-10d91e6411b8" }, "geometry": { "type": "Polygon", "coordinates": [ [ [ 257.735574668116499, 175.230875270988207 ], [ 263.417685864001385, 172.626574304292689 ], [ 276.439190692624209, 172.626574303272207 ], [ 284.725602855968475, 175.704384537567307 ], [ 284.962357485430914, 211.454334152554111 ], [ 257.735574666075422, 211.454334151533487 ], [ 257.735574668116499, 175.230875270988207 ] ] ] } },
{ "type": "Feature", "properties": { "feature_type": "building", "subtype": "no-damage", "uid": "dec3e62c-07de-45ab-aaa9-cc9c102a5557" }, "geometry": { "type": "Polygon", "coordinates": [ [ [ 264.364704397924527, 169.785518707879703 ], [ 264.355672006482791, 130.528117013758788 ], [ 267.784421625412392, 125.942044139307896 ], [ 278.096473122588577, 125.985911562068495 ], [ 286.146130650857572, 126.932930096247205 ], [ 285.672621387085087, 170.022273338617907 ], [ 264.364704397924527, 169.785518707879703 ] ] ] } },
{ "type": "Feature", "properties": { "feature_type": "building", "subtype": "no-damage", "uid": "bda20ffd-1f07-4a05-9ae3-58522dfda0e5" }, "geometry": { "type": "Polygon", "coordinates": [ [ [ 257.102735445138023, 136.73528564148711 ], [ 256.928632589429583, 147.8778686099146 ], [ 242.129889582245994, 147.529662890843611 ], [ 242.129889580970314, 140.565548534938614 ], [ 249.442209653646302, 136.73528564148711 ], [ 257.102735445138023, 136.73528564148711 ] ] ] } },
{ "type": "Feature", "properties": { "feature_type": "building", "subtype": "no-damage", "uid": "897b4e48-ce03-49a4-8b17-e3c581d7a3bc" }, "geometry": { "type": "Polygon", "coordinates": [ [ [ 254.183222679783597, 91.845926227055955 ], [ 259.166896565852312, 84.544343299127775 ], [ 272.281827841059282, 84.501564711385072 ], [ 279.888487981046808, 86.599953716154047 ], [ 279.433302144921925, 114.874140891466098 ], [ 253.658625429101903, 114.403608020158103 ], [ 254.183222679783597, 91.845926227055955 ] ] ] } },
{ "type": "Feature", "properties": { "feature_type": "building", "subtype": "no-damage", "uid": "a1203ded-b4a7-48ca-bf6b-b6d080858bea" }, "geometry": { "type": "Polygon", "coordinates": [ [ [ 258.783904961072778, 81.483600880643053 ], [ 258.925748918765407, 57.795659605109464 ], [ 254.103054287820896, 57.79565960715054 ], [ 254.103054287565811, 50.703461622504911 ], [ 258.216529120097107, 50.703461620463827 ], [ 258.216529119586824, 45.171547193909817 ], [ 272.400925090401699, 45.029703235196621 ], [ 281.053406635175577, 46.306298869738612 ], [ 281.337094551581288, 81.767288801131059 ], [ 258.783904961072778, 81.483600880643053 ] ] ] } },
{ "type": "Feature", "properties": { "feature_type": "building", "subtype": "no-damage", "uid": "092d6a15-769d-412d-9216-2a98899931a1" }, "geometry": { "type": "Polygon", "coordinates": [ [ [ 188.04378173603439, 196.211975234117403 ], [ 202.320216166397898, 195.863769516067009 ], [ 202.494319024147302, 208.921483935812688 ], [ 188.217884595059502, 209.095586792796809 ], [ 188.04378173603439, 196.211975234117403 ] ] ] } },
{ "type": "Feature", "properties": { "feature_type": "building", "subtype": "no-damage", "uid": "f8c2e8e7-81a1-46b4-913e-35a68430ed33" }, "geometry": { "type": "Polygon", "coordinates": [ [ [ 358.959505562630227, 130.953944172795701 ], [ 362.431475334289928, 130.953944170754596 ], [ 362.431475336075778, 118.030501122976304 ], [ 368.603866049015892, 112.050997618520896 ], [ 370.532738143588688, 112.050997616479805 ], [ 370.532738142313008, 104.335509232061796 ], [ 396.572511453232778, 104.335509232061796 ], [ 396.572511452212325, 116.873177864905401 ], [ 398.887157968863221, 116.8731778618438 ], [ 398.887157969628618, 127.289087186523204 ], [ 401.394691695532686, 127.096199975483998 ], [ 401.394691695277572, 145.034710478644911 ], [ 358.959505559568584, 145.227597687642998 ], [ 358.959505562630227, 130.953944172795701 ] ] ] } },
{ "type": "Feature", "properties": { "feature_type": "building", "subtype": "no-damage", "uid": "4a99f242-6d20-4e30-9739-e2f3aa93e66f" }, "geometry": { "type": "Polygon", "coordinates": [ [ [ 363.732894301815975, 72.295888965297536 ], [ 384.451134508454288, 74.733328990629701 ], [ 381.665488765073121, 102.0674778392154 ], [ 360.947248556138618, 99.804140671887851 ], [ 363.732894301815975, 72.295888965297536 ] ] ] } },
{ "type": "Feature", "properties": { "feature_type": "building", "subtype": "no-damage", "uid": "de1183e7-4d60-47dd-a492-a61add6e5415" }, "geometry": { "type": "Polygon", "coordinates": [ [ [ 365.833026634755811, 66.428792223178974 ], [ 367.376124313118282, 39.038808446452592 ], [ 388.593717381483089, 40.196131701461887 ], [ 387.822168542174325, 62.571048026887802 ], [ 382.421326669818711, 67.007453855276054 ], [ 365.833026634755811, 66.428792223178974 ] ] ] } },
{ "type": "Feature", "properties": { "feature_type": "building", "subtype": "no-damage", "uid": "bd854912-f4e6-41d8-94ea-b86b8ec8111a" }, "geometry": { "type": "Polygon", "coordinates": [ [ [ 441.051868008776978, 34.840592239591047 ], [ 448.628016267660712, 34.84059223754997 ], [ 448.628016269446618, 44.784286833670272 ], [ 441.051868008521922, 44.784286831629188 ], [ 441.051868008776978, 34.840592239591047 ] ] ] } },
{ "type": "Feature", "properties": { "feature_type": "building", "subtype": "no-damage", "uid": "89e79e38-3cc0-4ad2-bde3-63d94609ac09" }, "geometry": { "type": "Polygon", "coordinates": [ [ [ 466.809773315808286, 179.12755734750391 ], [ 486.219871605063872, 179.652154598696086 ], [ 486.482170227853373, 186.996516112325907 ], [ 484.121482597744716, 189.881800995414011 ], [ 466.809773316318626, 189.619502368287101 ], [ 466.809773315808286, 179.12755734750391 ] ] ] } },
{ "type": "Feature", "properties": { "feature_type": "building", "subtype": "no-damage", "uid": "a9b8a9cc-376c-4896-b2b5-1e5359295b7f" }, "geometry": { "type": "Polygon", "coordinates": [ [ [ 464.555565365649272, 277.027098972446822 ], [ 468.817148759501322, 273.475779475654804 ], [ 478.287334087506906, 273.475779474634294 ], [ 482.785672122302401, 274.896307273351113 ], [ 482.785672123067798, 308.515465193324417 ], [ 480.891635054711173, 310.409502255558607 ], [ 464.555565363098026, 310.172747622779411 ], [ 464.555565365649272, 277.027098972446822 ] ] ] } },
{ "type": "Feature", "properties": { "feature_type": "building", "subtype": "no-damage", "uid": "e2bf8560-5391-40be-8e69-61ce7f45c797" }, "geometry": { "type": "Polygon", "coordinates": [ [ [ 451.76099178422561, 240.256582132939286 ], [ 459.090705754980888, 240.063694925982304 ], [ 458.897818544196923, 233.89130421865201 ], [ 477.029216256857012, 232.926868167538089 ], [ 478.765201146769016, 265.139032190649004 ], [ 460.826690641065909, 266.103468236660092 ], [ 460.440916223069792, 259.352415897232788 ], [ 452.725427832277319, 259.931077522186115 ], [ 451.76099178422561, 240.256582132939286 ] ] ] } },
{ "type": "Feature", "properties": { "feature_type": "building", "subtype": "no-damage", "uid": "39dde527-5bb2-4046-8693-444e36db6487" }, "geometry": { "type": "Polygon", "coordinates": [ [ [ 462.650295020582689, 228.919811597356897 ], [ 463.360558921216409, 198.141709278899413 ], [ 486.08900370501101, 199.325482443816412 ], [ 486.089003707307199, 230.340339393012101 ], [ 462.650295020582689, 228.919811597356897 ] ] ] } },
{ "type": "Feature", "properties": { "feature_type": "building", "subtype": "no-damage", "uid": "bf719acf-5284-4cdf-ba97-fb1455616659" }, "geometry": { "type": "Polygon", "coordinates": [ [ [ 461.460334481619611, 72.881016137595125 ], [ 465.947997662077626, 70.957731917725923 ], [ 477.274004727576084, 71.385128412390912 ], [ 482.830159141379227, 73.735809125904552 ], [ 481.761667908544325, 110.491907530341095 ], [ 460.391843248019313, 110.278209286070194 ], [ 461.460334481619611, 72.881016137595125 ] ] ] } },
{ "type": "Feature", "properties": { "feature_type": "building", "subtype": "no-damage", "uid": "8159b601-dc37-4c31-99a8-ed983090ef14" }, "geometry": { "type": "Polygon", "coordinates": [ [ [ 466.802790644773609, 48.733114275769267 ], [ 485.180839850809491, 48.946812522081217 ], [ 485.394538100693183, 66.470068739051655 ], [ 482.402762645438827, 69.034447699897797 ], [ 467.016488891340487, 68.820749452565309 ], [ 466.802790644773609, 48.733114275769267 ] ] ] } },
{ "type": "Feature", "properties": { "feature_type": "building", "subtype": "no-damage", "uid": "c2f6c0cf-42d5-495f-bb02-0bef39af2ebc" }, "geometry": { "type": "Polygon", "coordinates": [ [ [ 552.386020710066873, 43.091945545623133 ], [ 593.416084050671884, 43.305643788873461 ], [ 593.416084049396204, 57.837124558497088 ], [ 577.175017310050634, 74.505587789199168 ], [ 557.087382136581596, 74.291889541866681 ], [ 556.873683887208131, 56.341236831251798 ], [ 552.386020709301533, 56.34123683023126 ], [ 552.386020710066873, 43.091945545623133 ] ] ] } },
{ "type": "Feature", "properties": { "feature_type": "building", "subtype": "no-damage", "uid": "0d36e8cb-92dc-4d26-bcbd-f7fac30e9768" }, "geometry": { "type": "Polygon", "coordinates": [ [ [ 563.34992573453178, 117.700170991013096 ], [ 592.599206028807885, 117.700170991013096 ], [ 592.425103169782801, 137.199691189588293 ], [ 588.768943132296613, 141.029954084060392 ], [ 588.768943134082633, 154.26177135976971 ], [ 563.349925734276667, 154.26177135976971 ], [ 563.34992573453178, 117.700170991013096 ] ] ] } },
{ "type": "Feature", "properties": { "feature_type": "building", "subtype": "no-damage", "uid": "3b809256-3986-433c-b92c-f1aff3e4217b" }, "geometry": { "type": "Polygon", "coordinates": [ [ [ 559.059205268640198, 211.257224575698189 ], [ 562.731386028769975, 201.289876805086692 ], [ 583.715276070325785, 201.552175432213602 ], [ 583.452977441923395, 214.142509456745302 ], [ 587.125158198736358, 214.142509455724706 ], [ 587.125158200777491, 233.028010492522299 ], [ 558.796906647636547, 232.765711866415899 ], [ 559.059205268640198, 211.257224575698189 ] ] ] } },
{ "type": "Feature", "properties": { "feature_type": "building", "subtype": "no-damage", "uid": "6f8d4971-dac2-40e0-b6cc-00ab5950ba2e" }, "geometry": { "type": "Polygon", "coordinates": [ [ [ 557.150546389550868, 244.659734635085812 ], [ 575.831716841654725, 245.794948850029613 ], [ 574.438893970984736, 273.651406271608721 ], [ 555.576754635464567, 272.72568756519621 ], [ 557.150546389550868, 244.659734635085812 ] ] ] } },
{ "type": "Feature", "properties": { "feature_type": "building", "subtype": "no-damage", "uid": "285d8b72-a608-4ba8-bcb6-e4b5371de7fb" }, "geometry": { "type": "Polygon", "coordinates": [ [ [ 554.378039490807396, 288.970663040975808 ], [ 570.405407983330974, 289.184361287287686 ], [ 569.978011492493238, 309.913091200978613 ], [ 553.950643001245339, 309.485694709375196 ], [ 554.378039490807396, 288.970663040975808 ] ] ] } },
{ "type": "Feature", "properties": { "feature_type": "building", "subtype": "no-damage", "uid": "c914a3f2-198f-4330-bfcb-c1cff91935f6" }, "geometry": { "type": "Polygon", "coordinates": [ [ [ 8.957072409555996, 433.551744323612411 ], [ 12.88576803414456, 429.623048700807772 ], [ 29.700585310067641, 446.595013800794277 ], [ 13.2000636832748, 462.938387602519981 ], [ 54.328950865554077, 506.061669734866484 ], [ 54.380000005117267, 506.010000000899481 ], [ 61.386125629608543, 514.522750165970933 ], [ 57.11216070082029, 518.58301685304184 ], [ 67.797073026617937, 529.267929181906538 ], [ 58.394350177670823, 538.670652029837925 ], [ 105.407964421896196, 586.325361014553778 ], [ 91.731276642885106, 599.147255806537942 ], [ 154.13116463865731, 662.615635037728566 ], [ 144.087347048988704, 672.445754376242803 ], [ 149.216104969402693, 677.57451229793503 ], [ 128.487375050364591, 697.875845719001973 ], [ 122.290125904259497, 691.678596569832052 ], [ 112.032610066748205, 701.722414155678734 ], [ 42.366981686678137, 632.697880517315639 ], [ 56.257367712001027, 619.234890985375046 ], [ 2.977866821758216, 562.494667050098997 ], [ 18.816901753783469, 548.301447279984586 ], [ 15.211025351226841, 544.225239173077398 ], [ 12.44345093289763, 546.5624549507545 ], [ 0.006688908996405, 533.885353350075547 ], [ 0.006684193083401, 424.601002758602306 ], [ 8.957072409555996, 433.551744323612411 ] ] ] } },
{ "type": "Feature", "properties": { "feature_type": "building", "subtype": "no-damage", "uid": "bc6584a9-15a1-4d1a-94a6-ace3d70629af" }, "geometry": { "type": "Polygon", "coordinates": [ [ [ 18.816901753783469, 548.301447279984586 ], [ 2.977866821758216, 562.494667050098997 ], [ 0.006687462636806, 563.692694858600817 ], [ 0.006688008370301, 554.95445503286544 ], [ 4.054932271512093, 553.261066594756471 ], [ 8.696175781472057, 549.669793593163718 ], [ 12.44345093289763, 546.5624549507545 ], [ 15.211025351226841, 544.225239173077398 ], [ 18.816901753783469, 548.301447279984586 ] ] ] } },
{ "type": "Feature", "properties": { "feature_type": "building", "subtype": "no-damage", "uid": "8bd04c6a-fdc2-4411-82fa-77c913f3c104" }, "geometry": { "type": "Polygon", "coordinates": [ [ [ 121.862729408574197, 486.314581622176888 ], [ 80.832666067969129, 527.130946717766506 ], [ 75.062813411681205, 527.985739704034813 ], [ 61.386125629608543, 514.522750165970933 ], [ 54.328950865554077, 506.061669734866484 ], [ 65.121787970533674, 495.366033383091974 ], [ 49.308117725087428, 479.766061387011291 ], [ 82.969648533638932, 447.207802501165077 ], [ 121.862729408574197, 486.314581622176888 ] ] ] } },
{ "type": "Feature", "properties": { "feature_type": "building", "subtype": "no-damage", "uid": "1fb9058f-d6b6-420f-b310-2df50ecde0d2" }, "geometry": { "type": "Polygon", "coordinates": [ [ [ 438.186980087523807, 465.523463393125724 ], [ 438.190000002936188, 465.390000000645728 ], [ 440.059177390263187, 467.434872669526385 ], [ 440.340155409468423, 485.417465718029575 ], [ 466.380000002265319, 485.670000001868289 ], [ 466.155625494802223, 493.684996007885672 ], [ 462.104994089515003, 497.542740202135803 ], [ 461.912106884088814, 502.557807655477291 ], [ 465.523410135525808, 502.557807654456781 ], [ 464.942212904679025, 531.327070721713199 ], [ 432.815839513388312, 530.810910027632985 ], [ 432.976365050430616, 509.24157584440718 ], [ 386.189987742997914, 507.788582758614893 ], [ 386.080000002419297, 486.560000002529421 ], [ 386.199372880599185, 483.875772493106524 ], [ 401.856339730101524, 483.875772495147601 ], [ 403.512701103526808, 467.209741757069878 ], [ 438.186980087523807, 465.523463393125724 ] ] ] } },
{ "type": "Feature", "properties": { "feature_type": "building", "subtype": "no-damage", "uid": "e640db9c-3ffa-47a2-a88f-ece795f8707c" }, "geometry": { "type": "Polygon", "coordinates": [ [ [ 404.431718387087074, 418.844758644128319 ], [ 404.587036895884182, 422.509615628359825 ], [ 404.384919192144821, 433.370151431322313 ], [ 403.512701103526808, 467.209741757069878 ], [ 401.856339730101524, 483.875772495147601 ], [ 386.199372880599185, 483.875772493106524 ], [ 386.080000002419297, 486.560000002529421 ], [ 368.463472115168884, 486.284285112156113 ], [ 370.788261050292419, 416.831215692719582 ], [ 390.736726498475775, 414.794127238838996 ], [ 404.431718387087074, 418.844758644128319 ] ] ] } },
{ "type": "Feature", "properties": { "feature_type": "building", "subtype": "no-damage", "uid": "f3bcc9d0-6350-4f9a-9588-9319685e4035" }, "geometry": { "type": "Polygon", "coordinates": [ [ [ 467.50583596340141, 445.463193581800624 ], [ 466.380000002265319, 485.670000001868289 ], [ 440.340155409468423, 485.417465718029575 ], [ 440.059177390263187, 467.434872669526385 ], [ 438.190000002936188, 465.390000000645728 ], [ 438.765641715793492, 443.92009590777451 ], [ 450.097689581629709, 443.355325113261074 ], [ 456.188664306597275, 442.955659856660589 ], [ 467.50583596340141, 445.463193581800624 ] ] ] } },
{ "type": "Feature", "properties": { "feature_type": "building", "subtype": "no-damage", "uid": "e4c5709e-63ab-43a2-adef-f5f47ae56d9e" }, "geometry": { "type": "Polygon", "coordinates": [ [ [ 456.002509210880021, 423.346021212676419 ], [ 456.128856648336523, 433.510918694334805 ], [ 449.944684737155001, 433.57409241382851 ], [ 404.384919192144821, 433.370151431322313 ], [ 404.587036895884182, 422.509615628359825 ], [ 456.002509210880021, 423.346021212676419 ] ] ] } },
{ "type": "Feature", "properties": { "feature_type": "building", "subtype": "no-damage", "uid": "cee163b7-bb51-462d-9d33-98c851714327" }, "geometry": { "type": "Polygon", "coordinates": [ [ [ 449.944684737155001, 433.57409241382851 ], [ 456.128856648336523, 433.510918694334805 ], [ 456.188664306597275, 442.955659856660589 ], [ 450.097689581629709, 443.355325113261074 ], [ 449.944684737155001, 433.57409241382851 ] ] ] } },
{ "type": "Feature", "properties": { "feature_type": "building", "subtype": "no-damage", "uid": "9070b09a-7028-46e2-bbc8-12bc697f4153" }, "geometry": { "type": "Polygon", "coordinates": [ [ [ 363.655004553087224, 1.035370055997602 ], [ 383.626190612384789, 1.943151237739897 ], [ 383.626190608812919, 26.90713380811129 ], [ 363.201113959920121, 26.453243217240139 ], [ 363.655004553087224, 1.035370055997602 ] ] ] } }
]
}
