{
"type": "FeatureCollection",
"name": "midwest-flooding_00000280_post_disaster",
"features": [
{ "type": "Feature", "properties": { "feature_type": "building", "subtype": "no-damage", "uid": "311af0e2-7a9e-4b8f-8f85-94234dac8cfc" }, "geometry": { "type": "Polygon", "coordinates": [ [ [ 238.082550853390813, 1022.986327342125037 ], [ 222.248150249974998, 980.233443632247031 ], [ 238.208605408591097, 974.497655057584211 ], [ 245.440686651990006, 993.201313450053931 ], [ 250.677711004252302, 990.956874442711182 ], [ 256.413499574806224, 1002.42845159203705 ], [ 251.924621561405303, 1004.423508486768014 ], [ 260.201171535638991, 1022.986628668631056 ], [ 238.082550853390813, 1022.986327342125037 ] ] ] } },
{ "type": "Feature", "properties": { "feature_type": "building", "subtype": "no-damage", "uid": "09a4e84e-52d3-41db-9780-e782ff959350" }, "geometry": { "type": "Polygon", "coordinates": [ [ [ 285.402177281912316, 1022.986941069043041 ], [ 292.919392564467216, 1000.154648236741991 ], [ 312.190111373784987, 1005.012815671840031 ], [ 313.669718967834285, 1007.257254681236986 ], [ 308.845009277547319, 1022.987202110927001 ], [ 285.402177281912316, 1022.986941069043041 ] ] ] } },
{ "type": "Feature", "properties": { "feature_type": "building", "subtype": "no-damage", "uid": "05dcb3f5-08bf-4635-9d1f-186c17671a52" }, "geometry": { "type": "Polygon", "coordinates": [ [ [ 316.646790552205687, 1014.463418017717004 ], [ 321.804944122879192, 1003.06749734510197 ], [ 332.840993622083317, 1007.385951493783978 ], [ 328.162668292291414, 1018.422000993761003 ], [ 316.646790552205687, 1014.463418017717004 ] ] ] } },
{ "type": "Feature", "properties": { "feature_type": "building", "subtype": "no-damage", "uid": "0d8dfe45-8a2d-4709-9707-94855dd86a3c" }, "geometry": { "type": "Polygon", "coordinates": [ [ [ 326.772871864525825, 1022.987382511685951 ], [ 330.480229621028116, 1015.126416767555042 ], [ 342.233976212546793, 1018.762024305040995 ], [ 340.363253184152086, 1022.98750816314805 ], [ 326.772871864525825, 1022.987382511685951 ] ] ] } },
{ "type": "Feature", "properties": { "feature_type": "building", "subtype": "no-damage", "uid": "c03bd315-9bbd-44e1-ac71-9882f0aef42c" }, "geometry": { "type": "Polygon", "coordinates": [ [ [ 0.399163186557344, 1007.095048522749948 ], [ 14.9384311700654, 1005.076670512427995 ], [ 21.315682832581601, 1022.982031813353046 ], [ 0.39911996042922, 1022.981488434085009 ], [ 0.399163186557344, 1007.095048522749948 ] ] ] } }
]
}
