{
"type": "FeatureCollection",
"name": "midwest-flooding_00000327_post_disaster",
"features": [
{ "type": "Feature", "properties": { "feature_type": "building", "subtype": "no-damage", "uid": "3ca417be-e3a4-4745-84ea-9043eec734d2" }, "geometry": { "type": "Polygon", "coordinates": [ [ [ 652.271023660278729, 1022.987616352087002 ], [ 658.081925336241056, 1012.382720084026005 ], [ 686.84511538427796, 1022.987333136630014 ], [ 652.271023660278729, 1022.987616352087002 ] ] ] } },
{ "type": "Feature", "properties": { "feature_type": "building", "subtype": "no-damage", "uid": "993fed14-e363-4086-abdd-205364d8205e" }, "geometry": { "type": "Polygon", "coordinates": [ [ [ 678.051889430091819, 1012.18423508312901 ], [ 680.331073565333554, 1005.82651091865705 ], [ 693.28643602529894, 1011.104621548072032 ], [ 693.52635014117709, 1013.143891563071975 ], [ 691.607037186940488, 1017.94217395559599 ], [ 678.051889430091819, 1012.18423508312901 ] ] ] } },
{ "type": "Feature", "properties": { "feature_type": "building", "subtype": "no-damage", "uid": "adbc5ab8-8716-43ff-bff3-3bd80adc55ee" }, "geometry": { "type": "Polygon", "coordinates": [ [ [ 802.329474844247102, 999.003659233849589 ], [ 805.055170203839793, 998.345732764987815 ], [ 807.686876068247443, 999.097648724413716 ], [ 808.974892605390664, 999.922806381602527 ], [ 810.036613448127241, 1001.071428124838008 ], [ 810.558130654704655, 1002.733053920508951 ], [ 810.694539916218673, 1004.455049953549974 ], [ 810.281545510317528, 1005.916770727993026 ], [ 809.754644962315751, 1007.086755816673985 ], [ 808.776987847365262, 1008.234806142684988 ], [ 807.404785473019842, 1009.065020376743973 ], [ 804.867191213983347, 1009.436493198865037 ], [ 801.577558885078133, 1008.684577234305038 ], [ 800.226585966911784, 1006.954216219663977 ], [ 799.4158004914608, 1004.924997426906998 ], [ 799.130541588243545, 1002.763458297209013 ], [ 800.108683861661461, 1000.649632028279029 ], [ 802.329474844247102, 999.003659233849589 ] ] ] } }
]
}
