{
"type": "FeatureCollection",
"name": "midwest-flooding_00000180_post_disaster",
"features": [
{ "type": "Feature", "properties": { "feature_type": "building", "subtype": "no-damage", "uid": "1000d30b-33ae-44c1-b8dd-d438b2d0eae6" }, "geometry": { "type": "Polygon", "coordinates": [ [ [ 1023.391792060819967, 903.331300400289138 ], [ 1004.211390244934023, 908.577221911120432 ], [ 991.057507813769348, 859.104593823933783 ], [ 1013.50730945511998, 852.540495185882151 ], [ 1023.391798692957991, 900.230521339586289 ], [ 1023.391792060819967, 903.331300400289138 ] ] ] } },
{ "type": "Feature", "properties": { "feature_type": "building", "subtype": "no-damage", "uid": "2905779c-a023-4134-80a6-4ebd3768d128" }, "geometry": { "type": "Polygon", "coordinates": [ [ [ 955.516888285953542, 861.744825829552383 ], [ 968.807547474398689, 862.751170823650341 ], [ 966.107882326163917, 904.524135093273117 ], [ 953.440222788200344, 903.693468889549195 ], [ 955.516888285953542, 861.744825829552383 ] ] ] } },
{ "type": "Feature", "properties": { "feature_type": "building", "subtype": "no-damage", "uid": "6db282a6-641a-4cfb-9e42-66a0a704b02e" }, "geometry": { "type": "Polygon", "coordinates": [ [ [ 983.63267643214192, 902.517871075426342 ], [ 993.558119147029515, 902.843295426700479 ], [ 993.883543499074108, 912.117889439551277 ], [ 983.632676432912376, 912.117889439551277 ], [ 983.63267643214192, 902.517871075426342 ] ] ] } },
{ "type": "Feature", "properties": { "feature_type": "building", "subtype": "no-damage", "uid": "42ef0606-da99-437e-8b3c-069f57afd1e4" }, "geometry": { "type": "Polygon", "coordinates": [ [ [ 944.010432655285399, 940.92093825283132 ], [ 958.05760505581577, 943.571348141942508 ], [ 955.672236157001976, 956.293315598170921 ], [ 941.625063754930579, 953.64290571316883 ], [ 944.010432655285399, 940.92093825283132 ] ] ] } },
{ "type": "Feature", "properties": { "feature_type": "building", "subtype": "no-damage", "uid": "23b9a433-a8a7-4355-8a04-59894d2eabf3" }, "geometry": { "type": "Polygon", "coordinates": [ [ [ 933.500826940312095, 900.196109696518874 ], [ 935.192993561925391, 900.054432433261582 ], [ 936.668187063167466, 900.245643553711261 ], [ 938.08888508895609, 900.758838480682471 ], [ 939.666287709718972, 902.637254602686426 ], [ 940.13187312673972, 904.935137739943229 ], [ 939.732499200717939, 907.72463160932557 ], [ 938.793291135606637, 909.289978385024369 ], [ 936.836607671632692, 910.385721123288022 ], [ 935.427795577047618, 910.542255797981511 ], [ 933.31457743658234, 910.229186447567258 ], [ 931.044824616287315, 909.603047736465896 ], [ 929.870814541190271, 907.72463160932557 ], [ 929.479477844440453, 904.828740081268279 ], [ 930.027349216140578, 903.028591299692948 ], [ 931.905765341740448, 901.306709846218837 ], [ 933.500826940312095, 900.196109696518874 ] ] ] } },
{ "type": "Feature", "properties": { "feature_type": "building", "subtype": "no-damage", "uid": "bfd0b956-9b1c-4f22-96f7-e4e16dc47761" }, "geometry": { "type": "Polygon", "coordinates": [ [ [ 948.77595845860958, 905.908917646197892 ], [ 950.11119951957653, 905.695237213764926 ], [ 951.809349257112785, 905.695237215819475 ], [ 953.107934353574478, 906.19469302114328 ], [ 954.606301771857602, 907.093713469082445 ], [ 955.505322220310632, 908.592080888135683 ], [ 955.705104543416155, 910.390121787095836 ], [ 955.405431059913553, 912.787509657170176 ], [ 953.807172480206191, 914.685441718838774 ], [ 951.409784612699582, 915.584462169859762 ], [ 948.130981501173551, 914.714912054567321 ], [ 946.08608273457935, 912.470230966152258 ], [ 946.003796780413609, 909.426420590451812 ], [ 947.414138168310501, 906.893931147774765 ], [ 948.77595845860958, 905.908917646197892 ] ] ] } },
{ "type": "Feature", "properties": { "feature_type": "building", "subtype": "no-damage", "uid": "f8a3f2c0-7657-4742-be56-20cac4ccd5a6" }, "geometry": { "type": "Polygon", "coordinates": [ [ [ 948.609016306825538, 920.643227808424399 ], [ 954.923397026121506, 921.572773649542455 ], [ 953.536158550248729, 928.569539002402507 ], [ 946.944330139476278, 927.309789774317892 ], [ 948.609016306825538, 920.643227808424399 ] ] ] } },
{ "type": "Feature", "properties": { "feature_type": "building", "subtype": "no-damage", "uid": "e0909739-85a7-4f84-8421-81b648ff9e37" }, "geometry": { "type": "Polygon", "coordinates": [ [ [ 769.067314363345758, 963.783099273247103 ], [ 773.757459245916721, 959.548996845588476 ], [ 786.251405473151522, 972.042943077443056 ], [ 782.171749564481956, 976.760045225051385 ], [ 769.067314363345758, 963.783099273247103 ] ] ] } },
{ "type": "Feature", "properties": { "feature_type": "building", "subtype": "no-damage", "uid": "ab73a5ee-266b-4325-b115-d880ff2b0a35" }, "geometry": { "type": "Polygon", "coordinates": [ [ [ 918.162123146127328, 988.748791963435451 ], [ 918.66157895093761, 981.956193001991664 ], [ 940.337960922746447, 982.455648806288195 ], [ 940.238069764917668, 989.24824776567732 ], [ 918.162123146127328, 988.748791963435451 ] ] ] } },
{ "type": "Feature", "properties": { "feature_type": "building", "subtype": "no-damage", "uid": "ecabcdae-84ca-4ee8-a20e-77ae15e3a566" }, "geometry": { "type": "Polygon", "coordinates": [ [ [ 873.910338749947528, 1014.920276184181034 ], [ 870.314256944835279, 1007.528330256758977 ], [ 888.89401292147852, 999.437146203733732 ], [ 892.290312401173878, 1006.72920096947405 ], [ 873.910338749947528, 1014.920276184181034 ] ] ] } },
{ "type": "Feature", "properties": { "feature_type": "building", "subtype": "no-damage", "uid": "cd92febd-dec9-4731-b27e-f546fecba87f" }, "geometry": { "type": "Polygon", "coordinates": [ [ [ 993.714940335520168, 811.729623452749365 ], [ 1006.373868038468004, 817.716954122873744 ], [ 994.741339880591909, 838.758144761013455 ], [ 989.267208981075896, 836.021079314337953 ], [ 988.411876028090774, 837.560678627194079 ], [ 982.424545360533216, 834.823613180518578 ], [ 993.714940335520168, 811.729623452749365 ] ] ] } }
]
}
