{
"type": "FeatureCollection",
"name": "midwest-flooding_00000402_post_disaster",
"features": [
{ "type": "Feature", "properties": { "feature_type": "building", "subtype": "no-damage", "uid": "30505960-8da4-4614-a62a-7e64b48a605b" }, "geometry": { "type": "Polygon", "coordinates": [ [ [ 327.813189758019178, 327.271059588440778 ], [ 344.363842912087478, 327.907623173441323 ], [ 342.454152162731816, 376.286455467197015 ], [ 325.585217217446427, 375.649891884249428 ], [ 327.813189758019178, 327.271059588440778 ] ] ] } },
{ "type": "Feature", "properties": { "feature_type": "building", "subtype": "no-damage", "uid": "578edf8a-d697-4c58-8831-83be1f71875a" }, "geometry": { "type": "Polygon", "coordinates": [ [ [ 522.013940329883553, 397.883402123047688 ], [ 546.63596447006455, 387.585704667887626 ], [ 549.050738827248324, 397.42115333640038 ], [ 555.230518472530321, 407.293117437532999 ], [ 529.355567878964393, 418.15036816508109 ], [ 523.206077734766723, 409.701665861642311 ], [ 522.013940329883553, 397.883402123047688 ] ] ] } },
{ "type": "Feature", "properties": { "feature_type": "building", "subtype": "no-damage", "uid": "1ccd4271-76fa-4d12-8cfb-baff1b276567" }, "geometry": { "type": "Polygon", "coordinates": [ [ [ 550.740825994974102, 367.374124769731623 ], [ 570.162945642460159, 358.499286166217075 ], [ 577.262424386005137, 378.982925148710876 ], [ 557.869989814372389, 387.363620259757681 ], [ 550.740825994974102, 367.374124769731623 ] ] ] } },
{ "type": "Feature", "properties": { "feature_type": "building", "subtype": "no-damage", "uid": "2acfae9f-7660-4953-a46e-7c775320fa8e" }, "geometry": { "type": "Polygon", "coordinates": [ [ [ 623.156454937238209, 416.076277067792319 ], [ 648.937280042505222, 405.254696160761796 ], [ 657.849170202230312, 425.943012602967315 ], [ 663.5782424477311, 424.033321853098016 ], [ 670.262160067909804, 440.902256798644203 ], [ 665.169651407152742, 443.130229338447691 ], [ 669.943878276436067, 455.861500993294612 ], [ 643.526489588991353, 467.319645484299087 ], [ 623.156454937238209, 416.076277067792319 ] ] ] } },
{ "type": "Feature", "properties": { "feature_type": "building", "subtype": "un-classified", "uid": "b7585672-584d-4ff3-b511-83c357973dca" }, "geometry": { "type": "Polygon", "coordinates": [ [ [ 602.397359558178891, 423.781038494041923 ], [ 613.370172481616237, 426.274859615011792 ], [ 609.130676578585962, 447.971103344560106 ], [ 597.9084815447452, 445.726664341948492 ], [ 602.397359558178891, 423.781038494041923 ] ] ] } },
{ "type": "Feature", "properties": { "feature_type": "building", "subtype": "un-classified", "uid": "c64bc4d3-da85-486d-bf2c-a83fe633bbc2" }, "geometry": { "type": "Polygon", "coordinates": [ [ [ 756.511144399004593, 331.175798615895076 ], [ 770.970552749218882, 332.34818307725061 ], [ 770.188963106176971, 343.485835455509516 ], [ 755.729554755705976, 342.313450992101082 ], [ 756.511144399004593, 331.175798615895076 ] ] ] } },
{ "type": "Feature", "properties": { "feature_type": "building", "subtype": "no-damage", "uid": "2234079b-90ce-4fc0-818d-da52d1e88098" }, "geometry": { "type": "Polygon", "coordinates": [ [ [ 559.404613070411642, 462.04139181240771 ], [ 576.61197879293627, 459.048806471144303 ], [ 578.108271465620533, 466.779651935989193 ], [ 560.402141520749637, 469.52285516813231 ], [ 559.404613070411642, 462.04139181240771 ] ] ] } },
{ "type": "Feature", "properties": { "feature_type": "building", "subtype": "un-classified", "uid": "450a3e2f-2421-4774-83f1-233f5fb8abb9" }, "geometry": { "type": "Polygon", "coordinates": [ [ [ 55.470058448065878, 742.29751713340795 ], [ 63.427103231573419, 741.660953553539571 ], [ 65.0185121884289, 753.755661625438847 ], [ 57.061467402611868, 754.392225208386549 ], [ 55.470058448065878, 742.29751713340795 ] ] ] } }
]
}
