{
"type": "FeatureCollection",
"name": "midwest-flooding_00000260_post_disaster",
"features": [
{ "type": "Feature", "properties": { "feature_type": "building", "subtype": "no-damage", "uid": "e1ff1f0c-bbc6-4ee2-8f56-0b3821fa4601" }, "geometry": { "type": "Polygon", "coordinates": [ [ [ 30.49201214542283, 210.791169652146408 ], [ 43.285872036038732, 209.423387783537805 ], [ 44.262859087318461, 219.779450518993201 ], [ 45.365472371640557, 228.767731384813089 ], [ 32.343617072796, 230.135513256502406 ], [ 30.780437787565081, 220.951834980734588 ], [ 30.49201214542283, 210.791169652146408 ] ] ] } },
{ "type": "Feature", "properties": { "feature_type": "building", "subtype": "no-damage", "uid": "da7eb54c-a36f-474e-b3cc-b2f2044c923f" }, "geometry": { "type": "Polygon", "coordinates": [ [ [ 53.812995681845557, 208.710222508093011 ], [ 97.215557229661087, 210.400374837384987 ], [ 97.215557228634211, 227.986141747075209 ], [ 92.492576082023433, 230.93764429289331 ], [ 53.25113995262268, 228.376936566971011 ], [ 53.138627724292789, 223.545259451895191 ], [ 46.265894796522048, 223.102966376691995 ], [ 45.943524339176207, 213.593037910787814 ], [ 52.552118695126737, 214.076593596678407 ], [ 53.812995681845557, 208.710222508093011 ] ] ] } },
{ "type": "Feature", "properties": { "feature_type": "building", "subtype": "no-damage", "uid": "1dea2908-1720-495d-8cca-9909c9997019" }, "geometry": { "type": "Polygon", "coordinates": [ [ [ 158.030608164792199, 201.273371029344503 ], [ 157.310865808475711, 193.476162143703306 ], [ 166.667516470883413, 192.756419783022295 ], [ 169.066657665279791, 194.555775679076788 ], [ 169.186614724280787, 200.673585728948211 ], [ 158.030608164792199, 201.273371029344503 ] ] ] } },
{ "type": "Feature", "properties": { "feature_type": "building", "subtype": "no-damage", "uid": "e7a1f1b4-74ff-4d92-a71a-8e511f76efbc" }, "geometry": { "type": "Polygon", "coordinates": [ [ [ 150.021581924165304, 200.294097378064492 ], [ 157.811270493474609, 200.524902961865195 ], [ 157.811270492447704, 209.87252924647629 ], [ 157.349659317915012, 210.391841815162309 ], [ 150.252387514640702, 210.103334831303897 ], [ 150.021581924165304, 200.294097378064492 ] ] ] } },
{ "type": "Feature", "properties": { "feature_type": "building", "subtype": "no-damage", "uid": "baa23732-cc6b-4d89-8495-53f8e0913ed7" }, "geometry": { "type": "Polygon", "coordinates": [ [ [ 180.586116115719193, 225.67160895725101 ], [ 194.052750158232413, 226.419755296112612 ], [ 194.551514380374812, 215.446942374063894 ], [ 210.013205318902294, 216.444470821429491 ], [ 210.013205320442609, 226.170373184527904 ], [ 216.74652234015889, 226.918519523389506 ], [ 218.492197123561709, 229.162958529705406 ], [ 217.744050786497411, 244.874031576997595 ], [ 180.336734005418208, 243.128356790770397 ], [ 178.591059219704903, 234.898747102314502 ], [ 180.586116115719193, 225.67160895725101 ] ] ] } },
{ "type": "Feature", "properties": { "feature_type": "building", "subtype": "no-damage", "uid": "262afdfb-8093-4a93-abdb-d89455418ee2" }, "geometry": { "type": "Polygon", "coordinates": [ [ [ 168.79927633057099, 247.545331931289809 ], [ 183.758520524229709, 248.181895514992988 ], [ 183.44023873109461, 258.366912840893917 ], [ 169.117558119598613, 258.048631048528875 ], [ 168.79927633057099, 247.545331931289809 ] ] ] } },
{ "type": "Feature", "properties": { "feature_type": "building", "subtype": "no-damage", "uid": "8d20b270-9ec5-42ab-a9c5-19ac8bb2a25c" }, "geometry": { "type": "Polygon", "coordinates": [ [ [ 130.399592329499086, 482.547567580362113 ], [ 153.960188890777488, 480.110264488665223 ], [ 158.834795076223713, 523.169285787631679 ], [ 136.492850059252987, 525.606588879328569 ], [ 130.399592329499086, 482.547567580362113 ] ] ] } },
{ "type": "Feature", "properties": { "feature_type": "building", "subtype": "no-damage", "uid": "9218b4a8-640e-4aca-886b-b6a9701f068b" }, "geometry": { "type": "Polygon", "coordinates": [ [ [ 0.39713781738763, 732.562697541850525 ], [ 7.283496436704406, 738.001218513102231 ], [ 0.397120373725431, 746.984341719198028 ], [ 0.39713781738763, 732.562697541850525 ] ] ] } },
{ "type": "Feature", "properties": { "feature_type": "building", "subtype": "no-damage", "uid": "1fe3781c-79e0-49d8-9f82-bfc2b8301b65" }, "geometry": { "type": "Polygon", "coordinates": [ [ [ 18.61654622266682, 720.806246424334745 ], [ 33.271351984674702, 719.829259374595154 ], [ 33.466749392312103, 728.426745419492249 ], [ 19.59353327266296, 729.403732469231954 ], [ 18.61654622266682, 720.806246424334745 ] ] ] } },
{ "type": "Feature", "properties": { "feature_type": "building", "subtype": "no-damage", "uid": "3012a246-d5c3-475e-9328-077be3e24a70" }, "geometry": { "type": "Polygon", "coordinates": [ [ [ 21.1567125532729, 730.771514341948091 ], [ 34.834531261433831, 730.380719522052232 ], [ 35.225326082356482, 737.415026284285318 ], [ 21.352109963734222, 738.392013335051843 ], [ 21.1567125532729, 730.771514341948091 ] ] ] } },
{ "type": "Feature", "properties": { "feature_type": "building", "subtype": "no-damage", "uid": "dca1a360-2fbe-4951-a3fd-043e1341da90" }, "geometry": { "type": "Polygon", "coordinates": [ [ [ 45.031016964223092, 739.582053843050403 ], [ 61.490236348318923, 738.335143289234452 ], [ 63.235911133775517, 756.789419563958177 ], [ 46.77669174813937, 758.036330125989139 ], [ 45.031016964223092, 739.582053843050403 ] ] ] } },
{ "type": "Feature", "properties": { "feature_type": "building", "subtype": "no-damage", "uid": "cf3c8961-51b7-4bf0-85ba-f381c34d5a50" }, "geometry": { "type": "Polygon", "coordinates": [ [ [ 124.578525704944695, 722.237548046192501 ], [ 128.397907203568593, 714.280503259658531 ], [ 138.901206320548198, 704.73204951540697 ], [ 171.684230836326009, 725.102084171316278 ], [ 171.684230837866295, 728.284902083670772 ], [ 159.271240974141904, 745.153837025618714 ], [ 124.578525704944695, 722.237548046192501 ] ] ] } },
{ "type": "Feature", "properties": { "feature_type": "building", "subtype": "no-damage", "uid": "867ee841-7605-4395-bbd3-e308fb8ec38e" }, "geometry": { "type": "Polygon", "coordinates": [ [ [ 179.521687492383393, 693.541477957010443 ], [ 184.267755990051512, 687.264419626716517 ], [ 191.922705171400196, 692.622884055792611 ], [ 187.023537692164012, 698.746843403748358 ], [ 179.521687492383393, 693.541477957010443 ] ] ] } },
{ "type": "Feature", "properties": { "feature_type": "building", "subtype": "no-damage", "uid": "d2bbda70-c78c-44b9-b409-40b7c25fcbe4" }, "geometry": { "type": "Polygon", "coordinates": [ [ [ 0.39693074000461, 867.139355891482865 ], [ 3.86834930643372, 865.889337253312988 ], [ 4.845336359510503, 868.820298403558922 ], [ 27.120641114363501, 861.004402001534118 ], [ 33.959550465106602, 880.348745602809458 ], [ 0.396879197150745, 893.186996744357771 ], [ 0.39693074000461, 867.139355891482865 ] ] ] } },
{ "type": "Feature", "properties": { "feature_type": "building", "subtype": "no-damage", "uid": "6f1926a0-b2e2-462b-9aa8-a765ea523fc8" }, "geometry": { "type": "Polygon", "coordinates": [ [ [ 93.878747208836373, 858.313352680881394 ], [ 101.839894360509305, 856.782362844149247 ], [ 103.830181150930599, 868.111687637815976 ], [ 96.175231964447548, 869.64267747249437 ], [ 93.878747208836373, 858.313352680881394 ] ] ] } },
{ "type": "Feature", "properties": { "feature_type": "building", "subtype": "no-damage", "uid": "617edae1-f1be-4bf8-90ad-a6682b82edbc" }, "geometry": { "type": "Polygon", "coordinates": [ [ [ 112.250625251158596, 876.532131738302724 ], [ 116.537396795907398, 856.476164879472663 ], [ 165.222873608189502, 864.590411017336692 ], [ 168.13175429726121, 866.580697804164402 ], [ 166.294566493542391, 885.411872797100159 ], [ 112.250625251158596, 876.532131738302724 ] ] ] } },
{ "type": "Feature", "properties": { "feature_type": "building", "subtype": "no-damage", "uid": "7e0668ea-7ea8-4539-bc76-c7e99aa77430" }, "geometry": { "type": "Polygon", "coordinates": [ [ [ 154.311149803899809, 847.414214412888441 ], [ 163.343989840412092, 841.29025506801338 ], [ 173.907819718790705, 856.600153433281662 ], [ 164.7218806930087, 862.877211762548768 ], [ 154.311149803899809, 847.414214412888441 ] ] ] } },
{ "type": "Feature", "properties": { "feature_type": "building", "subtype": "no-damage", "uid": "59c56cb7-5a1b-440f-b852-2562d21d87fd" }, "geometry": { "type": "Polygon", "coordinates": [ [ [ 191.667301822004589, 846.18942254904789 ], [ 212.029466654234596, 845.883224578210047 ], [ 214.019753442602109, 848.332808317186959 ], [ 214.479050392697502, 868.848072134327595 ], [ 191.973499790788594, 869.154270096950313 ], [ 191.667301822004589, 846.18942254904789 ] ] ] } },
{ "type": "Feature", "properties": { "feature_type": "building", "subtype": "no-damage", "uid": "620c202c-7d69-4a2b-9e03-4b63070af0d9" }, "geometry": { "type": "Polygon", "coordinates": [ [ [ 0.396653604553073, 990.554506267924353 ], [ 8.706454307826982, 993.373824797784323 ], [ 5.416821976075091, 1003.054742798482948 ], [ 0.396624664935242, 1001.625810665084032 ], [ 0.396653604553073, 990.554506267924353 ] ] ] } },
{ "type": "Feature", "properties": { "feature_type": "building", "subtype": "no-damage", "uid": "2fc4af4c-4b54-4f32-b3de-cc0e6232b52a" }, "geometry": { "type": "Polygon", "coordinates": [ [ [ 160.003532116411009, 973.870622080113208 ], [ 211.246900536983986, 969.732958793744388 ], [ 211.883464118890004, 980.55453970026781 ], [ 161.913222866493101, 984.692202987663563 ], [ 160.003532116411009, 973.870622080113208 ] ] ] } },
{ "type": "Feature", "properties": { "feature_type": "building", "subtype": "no-damage", "uid": "53a2cde7-6662-4998-bd4a-50e79bf9c872" }, "geometry": { "type": "Polygon", "coordinates": [ [ [ 221.611261595919814, 967.5332159304578 ], [ 230.599542460197114, 968.314805573330204 ], [ 230.013350232920686, 978.280073488889798 ], [ 221.025069364279091, 977.889278667967005 ], [ 221.611261595919814, 967.5332159304578 ] ] ] } },
{ "type": "Feature", "properties": { "feature_type": "building", "subtype": "no-damage", "uid": "6394c5f9-3c5e-459a-a041-efe4aca74c73" }, "geometry": { "type": "Polygon", "coordinates": [ [ [ 412.350907849704072, 1022.98800961477798 ], [ 425.673827190672625, 1008.661307545738964 ], [ 433.098928777677372, 1014.718627260285984 ], [ 429.581775393481109, 1018.821972871245976 ], [ 436.027507637313022, 1022.988117357400029 ], [ 412.350907849704072, 1022.98800961477798 ] ] ] } },
{ "type": "Feature", "properties": { "feature_type": "building", "subtype": "no-damage", "uid": "82ef4337-c1ca-4782-8f13-0f94f1c8ab0e" }, "geometry": { "type": "Polygon", "coordinates": [ [ [ 345.911694106066079, 1006.163972637398047 ], [ 355.710029065822084, 998.202825483926404 ], [ 360.456097557842384, 1004.632982803747041 ], [ 350.963960570721213, 1012.134832999935043 ], [ 345.911694106066079, 1006.163972637398047 ] ] ] } },
{ "type": "Feature", "properties": { "feature_type": "building", "subtype": "no-damage", "uid": "c51f217b-d492-4b45-a6a6-403bbc2b65e2" }, "geometry": { "type": "Polygon", "coordinates": [ [ [ 847.718204724889461, 971.811200928655239 ], [ 859.977870209555931, 961.455138191146034 ], [ 877.954431940164341, 982.558058485033484 ], [ 865.253600284053277, 992.523326399566145 ], [ 847.718204724889461, 971.811200928655239 ] ] ] } },
{ "type": "Feature", "properties": { "feature_type": "building", "subtype": "no-damage", "uid": "e94a3e1d-7f39-4c7c-86fc-8c872fef7441" }, "geometry": { "type": "Polygon", "coordinates": [ [ [ 805.45344677482376, 899.122240928640167 ], [ 816.98189396970713, 889.743165244978172 ], [ 829.291930807719382, 904.593368414370389 ], [ 817.763483609241916, 913.972444098032497 ], [ 810.729176845213601, 907.32893215672209 ], [ 805.45344677482376, 899.122240928640167 ] ] ] } },
{ "type": "Feature", "properties": { "feature_type": "building", "subtype": "no-damage", "uid": "2e586e9c-7e23-4566-8492-b9d32d0eba94" }, "geometry": { "type": "Polygon", "coordinates": [ [ [ 812.878548356694068, 864.927694161053068 ], [ 824.406995557225287, 856.721002936051832 ], [ 829.48732821741055, 862.582925241677913 ], [ 844.92372361715627, 851.836067684272848 ], [ 859.187734554904068, 872.548193157237506 ], [ 845.119121025820505, 882.122666251874307 ], [ 851.176440740109456, 889.547767838110872 ], [ 837.107827211796007, 898.926843519719114 ], [ 823.625405915123338, 882.51346107177028 ], [ 812.878548356694068, 864.927694161053068 ] ] ] } },
{ "type": "Feature", "properties": { "feature_type": "building", "subtype": "no-damage", "uid": "34e1b9c0-941e-480d-aca0-ff5ed2442ac6" }, "geometry": { "type": "Polygon", "coordinates": [ [ [ 949.847525296446406, 907.978627503282837 ], [ 950.042922707164394, 912.472767936192781 ], [ 933.644377098468453, 923.182533393807148 ], [ 922.427572064551441, 907.211874700942872 ], [ 924.540401015267207, 905.415626267978155 ], [ 924.540005031710052, 905.350004262312723 ], [ 920.94917401729424, 898.671126792575365 ], [ 928.394400710728746, 894.203990777386366 ], [ 931.564577951635442, 900.093647493402727 ], [ 939.491462563047321, 894.496206206606757 ], [ 949.847525296446406, 907.978627503282837 ] ] ] } },
{ "type": "Feature", "properties": { "feature_type": "building", "subtype": "no-damage", "uid": "dd150af2-a8c6-43df-9e42-16930c179492" }, "geometry": { "type": "Polygon", "coordinates": [ [ [ 993.790005038000345, 890.960004266271767 ], [ 980.170005035881104, 902.570004269733317 ], [ 968.243661954931781, 912.105410199842709 ], [ 952.025676917705027, 898.232194083270656 ], [ 947.140741660792969, 888.071528756736257 ], [ 960.818560371007607, 876.543081561593226 ], [ 952.416471735803725, 864.819236951367884 ], [ 965.117303392684903, 854.072379396016572 ], [ 993.790005038000345, 890.960004266271767 ] ] ] } },
{ "type": "Feature", "properties": { "feature_type": "building", "subtype": "no-damage", "uid": "ba1237c6-8073-4a78-a9d7-af33bc8fce53" }, "geometry": { "type": "Polygon", "coordinates": [ [ [ 856.240511635291568, 806.03463133784453 ], [ 870.704674123629729, 807.28154189679492 ], [ 870.270005029883009, 814.210004263899009 ], [ 881.029473065033699, 817.364438151437184 ], [ 878.806941147377302, 835.345984064261074 ], [ 867.035587065509276, 833.326214365565193 ], [ 864.968885549738502, 844.190094453430447 ], [ 849.507194612237981, 844.439476567068937 ], [ 839.282528026742852, 838.204923768209824 ], [ 845.267698713759046, 803.54081021480954 ], [ 856.240511635291568, 806.03463133784453 ] ] ] } },
{ "type": "Feature", "properties": { "feature_type": "building", "subtype": "no-damage", "uid": "eee61382-3fec-4ba5-9d9f-84a1d1ab62b5" }, "geometry": { "type": "Polygon", "coordinates": [ [ [ 738.218143535110698, 808.086485491896497 ], [ 769.958571424105799, 781.694664709545236 ], [ 782.709180527541548, 797.085268592693978 ], [ 778.324450429686522, 800.680766074532926 ], [ 791.336533370409484, 816.316095187540554 ], [ 768.14399696403018, 835.269135688514325 ], [ 752.931688137344054, 816.814859409683095 ], [ 748.442810122146057, 820.555591086533923 ], [ 738.218143535110698, 808.086485491896497 ] ] ] } },
{ "type": "Feature", "properties": { "feature_type": "building", "subtype": "no-damage", "uid": "fcad872b-2597-4fcd-b925-2d16bae533fa" }, "geometry": { "type": "Polygon", "coordinates": [ [ [ 708.41451254337062, 773.704895107499055 ], [ 734.20697067779895, 752.015782584794692 ], [ 742.609059313772946, 761.981050499327353 ], [ 738.310316294919517, 766.084396112341437 ], [ 742.218264492850267, 771.16472877714898 ], [ 754.528301334456728, 761.39485827051044 ], [ 766.056748528313278, 776.440458850877576 ], [ 732.448393990835257, 803.20990403120129 ], [ 708.41451254337062, 773.704895107499055 ] ] ] } },
{ "type": "Feature", "properties": { "feature_type": "building", "subtype": "no-damage", "uid": "fb60c4e5-aa46-4233-b667-d68e0ca071ec" }, "geometry": { "type": "Polygon", "coordinates": [ [ [ 710.045697069352173, 713.575883611425752 ], [ 718.838580525478619, 723.345754116010426 ], [ 714.930632322156725, 726.862907498153845 ], [ 718.056990884660195, 730.380060880297265 ], [ 724.114310600746194, 724.12734375888283 ], [ 735.447360385938509, 736.241983182842773 ], [ 708.091722968076283, 759.494274987184326 ], [ 705.160761817061029, 759.298877574155767 ], [ 685.034828573945219, 736.632778002738632 ], [ 710.045697069352173, 713.575883611425752 ] ] ] } },
{ "type": "Feature", "properties": { "feature_type": "building", "subtype": "no-damage", "uid": "008ce4a3-21fe-44d1-8e35-221769e4b7d2" }, "geometry": { "type": "Polygon", "coordinates": [ [ [ 684.253238934410433, 670.197658563963273 ], [ 695.781686130834146, 687.001835834888652 ], [ 686.402610448201358, 693.840745187173866 ], [ 688.161187137989032, 695.599321880812681 ], [ 690.701353467054787, 693.645347778252813 ], [ 700.471223976001397, 707.909358717801297 ], [ 675.460355482134673, 725.104330802461163 ], [ 667.449061663745965, 713.575883610398819 ], [ 664.713497924732337, 715.725255117772349 ], [ 649.667897343085428, 694.426937417017598 ], [ 684.253238934410433, 670.197658563963273 ] ] ] } },
{ "type": "Feature", "properties": { "feature_type": "building", "subtype": "no-damage", "uid": "6e21648d-2001-44d4-afd3-3fb7845e3bf2" }, "geometry": { "type": "Polygon", "coordinates": [ [ [ 658.069985979829539, 638.54327812672625 ], [ 666.667472026264932, 650.267122731817267 ], [ 659.046973029312312, 656.519839856312387 ], [ 661.977934181611204, 660.036993238455807 ], [ 665.299690151752088, 657.692224315999965 ], [ 672.333996916037108, 667.462094824692258 ], [ 672.138599505832531, 670.00226115504222 ], [ 646.150743964023491, 689.932796985134473 ], [ 625.63401590075523, 662.577159568805769 ], [ 658.069985979829539, 638.54327812672625 ] ] ] } },
{ "type": "Feature", "properties": { "feature_type": "building", "subtype": "no-damage", "uid": "fd3135e6-5da9-4a68-9a93-7df33f3ad97b" }, "geometry": { "type": "Polygon", "coordinates": [ [ [ 569.217870432937161, 590.89124347171105 ], [ 600.409485995618866, 565.74698195086421 ], [ 611.231066901882741, 580.069662565187627 ], [ 604.228867494499355, 585.16217122762464 ], [ 606.456840031298498, 587.708425554222231 ], [ 608.634441219372775, 585.971990544523578 ], [ 617.987497553673961, 598.139211645984233 ], [ 594.362131957115139, 616.035504994611756 ], [ 584.813678213122785, 604.259078709966388 ], [ 582.21705252932918, 606.436679898554644 ], [ 569.217870432937161, 590.89124347171105 ] ] ] } },
{ "type": "Feature", "properties": { "feature_type": "building", "subtype": "no-damage", "uid": "0f1f924a-4ff9-42ff-896b-5f9cee0c9ec8" }, "geometry": { "type": "Polygon", "coordinates": [ [ [ 540.254227414756429, 551.424301333459994 ], [ 571.764124765952147, 526.28003981261304 ], [ 583.222269256175764, 541.239284008585969 ], [ 575.583506261495359, 546.650074463388023 ], [ 578.129760593226592, 549.832892376769337 ], [ 582.267423881648142, 547.28663804606424 ], [ 588.314777919638345, 556.516809994870073 ], [ 561.579107441594147, 576.568562855333766 ], [ 558.714571315444118, 575.613717481319441 ], [ 540.254227414756429, 551.424301333459994 ] ] ] } },
{ "type": "Feature", "properties": { "feature_type": "building", "subtype": "no-damage", "uid": "80f41afc-37e1-4af6-976b-65b873cb6345" }, "geometry": { "type": "Polygon", "coordinates": [ [ [ 420.105971973592375, 518.229438881272245 ], [ 439.807158810855526, 501.022073165498909 ], [ 471.977451244550025, 539.925682618919382 ], [ 458.510817203063823, 550.898495540968156 ], [ 449.782443286049613, 542.419503735793114 ], [ 439.059012478668876, 550.898495541994976 ], [ 434.320752352913189, 545.661471190501629 ], [ 438.560248250878715, 541.920739513650688 ], [ 434.819516572231578, 537.681243608495947 ], [ 431.328167009533502, 540.424446841061922 ], [ 422.101028868323226, 529.701016030597884 ], [ 426.34052477090961, 525.710902240108453 ], [ 420.105971973592375, 518.229438881272245 ] ] ] } },
{ "type": "Feature", "properties": { "feature_type": "building", "subtype": "no-damage", "uid": "db1881c7-8645-4487-a651-eac82557ce9c" }, "geometry": { "type": "Polygon", "coordinates": [ [ [ 469.483630128190384, 470.846837626784179 ], [ 472.226833359215277, 473.83942297196171 ], [ 480.955207273148915, 467.106105947879485 ], [ 498.910719329833114, 491.794935024542895 ], [ 491.179873861467911, 497.281341486594215 ], [ 488.436670629416028, 494.538138258135689 ], [ 484.945321066717895, 497.031959377063174 ], [ 495.419369763027419, 511.496121865405087 ], [ 476.466329263085413, 525.960284354773762 ], [ 450.031825397634179, 494.28875614347038 ], [ 456.266378196234996, 489.550496020280718 ], [ 452.026882292878383, 483.315943220394786 ], [ 469.483630128190384, 470.846837626784179 ] ] ] } },
{ "type": "Feature", "properties": { "feature_type": "building", "subtype": "no-damage", "uid": "988623a4-887c-46ad-8afa-dc618a7d1965" }, "geometry": { "type": "Polygon", "coordinates": [ [ [ 650.076584807454992, 486.851780882186517 ], [ 654.885362993727767, 482.419583690607283 ], [ 662.153131713410858, 479.197484928606684 ], [ 668.100858429664072, 490.82118993389912 ], [ 656.841349257173874, 496.731562099082225 ], [ 650.076584807454992, 486.851780882186517 ] ] ] } },
{ "type": "Feature", "properties": { "feature_type": "building", "subtype": "no-damage", "uid": "6809e410-27b4-4341-b491-52aca9779628" }, "geometry": { "type": "Polygon", "coordinates": [ [ [ 638.082536271935851, 514.811144989610398 ], [ 645.721299264819208, 506.535818414819005 ], [ 655.906316588407094, 502.079873336085086 ], [ 675.639787658811315, 529.770389190717765 ], [ 684.536385750277645, 541.424860058580521 ], [ 666.161269734706138, 553.997307857846863 ], [ 658.308794725756684, 544.049424884233758 ], [ 659.871883591368714, 542.053340550918847 ], [ 660.222247202567587, 539.425613483100165 ], [ 658.014616412686223, 540.002261048679543 ], [ 638.082536271935851, 514.811144989610398 ] ] ] } },
{ "type": "Feature", "properties": { "feature_type": "building", "subtype": "no-damage", "uid": "dda11fdc-187c-4706-8dc4-a06f5cf4a35e" }, "geometry": { "type": "Polygon", "coordinates": [ [ [ 691.524181070800296, 507.485636395384176 ], [ 697.581500780725037, 503.77308560534658 ], [ 701.294051575896106, 509.439610494863473 ], [ 694.259744809300514, 513.152161287981698 ], [ 691.524181070800296, 507.485636395384176 ] ] ] } },
{ "type": "Feature", "properties": { "feature_type": "building", "subtype": "no-damage", "uid": "798d9318-7212-499a-93b5-e787fdc40837" }, "geometry": { "type": "Polygon", "coordinates": [ [ [ 693.02424096240145, 514.832984669302505 ], [ 701.597784048561721, 509.780718207983512 ], [ 704.659763720741807, 514.832984669302505 ], [ 695.780022667081084, 519.732152146229396 ], [ 693.02424096240145, 514.832984669302505 ] ] ] } },
{ "type": "Feature", "properties": { "feature_type": "building", "subtype": "no-damage", "uid": "74b8bfb2-c202-4491-9a77-ce7073be403e" }, "geometry": { "type": "Polygon", "coordinates": [ [ [ 705.894615681749428, 603.763958654415092 ], [ 698.078719278186213, 592.626306277114168 ], [ 699.837295968230592, 591.45392181742659 ], [ 694.561565891422788, 583.833422823296019 ], [ 716.446075824839681, 568.201630016165723 ], [ 736.376611658521028, 597.902036352896516 ], [ 712.538127624341655, 615.292405851611989 ], [ 707.262397550357719, 611.18906023757097 ], [ 706.480807908255656, 604.936343116156536 ], [ 705.894615681749428, 603.763958654415092 ] ] ] } },
{ "type": "Feature", "properties": { "feature_type": "building", "subtype": "no-damage", "uid": "7c1463de-15c5-4ba0-bdd9-0e632ec925ba" }, "geometry": { "type": "Polygon", "coordinates": [ [ [ 722.27694385444272, 620.603592298002582 ], [ 746.243757596130195, 602.323819109249484 ], [ 755.58675278481644, 612.885465841989458 ], [ 753.961884055735368, 614.916551754817533 ], [ 765.742182338428393, 629.540370307052171 ], [ 738.93184831770418, 650.257446588528978 ], [ 732.026156224821648, 641.320668588721219 ], [ 737.139142080048146, 637.282374222322005 ], [ 731.627578666581257, 630.239820972121606 ], [ 728.41250000949583, 632.689404711098518 ], [ 722.44163964619031, 624.88135654201858 ], [ 722.27694385444272, 620.603592298002582 ] ] ] } },
{ "type": "Feature", "properties": { "feature_type": "building", "subtype": "no-damage", "uid": "e22d1747-ce54-4cd5-84c3-d450e538a495" }, "geometry": { "type": "Polygon", "coordinates": [ [ [ 750.359143545767779, 658.832079882271046 ], [ 779.606780656904562, 636.896352054945851 ], [ 797.48033666832464, 660.456948611095868 ], [ 767.014048010312763, 683.611327988376956 ], [ 765.19901764677104, 680.819168095586633 ], [ 761.291069442422213, 683.750129241725062 ], [ 753.279775628911125, 672.221682049662604 ], [ 757.383121244234758, 668.899926078493991 ], [ 750.359143545767779, 658.832079882271046 ] ] ] } },
{ "type": "Feature", "properties": { "feature_type": "building", "subtype": "no-damage", "uid": "5da10f4a-390e-4c3b-8659-03efaf260a1d" }, "geometry": { "type": "Polygon", "coordinates": [ [ [ 778.095246716167253, 691.175230830015266 ], [ 801.738333337318068, 673.198669101456062 ], [ 821.278074350076849, 699.577319468045175 ], [ 808.561189015001446, 710.614229137627376 ], [ 790.834784094256747, 721.469468887830999 ], [ 783.314615015240975, 711.874454393514497 ], [ 793.0457797963046, 704.616569335546956 ], [ 787.669719810288257, 696.646358312664916 ], [ 783.957169016657531, 699.186524646095563 ], [ 778.095246716167253, 691.175230830015266 ] ] ] } },
{ "type": "Feature", "properties": { "feature_type": "building", "subtype": "no-damage", "uid": "db4e7af3-f8c8-41a9-8897-7760a0683a15" }, "geometry": { "type": "Polygon", "coordinates": [ [ [ 957.540846521317803, 303.174013364510472 ], [ 957.134629340395236, 283.675588621693976 ], [ 977.03927126079202, 284.488022988673492 ], [ 979.070357170795546, 286.925326080370382 ], [ 979.070357171052251, 298.299407181116919 ], [ 1020.504509745548035, 297.486972816190985 ], [ 1023.375470943330015, 300.823363594815191 ], [ 1023.37549590480296, 322.757713493998892 ], [ 979.47657435120459, 321.047569371314125 ], [ 979.882791533410682, 337.296256655454215 ], [ 959.571932432861672, 336.890039474531591 ], [ 959.571932430551101, 323.484872463010902 ], [ 955.103543428594662, 310.892139822577292 ], [ 957.540846521317803, 303.174013364510472 ] ] ] } },
{ "type": "Feature", "properties": { "feature_type": "building", "subtype": "no-damage", "uid": "31636ef3-42f2-46ef-a924-59d205d1ce74" }, "geometry": { "type": "Polygon", "coordinates": [ [ [ 968.559170472510004, 274.483240540828774 ], [ 967.561642026684922, 246.801826121041586 ], [ 969.057934700813689, 242.562330218967588 ], [ 992.499853216467045, 243.559858665306308 ], [ 992.001088994324732, 275.231386873529118 ], [ 968.559170472510004, 274.483240540828774 ] ] ] } },
{ "type": "Feature", "properties": { "feature_type": "building", "subtype": "no-damage", "uid": "7620eba2-68be-49f0-a91f-a87ed0a498cc" }, "geometry": { "type": "Polygon", "coordinates": [ [ [ 985.940005037186779, 129.210004270565094 ], [ 982.972069651245988, 142.717384246027109 ], [ 959.005255903910665, 137.436560878630189 ], [ 961.790005036724779, 124.380004269085205 ], [ 985.940005037186779, 129.210004270565094 ] ] ] } },
{ "type": "Feature", "properties": { "feature_type": "building", "subtype": "no-damage", "uid": "be234d40-68e7-40aa-8ebf-431ee9f60441" }, "geometry": { "type": "Polygon", "coordinates": [ [ [ 977.69124628179668, 104.1267519505585 ], [ 991.096413289206453, 105.751620680410198 ], [ 987.572375491907223, 124.851856552539502 ], [ 963.246441135123405, 120.111504024741805 ], [ 966.723382365056182, 101.283231678966004 ], [ 977.69124628179668, 104.1267519505585 ] ] ] } },
{ "type": "Feature", "properties": { "feature_type": "building", "subtype": "no-damage", "uid": "36e3e8e3-3782-4520-9de4-9bfcd3c3cdee" }, "geometry": { "type": "Polygon", "coordinates": [ [ [ 952.230960862332495, 73.949032771985841 ], [ 957.966749434426674, 76.442853890913341 ], [ 963.648553310531952, 76.921076720564272 ], [ 960.959334779346705, 90.657634273831803 ], [ 955.971692540209347, 90.65763427485868 ], [ 950.2359039691421, 87.415666812962073 ], [ 952.230960862332495, 73.949032771985841 ] ] ] } },
{ "type": "Feature", "properties": { "feature_type": "building", "subtype": "no-damage", "uid": "945c53c2-aa8d-4763-9a64-07c1f5449db1" }, "geometry": { "type": "Polygon", "coordinates": [ [ [ 961.974531245655271, 53.583851622286147 ], [ 961.974531243344813, 44.59557075851999 ], [ 964.31930016374622, 36.584276945520372 ], [ 972.916786210181613, 37.952058817209661 ], [ 977.41092664257701, 10.596421398827131 ], [ 978.58331110380459, 10.79181880980194 ], [ 1003.203384777262045, 15.481356651632961 ], [ 998.904641757381683, 40.492225150640309 ], [ 1015.513421614503955, 43.423186300886172 ], [ 1015.122626794607982, 53.779249039422268 ], [ 1012.38706305533799, 62.376735079185032 ], [ 961.974531245655271, 53.583851622286147 ] ] ] } },
{ "type": "Feature", "properties": { "feature_type": "building", "subtype": "no-damage", "uid": "89ab8881-e444-426e-944b-d3caf54aaf7e" }, "geometry": { "type": "Polygon", "coordinates": [ [ [ 875.048211203431379, 3.120162238054375 ], [ 891.429802457899427, 3.426360204784687 ], [ 891.73600042539988, 26.697405724551881 ], [ 889.898812622707965, 28.993890481190519 ], [ 870.16000503368582, 28.750004263038779 ], [ 869.805437358443783, 33.604266834695018 ], [ 860.198417039247033, 33.3834838552783 ], [ 860.386478912766393, 28.427320362737682 ], [ 853.155056539347243, 27.922197591473129 ], [ 853.461254506077466, 2.813964267216531 ], [ 855.298442308512563, 2.813964268243415 ], [ 855.298442308512563, 0.009205398538204 ], [ 875.048211204201493, 0.008843277476121 ], [ 875.048211203431379, 3.120162238054375 ] ] ] } },
{ "type": "Feature", "properties": { "feature_type": "building", "subtype": "no-damage", "uid": "ffa1fada-622f-4220-bbfe-5999ae7ec316" }, "geometry": { "type": "Polygon", "coordinates": [ [ [ 604.29332972510997, 211.475518454600888 ], [ 603.221636840784072, 198.002807890741309 ], [ 605.211923628124623, 187.592077005480604 ], [ 631.391849841065209, 186.520384119870812 ], [ 632.463542723850765, 188.204472942021908 ], [ 632.922839675743262, 212.853409312075513 ], [ 604.29332972510997, 211.475518454600888 ] ] ] } },
{ "type": "Feature", "properties": { "feature_type": "building", "subtype": "no-damage", "uid": "acfbc40b-8ea4-4849-95bc-78aea2286078" }, "geometry": { "type": "Polygon", "coordinates": [ [ [ 565.865484820882102, 233.215574137635912 ], [ 566.171682790693012, 198.309005856444799 ], [ 576.276215713071679, 198.309005859525399 ], [ 576.276215711788154, 195.553224152791302 ], [ 582.553274044647765, 195.706323140264004 ], [ 582.553274042850717, 198.155906877187107 ], [ 596.485281557829126, 198.30900585747159 ], [ 597.710073426803774, 199.839995697284508 ], [ 598.781766312413424, 238.420939586427608 ], [ 583.471867944581732, 238.267840599981696 ], [ 583.16566997990526, 230.306693447536588 ], [ 577.80720554851996, 230.306693448563493 ], [ 577.807205547236322, 233.215574137635912 ], [ 565.865484820882102, 233.215574137635912 ] ] ] } },
{ "type": "Feature", "properties": { "feature_type": "building", "subtype": "no-damage", "uid": "7af55b89-70c8-4d2d-8601-8b5367ff5f7e" }, "geometry": { "type": "Polygon", "coordinates": [ [ [ 209.788232362994194, 961.938777259939457 ], [ 208.008549053483307, 954.226816263095998 ], [ 209.491618476663689, 949.184380219865716 ], [ 223.72908494402219, 948.29453856626526 ], [ 224.915540481128886, 961.642163376432904 ], [ 209.788232362994194, 961.938777259939457 ] ] ] } },
{ "type": "Feature", "properties": { "feature_type": "building", "subtype": "no-damage", "uid": "251810f3-d28c-465b-ad8e-7dc7366f87d9" }, "geometry": { "type": "Polygon", "coordinates": [ [ [ 629.94681413758974, 750.489707371270015 ], [ 628.938036975681484, 750.294533831066701 ], [ 628.006013690865075, 749.410754043648012 ], [ 627.438026652238136, 748.360311093665928 ], [ 626.998372449775388, 747.183342454544913 ], [ 627.03346053134851, 746.341228457766988 ], [ 627.184732591974921, 745.247348716658735 ], [ 627.913904858376213, 743.881113016601375 ], [ 628.7900071652723, 743.173873415948378 ], [ 630.092644408426622, 742.717728336499704 ], [ 631.033502002179489, 742.621891653896796 ], [ 632.015968329870816, 742.656979735983441 ], [ 632.749461708038211, 743.07518687413517 ], [ 633.877447005946124, 743.814969018560987 ], [ 634.310104221455731, 744.686272432738406 ], [ 634.830549159485145, 746.356946632991026 ], [ 635.022887091817552, 747.620560410882717 ], [ 634.556487528039156, 748.583995005347901 ], [ 633.700196317778364, 749.148275104793584 ], [ 633.033522739135378, 749.674596349442481 ], [ 632.296672993238531, 749.990389099517756 ], [ 631.30427259311432, 750.35703251754137 ], [ 629.94681413758974, 750.489707371270015 ] ] ] } },
{ "type": "Feature", "properties": { "feature_type": "building", "subtype": "un-classified", "uid": "e5c640fb-872e-4d56-9f27-85a95970b726" }, "geometry": { "type": "Polygon", "coordinates": [ [ [ 997.594067743940172, 243.245899789711103 ], [ 998.483909397283696, 232.271186056838189 ], [ 1005.009414861639016, 233.457641594972102 ], [ 1003.526345437432042, 244.135741446392188 ], [ 997.594067743940172, 243.245899789711103 ] ] ] } },
{ "type": "Feature", "properties": { "feature_type": "building", "subtype": "un-classified", "uid": "4a122627-326c-440f-baf8-e417bb1411d0" }, "geometry": { "type": "Polygon", "coordinates": [ [ [ 494.463747583313477, 309.635110975308294 ], [ 481.344479460139212, 307.229911817912011 ], [ 482.437751806603785, 294.985261573651883 ], [ 495.994328864102272, 297.171806257339711 ], [ 494.463747583313477, 309.635110975308294 ] ] ] } },
{ "type": "Feature", "properties": { "feature_type": "building", "subtype": "no-damage", "uid": "b84f1a08-4184-42bd-af1c-be5b6b7b07af" }, "geometry": { "type": "Polygon", "coordinates": [ [ [ 8.167981843979859, 205.210031747869493 ], [ 8.006796616975626, 194.571806683950086 ], [ 17.839095537399309, 194.732991916345611 ], [ 18.161465992948099, 206.177143119650509 ], [ 8.167981845006743, 206.3383283417771 ], [ 8.167981843979859, 205.210031747869493 ] ] ] } },
{ "type": "Feature", "properties": { "feature_type": "building", "subtype": "no-damage", "uid": "d94b9b4e-df2a-49a1-ac2d-1efd7ee4671d" }, "geometry": { "type": "Polygon", "coordinates": [ [ [ 1023.375259317625023, 872.229638099999875 ], [ 1020.084462171133964, 874.960862504695115 ], [ 1010.741466982961015, 863.586781404975454 ], [ 995.711431243645848, 874.148428140796113 ], [ 980.275178323151863, 854.650003399006437 ], [ 1007.085512342079028, 836.370230210253339 ], [ 1023.375290364664011, 855.838502067792547 ], [ 1023.375259317625023, 872.229638099999875 ] ] ] } }
]
}
