{
"type": "FeatureCollection",
"name": "midwest-flooding_00000307_post_disaster",
"features": [
{ "type": "Feature", "properties": { "feature_type": "building", "subtype": "no-damage", "uid": "c8e99a24-88de-402b-8a62-1aa528b1044c" }, "geometry": { "type": "Polygon", "coordinates": [ [ [ 82.500351817397203, 356.929411906517089 ], [ 79.009002249564645, 349.198566433015515 ], [ 81.004059143525225, 341.966485191925187 ], [ 92.974400514220164, 339.971428297193995 ], [ 94.221311075223923, 346.704745316141782 ], [ 95.966985859140209, 353.188680226585575 ], [ 82.500351817397203, 356.929411906517089 ] ] ] } },
{ "type": "Feature", "properties": { "feature_type": "building", "subtype": "no-damage", "uid": "bc49c254-918d-4c3a-97aa-891de135729a" }, "geometry": { "type": "Polygon", "coordinates": [ [ [ 7.749295021804605, 439.024996881298193 ], [ 5.311991929594954, 429.682001690299103 ], [ 27.8750600471021, 413.119644269536877 ], [ 23.59176512707192, 406.933839497021211 ], [ 42.668550320232718, 394.176554167666211 ], [ 63.807266150071491, 422.37009241623548 ], [ 42.96161380645939, 437.649510266111918 ], [ 46.120027996117983, 442.839968663296986 ], [ 18.717158938031641, 462.585593441555716 ], [ 8.15551220606446, 453.242598249529692 ], [ 7.749295021804605, 439.024996881298193 ] ] ] } },
{ "type": "Feature", "properties": { "feature_type": "building", "subtype": "no-damage", "uid": "20587be5-8c7d-4935-9a86-d635fd633e5e" }, "geometry": { "type": "Polygon", "coordinates": [ [ [ 633.29910958443611, 311.94362892403268 ], [ 654.402029878318217, 307.644885904151295 ], [ 658.309978078046015, 326.403037273529094 ], [ 637.597852605086587, 330.506382884489426 ], [ 633.29910958443611, 311.94362892403268 ] ] ] } },
{ "type": "Feature", "properties": { "feature_type": "building", "subtype": "no-damage", "uid": "4930bba2-f676-46b8-9fcc-47a4087e2bff" }, "geometry": { "type": "Polygon", "coordinates": [ [ [ 642.464423891559136, 428.897049165664725 ], [ 649.781804538370466, 427.097693268583328 ], [ 652.660773972108245, 437.893828651071715 ], [ 651.941031614251415, 438.613571009698774 ], [ 645.583307446122831, 440.412926904726476 ], [ 642.464423891559136, 428.897049165664725 ] ] ] } },
{ "type": "Feature", "properties": { "feature_type": "building", "subtype": "no-damage", "uid": "afc8ad93-1966-4d49-97e7-43b55c1602e4" }, "geometry": { "type": "Polygon", "coordinates": [ [ [ 582.844594109130185, 478.820596230719389 ], [ 589.488106056600145, 474.326455798836321 ], [ 593.200656845353137, 479.992980690407023 ], [ 586.557144902247501, 484.487121122290091 ], [ 582.844594109130185, 478.820596230719389 ] ] ] } },
{ "type": "Feature", "properties": { "feature_type": "building", "subtype": "no-damage", "uid": "6b384212-a474-4c83-b93a-711effd38e28" }, "geometry": { "type": "Polygon", "coordinates": [ [ [ 569.162529537395244, 500.624809366505701 ], [ 592.105683831676401, 488.405085886533527 ], [ 601.332821972373267, 506.859362164337881 ], [ 578.6390497886498, 518.580321424221324 ], [ 569.162529537395244, 500.624809366505701 ] ] ] } },
{ "type": "Feature", "properties": { "feature_type": "building", "subtype": "no-damage", "uid": "0db00577-5a8d-4195-bcb8-5f9f12f7afdc" }, "geometry": { "type": "Polygon", "coordinates": [ [ [ 585.534661871305843, 516.568943817292848 ], [ 592.577215125098519, 512.741469222895148 ], [ 595.945392766319287, 518.71232958645885 ], [ 588.902839517147527, 522.233606211045526 ], [ 585.534661871305843, 516.568943817292848 ] ] ] } },
{ "type": "Feature", "properties": { "feature_type": "building", "subtype": "no-damage", "uid": "120ff4a0-3df1-443d-9908-aa2c17a6235c" }, "geometry": { "type": "Polygon", "coordinates": [ [ [ 536.911406488361195, 543.622298521363064 ], [ 544.629532948223073, 539.560126701868398 ], [ 574.689604421204876, 521.686570691984116 ], [ 584.845033974303306, 539.966343883817899 ], [ 573.877170057562807, 546.465818797063207 ], [ 566.038237542095544, 556.778083416164691 ], [ 555.59739686599039, 557.839899892675248 ], [ 547.473053225206058, 561.902071713196847 ], [ 536.911406488361195, 543.622298521363064 ] ] ] } },
{ "type": "Feature", "properties": { "feature_type": "building", "subtype": "no-damage", "uid": "0539c122-204e-4555-a2c9-3de9f85a830d" }, "geometry": { "type": "Polygon", "coordinates": [ [ [ 738.651443155043921, 505.034073061062486 ], [ 737.060034200150767, 492.302801405483422 ], [ 738.651443156070854, 479.571529752984986 ], [ 763.159141094235338, 479.889811545350028 ], [ 762.840859303924162, 492.621083200929093 ], [ 763.795704675884508, 503.124382316114293 ], [ 738.651443155043921, 505.034073061062486 ] ] ] } },
{ "type": "Feature", "properties": { "feature_type": "building", "subtype": "no-damage", "uid": "5018a427-6d52-4ecc-8c50-b997315b9520" }, "geometry": { "type": "Polygon", "coordinates": [ [ [ 755.057302336680436, 528.701597815508308 ], [ 768.815932397908909, 507.014152647930302 ], [ 779.536770599278043, 512.35243007314773 ], [ 765.387345719180757, 533.844477828723939 ], [ 755.057302336680436, 528.701597815508308 ] ] ] } },
{ "type": "Feature", "properties": { "feature_type": "building", "subtype": "no-damage", "uid": "fbb42c03-2c87-4d4e-b5d6-26d517065604" }, "geometry": { "type": "Polygon", "coordinates": [ [ [ 637.119284010310025, 951.779201054799159 ], [ 650.087153826573285, 951.779201056852912 ], [ 649.837771718839463, 967.989038327314461 ], [ 637.119284009026387, 967.989038325260708 ], [ 637.119284010310025, 951.779201054799159 ] ] ] } },
{ "type": "Feature", "properties": { "feature_type": "building", "subtype": "no-damage", "uid": "0100ad5b-134c-42aa-b843-116b173a65a7" }, "geometry": { "type": "Polygon", "coordinates": [ [ [ 572.030552803289424, 959.510046521112599 ], [ 581.75645516766906, 959.51004651700498 ], [ 581.507073059165009, 968.487802547403135 ], [ 572.279934915387571, 968.487802544322449 ], [ 572.030552803289424, 959.510046521112599 ] ] ] } },
{ "type": "Feature", "properties": { "feature_type": "building", "subtype": "no-damage", "uid": "9aba5628-c60b-4c7a-9fee-6f0f560f3ebd" }, "geometry": { "type": "Polygon", "coordinates": [ [ [ 156.248268276510203, 977.979523533938391 ], [ 211.900022221030696, 978.791957898864212 ], [ 213.524890948828102, 980.82304380963842 ], [ 212.712456584672708, 1005.60229191574399 ], [ 155.43583390901739, 1005.602291913691033 ], [ 154.217182362912496, 991.790907721247322 ], [ 156.248268276510203, 977.979523533938391 ] ] ] } },
{ "type": "Feature", "properties": { "feature_type": "building", "subtype": "no-damage", "uid": "574b042c-e0b0-4ff3-8a1c-b88bf8c2563f" }, "geometry": { "type": "Polygon", "coordinates": [ [ [ 183.464819472765697, 933.701850690150422 ], [ 196.869986482229308, 935.732936599897698 ], [ 213.118673765081695, 935.326719423082636 ], [ 210.681370675952707, 972.698700168595224 ], [ 197.27620366494881, 975.542220444295367 ], [ 183.871036657282303, 970.667614258847948 ], [ 183.464819472765697, 933.701850690150422 ] ] ] } },
{ "type": "Feature", "properties": { "feature_type": "building", "subtype": "no-damage", "uid": "807b509f-eb44-41eb-99ca-f407677ba4d3" }, "geometry": { "type": "Polygon", "coordinates": [ [ [ 65.552184214633698, 1022.794354996838024 ], [ 55.389196266585138, 1022.982846857607001 ], [ 52.103673957441053, 1022.98276869743097 ], [ 51.870005210133421, 1017.090004440281973 ], [ 65.06000521243827, 1016.760004437826979 ], [ 65.552184214633698, 1022.794354996838024 ] ] ] } },
{ "type": "Feature", "properties": { "feature_type": "building", "subtype": "no-damage", "uid": "0e258aef-16fc-43e5-8fde-f1d56cb996ec" }, "geometry": { "type": "Polygon", "coordinates": [ [ [ 77.823529102966233, 994.937744508303126 ], [ 78.229746284145435, 1016.214136957147957 ], [ 65.06000521243827, 1016.760004437826979 ], [ 51.870005210133421, 1017.090004440281973 ], [ 29.483684434561269, 1017.279689517578049 ], [ 29.483684432764221, 993.719092960400872 ], [ 75.792443190138741, 992.906658597528804 ], [ 77.823529102966233, 994.937744508303126 ] ] ] } },
{ "type": "Feature", "properties": { "feature_type": "building", "subtype": "no-damage", "uid": "b0eeb1ad-3164-4bf6-a18b-32083ace5e79" }, "geometry": { "type": "Polygon", "coordinates": [ [ [ 10.958043105912839, 1005.171654990954039 ], [ 10.958043106939719, 992.702549395289907 ], [ 18.688888574278071, 993.201313618459267 ], [ 26.918498268893192, 992.702549395289907 ], [ 27.417262493089321, 1005.919801326734955 ], [ 19.686417023183761, 1007.166711882605 ], [ 10.958043105912839, 1005.171654990954039 ] ] ] } }
]
}
