{
"type": "FeatureCollection",
"name": "midwest-flooding_00000192_post_disaster",
"features": [
{ "type": "Feature", "properties": { "feature_type": "building", "subtype": "no-damage", "uid": "ecfbab61-9a51-43d6-b671-ab75c0e66eb5" }, "geometry": { "type": "Polygon", "coordinates": [ [ [ 50.424509144452429, 60.286214425384237 ], [ 120.807468123816903, 57.808859776827717 ], [ 123.852486677579506, 166.274050971063502 ], [ 52.9707634732871, 168.502023504973096 ], [ 50.424509144452429, 60.286214425384237 ] ] ] } },
{ "type": "Feature", "properties": { "feature_type": "building", "subtype": "no-damage", "uid": "5b2ac68a-4ef7-4f2c-9e77-27a39f8ad89a" }, "geometry": { "type": "Polygon", "coordinates": [ [ [ 107.408111686930596, 1.367924704436591 ], [ 134.693686738928591, 2.121764730451767 ], [ 136.044272207843505, 12.07467387539317 ], [ 135.224487215243812, 23.76253345470916 ], [ 104.814461295168897, 22.171124490616471 ], [ 103.223052337496398, 11.882325554932811 ], [ 107.408111686930596, 1.367924704436591 ] ] ] } },
{ "type": "Feature", "properties": { "feature_type": "building", "subtype": "no-damage", "uid": "d5c6bb6e-b64c-44d4-90c0-689cc02277a1" }, "geometry": { "type": "Polygon", "coordinates": [ [ [ 324.654402923887005, 45.118390286583029 ], [ 326.881652907649709, 43.26041287848728 ], [ 332.619598918805707, 43.24476290603949 ], [ 334.162735281672781, 62.571674425194658 ], [ 326.201588125462706, 63.184070360603691 ], [ 324.654402923887005, 45.118390286583029 ] ] ] } },
{ "type": "Feature", "properties": { "feature_type": "building", "subtype": "no-damage", "uid": "6719d77e-142e-48e0-8cac-0bfca8fed2e9" }, "geometry": { "type": "Polygon", "coordinates": [ [ [ 264.911557673600782, 108.016034641649398 ], [ 371.148337341595322, 105.023449302868599 ], [ 371.896483677574793, 174.850440633542604 ], [ 267.40537879002261, 176.097351184176887 ], [ 264.911557673600782, 108.016034641649398 ] ] ] } },
{ "type": "Feature", "properties": { "feature_type": "building", "subtype": "no-damage", "uid": "f80b2f23-b0ce-4404-95e1-a3882bda7cfe" }, "geometry": { "type": "Polygon", "coordinates": [ [ [ 273.508745377592504, 206.645974150925213 ], [ 319.39505396567148, 205.149681483589404 ], [ 319.893818190342586, 228.092835776339399 ], [ 315.654322288342314, 234.826152800923609 ], [ 274.00750959943872, 236.322445465177594 ], [ 273.508745377592504, 206.645974150925213 ] ] ] } },
{ "type": "Feature", "properties": { "feature_type": "building", "subtype": "no-damage", "uid": "6121b6d1-5bec-44fa-97a5-f8fe8ea87e7f" }, "geometry": { "type": "Polygon", "coordinates": [ [ [ 206.923721498019205, 208.142266818260993 ], [ 208.91877839387891, 207.394120484593088 ], [ 209.916306843734901, 207.144738372000802 ], [ 211.911363740108186, 206.64597414784339 ], [ 216.400241750334999, 207.892884707723312 ], [ 220.1409734315165, 209.887941606407509 ], [ 222.136030324037506, 214.376819619715093 ], [ 222.884176661814706, 219.115079741505895 ], [ 222.385412438170789, 222.855811422172906 ], [ 219.891591317640007, 225.34963254090539 ], [ 216.649623861643306, 227.095307324942695 ], [ 213.657038519780002, 228.092835770175697 ], [ 210.415071066094697, 228.591599996387714 ], [ 206.17557516229661, 225.34963254090539 ], [ 201.936079262864411, 220.611372413978188 ], [ 201.936079260296196, 216.870640735365811 ], [ 203.182989819919612, 212.132380606384004 ], [ 206.923721498019205, 208.142266818260993 ] ] ] } },
{ "type": "Feature", "properties": { "feature_type": "building", "subtype": "no-damage", "uid": "10c0a1d2-e409-443b-b61a-aa2c4ae9b588" }, "geometry": { "type": "Polygon", "coordinates": [ [ [ 259.659778209441413, 250.137062565589304 ], [ 282.852314619412027, 302.25792394740688 ], [ 269.635062684630611, 308.243094633186786 ], [ 246.691908394443402, 256.870379585037085 ], [ 259.659778209441413, 250.137062565589304 ] ] ] } },
{ "type": "Feature", "properties": { "feature_type": "building", "subtype": "no-damage", "uid": "5e7ca535-06b0-427c-b34d-4fce7eea3e48" }, "geometry": { "type": "Polygon", "coordinates": [ [ [ 142.241128084488508, 252.206954261455394 ], [ 154.211469453225988, 251.957572148863107 ], [ 154.211469452969197, 256.197068054714691 ], [ 159.199111691719509, 255.976089919262392 ], [ 159.697875914079304, 269.414319982045185 ], [ 155.401572057542012, 269.414319982045185 ], [ 155.281615001887388, 298.342644962629606 ], [ 142.241128085515811, 298.342644961602275 ], [ 142.241128084488508, 252.206954261455394 ] ] ] } },
{ "type": "Feature", "properties": { "feature_type": "building", "subtype": "no-damage", "uid": "aae44bf9-25e6-4350-aab6-bd8da7b252df" }, "geometry": { "type": "Polygon", "coordinates": [ [ [ 73.510388739776147, 263.952211418399486 ], [ 73.901183558457745, 314.560140636435221 ], [ 53.970647726081303, 314.36474322349892 ], [ 54.166045139531228, 263.952211415317606 ], [ 73.510388739776147, 263.952211418399486 ] ] ] } },
{ "type": "Feature", "properties": { "feature_type": "building", "subtype": "no-damage", "uid": "0e1ffc2f-83b9-493c-906d-1c0c6853a928" }, "geometry": { "type": "Polygon", "coordinates": [ [ [ 108.118330432788994, 301.335134927447484 ], [ 112.1163415887127, 299.5890279285519 ], [ 113.647331425437898, 299.129730981104217 ], [ 114.5659253259835, 298.823533015454302 ], [ 116.2500141465609, 298.364236062870191 ], [ 117.781003981231507, 298.364236061842973 ], [ 118.852696867940793, 298.976631995197408 ], [ 120.168569545577, 300.360335377262572 ], [ 120.689884672370596, 301.73241370145621 ], [ 120.077488739272795, 303.416502523831014 ], [ 114.806265897055894, 307.389343963072122 ], [ 111.810143619980906, 309.234263903025806 ], [ 110.279153781714797, 309.693560856637077 ], [ 108.901262929612301, 309.846659841516725 ], [ 107.217174108777996, 309.081164918146328 ], [ 105.839283258473301, 307.856373051437288 ], [ 105.686184272052799, 305.406789313910281 ], [ 106.145481222839294, 302.651007605596988 ], [ 108.118330432788994, 301.335134927447484 ] ] ] } },
{ "type": "Feature", "properties": { "feature_type": "building", "subtype": "no-damage", "uid": "c5d7fefc-df49-498f-9022-3f51cc02ffe5" }, "geometry": { "type": "Polygon", "coordinates": [ [ [ 80.068536459774535, 396.521070876450494 ], [ 81.240920916332996, 416.1189216659875 ], [ 35.202572478367067, 418.556461507033987 ], [ 31.88081651032785, 411.100436281362704 ], [ 31.325547917072981, 400.429019075593089 ], [ 44.70160522501255, 398.923949569009096 ], [ 44.115412994421931, 394.039014323676383 ], [ 58.619338055924217, 393.226501038191088 ], [ 59.130089932058198, 397.614277479470502 ], [ 80.068536459774535, 396.521070876450494 ] ] ] } },
{ "type": "Feature", "properties": { "feature_type": "building", "subtype": "no-damage", "uid": "e423e333-5d19-40ce-be39-1bd1854dfd2f" }, "geometry": { "type": "Polygon", "coordinates": [ [ [ 85.977119444616164, 398.554832004668015 ], [ 106.103052683251605, 396.600857903042083 ], [ 108.207907485829693, 418.663434672136475 ], [ 87.341163810663389, 420.243944527270173 ], [ 85.977119444616164, 398.554832004668015 ] ] ] } },
{ "type": "Feature", "properties": { "feature_type": "building", "subtype": "no-damage", "uid": "ba864377-11d4-45d0-895d-979379218c95" }, "geometry": { "type": "Polygon", "coordinates": [ [ [ 163.141144081629392, 423.817411937247698 ], [ 158.16466929762521, 427.168841587023223 ], [ 131.857753165305297, 427.364238996877589 ], [ 131.857753165048507, 388.675551794342311 ], [ 162.490006220030892, 387.040005424206583 ], [ 163.141144081629392, 423.817411937247698 ] ] ] } },
{ "type": "Feature", "properties": { "feature_type": "building", "subtype": "no-damage", "uid": "ef6a3e82-9e2c-4a73-831e-587f4a0830e6" }, "geometry": { "type": "Polygon", "coordinates": [ [ [ 172.246623911408506, 405.046635815628122 ], [ 163.490006221401501, 405.400005426314806 ], [ 162.990006222000289, 387.010005423518407 ], [ 172.119728630833805, 386.52618028491662 ], [ 172.246623911408506, 405.046635815628122 ] ] ] } },
{ "type": "Feature", "properties": { "feature_type": "building", "subtype": "no-damage", "uid": "715f81c8-0c86-4d30-bd22-7a3f9f71cd75" }, "geometry": { "type": "Polygon", "coordinates": [ [ [ 188.543085627937188, 406.964045750997116 ], [ 185.786640179104893, 402.3232457620839 ], [ 187.500700156837809, 396.080384206900987 ], [ 194.575786127068909, 395.48059890859588 ], [ 194.695743189914509, 388.610765912487921 ], [ 209.114372331152197, 387.949133329238521 ], [ 209.549683862331989, 394.23277409886532 ], [ 239.84247674662771, 393.079603992799377 ], [ 239.879255031237392, 404.574526766536508 ], [ 188.543085627937188, 406.964045750997116 ] ] ] } },
{ "type": "Feature", "properties": { "feature_type": "building", "subtype": "no-damage", "uid": "beec47b2-8253-4bee-8814-4accd9dce176" }, "geometry": { "type": "Polygon", "coordinates": [ [ [ 202.236653582215695, 457.437784723661082 ], [ 228.569678778100808, 449.017340624114411 ], [ 233.775044225483214, 457.437784724688413 ], [ 235.612232027858397, 465.552030858585226 ], [ 206.523425126998092, 473.819375975306912 ], [ 202.236653582215695, 457.437784723661082 ] ] ] } },
{ "type": "Feature", "properties": { "feature_type": "building", "subtype": "no-damage", "uid": "aab7527d-bdc1-4095-bbac-ce1dbcd50cb2" }, "geometry": { "type": "Polygon", "coordinates": [ [ [ 181.358708309275187, 441.364444338050021 ], [ 196.795103709863014, 435.893316860072275 ], [ 201.093846731540395, 448.398751105135773 ], [ 185.462053920841413, 453.479083765459279 ], [ 181.358708309275187, 441.364444338050021 ] ] ] } },
{ "type": "Feature", "properties": { "feature_type": "building", "subtype": "no-damage", "uid": "7497dd24-2f26-406c-9d62-02b7e6c19963" }, "geometry": { "type": "Polygon", "coordinates": [ [ [ 108.790671429976697, 454.50457755553839 ], [ 122.029441108274497, 452.550603455967121 ], [ 123.352706265527999, 462.245033613492126 ], [ 110.353850710866894, 464.469845473522014 ], [ 108.399876612322402, 459.389512810116685 ], [ 108.790671429976697, 454.50457755553839 ] ] ] } },
{ "type": "Feature", "properties": { "feature_type": "building", "subtype": "no-damage", "uid": "5071b2bd-8f85-4203-9524-c56c06b40488" }, "geometry": { "type": "Polygon", "coordinates": [ [ [ 66.573026704942023, 431.541221841962624 ], [ 73.615579954956502, 431.388122859137695 ], [ 73.615579954699683, 438.583775090948222 ], [ 76.218262678390914, 446.391823260222282 ], [ 69.022610448376454, 446.085625292517818 ], [ 66.266828737751069, 439.196171025329875 ], [ 66.573026704942023, 431.541221841962624 ] ] ] } },
{ "type": "Feature", "properties": { "feature_type": "building", "subtype": "no-damage", "uid": "c93fd2f4-9dd9-4ca1-8384-c78902611236" }, "geometry": { "type": "Polygon", "coordinates": [ [ [ 44.42767894162516, 488.797095839516885 ], [ 54.919599766351297, 487.395860722743407 ], [ 54.236797611923727, 476.928023235398427 ], [ 69.010064346976023, 475.034022222394185 ], [ 69.845900771832405, 484.881495523760009 ], [ 95.256541526910851, 480.529750722795086 ], [ 100.155709006588694, 489.103293809276011 ], [ 98.415345066628802, 493.961912545919915 ], [ 90.260550186358614, 495.227253158229814 ], [ 91.504140505805154, 502.229317783340491 ], [ 76.425366531569921, 504.260093195240074 ], [ 75.04747567792657, 497.829935879609081 ], [ 46.417965728879942, 502.422905385931188 ], [ 41.97809520255668, 495.227253155147991 ], [ 44.42767894162516, 488.797095839516885 ] ] ] } },
{ "type": "Feature", "properties": { "feature_type": "building", "subtype": "no-damage", "uid": "23b56f10-b230-4949-8576-548eedfbcc1f" }, "geometry": { "type": "Polygon", "coordinates": [ [ [ 5.058868934676841, 602.655498345874207 ], [ 25.57559699892802, 601.09231906395712 ], [ 25.966391814527778, 608.712818059578808 ], [ 5.058868932879097, 610.275997337386798 ], [ 5.058868934676841, 602.655498345874207 ] ] ] } },
{ "type": "Feature", "properties": { "feature_type": "building", "subtype": "no-damage", "uid": "b493c90b-7001-42c3-b528-4497ebb338a8" }, "geometry": { "type": "Polygon", "coordinates": [ [ [ 39.644210525141453, 639.390211448838272 ], [ 60.356335995651577, 645.838325982251718 ], [ 54.299016284000068, 662.83790066321194 ], [ 33.586890811692193, 655.80359389509897 ], [ 39.644210525141453, 639.390211448838272 ] ] ] } },
{ "type": "Feature", "properties": { "feature_type": "building", "subtype": "no-damage", "uid": "7ad76439-7566-43c7-9fd1-69e92b027380" }, "geometry": { "type": "Polygon", "coordinates": [ [ [ 68.367629813038533, 628.838751302318656 ], [ 77.942102907206475, 624.54000828038545 ], [ 75.988128807634737, 619.850470439770788 ], [ 85.171807081323337, 616.333317059309707 ], [ 86.734986362983932, 619.850470440798063 ], [ 94.550882769489149, 616.528714468136855 ], [ 102.366779172398907, 635.091468427932341 ], [ 77.355910679184063, 647.987697492704683 ], [ 71.884783195298141, 639.390211448838272 ], [ 68.367629813038533, 628.838751302318656 ] ] ] } },
{ "type": "Feature", "properties": { "feature_type": "building", "subtype": "no-damage", "uid": "27e19951-c30e-4de7-93ed-062c4ccca11d" }, "geometry": { "type": "Polygon", "coordinates": [ [ [ 183.88576895629069, 547.851692809695351 ], [ 196.298758822489702, 538.303239064175955 ], [ 211.576284809366001, 556.127019387844257 ], [ 199.163294944451195, 566.312036707289622 ], [ 183.88576895629069, 547.851692809695351 ] ] ] } },
{ "type": "Feature", "properties": { "feature_type": "building", "subtype": "no-damage", "uid": "92cf36e6-dab3-4895-b9f3-437223239d32" }, "geometry": { "type": "Polygon", "coordinates": [ [ [ 209.516974432522687, 582.022099495705447 ], [ 177.868338842960299, 607.424794955612356 ], [ 169.244806548990709, 603.232724512751133 ], [ 172.745906256692109, 595.599402221184619 ], [ 201.475598562801508, 572.220652512531387 ], [ 209.516974432522687, 582.022099495705447 ] ] ] } },
{ "type": "Feature", "properties": { "feature_type": "building", "subtype": "no-damage", "uid": "6a0e4a55-2e16-4aee-8842-c56d7f52ccbd" }, "geometry": { "type": "Polygon", "coordinates": [ [ [ 334.004594659879103, 398.658007497341828 ], [ 353.705781498692374, 393.919747371441815 ], [ 358.194659512257886, 414.618462659078887 ], [ 337.495944225900018, 418.857958557739721 ], [ 334.004594659879103, 398.658007497341828 ] ] ] } },
{ "type": "Feature", "properties": { "feature_type": "building", "subtype": "no-damage", "uid": "0d630cdb-0e6d-4196-8470-0da32e877acb" }, "geometry": { "type": "Polygon", "coordinates": [ [ [ 387.14506803317289, 511.076416424051274 ], [ 373.777232791445783, 507.257034923994524 ], [ 380.46115041115371, 484.34074594111712 ], [ 374.732078166717088, 482.749336984215404 ], [ 381.415995786681776, 462.697584127664811 ], [ 386.826786242100695, 464.607274875124972 ], [ 389.05475878166078, 457.923357256959719 ], [ 402.104312229233813, 461.742738752907428 ], [ 387.14506803317289, 511.076416424051274 ] ] ] } },
{ "type": "Feature", "properties": { "feature_type": "building", "subtype": "no-damage", "uid": "c143fd56-3ca0-439d-a4fa-7cfac7465b35" }, "geometry": { "type": "Polygon", "coordinates": [ [ [ 258.071473989072388, 541.127422423751568 ], [ 280.032917594629282, 534.125223017082249 ], [ 287.353398796738418, 562.770584239258369 ], [ 265.073673400879784, 568.817938274252128 ], [ 258.071473989072388, 541.127422423751568 ] ] ] } },
{ "type": "Feature", "properties": { "feature_type": "building", "subtype": "no-damage", "uid": "94d85951-4b03-42c9-a973-0180dd3483a7" }, "geometry": { "type": "Polygon", "coordinates": [ [ [ 107.647962263366495, 820.360051407199876 ], [ 128.640297044549612, 825.636543026776053 ], [ 123.630536113655694, 849.700397693220452 ], [ 102.201023072288905, 844.629050801949234 ], [ 107.647962263366495, 820.360051407199876 ] ] ] } },
{ "type": "Feature", "properties": { "feature_type": "building", "subtype": "no-damage", "uid": "ea965bcb-13e3-49a2-b39a-3ba44c9ef75e" }, "geometry": { "type": "Polygon", "coordinates": [ [ [ 66.258969726122928, 826.600373193639825 ], [ 56.710515982912703, 876.888896236459232 ], [ 42.387835367712142, 872.75123294892569 ], [ 49.708316569821257, 836.785390518221675 ], [ 41.432989992954518, 833.920854392922138 ], [ 43.660962534826091, 820.553019157618792 ], [ 66.258969726122928, 826.600373193639825 ] ] ] } },
{ "type": "Feature", "properties": { "feature_type": "building", "subtype": "no-damage", "uid": "91f4760e-4467-41fa-9938-555a13662b68" }, "geometry": { "type": "Polygon", "coordinates": [ [ [ 93.129700588909884, 893.760041506572065 ], [ 98.854335257726518, 898.387732068406194 ], [ 90.181408862740128, 909.5699011551892 ], [ 84.336817131077879, 904.506899063973265 ], [ 93.129700588909884, 893.760041506572065 ] ] ] } },
{ "type": "Feature", "properties": { "feature_type": "building", "subtype": "no-damage", "uid": "aa84d417-03d7-4763-ae57-c8bef612bcae" }, "geometry": { "type": "Polygon", "coordinates": [ [ [ 16.716487943706309, 903.750781095865477 ], [ 20.819833557327009, 891.049949437865735 ], [ 38.991792697161138, 897.498063975388277 ], [ 34.88844708251316, 910.003498222506437 ], [ 16.716487943706309, 903.750781095865477 ] ] ] } },
{ "type": "Feature", "properties": { "feature_type": "building", "subtype": "no-damage", "uid": "bb8c163e-dc0a-486d-b300-92e8e6682feb" }, "geometry": { "type": "Polygon", "coordinates": [ [ [ 20.429038735563552, 910.58969045206959 ], [ 38.796395285252132, 917.819394625927998 ], [ 32.934472983711878, 936.186751177923611 ], [ 37.037818593737093, 937.359135637050031 ], [ 33.325267801623028, 948.887582834896193 ], [ 28.831127368550259, 947.129006141070136 ], [ 24.92317917069089, 957.875863698471335 ], [ 6.555822619975025, 951.427749163003341 ], [ 12.613142329315149, 932.47420038349901 ], [ 9.877578588271064, 931.301815921290768 ], [ 10.2683734097777, 926.612278079648831 ], [ 13.785526793835061, 922.50893246654266 ], [ 16.521090533081399, 923.681316927723628 ], [ 20.429038735563552, 910.58969045206959 ] ] ] } },
{ "type": "Feature", "properties": { "feature_type": "building", "subtype": "no-damage", "uid": "5fbb7350-efb0-4c1b-b388-d06dc6342023" }, "geometry": { "type": "Polygon", "coordinates": [ [ [ 21.98316861493619, 978.64990849906178 ], [ 39.37353811509572, 978.649908502143717 ], [ 39.373538114582082, 996.821867643257633 ], [ 21.983168613908909, 997.212662460911929 ], [ 19.247604873892101, 989.592163466317402 ], [ 21.98316861493619, 978.64990849906178 ] ] ] } },
{ "type": "Feature", "properties": { "feature_type": "building", "subtype": "no-damage", "uid": "ebf77f05-4ca4-41bc-b5fe-bd39f0c38cf8" }, "geometry": { "type": "Polygon", "coordinates": [ [ [ 4.824191816084512, 1022.981429142720003 ], [ 1.423824551246942, 1016.157818171423969 ], [ 23.503731895874608, 1005.215563204168006 ], [ 31.26571609807127, 1022.982108467375042 ], [ 4.824191816084512, 1022.981429142720003 ] ] ] } },
{ "type": "Feature", "properties": { "feature_type": "building", "subtype": "no-damage", "uid": "3c5d6571-1100-49be-9c2a-02cec19ef256" }, "geometry": { "type": "Polygon", "coordinates": [ [ [ 681.270967417269048, 801.465522106125718 ], [ 728.42041954994545, 822.496268535650984 ], [ 718.828042252978889, 843.084768761163673 ], [ 670.709320684114459, 822.709621628527202 ], [ 681.270967417269048, 801.465522106125718 ] ] ] } },
{ "type": "Feature", "properties": { "feature_type": "building", "subtype": "no-damage", "uid": "2a6b7da2-958a-4898-9f9a-e285f0de9248" }, "geometry": { "type": "Polygon", "coordinates": [ [ [ 715.297808935388616, 880.570846614214361 ], [ 731.56890090426873, 896.157063721495433 ], [ 700.66643720568652, 932.113315475885656 ], [ 689.96066020329647, 926.895412235510548 ], [ 684.29908058939759, 918.88046549292585 ], [ 715.297808935388616, 880.570846614214361 ] ] ] } },
{ "type": "Feature", "properties": { "feature_type": "building", "subtype": "no-damage", "uid": "6f6ba933-7d1f-42bd-9c39-0c72d1f1ea9f" }, "geometry": { "type": "Polygon", "coordinates": [ [ [ 699.46095291692518, 769.662539921379221 ], [ 716.069732781005655, 772.984295895067703 ], [ 711.57559234562143, 786.662114602339443 ], [ 698.483965865598407, 783.340358633787446 ], [ 697.116183996617337, 776.501449275528785 ], [ 699.46095291692518, 769.662539921379221 ] ] ] } },
{ "type": "Feature", "properties": { "feature_type": "building", "subtype": "no-damage", "uid": "8e079d6f-e05e-493b-b0b8-d9284d214774" }, "geometry": { "type": "Polygon", "coordinates": [ [ [ 557.249563735074958, 891.257341656519088 ], [ 582.246235609583778, 876.852174808614109 ], [ 601.736711090300332, 909.910064576974946 ], [ 583.526238567221185, 920.573941791993775 ], [ 575.795393098943123, 907.356689862608846 ], [ 568.866375079063232, 911.106889532231548 ], [ 557.249563735074958, 891.257341656519088 ] ] ] } },
{ "type": "Feature", "properties": { "feature_type": "building", "subtype": "no-damage", "uid": "48fc3ae7-d22b-4048-855e-d0305e20367f" }, "geometry": { "type": "Polygon", "coordinates": [ [ [ 683.843719563530271, 1022.987343633070054 ], [ 685.445101925594145, 1021.55753782862098 ], [ 675.284436602376445, 1004.753360555459949 ], [ 692.284011283083942, 992.638721133187573 ], [ 710.247218621154161, 1022.987088940898957 ], [ 683.843719563530271, 1022.987343633070054 ] ] ] } },
{ "type": "Feature", "properties": { "feature_type": "building", "subtype": "no-damage", "uid": "ccae0450-8043-4a12-ad1a-a915763912fb" }, "geometry": { "type": "Polygon", "coordinates": [ [ [ 671.936476922327756, 1021.186960968991002 ], [ 667.955903347304456, 1015.216100609025943 ], [ 676.376347448907836, 1010.010735161131038 ], [ 679.897624073401403, 1016.134694510084955 ], [ 671.936476922327756, 1021.186960968991002 ] ] ] } },
{ "type": "Feature", "properties": { "feature_type": "building", "subtype": "no-damage", "uid": "5ecc0727-8d67-491a-a8bb-1d862b3bb885" }, "geometry": { "type": "Polygon", "coordinates": [ [ [ 823.63250214310915, 985.119601297844497 ], [ 835.452568652726882, 979.693631166724685 ], [ 841.41366646426161, 992.74010029243891 ], [ 829.299027036078996, 998.211227775553084 ], [ 823.63250214310915, 985.119601297844497 ] ] ] } },
{ "type": "Feature", "properties": { "feature_type": "building", "subtype": "no-damage", "uid": "272908a4-36a0-4434-ad00-14f73cabb920" }, "geometry": { "type": "Polygon", "coordinates": [ [ [ 835.207067931745769, 979.542442854925525 ], [ 823.387001419303033, 984.968412990154548 ], [ 825.757302618038125, 990.634937879014046 ], [ 808.146003432422049, 999.232423922880457 ], [ 804.042657818287694, 994.738283488011007 ], [ 801.697888898493375, 986.140797447226419 ], [ 831.00750041672427, 971.290594276719162 ], [ 835.207067931745769, 979.542442854925525 ] ] ] } },
{ "type": "Feature", "properties": { "feature_type": "building", "subtype": "no-damage", "uid": "40bf169d-9aa0-4177-9102-2a21d71440ff" }, "geometry": { "type": "Polygon", "coordinates": [ [ [ 783.743562628298378, 1022.986188936377971 ], [ 798.69000625910121, 1011.800005460558964 ], [ 806.10790537558978, 1022.985859281326043 ], [ 783.743562628298378, 1022.986188936377971 ] ] ] } },
{ "type": "Feature", "properties": { "feature_type": "building", "subtype": "no-damage", "uid": "d7fc8a60-dad0-4dd9-b10a-8e9ec6037c31" }, "geometry": { "type": "Polygon", "coordinates": [ [ [ 817.84047585801386, 1018.972688253915976 ], [ 812.048414652751148, 1022.985767343624047 ], [ 806.714780166464834, 1022.985849974144003 ], [ 799.100006259776137, 1011.500005460866987 ], [ 807.621417385555901, 1005.125675841607972 ], [ 817.84047585801386, 1018.972688253915976 ] ] ] } },
{ "type": "Feature", "properties": { "feature_type": "building", "subtype": "no-damage", "uid": "ddc8b372-7ceb-44e9-be07-911e72c81e9a" }, "geometry": { "type": "Polygon", "coordinates": [ [ [ 259.675554850738592, 227.68701676069449 ], [ 273.21004215807659, 233.420375969276705 ], [ 270.484346797422972, 240.187619619733908 ], [ 256.479912015571472, 234.360270917276296 ], [ 259.675554850738592, 227.68701676069449 ] ] ] } },
{ "type": "Feature", "properties": { "feature_type": "building", "subtype": "no-damage", "uid": "34234529-d7ca-4dae-b577-bd8c5a975104" }, "geometry": { "type": "Polygon", "coordinates": [ [ [ 153.160453092028405, 299.959385919416377 ], [ 152.904392166794992, 306.232878641952311 ], [ 152.136209383389996, 306.232878641952311 ], [ 152.008178920901713, 314.554858782791825 ], [ 141.637711358931, 314.298797856787928 ], [ 141.765741822446614, 306.745000496014484 ], [ 140.613467648237986, 305.464695858804191 ], [ 140.613467649778897, 300.727568702564383 ], [ 141.637711357390089, 299.831355452819025 ], [ 153.160453092028405, 299.959385919416377 ] ] ] } }
]
}
