{
"type": "FeatureCollection",
"name": "midwest-flooding_00000055_post_disaster",
"features": [
{ "type": "Feature", "properties": { "feature_type": "building", "subtype": "no-damage", "uid": "0390cbec-2a6f-4eab-8e78-d3913eec80c8" }, "geometry": { "type": "Polygon", "coordinates": [ [ [ 0.006771632907283, 844.008983864318679 ], [ 19.4220072475606, 844.00898386227766 ], [ 19.42200736645345, 1022.976657071351042 ], [ 0.006671428685675, 1022.976174410258977 ], [ 0.006771632907283, 844.008983864318679 ] ] ] } },
{ "type": "Feature", "properties": { "feature_type": "building", "subtype": "no-damage", "uid": "5626917f-1ace-4186-bed6-329349c5d76c" }, "geometry": { "type": "Polygon", "coordinates": [ [ [ 83.355021838281829, 1012.905367863501965 ], [ 80.947515020096589, 1009.403539766270001 ], [ 83.136157581248185, 962.78545325382504 ], [ 88.388899721480541, 958.627032390594422 ], [ 127.127873023808803, 959.502489417708944 ], [ 130.629701117211994, 964.3175030438764 ], [ 129.097651325120211, 1012.686503606469046 ], [ 83.355021838281829, 1012.905367863501965 ] ] ] } },
{ "type": "Feature", "properties": { "feature_type": "building", "subtype": "no-damage", "uid": "2a29b509-f06a-41c1-9e2b-7075cf0e1b58" }, "geometry": { "type": "Polygon", "coordinates": [ [ [ 134.918891864053307, 841.438122672348641 ], [ 134.521779851075792, 877.603261332477132 ], [ 68.238583237293071, 876.335184895273756 ], [ 68.420000007173371, 865.170000001923881 ], [ 99.348793121789527, 865.938307242190604 ], [ 99.447835194608714, 840.661280504147612 ], [ 134.918891864053307, 841.438122672348641 ] ] ] } },
{ "type": "Feature", "properties": { "feature_type": "building", "subtype": "no-damage", "uid": "92b6de53-0e2b-40bf-8e73-d3df3ce0b16c" }, "geometry": { "type": "Polygon", "coordinates": [ [ [ 99.584112422920001, 829.434236719690261 ], [ 99.447835194608714, 840.661280504147612 ], [ 99.348793121789527, 865.938307242190604 ], [ 68.420000007173371, 865.170000001923881 ], [ 68.938061790543557, 834.122965525132713 ], [ 70.720595840670427, 828.775363364288864 ], [ 99.584112422920001, 829.434236719690261 ] ] ] } },
{ "type": "Feature", "properties": { "feature_type": "building", "subtype": "no-damage", "uid": "15b14672-9780-476d-b180-4143c51822cf" }, "geometry": { "type": "Polygon", "coordinates": [ [ [ 65.878865249057384, 819.30285196398188 ], [ 66.97318652937804, 785.816620804165154 ], [ 102.648060245481702, 786.692077827197522 ], [ 108.557395156559906, 792.382548482520633 ], [ 128.207799805301988, 792.38254848558222 ], [ 128.255178192126408, 819.521716219995028 ], [ 65.878865249057384, 819.30285196398188 ] ] ] } },
{ "type": "Feature", "properties": { "feature_type": "building", "subtype": "no-damage", "uid": "a60e4976-5b87-440b-bbfd-d79e0aa243a7" }, "geometry": { "type": "Polygon", "coordinates": [ [ [ 66.925333685833579, 641.817333551625552 ], [ 140.735778521265587, 645.675703133498359 ], [ 140.537222518221199, 664.845860496018304 ], [ 64.244765073288548, 663.419833253875026 ], [ 64.601271883824182, 644.88147910907378 ], [ 66.925333685833579, 641.817333551625552 ] ] ] } },
{ "type": "Feature", "properties": { "feature_type": "building", "subtype": "no-damage", "uid": "4e8f4927-8d2b-4643-9a5d-3544e60a3870" }, "geometry": { "type": "Polygon", "coordinates": [ [ [ 69.931172128886615, 580.820506572335034 ], [ 70.141229524521933, 562.109535852632575 ], [ 77.870753502392972, 562.412900698161252 ], [ 78.746210526190254, 554.314923227713393 ], [ 114.993176420817804, 554.603062503690353 ], [ 114.858812757381799, 558.692208347977726 ], [ 129.269216135335114, 558.911072602970307 ], [ 128.647260879318708, 580.14090542808799 ], [ 69.931172128886615, 580.820506572335034 ] ] ] } },
{ "type": "Feature", "properties": { "feature_type": "building", "subtype": "no-damage", "uid": "44105a3f-568d-4635-a3b4-0fabdd8b6553" }, "geometry": { "type": "Polygon", "coordinates": [ [ [ 81.705527363594769, 490.613730553580183 ], [ 81.318605781645985, 478.295810462995803 ], [ 86.424425144276199, 477.220901118767415 ], [ 85.616181162846033, 457.093840811288487 ], [ 111.594095715838904, 457.373173225356823 ], [ 111.314763299984705, 454.300516665502187 ], [ 163.270592404184498, 454.859181494659481 ], [ 163.270592405970405, 483.909752608795827 ], [ 115.225417104083505, 483.351087777597513 ], [ 115.225417104338703, 490.893062969689709 ], [ 81.705527363594769, 490.613730553580183 ] ] ] } },
{ "type": "Feature", "properties": { "feature_type": "building", "subtype": "no-damage", "uid": "1f459435-a374-4c19-9847-aa282a2e899c" }, "geometry": { "type": "Polygon", "coordinates": [ [ [ 11.477948080214, 437.190400724919527 ], [ 3.920000004036198, 448.560000002512993 ], [ 0.006841841432072, 444.705506213285673 ], [ 0.006840169022975, 428.041061554827479 ], [ 0.728854688962889, 426.71003466155571 ], [ 11.477948080214, 437.190400724919527 ] ] ] } },
{ "type": "Feature", "properties": { "feature_type": "building", "subtype": "no-damage", "uid": "8ffda8b8-3853-4bf1-b1d3-388b21385f3d" }, "geometry": { "type": "Polygon", "coordinates": [ [ [ 3.920000004036198, 448.560000002512993 ], [ 0.006843028319504, 459.636658638292374 ], [ 0.006841841432072, 444.705506213285673 ], [ 3.920000004036198, 448.560000002512993 ] ] ] } },
{ "type": "Feature", "properties": { "feature_type": "building", "subtype": "no-damage", "uid": "66fc9ee2-fc5e-4978-acc4-de01d3ff0a27" }, "geometry": { "type": "Polygon", "coordinates": [ [ [ 0.006821856972557, 325.928999657772124 ], [ 1.635073691354707, 325.928999657772124 ], [ 2.922143944261584, 317.103375070342508 ], [ 56.979094544663937, 329.054741699089618 ], [ 62.862844269869129, 300.923063325190924 ], [ 77.572218585816145, 299.819860253165416 ], [ 86.581710350806446, 305.703609980159513 ], [ 75.549679616014828, 357.554154433731924 ], [ 73.527140650295678, 357.370287252849778 ], [ 71.897033229417801, 366.273266091779817 ], [ 0.006827657208774, 351.097719493734019 ], [ 0.006821856972557, 325.928999657772124 ] ] ] } },
{ "type": "Feature", "properties": { "feature_type": "building", "subtype": "no-damage", "uid": "30ae43d7-b13a-45b9-90cc-0dec142641f8" }, "geometry": { "type": "Polygon", "coordinates": [ [ [ 151.256485763293398, 327.196461385257521 ], [ 151.256485762528001, 360.284408332523924 ], [ 147.971157697675892, 364.508401561680216 ], [ 114.648544458075094, 363.100403818287873 ], [ 116.291208493562706, 330.951122033283013 ], [ 121.923199461005694, 325.553797352320373 ], [ 151.256485763293398, 327.196461385257521 ] ] ] } },
{ "type": "Feature", "properties": { "feature_type": "building", "subtype": "no-damage", "uid": "1d0708d5-ccd6-460e-b1db-918be885569f" }, "geometry": { "type": "Polygon", "coordinates": [ [ [ 44.064609052938273, 140.482319807055603 ], [ 86.304541326364941, 149.164972548789706 ], [ 89.824535681271939, 134.85032883450711 ], [ 123.616481502768707, 141.655651257841413 ], [ 112.3153612179606, 195.703174737206012 ], [ 77.53128703704067, 188.807250770869501 ], [ 79.968551483399153, 178.263592561547512 ], [ 36.555287760207811, 169.111607235620909 ], [ 44.064609052938273, 140.482319807055603 ] ] ] } },
{ "type": "Feature", "properties": { "feature_type": "building", "subtype": "no-damage", "uid": "43594010-51b8-4c96-aa4b-8854678f4640" }, "geometry": { "type": "Polygon", "coordinates": [ [ [ 85.906626455477422, 190.365031211942096 ], [ 105.227949452053494, 194.221485239142794 ], [ 104.202849177347602, 199.873304433753106 ], [ 84.754108489004594, 195.839491553009708 ], [ 85.906626455477422, 190.365031211942096 ] ] ] } },
{ "type": "Feature", "properties": { "feature_type": "building", "subtype": "no-damage", "uid": "f0f806aa-3100-4145-bb5e-376588d3bb1b" }, "geometry": { "type": "Polygon", "coordinates": [ [ [ 97.539679269784358, 136.415161680078114 ], [ 98.462719556771106, 133.374558377745103 ], [ 116.639672710950094, 137.266719533697312 ], [ 115.808039447661997, 140.082582477914912 ], [ 97.539679269784358, 136.415161680078114 ] ] ] } },
{ "type": "Feature", "properties": { "feature_type": "building", "subtype": "no-damage", "uid": "cc48912f-b63c-43de-aeca-b03c59025ae0" }, "geometry": { "type": "Polygon", "coordinates": [ [ [ 0.006698656424251, 42.826302621798909 ], [ 23.423120437592111, 61.405339986735072 ], [ 0.006727581320007, 91.794270577554443 ], [ 0.006698656424251, 42.826302621798909 ] ] ] } },
{ "type": "Feature", "properties": { "feature_type": "building", "subtype": "no-damage", "uid": "8674cb71-d223-4f05-ac42-6f761e2bf308" }, "geometry": { "type": "Polygon", "coordinates": [ [ [ 93.641442335781221, 0.002330380504182 ], [ 103.567104123025601, 7.308543463461294 ], [ 105.773510269371599, 5.837606031712765 ], [ 130.963313783587495, 26.24686288918684 ], [ 110.002455384753503, 54.562408447029263 ], [ 61.829254509046052, 17.60510548468045 ], [ 75.801609840230455, 0.001953113587121 ], [ 93.641442335781221, 0.002330380504182 ] ] ] } },
{ "type": "Feature", "properties": { "feature_type": "building", "subtype": "no-damage", "uid": "e0c768d1-4e06-4f59-8aa8-9d6c0d2a19b4" }, "geometry": { "type": "Polygon", "coordinates": [ [ [ 404.43119358256132, 74.068522224731012 ], [ 405.339504837364075, 79.25476960687017 ], [ 432.091708870108391, 79.367648106444562 ], [ 432.147381075267788, 73.807978760207092 ], [ 452.398744910482719, 73.773970507223424 ], [ 452.4898575468074, 86.8472168777852 ], [ 476.895151748755382, 86.8472168777852 ], [ 474.313822555599188, 210.516351918993593 ], [ 455.540519321604393, 227.64699112006079 ], [ 433.93340201646248, 228.116323699150513 ], [ 432.264010101622375, 230.341198811772188 ], [ 413.065920757357276, 229.054988862432509 ], [ 413.29167775523041, 226.515263807921002 ], [ 388.42596026433381, 227.4301434164108 ], [ 387.781384127384172, 229.533230734979895 ], [ 363.141423636146612, 225.805297973450593 ], [ 363.168151519325988, 222.353635645214894 ], [ 336.095377505275621, 220.841668697746996 ], [ 339.833713293812707, 98.580531396869247 ], [ 355.104576351554897, 85.038445287170987 ], [ 376.426158736787613, 85.470639524757971 ], [ 388.492125618049386, 73.928812800910862 ], [ 404.43119358256132, 74.068522224731012 ] ] ] } },
{ "type": "Feature", "properties": { "feature_type": "building", "subtype": "no-damage", "uid": "55143f74-3968-47fe-ba4d-269b8487b30f" }, "geometry": { "type": "Polygon", "coordinates": [ [ [ 426.695089006890896, 342.672464919925176 ], [ 426.700000004183323, 342.360000003326775 ], [ 466.290011112849299, 342.57835881062141 ], [ 469.052868784138923, 351.787884385163295 ], [ 469.300000003280275, 351.710000002176002 ], [ 468.77715742814911, 432.76801244123692 ], [ 456.105177747320226, 445.43999212258251 ], [ 420.670567899520677, 444.501326961341476 ], [ 419.497236443377574, 452.714647127047613 ], [ 407.294589344444717, 452.949313417612984 ], [ 382.889295139945318, 452.949313417612984 ], [ 382.889295144027528, 438.400003411744422 ], [ 367.401319975394927, 438.400003411744422 ], [ 366.697321104209379, 420.565365341022073 ], [ 366.550000004429592, 420.560000002608376 ], [ 368.243963819643, 365.418787098979919 ], [ 368.574651428986726, 365.418787097959296 ], [ 368.967181566362513, 353.701780568333675 ], [ 380.465829797426693, 344.549795243427695 ], [ 394.076474638985815, 345.723126694213477 ], [ 394.311140928785676, 341.968466051290704 ], [ 426.695089006890896, 342.672464919925176 ] ] ] } },
{ "type": "Feature", "properties": { "feature_type": "building", "subtype": "no-damage", "uid": "cc2abf21-059d-4db0-a07a-5dbc01c179ed" }, "geometry": { "type": "Polygon", "coordinates": [ [ [ 475.271011120731998, 248.101949890453994 ], [ 475.271011123028188, 257.253935213318925 ], [ 494.982979516732712, 258.192600374559788 ], [ 500.849636773975476, 251.38727795326659 ], [ 526.193596140735963, 251.152611664742295 ], [ 529.989537326833442, 254.092661975073895 ], [ 528.581539584717575, 314.167232320009703 ], [ 547.589509108767402, 313.932566028423821 ], [ 548.058841689642804, 326.369879420224493 ], [ 532.499849137284514, 342.361066204819792 ], [ 523.708366955821248, 342.395824750275494 ], [ 517.084921333254783, 349.420238753774925 ], [ 492.670710305757325, 350.331234902305994 ], [ 469.052868784138923, 351.787884385163295 ], [ 466.290011112849299, 342.57835881062141 ], [ 426.695089006890896, 342.672464919925176 ], [ 426.929755295925418, 270.629913766360573 ], [ 432.092413687340525, 267.813918282637587 ], [ 443.591061914322609, 257.253935213318925 ], [ 456.497707890564186, 257.48860150184322 ], [ 465.649693213169314, 247.632617305241013 ], [ 475.271011120731998, 248.101949890453994 ] ] ] } },
{ "type": "Feature", "properties": { "feature_type": "building", "subtype": "no-damage", "uid": "8c748138-5dfb-42ec-b215-6c6b1fa712d3" }, "geometry": { "type": "Polygon", "coordinates": [ [ [ 368.243963819643, 365.418787098979919 ], [ 366.697321104209379, 420.565365341022073 ], [ 289.492111560031617, 418.688035018540177 ], [ 292.777439626924718, 364.949454516828609 ], [ 368.243963819643, 365.418787098979919 ] ] ] } },
{ "type": "Feature", "properties": { "feature_type": "building", "subtype": "no-damage", "uid": "e477ceb3-6c3d-46b4-8d92-99116267522c" }, "geometry": { "type": "Polygon", "coordinates": [ [ [ 498.229003029939292, 358.495378650823227 ], [ 577.405322610582402, 357.34863867306052 ], [ 574.296088273201235, 446.928364466361813 ], [ 494.788783094101518, 447.692857783169416 ], [ 493.259796455129276, 373.537005833418618 ], [ 498.229003029939292, 358.495378650823227 ] ] ] } },
{ "type": "Feature", "properties": { "feature_type": "building", "subtype": "no-damage", "uid": "fd19e784-3e5d-4a77-aafe-148c72ea6106" }, "geometry": { "type": "Polygon", "coordinates": [ [ [ 739.470508635558986, 0.005369542015872 ], [ 733.164523934761291, 7.360336100999677 ], [ 733.678981549216246, 14.80499331331611 ], [ 751.767072986328685, 28.962665236401239 ], [ 749.544634422466743, 85.620863986430876 ], [ 744.99460373315253, 92.445910026528864 ], [ 617.593744376480572, 90.170894678808992 ], [ 617.138741310814908, 42.850575493384667 ], [ 627.432326025415932, 26.978044854938549 ], [ 644.953383069319329, 12.08185266052557 ], [ 645.42901943233403, 5.057809695590694 ], [ 635.668893920320897, 0.006274919751585 ], [ 739.470508635558986, 0.005369542015872 ] ] ] } },
{ "type": "Feature", "properties": { "feature_type": "building", "subtype": "no-damage", "uid": "2f3a58d0-c792-4355-a1d8-94f309e7e353" }, "geometry": { "type": "Polygon", "coordinates": [ [ [ 703.652933709863078, 349.177224411364591 ], [ 703.434069457932083, 354.64883080863342 ], [ 740.203264452060239, 354.867695068728779 ], [ 739.860249889804436, 408.761737121369777 ], [ 745.720887606843576, 409.599734358472176 ], [ 745.720887607098803, 428.035673717600105 ], [ 739.854906901715935, 434.739651669528314 ], [ 738.178912412714226, 469.656203485223386 ], [ 730.916269635714571, 477.756843506472876 ], [ 696.279050232829718, 476.91884626222668 ], [ 685.385086070136822, 487.812810429262527 ], [ 664.993819806162378, 486.136815943831778 ], [ 672.535795000036615, 476.639513848158288 ], [ 631.473930061591432, 476.360181434090009 ], [ 630.915265234730668, 446.192280664700775 ], [ 621.628313239967042, 445.741462376340792 ], [ 620.730000003931877, 435.559999997673287 ], [ 626.18046993960786, 429.529574613653892 ], [ 625.900066214715707, 417.752618056936114 ], [ 633.726286737544342, 413.000984167590502 ], [ 634.284622714688112, 362.192410486795495 ], [ 643.653019006424302, 353.675686581779985 ], [ 677.904631224058562, 354.218730765033797 ], [ 685.268336211395763, 348.301767385270693 ], [ 703.652933709863078, 349.177224411364591 ] ] ] } },
{ "type": "Feature", "properties": { "feature_type": "building", "subtype": "no-damage", "uid": "c7af15d4-06ab-49ad-8c67-c7cf6d96ddd2" }, "geometry": { "type": "Polygon", "coordinates": [ [ [ 679.674679187274137, 326.638007244437688 ], [ 677.904631224058562, 354.218730765033797 ], [ 643.653019006424302, 353.675686581779985 ], [ 634.284622714688112, 362.192410486795495 ], [ 633.726286737544342, 413.000984167590502 ], [ 625.900066214715707, 417.752618056936114 ], [ 626.18046993960786, 429.529574613653892 ], [ 620.730000003931877, 435.559999997673287 ], [ 596.71295207098558, 434.18098683833 ], [ 599.785608632114304, 331.386658292784716 ], [ 604.534259681479398, 324.403347927808682 ], [ 679.674679187274137, 326.638007244437688 ] ] ] } },
{ "type": "Feature", "properties": { "feature_type": "building", "subtype": "no-damage", "uid": "585a9538-1ae0-4200-8959-d06b7309c49a" }, "geometry": { "type": "Polygon", "coordinates": [ [ [ 846.336678140243521, 436.767313916491901 ], [ 954.110087539665983, 439.131156392133391 ], [ 952.154760640933318, 472.651046139527807 ], [ 963.886722049402692, 499.746290349062406 ], [ 953.830755124577195, 500.584287591267525 ], [ 947.685442004615879, 510.081589685920278 ], [ 902.712923264112874, 508.405595196407489 ], [ 902.154258435976431, 536.618169063235996 ], [ 895.170948074065564, 536.618169064256563 ], [ 894.612283246184347, 507.846930368270819 ], [ 850.667844573289472, 506.803237443260912 ], [ 849.757838437365649, 488.148111612164598 ], [ 836.56274943508879, 486.328099335213381 ], [ 835.19774022482477, 445.832826183763814 ], [ 846.336678140243521, 436.767313916491901 ] ] ] } },
{ "type": "Feature", "properties": { "feature_type": "building", "subtype": "no-damage", "uid": "bfaf3609-c132-45fc-85b1-0ebfde16f372" }, "geometry": { "type": "Polygon", "coordinates": [ [ [ 1022.982905750217014, 892.639374002359887 ], [ 928.453645963775784, 891.119356086176026 ], [ 928.414843370348876, 809.251392364087678 ], [ 919.891972549048432, 809.513940538634415 ], [ 919.065801229718204, 813.254322546109506 ], [ 857.043443122347867, 813.740243110893744 ], [ 858.191272668130409, 785.8812726659188 ], [ 931.955389785620014, 788.349257194410029 ], [ 938.480637280707583, 777.473844702506881 ], [ 939.185491676274523, 762.319475171531508 ], [ 1022.982961069326052, 761.48469041824535 ], [ 1022.982905750217014, 892.639374002359887 ] ] ] } },
{ "type": "Feature", "properties": { "feature_type": "building", "subtype": "no-damage", "uid": "b16a4f1d-f11b-4ba5-b6f0-c7609d9bd8fd" }, "geometry": { "type": "Polygon", "coordinates": [ [ [ 969.604508242097836, 533.505372563364176 ], [ 969.385643985064235, 550.79564877718235 ], [ 969.606909000281235, 550.796908997520745 ], [ 968.503911840469073, 609.606083363461153 ], [ 1022.982996155217961, 611.105586978476708 ], [ 1022.982961069326052, 761.48469041824535 ], [ 939.185491676274523, 762.319475171531508 ], [ 938.480637280707583, 777.473844702506881 ], [ 931.955389785620014, 788.349257194410029 ], [ 858.191272668130409, 785.8812726659188 ], [ 864.78000000322811, 633.580000001808344 ], [ 871.27366239032483, 608.830440254666655 ], [ 942.789332224749387, 609.286037887662587 ], [ 943.036909001483764, 546.796908998700701 ], [ 943.778526043011993, 532.629915538290788 ], [ 969.604508242097836, 533.505372563364176 ] ] ] } },
{ "type": "Feature", "properties": { "feature_type": "building", "subtype": "no-damage", "uid": "4fd719f8-bbea-4464-b15f-384de51cb85a" }, "geometry": { "type": "Polygon", "coordinates": [ [ [ 1008.868468710335947, 551.357493648225727 ], [ 1008.965436799422037, 570.896522814803348 ], [ 1022.983000378976044, 571.304641926660224 ], [ 1022.982996155217961, 611.105586978476708 ], [ 968.503911840469073, 609.606083363461153 ], [ 969.385643985064235, 550.79564877718235 ], [ 1008.868468710335947, 551.357493648225727 ] ] ] } },
{ "type": "Feature", "properties": { "feature_type": "building", "subtype": "no-damage", "uid": "193a3373-8d2d-4474-950d-8a095ff83fe5" }, "geometry": { "type": "Polygon", "coordinates": [ [ [ 742.388773074962728, 551.198739780757705 ], [ 743.483094354517903, 548.572368709619582 ], [ 943.029663327215872, 549.666689988665212 ], [ 942.789332224749387, 609.286037887662587 ], [ 871.27366239032483, 608.830440254666655 ], [ 864.78000000322811, 633.580000001808344 ], [ 864.785278409791431, 633.404183179359507 ], [ 841.120228152007257, 633.232697308129559 ], [ 841.291714026808904, 650.381284451534043 ], [ 813.853974594824194, 649.352369221092886 ], [ 812.116750356902685, 706.404909358931604 ], [ 807.958329493419114, 710.563330222162222 ], [ 752.585672741493795, 708.593551920084337 ], [ 753.461129767076955, 704.653995312866982 ], [ 744.049966761064866, 704.435131058894854 ], [ 725.665369263873231, 722.600864294724715 ], [ 695.243237687746728, 690.646682933123884 ], [ 710.344871349334198, 675.326185018322008 ], [ 687.145260222150455, 652.783166656104527 ], [ 683.643432123899743, 639.651311301434816 ], [ 702.555478496140836, 621.235301680493876 ], [ 695.332958051790456, 614.012781233078272 ], [ 726.411682395190837, 585.122699450559708 ], [ 727.287139416436844, 566.956966207585992 ], [ 711.310048733348253, 550.542147012718033 ], [ 727.287139415926504, 535.659377610963134 ], [ 742.388773074962728, 551.198739780757705 ] ] ] } },
{ "type": "Feature", "properties": { "feature_type": "building", "subtype": "no-damage", "uid": "75d4703b-320d-4eba-89f0-7086fac6028f" }, "geometry": { "type": "Polygon", "coordinates": [ [ [ 736.363281251346393, 545.129168111123022 ], [ 751.694286468559085, 531.231324902418805 ], [ 796.387472794483529, 531.510657314446121 ], [ 803.650115571738297, 539.331964921627218 ], [ 883.259853715381269, 540.169962166893924 ], [ 886.332510273448406, 536.817973191950387 ], [ 943.036990425482486, 536.81797319092982 ], [ 943.029663327215872, 549.666689988665212 ], [ 743.483094354517903, 548.572368709619582 ], [ 742.388773074962728, 551.198739780757705 ], [ 736.363281251346393, 545.129168111123022 ] ] ] } },
{ "type": "Feature", "properties": { "feature_type": "building", "subtype": "no-damage", "uid": "d1ba5914-aa43-4736-b36e-aca9fa311aa7" }, "geometry": { "type": "Polygon", "coordinates": [ [ [ 969.790317735432041, 537.846544262796328 ], [ 980.079470020704207, 537.50357252339802 ], [ 983.337701575857295, 539.732888849387223 ], [ 985.052560288666086, 542.648148663357802 ], [ 985.39553203546302, 546.42083783449857 ], [ 985.395532033422, 550.867540862502324 ], [ 969.385643985064235, 550.79564877718235 ], [ 969.790317735432041, 537.846544262796328 ] ] ] } },
{ "type": "Feature", "properties": { "feature_type": "building", "subtype": "no-damage", "uid": "97fa727d-3f0a-4546-aca3-01904150a0f3" }, "geometry": { "type": "Polygon", "coordinates": [ [ [ 853.649279369764372, 778.208610650902529 ], [ 853.928611783322367, 811.728500394214848 ], [ 852.252617296361677, 817.315148687828469 ], [ 813.704744092184455, 816.477151440520743 ], [ 813.704744092439569, 786.029918259104193 ], [ 817.336065480684283, 778.487943067011997 ], [ 853.649279369764372, 778.208610650902529 ] ] ] } },
{ "type": "Feature", "properties": { "feature_type": "building", "subtype": "no-damage", "uid": "4a32d240-a26d-4907-93a9-5d96ef10095b" }, "geometry": { "type": "Polygon", "coordinates": [ [ [ 697.357158829068908, 521.380414823080287 ], [ 696.754399604320156, 587.36006453885841 ], [ 593.924276248128763, 586.934732388421025 ], [ 596.291218757399974, 520.476275983533014 ], [ 697.357158829068908, 521.380414823080287 ] ] ] } },
{ "type": "Feature", "properties": { "feature_type": "building", "subtype": "no-damage", "uid": "1a12698a-c48a-4721-a310-eca5c6285d39" }, "geometry": { "type": "Polygon", "coordinates": [ [ [ 646.211122050960739, 718.180770048093905 ], [ 646.218499724358253, 742.960467936917098 ], [ 591.091119470496096, 740.861123245897488 ], [ 591.860000004181188, 715.950000001354852 ], [ 646.211122050960739, 718.180770048093905 ] ] ] } },
{ "type": "Feature", "properties": { "feature_type": "building", "subtype": "no-damage", "uid": "1dca97ba-4b0f-48d2-8a7a-2f26900d6e0b" }, "geometry": { "type": "Polygon", "coordinates": [ [ [ 655.701555285138511, 679.270805713961295 ], [ 654.34000000226149, 718.540000001157296 ], [ 591.860000004181188, 715.950000001354852 ], [ 593.000000006681375, 678.800000002440015 ], [ 655.701555285138511, 679.270805713961295 ] ] ] } },
{ "type": "Feature", "properties": { "feature_type": "building", "subtype": "no-damage", "uid": "e61baeca-744e-4a84-83c7-e6951b14cfb4" }, "geometry": { "type": "Polygon", "coordinates": [ [ [ 610.725509263165804, 608.201816759405347 ], [ 610.730000004080352, 608.080000002441921 ], [ 654.658814796471688, 610.54316582000672 ], [ 659.518241462040237, 610.760541114000262 ], [ 657.560000002269248, 679.060000002128618 ], [ 593.000000006681375, 678.800000002440015 ], [ 595.186147089552151, 607.545223993406807 ], [ 610.725509263165804, 608.201816759405347 ] ] ] } },
{ "type": "Feature", "properties": { "feature_type": "building", "subtype": "no-damage", "uid": "c7177fd0-c8b4-40e6-8680-8f843d1a8778" }, "geometry": { "type": "Polygon", "coordinates": [ [ [ 610.730000004080352, 608.080000002441921 ], [ 611.819830541190299, 586.988602650467556 ], [ 655.735448557509244, 586.92731752911584 ], [ 654.658814796471688, 610.54316582000672 ], [ 610.730000004080352, 608.080000002441921 ] ] ] } },
{ "type": "Feature", "properties": { "feature_type": "building", "subtype": "no-damage", "uid": "391b7598-469b-4a4a-ac41-e204dcbedec0" }, "geometry": { "type": "Polygon", "coordinates": [ [ [ 777.056916502295394, 755.03083998227055 ], [ 776.146910359738172, 812.361226688885608 ], [ 771.141876599145235, 815.546248174060565 ], [ 770.68687353092821, 831.016352524064018 ], [ 750.102383089847081, 848.634685737524705 ], [ 647.58263149849256, 846.382809531819703 ], [ 645.561029521464775, 818.27626658846691 ], [ 652.386075559263077, 812.361226691947309 ], [ 662.851146150451768, 772.775959675911736 ], [ 689.696327227049665, 751.845818495054459 ], [ 777.056916502295394, 755.03083998227055 ] ] ] } },
{ "type": "Feature", "properties": { "feature_type": "building", "subtype": "no-damage", "uid": "f3232efa-b623-4193-940f-8d9a72d59716" }, "geometry": { "type": "Polygon", "coordinates": [ [ [ 754.041481662098477, 873.170929350792903 ], [ 754.257183596362893, 921.071135906664381 ], [ 742.62066790351696, 921.339863242721435 ], [ 739.250971137805664, 916.778601259092852 ], [ 691.720235129648813, 915.159205962398914 ], [ 686.5844499977743, 920.866047897978206 ], [ 677.741312171402001, 921.194894494130267 ], [ 678.901062149925338, 878.198912815249287 ], [ 683.92904561131752, 871.494934866382778 ], [ 754.041481662098477, 873.170929350792903 ] ] ] } },
{ "type": "Feature", "properties": { "feature_type": "building", "subtype": "no-damage", "uid": "9eb3e3c1-fe98-462c-af1d-dcbe3aa83017" }, "geometry": { "type": "Polygon", "coordinates": [ [ [ 692.921352136202813, 871.733322233765193 ], [ 693.23718448155671, 861.989162763374338 ], [ 705.133536248914311, 862.410272559220971 ], [ 704.817703902794847, 872.037163756963082 ], [ 692.921352136202813, 871.733322233765193 ] ] ] } },
{ "type": "Feature", "properties": { "feature_type": "building", "subtype": "no-damage", "uid": "9fbd7a1c-2ae8-45b7-b757-6d30e763b8f3" }, "geometry": { "type": "Polygon", "coordinates": [ [ [ 709.509070861764258, 861.91866595556894 ], [ 724.142636309011664, 861.918665957610074 ], [ 724.353191210761793, 869.814474652184913 ], [ 709.614348312256652, 869.919752102167081 ], [ 709.509070861764258, 861.91866595556894 ] ] ] } },
{ "type": "Feature", "properties": { "feature_type": "building", "subtype": "no-damage", "uid": "4c3acc95-94dd-454e-8048-25d97efb522d" }, "geometry": { "type": "Polygon", "coordinates": [ [ [ 664.366226211804587, 914.339486377410481 ], [ 671.349536575246248, 920.764131908126615 ], [ 670.790871748640598, 945.066051973915933 ], [ 685.69724835136094, 945.05565601567298 ], [ 685.34569148598689, 966.758940089699536 ], [ 746.930000005063448, 966.640000000887881 ], [ 743.93175714176607, 1004.259748753877943 ], [ 683.297191073219437, 1003.999848453753998 ], [ 682.802165573219327, 975.513285158394069 ], [ 669.673542092367711, 976.071949988571873 ], [ 669.114877260149115, 989.75923829833232 ], [ 661.293569652971996, 996.183883832109927 ], [ 585.035820486056764, 993.669892100392076 ], [ 586.71181497276234, 925.233450541384627 ], [ 598.723108796065389, 912.942824301966084 ], [ 664.366226211804587, 914.339486377410481 ] ] ] } },
{ "type": "Feature", "properties": { "feature_type": "building", "subtype": "no-damage", "uid": "40de63cd-11e4-408b-8f47-f1e12e9583eb" }, "geometry": { "type": "Polygon", "coordinates": [ [ [ 755.083893667166762, 934.41590045916621 ], [ 755.407785824211373, 959.182742671169535 ], [ 746.930000005063448, 966.640000000887881 ], [ 685.34569148598689, 966.758940089699536 ], [ 685.69724835136094, 945.05565601567298 ], [ 686.340953805600861, 943.124539652186854 ], [ 694.027426497626038, 933.71523687586523 ], [ 755.083893667166762, 934.41590045916621 ] ] ] } },
{ "type": "Feature", "properties": { "feature_type": "building", "subtype": "no-damage", "uid": "cec9fbdc-caa6-42e0-bd65-8c3774a6a8f2" }, "geometry": { "type": "Polygon", "coordinates": [ [ [ 739.250971137805664, 916.778601259092852 ], [ 742.62066790351696, 921.339863242721435 ], [ 744.061805734598352, 934.152879134955242 ], [ 694.027426497626038, 933.71523687586523 ], [ 686.340953805600861, 943.124539652186854 ], [ 685.69724835136094, 945.05565601567298 ], [ 686.5844499977743, 920.866047897978206 ], [ 691.720235129648813, 915.159205962398914 ], [ 739.250971137805664, 916.778601259092852 ] ] ] } },
{ "type": "Feature", "properties": { "feature_type": "building", "subtype": "no-damage", "uid": "e5f17584-3076-4fe8-aee1-44382ce27a52" }, "geometry": { "type": "Polygon", "coordinates": [ [ [ 508.090528564129727, 858.120781937052357 ], [ 564.576555423495847, 858.978211295243113 ], [ 562.146413804984149, 951.622603636507279 ], [ 554.278463122190033, 960.397631340277599 ], [ 500.089427930212082, 958.6150972914254 ], [ 502.228468792660578, 869.13188785841453 ], [ 508.090528564129727, 858.120781937052357 ] ] ] } },
{ "type": "Feature", "properties": { "feature_type": "building", "subtype": "no-damage", "uid": "ead08066-c95b-4bb5-96f4-13831e85bd3d" }, "geometry": { "type": "Polygon", "coordinates": [ [ [ 546.350908963023016, 827.375559413094265 ], [ 546.522394832977284, 858.414502138370153 ], [ 508.090528564129727, 858.120781937052357 ], [ 507.080644403932183, 859.786389111271319 ], [ 497.648921475319582, 859.786389110250752 ], [ 498.334864961769824, 826.689615926133456 ], [ 546.350908963023016, 827.375559413094265 ] ] ] } },
{ "type": "Feature", "properties": { "feature_type": "building", "subtype": "no-damage", "uid": "055fff09-98e6-4f98-a557-976245bca275" }, "geometry": { "type": "Polygon", "coordinates": [ [ [ 504.717583243888896, 823.221385176965782 ], [ 504.013584374234199, 775.584128227912856 ], [ 520.440224704872662, 775.818794516437151 ], [ 520.321117963492384, 763.616147415201795 ], [ 541.560190836355673, 764.085479994291518 ], [ 542.733522290967926, 822.986718888441487 ], [ 504.717583243888896, 823.221385176965782 ] ] ] } },
{ "type": "Feature", "properties": { "feature_type": "building", "subtype": "no-damage", "uid": "2e5d0b6b-4373-4277-b947-514bccbb2741" }, "geometry": { "type": "Polygon", "coordinates": [ [ [ 503.836869909994277, 759.644774989181542 ], [ 520.33867214699444, 759.589153496670633 ], [ 520.321117963492384, 763.616147415201795 ], [ 520.440224704872662, 775.818794516437151 ], [ 504.013584374234199, 775.584128227912856 ], [ 503.836869909994277, 759.644774989181542 ] ] ] } },
{ "type": "Feature", "properties": { "feature_type": "building", "subtype": "no-damage", "uid": "333c911d-df00-43b0-a2ff-9a7a7e831042" }, "geometry": { "type": "Polygon", "coordinates": [ [ [ 477.744277590168679, 1019.142425589638947 ], [ 383.100530999479588, 1019.630279954300022 ], [ 383.100531001265608, 1003.043231584385012 ], [ 387.491220271480472, 999.628251034816117 ], [ 387.491220272245926, 981.08978520829578 ], [ 276.748279672228875, 983.041202661839066 ], [ 277.723988400786027, 926.937950816596185 ], [ 482.622821229127112, 929.377222636841907 ], [ 482.134966864465923, 965.966299926241618 ], [ 473.353588316637115, 973.771969747558387 ], [ 471.402170860543379, 983.041202663880085 ], [ 436.764511027000822, 982.065493936598159 ], [ 436.764511024959688, 990.846872487237988 ], [ 479.695695046517528, 992.310435577140197 ], [ 477.744277590168679, 1019.142425589638947 ] ] ] } },
{ "type": "Feature", "properties": { "feature_type": "building", "subtype": "no-damage", "uid": "30d3014d-f507-4a45-bb02-7d02dba700a1" }, "geometry": { "type": "Polygon", "coordinates": [ [ [ 329.805063103454927, 850.6455155979545 ], [ 339.562150382902416, 856.499767964707416 ], [ 344.928548382439828, 868.208272698213364 ], [ 347.855674566580205, 881.3803405226422 ], [ 346.879965838533394, 897.967388894598685 ], [ 336.635024197741416, 908.700184897761119 ], [ 328.829354373622095, 911.139456720047974 ], [ 311.754451639309025, 926.750796364722646 ], [ 290.28885963146422, 926.750796367784233 ], [ 277.723988400786027, 926.937950816596185 ], [ 277.116791802704824, 918.94512654238531 ], [ 262.969015250490997, 915.042291629175566 ], [ 263.944723978537809, 770.149545558417799 ], [ 279.06820926109458, 758.441040823891285 ], [ 288.337442174094917, 758.441040824911852 ], [ 304.436636180361177, 742.341846814555197 ], [ 315.169432186835024, 741.853992450914234 ], [ 331.268626194632077, 743.317555545919276 ], [ 331.756480561589626, 757.465332097629926 ], [ 328.829354375408116, 760.880312642095987 ], [ 329.715583641075511, 769.453011344271999 ], [ 336.990238646302316, 770.626342795057894 ], [ 342.856895901759174, 773.911670862973097 ], [ 342.15289703184942, 802.306291999952577 ], [ 332.06224654315622, 797.378299903182324 ], [ 328.307585896918624, 795.735635867183646 ], [ 329.805063103454927, 850.6455155979545 ] ] ] } },
{ "type": "Feature", "properties": { "feature_type": "building", "subtype": "no-damage", "uid": "8d3d9861-d587-4be1-963e-4bbb2dded012" }, "geometry": { "type": "Polygon", "coordinates": [ [ [ 285.396419993543589, 729.124938260480235 ], [ 492.956356115957078, 731.800664876960809 ], [ 493.244485611083405, 733.961636063875176 ], [ 520.472722572926614, 734.105700812458963 ], [ 520.18459307907608, 755.427283192599816 ], [ 331.597073728970315, 751.910749983609094 ], [ 331.268626194632077, 743.317555545919276 ], [ 315.169432186835024, 741.853992450914234 ], [ 304.436636180361177, 742.341846814555197 ], [ 297.495967785295193, 749.430860358789346 ], [ 283.774345159169172, 748.800304885313835 ], [ 285.396419993543589, 729.124938260480235 ] ] ] } },
{ "type": "Feature", "properties": { "feature_type": "building", "subtype": "no-damage", "uid": "0879d680-1bd7-42b8-b256-5ffe0d10c487" }, "geometry": { "type": "Polygon", "coordinates": [ [ [ 282.305208655862884, 515.421734138067222 ], [ 281.746543825940478, 490.002484414983826 ], [ 283.701870728500182, 488.885154757689918 ], [ 285.098532801647821, 475.477198858936219 ], [ 305.210466649257683, 456.203262256582718 ], [ 406.608133123899506, 458.717253986259493 ], [ 406.328800709321115, 504.248437556963097 ], [ 386.340625450197422, 517.532634867230286 ], [ 282.305208655862884, 515.421734138067222 ] ] ] } },
{ "type": "Feature", "properties": { "feature_type": "building", "subtype": "no-damage", "uid": "7fe342e1-7332-4ece-a824-cfd22f287b7d" }, "geometry": { "type": "Polygon", "coordinates": [ [ [ 378.765463635604306, 525.185105312405767 ], [ 379.767488799494515, 532.700294039034702 ], [ 381.306568054101717, 539.19862867510119 ], [ 379.935157376423319, 628.854601979519543 ], [ 379.99000000212169, 628.85999999968999 ], [ 379.912281730051689, 631.234478662448169 ], [ 380.390000005881518, 631.270000001984499 ], [ 379.357276522864481, 670.84480087115287 ], [ 377.959881056103313, 675.036987267356494 ], [ 373.994403372596025, 679.362962925526631 ], [ 374.398301406301812, 682.190249166315766 ], [ 381.910819316775985, 682.190249166315766 ], [ 382.892376408151108, 685.789291833077073 ], [ 366.280372160906609, 702.745890042264364 ], [ 350.881999374808515, 702.745890043284817 ], [ 345.534397221111078, 704.171917285428208 ], [ 339.830288250754904, 701.676369610911934 ], [ 334.482686093230484, 699.180821936395773 ], [ 334.482686092720314, 689.555138054224813 ], [ 318.025144828105397, 688.522867106228773 ], [ 322.004947726779221, 545.804412057916466 ], [ 338.982048999965684, 529.513254271682172 ], [ 354.930235038629405, 530.027711887413034 ], [ 355.220000004425174, 524.8699999998978 ], [ 378.765463635604306, 525.185105312405767 ] ] ] } },
{ "type": "Feature", "properties": { "feature_type": "building", "subtype": "no-damage", "uid": "662b6dc7-1fcf-4a8b-80f9-1e3fed17b484" }, "geometry": { "type": "Polygon", "coordinates": [ [ [ 396.203439517043194, 632.434879761057687 ], [ 396.717897130732808, 641.009173332759929 ], [ 397.57532648892311, 641.180659206031009 ], [ 399.010418789466428, 666.382195373223226 ], [ 405.784048189388386, 666.025688563452718 ], [ 407.210075431275925, 678.503426929910461 ], [ 401.505966461684977, 690.624658483535995 ], [ 391.523775768728115, 698.111301506064024 ], [ 378.689530591486005, 702.745890042264364 ], [ 366.280372160906609, 702.745890042264364 ], [ 382.892376408151108, 685.789291833077073 ], [ 381.910819316775985, 682.190249166315766 ], [ 374.398301406301812, 682.190249166315766 ], [ 373.994403372596025, 679.362962925526631 ], [ 377.959881056103313, 675.036987267356494 ], [ 379.357276522864481, 670.84480087115287 ], [ 380.390000005881518, 631.270000001984499 ], [ 396.203439517043194, 632.434879761057687 ] ] ] } },
{ "type": "Feature", "properties": { "feature_type": "building", "subtype": "no-damage", "uid": "88e32246-700a-4845-a3ba-1306019f45f3" }, "geometry": { "type": "Polygon", "coordinates": [ [ [ 379.283619525727715, 517.556967612847643 ], [ 383.284601278181526, 517.959734259376091 ], [ 383.113115407461976, 529.963745258738641 ], [ 385.685403478461126, 529.449287646069365 ], [ 399.575759063387125, 532.364547459019377 ], [ 407.464109151441221, 535.794264890761951 ], [ 417.410289692977983, 541.11032690195168 ], [ 428.213899592194821, 551.056507446554974 ], [ 423.069323452747881, 556.029597717325942 ], [ 425.984583266206698, 559.116343404567488 ], [ 430.271730050014583, 567.004693488288353 ], [ 435.759277934727606, 585.868139345012878 ], [ 430.443215919968679, 596.671749246786476 ], [ 430.271730052821113, 619.822341885279911 ], [ 427.87092785126589, 623.252059314981352 ], [ 407.978566763855099, 623.595031059482267 ], [ 408.15005263508499, 619.650856015070531 ], [ 395.631584020252888, 619.822341887320931 ], [ 386.952471245043682, 628.9584829212165 ], [ 379.935157376423319, 628.854601979519543 ], [ 381.306568054101717, 539.19862867510119 ], [ 379.767488799494515, 532.700294039034702 ], [ 378.765463635604306, 525.185105312405767 ], [ 355.220000004425174, 524.8699999998978 ], [ 355.444692657676683, 520.938960701000497 ], [ 360.723901371951115, 516.979554159743543 ], [ 379.283619525727715, 517.556967612847643 ] ] ] } },
{ "type": "Feature", "properties": { "feature_type": "building", "subtype": "no-damage", "uid": "506a93c3-f2c6-493d-bb6a-b363b57845af" }, "geometry": { "type": "Polygon", "coordinates": [ [ [ 696.492951842811976, 571.689572762628245 ], [ 724.153383043772806, 573.274284965413017 ], [ 726.667820045290341, 576.011515134415959 ], [ 726.314354230686149, 580.189392769866458 ], [ 722.28054134866909, 583.646946663418589 ], [ 715.811290917127849, 583.121361060547542 ], [ 710.582350585820336, 582.954694391123553 ], [ 696.637016588334063, 582.350363952698672 ], [ 696.492951842811976, 571.689572762628245 ] ] ] } },
{ "type": "Feature", "properties": { "feature_type": "building", "subtype": "no-damage", "uid": "4fcedec9-22a3-4139-b908-c63a5a74d414" }, "geometry": { "type": "Polygon", "coordinates": [ [ [ 310.504686059258574, 41.319911172442772 ], [ 470.632452468525798, 43.966651113788977 ], [ 469.970767482934377, 75.727530400758639 ], [ 308.519631102739709, 71.75742048720852 ], [ 310.504686059258574, 41.319911172442772 ] ] ] } }
]
}
