{
"type": "FeatureCollection",
"name": "midwest-flooding_00000091_post_disaster",
"features": [
{ "type": "Feature", "properties": { "feature_type": "building", "subtype": "no-damage", "uid": "0b74925e-a5ee-4ab6-b813-5473aa984efc" }, "geometry": { "type": "Polygon", "coordinates": [ [ [ 405.184564351858626, 681.563024159347492 ], [ 401.402214651460099, 673.981830054363172 ], [ 402.379530746516309, 661.523569773363874 ], [ 420.663076302054208, 657.737729871017336 ], [ 423.679837766211278, 661.218608482615082 ], [ 426.217829430477479, 676.826791042071591 ], [ 405.184564351858626, 681.563024159347492 ] ] ] } },
{ "type": "Feature", "properties": { "feature_type": "building", "subtype": "no-damage", "uid": "09a8d750-842f-438c-b787-4b66a167faf2" }, "geometry": { "type": "Polygon", "coordinates": [ [ [ 431.593309943412123, 662.447000836319262 ], [ 435.124242419220593, 661.646571054793753 ], [ 434.10389187801178, 656.99444997852811 ], [ 460.321601886991914, 650.899313890633493 ], [ 465.966790279654788, 669.545542222015342 ], [ 438.835773736193289, 676.387689753458176 ], [ 438.254047250337408, 673.651133781341173 ], [ 433.9768843057347, 674.369915347792244 ], [ 431.593309943412123, 662.447000836319262 ] ] ] } },
{ "type": "Feature", "properties": { "feature_type": "building", "subtype": "no-damage", "uid": "92ac3e27-268d-4922-a391-5bb66bd583e2" }, "geometry": { "type": "Polygon", "coordinates": [ [ [ 435.736089385477612, 638.339941297202927 ], [ 434.775834037599793, 628.793518707641169 ], [ 456.181246258569615, 625.080581521936779 ], [ 457.677625811839619, 634.37094318517029 ], [ 435.736089385477612, 638.339941297202927 ] ] ] } },
{ "type": "Feature", "properties": { "feature_type": "building", "subtype": "no-damage", "uid": "cdff7484-805d-4e70-b9b5-692181c38855" }, "geometry": { "type": "Polygon", "coordinates": [ [ [ 444.233647552908621, 603.519937147249721 ], [ 444.156942196318994, 592.131584408135382 ], [ 457.499836519436485, 591.822820484632985 ], [ 457.480411398468675, 603.285936060583936 ], [ 444.233647552908621, 603.519937147249721 ] ] ] } },
{ "type": "Feature", "properties": { "feature_type": "building", "subtype": "no-damage", "uid": "d544456b-0b04-44f1-a942-7e751d9bf1bf" }, "geometry": { "type": "Polygon", "coordinates": [ [ [ 825.310583645282577, 895.750691129678216 ], [ 824.802920538802255, 895.525063080640848 ], [ 824.069629383798315, 895.073806988732372 ], [ 823.449152251771579, 894.566143881224548 ], [ 822.772268112880738, 893.832852722624125 ], [ 822.321012014805888, 892.930340533668641 ], [ 822.038976955821454, 892.027828343685542 ], [ 821.813348908582498, 891.294537188168192 ], [ 821.813348906527153, 890.335617983613474 ], [ 822.095383967309999, 889.15107073721515 ], [ 822.715861098052187, 888.079337509683342 ], [ 823.392745241053717, 887.515267393770046 ], [ 824.295257429495791, 887.176825318672513 ], [ 823.844001334760833, 886.894790262257402 ], [ 823.392745242338265, 886.387127152694234 ], [ 822.772268110054597, 885.710243010720774 ], [ 822.433826037783092, 884.920544842687036 ], [ 822.095383965254655, 884.018032648593248 ], [ 822.038976957876798, 882.889892412655854 ], [ 822.151790979312523, 881.874566199695664 ], [ 822.490233050299366, 880.859239985707745 ], [ 822.997896156009006, 880.013134806185462 ], [ 823.674780299781219, 879.336250665239618 ], [ 824.859327551061597, 878.715773536810048 ], [ 825.818246751249148, 878.433738474228903 ], [ 827.172015038793688, 878.433738474228903 ], [ 827.961713204772423, 878.715773533727088 ], [ 829.033446430249342, 879.561878715304601 ], [ 829.76673758628101, 880.295169867738991 ], [ 830.330807703993059, 880.97205401074018 ], [ 830.838470812785658, 882.156601261249193 ], [ 830.894877824788182, 883.002706439743747 ], [ 830.838470814327252, 884.243660698658232 ], [ 830.500028740000403, 885.20257990321295 ], [ 829.879551609772079, 886.161499104684594 ], [ 829.089853443536413, 886.894790262257402 ], [ 828.582190336028361, 887.233232330161059 ], [ 828.130934239495105, 887.628081415719407 ], [ 828.469376312537293, 887.966523489789211 ], [ 828.807818386350391, 888.36137257123687 ], [ 829.371888503291643, 889.038256714238059 ], [ 829.766737585767146, 889.71514085312856 ], [ 830.048772646293173, 890.392024999212708 ], [ 830.16158667106879, 891.350944199656738 ], [ 830.161586668499581, 892.253456390667566 ], [ 829.766737586794875, 893.2687826056831 ], [ 829.484702525754983, 893.776445712163195 ], [ 829.03344643281855, 894.396922843675839 ], [ 828.074527229804971, 895.073806985649298 ], [ 827.397643088344921, 895.525063080640848 ], [ 826.495130895021362, 895.750691127622872 ], [ 825.310583645282577, 895.750691129678216 ] ] ] } },
{ "type": "Feature", "properties": { "feature_type": "building", "subtype": "no-damage", "uid": "17db896a-8456-4ada-a54f-f25cfa8ea08b" }, "geometry": { "type": "Polygon", "coordinates": [ [ [ 846.224257466197969, 871.026803900355844 ], [ 847.378951029799168, 871.086511273144993 ], [ 848.31131691003111, 871.534467004780709 ], [ 849.213829101042279, 871.985723098744529 ], [ 850.059934276968079, 872.662607242773333 ], [ 850.793225432999748, 873.67793345881671 ], [ 850.906039458546047, 874.80607369578172 ], [ 850.849632444231361, 875.877806922285913 ], [ 850.003527266507149, 877.287982220804452 ], [ 849.044608062465841, 878.077680383699771 ], [ 848.142095875051496, 878.359715443197956 ], [ 847.183176670496209, 878.359715443197956 ], [ 845.998629422042086, 878.359715442170227 ], [ 845.152524240464004, 878.077680381644427 ], [ 844.080791013959356, 877.457203254242472 ], [ 843.234685837519692, 876.667505086208848 ], [ 842.839836752731912, 875.934213930691385 ], [ 842.839836751447365, 874.636852659260626 ], [ 843.121871812487257, 873.339491386802251 ], [ 843.629534919738376, 872.324165170758988 ], [ 844.193605038991905, 871.703688039246344 ], [ 845.152524242005597, 871.08321090876143 ], [ 846.224257466197969, 871.026803900355844 ] ] ] } }
]
}
