{
"type": "FeatureCollection",
"name": "midwest-flooding_00000291_post_disaster",
"features": [
{ "type": "Feature", "properties": { "feature_type": "building", "subtype": "minor-damage", "uid": "b7025ccd-6641-47b0-a789-8cfd7ceeeb8f" }, "geometry": { "type": "Polygon", "coordinates": [ [ [ 43.870716524153153, 158.788006103914995 ], [ 70.621063744363866, 190.2753939793011 ], [ 63.654827487640617, 196.684331332941611 ], [ 37.183129717688573, 166.032891808074908 ], [ 43.870716524153153, 158.788006103914995 ] ] ] } },
{ "type": "Feature", "properties": { "feature_type": "building", "subtype": "minor-damage", "uid": "1bba2e6a-5402-4d2c-89ff-4d14414f3afb" }, "geometry": { "type": "Polygon", "coordinates": [ [ [ 72.575367750416547, 154.565719361951892 ], [ 78.564779500287713, 148.936424382484802 ], [ 82.084392781893499, 151.956160541141998 ], [ 92.796437594020773, 161.369409856697587 ], [ 95.814162096741228, 164.077676234422398 ], [ 89.463252685219729, 169.972562891996205 ], [ 72.575367750416547, 154.565719361951892 ] ] ] } },
{ "type": "Feature", "properties": { "feature_type": "building", "subtype": "minor-damage", "uid": "252ca9a7-059f-4d67-90c2-4d86fa383908" }, "geometry": { "type": "Polygon", "coordinates": [ [ [ 88.787868124231949, 171.224731480471092 ], [ 89.463252685219729, 169.972562891996205 ], [ 95.814162096741228, 164.077676234422398 ], [ 101.695103601916401, 169.409312901197694 ], [ 95.261416406275742, 176.781246147873105 ], [ 88.787868124231949, 171.224731480471092 ] ] ] } },
{ "type": "Feature", "properties": { "feature_type": "building", "subtype": "minor-damage", "uid": "bd03ae8a-97c7-4602-b000-fec729e94219" }, "geometry": { "type": "Polygon", "coordinates": [ [ [ 82.084392781893499, 151.956160541141998 ], [ 86.717236367837685, 147.335278463458792 ], [ 97.534301231735753, 157.102142849697998 ], [ 92.796437594020773, 161.369409856697587 ], [ 82.084392781893499, 151.956160541141998 ] ] ] } },
{ "type": "Feature", "properties": { "feature_type": "building", "subtype": "minor-damage", "uid": "f1aa33a7-4d12-4a1e-b5e2-4107333a2252" }, "geometry": { "type": "Polygon", "coordinates": [ [ [ 155.689793107323311, 100.169561386284997 ], [ 153.947336159145692, 112.634830330794003 ], [ 101.137487090821594, 105.128861930743895 ], [ 102.432138249161596, 94.650115145612531 ], [ 118.370432980693295, 96.340822901395285 ], [ 118.132899440987899, 98.135029041968551 ], [ 139.291804479448587, 101.485907797271807 ], [ 139.508125585074708, 98.396338803926582 ], [ 155.689793107323311, 100.169561386284997 ] ] ] } },
{ "type": "Feature", "properties": { "feature_type": "building", "subtype": "minor-damage", "uid": "cdd7a751-97cf-4226-b3e0-f8cd47b626ea" }, "geometry": { "type": "Polygon", "coordinates": [ [ [ 118.370432980693295, 96.340822901395285 ], [ 119.583967182418604, 87.413376521487308 ], [ 140.649171656771387, 90.457956857473874 ], [ 139.508125585074708, 98.396338803926582 ], [ 139.291804479448587, 101.485907797271807 ], [ 118.132899440987899, 98.135029041968551 ], [ 118.370432980693295, 96.340822901395285 ] ] ] } },
{ "type": "Feature", "properties": { "feature_type": "building", "subtype": "minor-damage", "uid": "8f3f8fdc-03eb-4b8f-9c53-4a6cbb5e4f6a" }, "geometry": { "type": "Polygon", "coordinates": [ [ [ 162.009166005519489, 63.385529139950137 ], [ 159.431085020835411, 76.254311636172972 ], [ 117.120467715371007, 73.467817134099064 ], [ 116.499685086051997, 76.659928547372331 ], [ 104.517758725443002, 74.430732945302466 ], [ 107.025603778541097, 58.826363732867151 ], [ 162.009166005519489, 63.385529139950137 ] ] ] } },
{ "type": "Feature", "properties": { "feature_type": "building", "subtype": "un-classified", "uid": "41c93b25-8357-4c87-98cf-789b72b85cfa" }, "geometry": { "type": "Polygon", "coordinates": [ [ [ 112.454408085311897, 49.776558206398263 ], [ 112.112274901887503, 57.132421598939651 ], [ 102.703612419839999, 57.132421596885983 ], [ 103.045745602494307, 49.263358434085333 ], [ 112.454408085311897, 49.776558206398263 ] ] ] } },
{ "type": "Feature", "properties": { "feature_type": "building", "subtype": "no-damage", "uid": "5308dc4c-95dd-424f-ad0f-830537f2b81b" }, "geometry": { "type": "Polygon", "coordinates": [ [ [ 21.1201597627776, 54.345694308246692 ], [ 26.57838815130123, 58.057289609794474 ], [ 21.775147169174531, 64.607163676845957 ], [ 16.316918782704569, 60.458910096494392 ], [ 21.1201597627776, 54.345694308246692 ] ] ] } },
{ "type": "Feature", "properties": { "feature_type": "building", "subtype": "no-damage", "uid": "80c6c69f-4fcf-4d28-af6c-4e13eb927b6b" }, "geometry": { "type": "Polygon", "coordinates": [ [ [ 0.417498887500045, 8.585261715599481 ], [ 8.57882410706271, 12.99666894749606 ], [ 0.417555090541321, 28.68156574665263 ], [ 0.417498887500045, 8.585261715599481 ] ] ] } },
{ "type": "Feature", "properties": { "feature_type": "building", "subtype": "no-damage", "uid": "2cdc1426-5f27-4853-8905-1d69875de0f9" }, "geometry": { "type": "Polygon", "coordinates": [ [ [ 32.794651591025882, 23.301276389929932 ], [ 39.492646428195457, 26.907888995192518 ], [ 26.096656754883131, 45.971412759998572 ], [ 20.4291226621107, 41.849569782408928 ], [ 32.794651591025882, 23.301276389929932 ] ] ] } },
{ "type": "Feature", "properties": { "feature_type": "building", "subtype": "no-damage", "uid": "7cbc9231-53df-48c7-ab38-fb7543573a5c" }, "geometry": { "type": "Polygon", "coordinates": [ [ [ 147.991025125961613, 52.738053074871893 ], [ 133.995034327893308, 51.091465920979722 ], [ 136.464915056677313, 41.623589787639972 ], [ 115.059282070203395, 38.742062273976259 ], [ 115.470928859446502, 32.567360450474517 ], [ 157.870548045461504, 36.272181546218498 ], [ 157.047254469029014, 42.858530160760367 ], [ 147.579378340312388, 42.035236577653272 ], [ 147.991025125961613, 52.738053074871893 ] ] ] } },
{ "type": "Feature", "properties": { "feature_type": "building", "subtype": "no-damage", "uid": "d9c92ec3-ba9d-430f-aaa8-70adafaff641" }, "geometry": { "type": "Polygon", "coordinates": [ [ [ 135.229974692541987, 0.870557761153958 ], [ 137.288208634650005, 7.04525958465569 ], [ 127.820332502596202, 10.338433891413199 ], [ 129.878566445730996, 15.278195346928721 ], [ 124.115511410190393, 18.15972286469977 ], [ 122.057277469622605, 12.808314619170959 ], [ 115.059282070716804, 14.04325497996933 ], [ 112.589401339879203, 7.04525958465569 ], [ 135.229974692541987, 0.870557761153958 ] ] ] } },
{ "type": "Feature", "properties": { "feature_type": "building", "subtype": "minor-damage", "uid": "cc3e976b-4659-45fa-8ee0-f65a362198ca" }, "geometry": { "type": "Polygon", "coordinates": [ [ [ 93.64345515068031, 132.530557392145397 ], [ 99.054913735211457, 138.457392986427806 ], [ 102.147175789345894, 136.653573455768708 ], [ 108.589388390809503, 142.322720548898502 ], [ 107.816322880163796, 144.641917084943287 ], [ 110.393207921981499, 146.961113625095493 ], [ 110.908584928650697, 150.311064180126692 ], [ 116.320043517545898, 153.661014733104309 ], [ 111.423961937630295, 158.557096314561392 ], [ 89.262750576920567, 136.91126196205559 ], [ 93.64345515068031, 132.530557392145397 ] ] ] } },
{ "type": "Feature", "properties": { "feature_type": "building", "subtype": "minor-damage", "uid": "4819dd19-f0f0-4e53-97e7-d00299f06cd9" }, "geometry": { "type": "Polygon", "coordinates": [ [ [ 6.980099570117653, 201.455300896221786 ], [ 12.03425744163496, 209.794661384291601 ], [ 14.81404426910834, 209.794661385318392 ], [ 16.835707418228679, 213.332571890118913 ], [ 17.846538992018729, 217.123190292666891 ], [ 16.330291629665052, 219.902977122708108 ], [ 12.03425744163496, 221.419224484548693 ], [ 2.178649596091019, 205.245919298769707 ], [ 6.980099570117653, 201.455300896221786 ] ] ] } }
]
}
