{
"type": "FeatureCollection",
"name": "midwest-flooding_00000306_post_disaster",
"features": [
{ "type": "Feature", "properties": { "feature_type": "building", "subtype": "no-damage", "uid": "a01be072-fea0-4fab-8244-007de2897415" }, "geometry": { "type": "Polygon", "coordinates": [ [ [ 374.2287491228509, 616.010632858293889 ], [ 382.782078653268513, 624.050762612550102 ], [ 387.400876601003176, 632.775158733655189 ], [ 380.900346155472789, 639.959955535767904 ], [ 385.690210692352593, 645.091953257870387 ], [ 376.452614801247307, 654.158482554698821 ], [ 370.978483905476594, 649.026484833623158 ], [ 366.872885730824805, 652.789949831269155 ], [ 356.470391584884112, 642.119539032619059 ], [ 351.680527048517718, 633.908342683826845 ], [ 374.2287491228509, 616.010632858293889 ] ] ] } },
{ "type": "Feature", "properties": { "feature_type": "building", "subtype": "no-damage", "uid": "5819b001-c50f-4804-b0c3-12cfbda4e506" }, "geometry": { "type": "Polygon", "coordinates": [ [ [ 458.889837553785185, 594.329660863526897 ], [ 480.269972252118976, 599.979474846698395 ], [ 475.815355161127172, 619.078174796015787 ], [ 473.823315789285004, 618.530742519000569 ], [ 473.33469727937171, 620.334368602168297 ], [ 463.009555100327589, 617.579994580877724 ], [ 463.411660552493913, 615.897901759887759 ], [ 455.006433075561915, 613.540045423698643 ], [ 454.450216028332477, 610.327210380077418 ], [ 458.889837553785185, 594.329660863526897 ] ] ] } },
{ "type": "Feature", "properties": { "feature_type": "building", "subtype": "no-damage", "uid": "5263324a-d1ed-44f8-8da7-71239b98c697" }, "geometry": { "type": "Polygon", "coordinates": [ [ [ 280.490848677013389, 584.052196826676095 ], [ 310.378072973767814, 585.525161531185972 ], [ 309.693806612823323, 599.210488776777083 ], [ 310.549139563683013, 599.210488778830722 ], [ 309.351673433762926, 611.014083523545082 ], [ 307.98314070699638, 611.014083523545082 ], [ 306.614607982026996, 626.752209859414734 ], [ 293.100347325584494, 625.554743724360151 ], [ 292.929280738492992, 627.094343035137967 ], [ 277.704354173399906, 625.849614357784617 ], [ 280.490848677013389, 584.052196826676095 ] ] ] } },
{ "type": "Feature", "properties": { "feature_type": "building", "subtype": "no-damage", "uid": "4b1ff666-6476-4c3c-b555-066624e46984" }, "geometry": { "type": "Polygon", "coordinates": [ [ [ 283.632351113397078, 536.780395383554605 ], [ 310.318739242344179, 539.517460837601675 ], [ 306.897407431717511, 575.612511443728067 ], [ 292.869947003218897, 574.757178489530816 ], [ 279.868886120886089, 572.19117963001986 ], [ 283.632351113397078, 536.780395383554605 ] ] ] } },
{ "type": "Feature", "properties": { "feature_type": "building", "subtype": "no-damage", "uid": "770de563-0b6f-4981-8333-1c29a77822a8" }, "geometry": { "type": "Polygon", "coordinates": [ [ [ 226.649487400698092, 543.072838793872279 ], [ 230.975656298031197, 543.292884229889637 ], [ 231.493616363485188, 533.449892686261364 ], [ 245.85063877926919, 534.182417740323444 ], [ 245.57525783658221, 543.86995804278024 ], [ 247.444845729890886, 543.915480075181904 ], [ 245.644122193910391, 584.118716270323034 ], [ 224.902854317828712, 583.463728862899075 ], [ 226.649487400698092, 543.072838793872279 ] ] ] } },
{ "type": "Feature", "properties": { "feature_type": "building", "subtype": "minor-damage", "uid": "94a7eee7-70cc-4315-9f6f-946ac1f115f8" }, "geometry": { "type": "Polygon", "coordinates": [ [ [ 324.151669558157721, 471.803318295710596 ], [ 350.066068427335722, 472.917916098799196 ], [ 349.729592505625874, 492.006424111491128 ], [ 349.787418979644087, 496.881768813348913 ], [ 326.380865160740427, 497.439067710272411 ], [ 325.823566259709594, 491.03013035868571 ], [ 322.201123407117223, 484.063894102987376 ], [ 324.151669558157721, 471.803318295710596 ] ] ] } },
{ "type": "Feature", "properties": { "feature_type": "building", "subtype": "no-damage", "uid": "6122edab-f33a-405f-84b8-0d94b183a90f" }, "geometry": { "type": "Polygon", "coordinates": [ [ [ 243.395200237209593, 502.62779865318339 ], [ 244.953880867745198, 489.007098269138623 ], [ 260.891907760673405, 490.753731354575621 ], [ 259.581932948392989, 504.290137757213984 ], [ 243.395200237209593, 502.62779865318339 ] ] ] } },
{ "type": "Feature", "properties": { "feature_type": "building", "subtype": "no-damage", "uid": "20e0d350-4cef-494e-8454-94aa4e0ade2b" }, "geometry": { "type": "Polygon", "coordinates": [ [ [ 251.266725513550995, 443.912838493630488 ], [ 251.927475664567112, 438.413266157868691 ], [ 253.480646740773011, 438.308246105327726 ], [ 254.248943232747308, 432.366362692442408 ], [ 251.612415523630403, 431.904837293735682 ], [ 254.030614099763199, 413.88853909783171 ], [ 259.052184213077112, 414.543526505255727 ], [ 260.171434502417924, 407.476841243191586 ], [ 257.830109945149388, 406.477976476131914 ], [ 259.904858471312821, 395.149184707850623 ], [ 291.113596895405294, 399.886225365586313 ], [ 289.998999092830388, 407.688409970777116 ], [ 294.736039748767894, 408.524358321296575 ], [ 291.949545246437992, 422.456830829612386 ], [ 294.457390296455628, 423.014129731670209 ], [ 293.064143050039718, 437.503901143070607 ], [ 281.918165039179883, 438.061200039993992 ], [ 280.246268335574314, 448.371229697770218 ], [ 251.266725513550995, 443.912838493630488 ] ] ] } },
{ "type": "Feature", "properties": { "feature_type": "building", "subtype": "no-damage", "uid": "50aa2a0a-35c4-4e8c-896d-e854e33c93ee" }, "geometry": { "type": "Polygon", "coordinates": [ [ [ 294.334907865779314, 348.590876418545804 ], [ 310.115101486851586, 347.579103659385282 ], [ 312.168472679253114, 365.867142328939622 ], [ 302.973040823284407, 366.981740133054984 ], [ 296.285454020670386, 364.752544527904718 ], [ 294.334907865779314, 348.590876418545804 ] ] ] } },
{ "type": "Feature", "properties": { "feature_type": "building", "subtype": "no-damage", "uid": "a28cb96b-444d-422d-a817-6375de7be836" }, "geometry": { "type": "Polygon", "coordinates": [ [ [ 248.024796771811907, 80.057199425732207 ], [ 269.578199879156614, 80.424287285736085 ], [ 269.359870744889008, 93.087377148223112 ], [ 247.963615461640188, 92.432389740799167 ], [ 248.024796771811907, 80.057199425732207 ] ] ] } },
{ "type": "Feature", "properties": { "feature_type": "building", "subtype": "no-damage", "uid": "54761b45-c37a-46fe-ba2f-edda0ec3b1d0" }, "geometry": { "type": "Polygon", "coordinates": [ [ [ 260.665124710372822, 0.010524773881709 ], [ 266.97985880976978, 2.827145513870191 ], [ 264.461979364510114, 9.676142192094821 ], [ 261.024343657364795, 13.8029426415786 ], [ 247.783018116439109, 8.623671882924079 ], [ 253.164508350738998, 0.010425459431449 ], [ 260.665124710372822, 0.010524773881709 ] ] ] } },
{ "type": "Feature", "properties": { "feature_type": "building", "subtype": "no-damage", "uid": "804bb30f-2c19-49db-97f3-49932b592fff" }, "geometry": { "type": "Polygon", "coordinates": [ [ [ 242.185711858145595, 349.957831088663681 ], [ 236.72650648647479, 303.013990535542689 ], [ 269.925254002767872, 300.524544448296126 ], [ 274.118407056523779, 326.725737648550421 ], [ 267.791443068092178, 327.197181122891777 ], [ 270.280889158162097, 347.468385000390185 ], [ 242.185711858145595, 349.957831088663681 ] ] ] } },
{ "type": "Feature", "properties": { "feature_type": "building", "subtype": "no-damage", "uid": "e8a26118-27e3-421c-9665-372f4a62a71c" }, "geometry": { "type": "Polygon", "coordinates": [ [ [ 0.440294304725622, 277.579049471510984 ], [ 28.551746177934699, 260.893906637714792 ], [ 38.014303898675649, 274.995294348822426 ], [ 36.467448837316049, 278.455771520067515 ], [ 3.457258188179348, 298.166800358516582 ], [ 0.440315789450148, 293.749961861781287 ], [ 0.440294304725622, 277.579049471510984 ] ] ] } },
{ "type": "Feature", "properties": { "feature_type": "building", "subtype": "destroyed", "uid": "3d8f9043-68aa-4a03-9f4d-6a8255ae5995" }, "geometry": { "type": "Polygon", "coordinates": [ [ [ 780.620117823308533, 705.570815352127624 ], [ 796.100240517238944, 705.560192392287263 ], [ 796.020382166607419, 729.081126598306355 ], [ 780.620117820741484, 728.93203285277616 ], [ 780.620117823308533, 705.570815352127624 ] ] ] } },
{ "type": "Feature", "properties": { "feature_type": "building", "subtype": "no-damage", "uid": "2797ca24-ab6e-4b84-9d9c-fb2ba5767d4b" }, "geometry": { "type": "Polygon", "coordinates": [ [ [ 246.952269023817593, 534.179834789356278 ], [ 257.156390427593692, 534.553156305625066 ], [ 256.907509417432379, 542.890670140895054 ], [ 246.661907843413587, 542.434388284140823 ], [ 246.952269023817593, 534.179834789356278 ] ] ] } }
]
}
