{
"type": "FeatureCollection",
"name": "midwest-flooding_00000046_post_disaster",
"features": [
{ "type": "Feature", "properties": { "feature_type": "building", "subtype": "un-classified", "uid": "c60f39fe-35ec-4c71-8a73-09eb562448a9" }, "geometry": { "type": "Polygon", "coordinates": [ [ [ 985.473942573404997, 885.196523634805885 ], [ 985.473942572129317, 856.704617353909043 ], [ 1014.488636127403993, 858.272979167901553 ], [ 1015.534210668789001, 878.923076382918111 ], [ 1007.692401601892016, 879.445863655269477 ], [ 1007.431007965461959, 885.457917274043211 ], [ 985.473942573404997, 885.196523634805885 ] ] ] } },
{ "type": "Feature", "properties": { "feature_type": "building", "subtype": "un-classified", "uid": "3267a47b-90c6-4d86-933b-d19234376962" }, "geometry": { "type": "Polygon", "coordinates": [ [ [ 1021.991625221583035, 902.108257369454577 ], [ 1021.861972892500035, 922.053780381593924 ], [ 1007.115742660171009, 922.66820664167858 ], [ 1000.561862558727967, 926.354764196063343 ], [ 1000.357053805111036, 937.004819366782044 ], [ 982.948309778062253, 936.595201859038411 ], [ 983.562736033299075, 901.572905052582087 ], [ 1021.991625221583035, 902.108257369454577 ] ] ] } },
{ "type": "Feature", "properties": { "feature_type": "building", "subtype": "no-damage", "uid": "5025d1d3-6bc2-4e80-ad0b-bf40e2c457f5" }, "geometry": { "type": "Polygon", "coordinates": [ [ [ 982.545056433952936, 942.985384904847251 ], [ 1013.992282711364055, 943.344424028251069 ], [ 1014.197091464469963, 967.511856912668236 ], [ 984.485574461145688, 966.739282764118002 ], [ 984.783704939451695, 958.169728207372032 ], [ 981.632499695817728, 957.741945396666324 ], [ 982.545056433952936, 942.985384904847251 ] ] ] } },
{ "type": "Feature", "properties": { "feature_type": "building", "subtype": "no-damage", "uid": "5ddd6dff-e831-47fa-856e-66a8e91bf734" }, "geometry": { "type": "Polygon", "coordinates": [ [ [ 1022.982835206189975, 1002.827735870023957 ], [ 1014.362462587581035, 1003.588356925253038 ], [ 1013.861206094146041, 1008.293442366210002 ], [ 984.824981762761809, 1008.032048731054033 ], [ 984.563588130413336, 980.58571699383981 ], [ 1019.590335300631978, 979.540142452198666 ], [ 1022.982845209263019, 987.383016254077233 ], [ 1022.982835206189975, 1002.827735870023957 ] ] ] } },
{ "type": "Feature", "properties": { "feature_type": "building", "subtype": "no-damage", "uid": "c4233ed2-7d48-409f-8f3c-d0a50e93db49" }, "geometry": { "type": "Polygon", "coordinates": [ [ [ 980.20383312320871, 1022.977216540284985 ], [ 980.67612221286754, 1013.411529500413963 ], [ 998.712283073517028, 1012.627348588825043 ], [ 1021.976316640328037, 1013.411529501434984 ], [ 1022.982824610949024, 1018.677858623824022 ], [ 1022.982821678173991, 1022.976176511548033 ], [ 980.20383312320871, 1022.977216540284985 ] ] ] } },
{ "type": "Feature", "properties": { "feature_type": "building", "subtype": "no-damage", "uid": "24106f08-f437-4837-a9bb-67ca475f340d" }, "geometry": { "type": "Polygon", "coordinates": [ [ [ 853.685825448570313, 853.861021120342457 ], [ 885.614460180519359, 854.47544738144768 ], [ 885.606684454621814, 849.197074167291589 ], [ 906.095335507224604, 849.560037303831905 ], [ 906.095335509775964, 855.704299899575858 ], [ 930.05795963648211, 856.113917406299038 ], [ 930.3915715190833, 947.523571894511861 ], [ 904.036233180373301, 947.523571894511861 ], [ 904.369845054810185, 956.531092592843947 ], [ 884.338003897839485, 955.191602249203356 ], [ 879.459560540408575, 949.805176831048811 ], [ 852.993615889170314, 948.858019404506535 ], [ 853.770649290653864, 898.788761370864108 ], [ 845.746998428517827, 898.307342321085002 ], [ 845.746998426731807, 883.864770763415549 ], [ 853.289230237813399, 883.864770763415549 ], [ 853.685825448570313, 853.861021120342457 ] ] ] } },
{ "type": "Feature", "properties": { "feature_type": "building", "subtype": "no-damage", "uid": "0cc35e4b-0ba5-4142-84b6-8c5bcd041141" }, "geometry": { "type": "Polygon", "coordinates": [ [ [ 860.234935031003147, 990.797970908476941 ], [ 862.084538521343802, 968.830981497725475 ], [ 904.192713086842559, 973.069737895091293 ], [ 904.158557182204845, 970.84196520958676 ], [ 917.455476699813403, 971.777169668334182 ], [ 916.496565100191788, 984.317566610441531 ], [ 924.054678200412241, 985.037386904899222 ], [ 923.531890931888142, 995.754525967691507 ], [ 913.860326412782911, 995.75452596667094 ], [ 913.598932776352285, 1004.641909575213049 ], [ 876.724245972003359, 1001.766579583403995 ], [ 877.627531680078732, 992.243891921933823 ], [ 860.234935031003147, 990.797970908476941 ] ] ] } },
{ "type": "Feature", "properties": { "feature_type": "building", "subtype": "no-damage", "uid": "355918ce-8f41-4262-a46e-e8d993e5e6bb" }, "geometry": { "type": "Polygon", "coordinates": [ [ [ 880.246910084506681, 1022.979292757469011 ], [ 879.995016051172797, 1014.941753996389025 ], [ 916.325239321247523, 1014.169179845796975 ], [ 916.875827401075071, 1022.978589472067029 ], [ 880.246910084506681, 1022.979292757469011 ] ] ] } },
{ "type": "Feature", "properties": { "feature_type": "building", "subtype": "no-damage", "uid": "2d77a716-41ea-407f-a439-fc9c8eea1ea1" }, "geometry": { "type": "Polygon", "coordinates": [ [ [ 783.265838294917558, 850.943924402637549 ], [ 828.812550111345445, 853.068032573276241 ], [ 826.737700537859951, 885.416513505059925 ], [ 816.087645369187612, 885.531767890994502 ], [ 815.89535087779177, 899.685354366903198 ], [ 781.931390785688905, 899.317646673877107 ], [ 783.265838294917558, 850.943924402637549 ] ] ] } },
{ "type": "Feature", "properties": { "feature_type": "building", "subtype": "no-damage", "uid": "fcb31be3-45d3-4c63-9dd5-08c4c6408df9" }, "geometry": { "type": "Polygon", "coordinates": [ [ [ 826.737700537859951, 885.416513505059925 ], [ 826.365794215490268, 899.560391390773475 ], [ 815.89535087779177, 899.685354366903198 ], [ 816.087645369187612, 885.531767890994502 ], [ 826.737700537859951, 885.416513505059925 ] ] ] } },
{ "type": "Feature", "properties": { "feature_type": "building", "subtype": "un-classified", "uid": "be6c0c2a-dd4e-4496-b4c4-cf76abc558db" }, "geometry": { "type": "Polygon", "coordinates": [ [ [ 749.737523960846147, 988.866955634530427 ], [ 748.713480195569673, 966.952419037090408 ], [ 761.002005392664387, 964.494714001854391 ], [ 774.929000611292849, 967.566845297175064 ], [ 774.92900061511989, 979.445752987042624 ], [ 771.447251806954682, 979.445752990104211 ], [ 771.2424430518073, 989.071764389933037 ], [ 749.737523960846147, 988.866955634530427 ] ] ] } },
{ "type": "Feature", "properties": { "feature_type": "building", "subtype": "no-damage", "uid": "8c0f2af7-3a7e-4f40-b4e8-35f57505f1a8" }, "geometry": { "type": "Polygon", "coordinates": [ [ [ 637.754516126543194, 1003.909058419146049 ], [ 638.199375171234237, 989.638123389849738 ], [ 651.715668633405812, 989.306013845224129 ], [ 654.925128978362295, 996.366826604234006 ], [ 652.838979752788418, 1004.230004453693027 ], [ 637.754516126543194, 1003.909058419146049 ] ] ] } },
{ "type": "Feature", "properties": { "feature_type": "building", "subtype": "no-damage", "uid": "b79b94e8-32f4-4a64-bbd5-e1ba8c784f1a" }, "geometry": { "type": "Polygon", "coordinates": [ [ [ 654.925128978362295, 996.366826604234006 ], [ 652.777393973613016, 992.014819484903569 ], [ 652.693388573587754, 985.493584752890683 ], [ 658.091416259811922, 985.30971728931911 ], [ 658.149471162922396, 971.051013197262364 ], [ 688.960290483740664, 971.371959233850248 ], [ 688.63934444817346, 996.566222948838799 ], [ 654.925128978362295, 996.366826604234006 ] ] ] } },
{ "type": "Feature", "properties": { "feature_type": "building", "subtype": "no-damage", "uid": "89b11a53-58b2-4d25-8fef-cc33e7b731d8" }, "geometry": { "type": "Polygon", "coordinates": [ [ [ 663.970539363606122, 965.757170201515123 ], [ 663.818206184648375, 948.05699063602583 ], [ 653.885248029622744, 947.98087592567208 ], [ 654.930822572283887, 938.832098678913326 ], [ 664.602387091644232, 938.047917769365768 ], [ 664.863780727564631, 927.330778712696656 ], [ 673.751164336867532, 924.716842356042434 ], [ 684.926178659937136, 928.251795563016344 ], [ 685.252484307926011, 935.172587780618073 ], [ 687.082239753245744, 935.956768685062912 ], [ 686.909119727076927, 953.67345376134756 ], [ 687.318737231248519, 965.75717020253569 ], [ 663.970539363606122, 965.757170201515123 ] ] ] } },
{ "type": "Feature", "properties": { "feature_type": "building", "subtype": "no-damage", "uid": "f293d0df-4859-466f-9a70-a2c340ca392a" }, "geometry": { "type": "Polygon", "coordinates": [ [ [ 656.381556333909316, 910.363775828838698 ], [ 655.858769061813291, 889.212422121406803 ], [ 682.782313531765681, 890.257996665088967 ], [ 690.101335331924474, 897.577018459638452 ], [ 688.886006138269749, 911.03478697479909 ], [ 656.381556333909316, 910.363775828838698 ] ] ] } },
{ "type": "Feature", "properties": { "feature_type": "building", "subtype": "no-damage", "uid": "f335ba6a-e07c-4f92-9a89-4485e6fa6806" }, "geometry": { "type": "Polygon", "coordinates": [ [ [ 662.25287521043424, 880.476024712360072 ], [ 662.104815998066215, 867.936730878535968 ], [ 656.474123216051339, 868.017017005292587 ], [ 656.014517121041422, 855.678718495312069 ], [ 661.864156091041536, 854.788116370226021 ], [ 661.652897670185439, 850.926265631186538 ], [ 691.267568759840742, 852.768299336928635 ], [ 692.574536938932624, 862.962651126349101 ], [ 691.36848937976356, 881.342942058887729 ], [ 662.25287521043424, 880.476024712360072 ] ] ] } },
{ "type": "Feature", "properties": { "feature_type": "building", "subtype": "no-damage", "uid": "1d739d7c-ae70-43c6-bc3b-3a2e6cad344b" }, "geometry": { "type": "Polygon", "coordinates": [ [ [ 725.162055609277104, 769.507267988693002 ], [ 723.884707542702813, 735.44465290621963 ], [ 749.005886169598739, 735.870435596268635 ], [ 750.28323423132565, 768.655702610636126 ], [ 725.162055609277104, 769.507267988693002 ] ] ] } },
{ "type": "Feature", "properties": { "feature_type": "building", "subtype": "no-damage", "uid": "1a86e059-ba4b-4219-b7a8-3bc87ebab31a" }, "geometry": { "type": "Polygon", "coordinates": [ [ [ 522.8072778000585, 996.605184446388307 ], [ 538.59208872400427, 1000.444342799885021 ], [ 538.870000002383222, 1000.47999999874105 ], [ 534.606123062614188, 1022.982651761161037 ], [ 502.717371222042118, 1022.982663039142949 ], [ 508.00903335448271, 995.73925735790715 ], [ 522.8072778000585, 996.605184446388307 ] ] ] } },
{ "type": "Feature", "properties": { "feature_type": "building", "subtype": "no-damage", "uid": "aa5e3e91-4b74-478b-bcf5-df1ffd3fe18d" }, "geometry": { "type": "Polygon", "coordinates": [ [ [ 552.81573203757182, 1002.221740050958033 ], [ 563.6858777417483, 1004.365247332314993 ], [ 561.207385505175353, 1022.98260376110602 ], [ 535.107797933869506, 1022.98265118149402 ], [ 539.370000003255996, 1000.54000000369399 ], [ 552.81573203757182, 1002.221740050958033 ] ] ] } },
{ "type": "Feature", "properties": { "feature_type": "building", "subtype": "no-damage", "uid": "27763734-910d-4747-be03-689acb846d36" }, "geometry": { "type": "Polygon", "coordinates": [ [ [ 542.724149277120773, 956.114728624054806 ], [ 543.769723818506236, 928.929790517913034 ], [ 587.945248240071123, 930.498152330884977 ], [ 589.252216415591079, 942.522259569453126 ], [ 585.592705518063099, 957.683090434985616 ], [ 542.724149277120773, 956.114728624054806 ] ] ] } },
{ "type": "Feature", "properties": { "feature_type": "building", "subtype": "no-damage", "uid": "69b50254-73ef-4a36-9dc3-96e418aa5b94" }, "geometry": { "type": "Polygon", "coordinates": [ [ [ 521.062088056970197, 883.670323393439389 ], [ 589.118911105189113, 885.338382782208441 ], [ 592.788641762009888, 897.014798503591464 ], [ 587.45085171973767, 913.361780508424999 ], [ 519.727640544169731, 911.693721121697081 ], [ 521.062088056970197, 883.670323393439389 ] ] ] } },
{ "type": "Feature", "properties": { "feature_type": "building", "subtype": "no-damage", "uid": "5b4e02f9-03a6-4cae-b358-db498feda822" }, "geometry": { "type": "Polygon", "coordinates": [ [ [ 505.943958567976381, 880.387002112344817 ], [ 508.332039209715788, 845.744164329536829 ], [ 602.480213121060842, 848.974688113167304 ], [ 602.580036297714969, 875.853090782089794 ], [ 598.793655561575179, 881.668652127937094 ], [ 505.943958567976381, 880.387002112344817 ] ] ] } },
{ "type": "Feature", "properties": { "feature_type": "building", "subtype": "no-damage", "uid": "fefe22b0-d52d-49aa-afd4-87d15cf01ae4" }, "geometry": { "type": "Polygon", "coordinates": [ [ [ 420.904307324380909, 897.856359278870173 ], [ 466.648193557131094, 898.379146551221538 ], [ 463.511469927106589, 979.672567226327146 ], [ 458.806384489979109, 982.80929085533262 ], [ 415.415040972858606, 982.025109948846648 ], [ 415.415040973624002, 957.192714566245058 ], [ 410.187168260828628, 956.147140026645047 ], [ 410.187168263634987, 932.883106452933248 ], [ 413.585285524477285, 923.472935566937167 ], [ 418.290370964156182, 923.211541936884714 ], [ 418.551764599821524, 901.515870177165425 ], [ 420.904307324380909, 897.856359278870173 ] ] ] } },
{ "type": "Feature", "properties": { "feature_type": "building", "subtype": "no-damage", "uid": "83fdacfa-49e2-4efc-befd-c889629a780d" }, "geometry": { "type": "Polygon", "coordinates": [ [ [ 287.160000002472714, 992.050000003029368 ], [ 286.407686813560588, 1022.981407831694014 ], [ 257.878422194497091, 1022.981069018705057 ], [ 258.510000004636822, 994.940000003100408 ], [ 261.56405680919039, 991.655607032051421 ], [ 287.160000002472714, 992.050000003029368 ] ] ] } },
{ "type": "Feature", "properties": { "feature_type": "building", "subtype": "no-damage", "uid": "5491597e-b3d1-413a-b120-d080d2cea120" }, "geometry": { "type": "Polygon", "coordinates": [ [ [ 287.940000006640673, 960.33000000122172 ], [ 287.160000002472714, 992.050000003029368 ], [ 261.56405680919039, 991.655607032051421 ], [ 258.510000004636822, 994.940000003100408 ], [ 259.230000002576787, 963.050000001888975 ], [ 262.635273429739811, 958.846441055440323 ], [ 287.940000006640673, 960.33000000122172 ] ] ] } },
{ "type": "Feature", "properties": { "feature_type": "building", "subtype": "no-damage", "uid": "01cd07fa-39ee-4e63-848b-4d21282283de" }, "geometry": { "type": "Polygon", "coordinates": [ [ [ 289.160000002647109, 910.33000000066329 ], [ 287.940000006640673, 960.33000000122172 ], [ 262.635273429739811, 958.846441055440323 ], [ 259.230000002576787, 963.050000001888975 ], [ 260.320000005117379, 914.66000000120755 ], [ 264.630413168742677, 908.798997761745568 ], [ 289.160000002647109, 910.33000000066329 ] ] ] } },
{ "type": "Feature", "properties": { "feature_type": "building", "subtype": "no-damage", "uid": "0f03179c-5bcf-46c2-9525-4bce85f0a019" }, "geometry": { "type": "Polygon", "coordinates": [ [ [ 289.160000002647109, 910.33000000066329 ], [ 264.630413168742677, 908.798997761745568 ], [ 260.320000005117379, 914.66000000120755 ], [ 261.709020431356521, 852.701518181772826 ], [ 264.667995455641119, 849.575552724969725 ], [ 290.640739454725519, 849.575552724969725 ], [ 289.160000002647109, 910.33000000066329 ] ] ] } },
{ "type": "Feature", "properties": { "feature_type": "building", "subtype": "no-damage", "uid": "9faa5b94-60cc-4898-9c50-1cfc86c66b4a" }, "geometry": { "type": "Polygon", "coordinates": [ [ [ 196.372505982189892, 851.225597249524071 ], [ 243.423360390970203, 854.362320878529658 ], [ 243.048796995289706, 883.681469622722943 ], [ 195.079061132418389, 882.889281270468928 ], [ 196.372505982189892, 851.225597249524071 ] ] ] } },
{ "type": "Feature", "properties": { "feature_type": "building", "subtype": "no-damage", "uid": "9df9b36c-3412-4486-9244-dccc460e257b" }, "geometry": { "type": "Polygon", "coordinates": [ [ [ 221.821819186568689, 886.651462923091913 ], [ 241.483459500593597, 886.651462921050893 ], [ 241.688268252169109, 930.685344877456828 ], [ 202.364987628456589, 931.094962380097741 ], [ 202.364987629222099, 908.565999519511365 ], [ 218.544879133550893, 907.54195575372421 ], [ 218.340070382740805, 889.10916796036895 ], [ 221.821819186568689, 886.651462923091913 ] ] ] } },
{ "type": "Feature", "properties": { "feature_type": "building", "subtype": "no-damage", "uid": "48750417-8add-4b46-845e-4228aeba1d1e" }, "geometry": { "type": "Polygon", "coordinates": [ [ [ 215.893479947464186, 933.954429672405126 ], [ 242.817024414610103, 933.954429672405126 ], [ 241.510056236028589, 988.847093152957768 ], [ 213.540937226731813, 987.540124975140998 ], [ 215.893479947464186, 933.954429672405126 ] ] ] } },
{ "type": "Feature", "properties": { "feature_type": "building", "subtype": "no-damage", "uid": "855d5149-bc7e-48a0-876a-bc9079613df2" }, "geometry": { "type": "Polygon", "coordinates": [ [ [ 189.273087982194198, 1022.980088961972001 ], [ 184.546874995082703, 1018.274800302006042 ], [ 200.753280405309795, 1005.989299433384986 ], [ 210.484397322020811, 1017.068752742070956 ], [ 228.199612144551708, 1006.250693066499025 ], [ 240.4851130195444, 1020.36594938937003 ], [ 239.676834159135893, 1022.980831756540056 ], [ 189.273087982194198, 1022.980088961972001 ] ] ] } },
{ "type": "Feature", "properties": { "feature_type": "building", "subtype": "no-damage", "uid": "55260128-0e6a-4416-93ce-d800f363f775" }, "geometry": { "type": "Polygon", "coordinates": [ [ [ 86.85646206136262, 1022.978191430026982 ], [ 76.691303259856127, 1004.160746939042951 ], [ 77.998271437927414, 1001.024023314119972 ], [ 79.566633251919129, 997.103118777607961 ], [ 97.602794108741591, 990.045490616172515 ], [ 107.012964992436693, 1008.86583238102105 ], [ 121.472351389221402, 1002.408728071210021 ], [ 131.2760581568117, 1022.97907832068995 ], [ 86.85646206136262, 1022.978191430026982 ] ] ] } },
{ "type": "Feature", "properties": { "feature_type": "building", "subtype": "no-damage", "uid": "ff2a8de0-320f-4c58-8abe-9346b5de5e04" }, "geometry": { "type": "Polygon", "coordinates": [ [ [ 83.898148381113586, 932.438752379092989 ], [ 100.912354140680705, 931.771528625626502 ], [ 115.409676141515206, 933.978008642449254 ], [ 112.922381737770394, 980.47886276441443 ], [ 82.897312745301335, 980.812474645229827 ], [ 83.898148381113586, 932.438752379092989 ] ] ] } },
{ "type": "Feature", "properties": { "feature_type": "building", "subtype": "no-damage", "uid": "8fe9cb02-d760-436d-bd81-2e0ece93b7d6" }, "geometry": { "type": "Polygon", "coordinates": [ [ [ 103.449884212212794, 883.812464559787372 ], [ 118.872108713147895, 883.551070924632199 ], [ 131.680396863298114, 885.380826373779882 ], [ 131.157609588395701, 927.203808071061644 ], [ 99.267586041568293, 925.112658987779355 ], [ 98.483405139164873, 887.210581821906999 ], [ 103.449884212212794, 883.812464559787372 ] ] ] } },
{ "type": "Feature", "properties": { "feature_type": "building", "subtype": "no-damage", "uid": "02e60544-8f6e-45de-b468-eaa0b3ed0efc" }, "geometry": { "type": "Polygon", "coordinates": [ [ [ 131.312329192314792, 846.324043288697339 ], [ 131.573722823897896, 871.679225942629841 ], [ 84.784262049251979, 871.679225945691428 ], [ 84.000081142766405, 836.129691500297554 ], [ 103.865997452052298, 835.606904225905055 ], [ 104.388784721597006, 845.539862381190915 ], [ 131.312329192314792, 846.324043288697339 ] ] ] } },
{ "type": "Feature", "properties": { "feature_type": "building", "subtype": "no-damage", "uid": "5cb3adf9-d9e7-41c2-a9b2-552d5d39ca13" }, "geometry": { "type": "Polygon", "coordinates": [ [ [ 37.662318218648842, 822.413782483927093 ], [ 68.093217329173953, 823.892666476057457 ], [ 65.685715941534511, 862.780819687034295 ], [ 36.327870705082972, 861.112760298265357 ], [ 37.662318218648842, 822.413782483927093 ] ] ] } },
{ "type": "Feature", "properties": { "feature_type": "building", "subtype": "no-damage", "uid": "493c5c98-f444-434f-80e5-5016f14b4a8a" }, "geometry": { "type": "Polygon", "coordinates": [ [ [ 20.291774061545311, 835.153585467805556 ], [ 29.303359205367059, 836.454239535113174 ], [ 26.23122790800689, 871.476536340548932 ], [ 5.545543825899102, 869.838066312635988 ], [ 6.774396345812682, 858.368776133573647 ], [ 2.678221284706869, 857.959158625830014 ], [ 3.702265046156299, 846.285059689324044 ], [ 8.003248869298151, 846.08025093698302 ], [ 9.0272926338092, 835.839813270946365 ], [ 20.291774061545311, 835.153585467805556 ] ] ] } },
{ "type": "Feature", "properties": { "feature_type": "building", "subtype": "no-damage", "uid": "91b5003a-8b5a-4d90-8ef3-7a43c4752ae2" }, "geometry": { "type": "Polygon", "coordinates": [ [ [ 5.582390092825491, 881.820869524648174 ], [ 20.533429079536941, 879.567973240732726 ], [ 32.821954276631658, 882.844913292476576 ], [ 32.617145525566421, 924.421090202420601 ], [ 3.124685052998331, 923.397046436633332 ], [ 5.582390092825491, 881.820869524648174 ] ] ] } },
{ "type": "Feature", "properties": { "feature_type": "building", "subtype": "no-damage", "uid": "29e40b9b-a9af-49b9-9676-68715a0a9ebc" }, "geometry": { "type": "Polygon", "coordinates": [ [ [ 30.81780185790727, 935.94296697833704 ], [ 32.176103951729829, 959.789097101688753 ], [ 32.372535618132403, 968.561522433830419 ], [ 0.006699405755375, 970.032244382746853 ], [ 0.006723655559706, 928.33086877756341 ], [ 30.287661189772791, 927.451255846246227 ], [ 30.81780185790727, 935.94296697833704 ] ] ] } },
{ "type": "Feature", "properties": { "feature_type": "building", "subtype": "no-damage", "uid": "d8d4c788-bd82-494d-8052-47726be3e45e" }, "geometry": { "type": "Polygon", "coordinates": [ [ [ 38.991040318892303, 959.690580591145817 ], [ 32.176103951729829, 959.789097101688753 ], [ 30.81780185790727, 935.94296697833704 ], [ 37.656592808388027, 935.670525396954417 ], [ 38.991040318892303, 959.690580591145817 ] ] ] } },
{ "type": "Feature", "properties": { "feature_type": "building", "subtype": "no-damage", "uid": "490e0d6b-4c5a-4f64-9902-d83daa5ff738" }, "geometry": { "type": "Polygon", "coordinates": [ [ [ 0.006696252033202, 975.175740383705715 ], [ 13.368670874614409, 974.044693923469026 ], [ 25.187742830153109, 975.679246427856128 ], [ 25.439212446369542, 1015.537180586954037 ], [ 0.006670304051152, 1015.537180591036986 ], [ 0.006696252033202, 975.175740383705715 ] ] ] } },
{ "type": "Feature", "properties": { "feature_type": "building", "subtype": "no-damage", "uid": "5f2b70b9-dcbf-47b2-92fd-febc12c88776" }, "geometry": { "type": "Polygon", "coordinates": [ [ [ 0.006803132369048, 744.024343463265268 ], [ 27.736610401246239, 744.285672978944604 ], [ 29.304972213452, 755.525599314088254 ], [ 26.1682485869994, 768.856674729452607 ], [ 0.006795056074624, 768.856674730473173 ], [ 0.006803132369048, 744.024343463265268 ] ] ] } },
{ "type": "Feature", "properties": { "feature_type": "building", "subtype": "no-damage", "uid": "58edd35d-b28b-4170-b477-efefe243346f" }, "geometry": { "type": "Polygon", "coordinates": [ [ [ 33.621970924813233, 744.094387556689412 ], [ 69.820985735192707, 745.854034793957567 ], [ 73.219102997820855, 756.309780217512639 ], [ 70.08237937111312, 771.732004718200301 ], [ 31.65751493418443, 770.947823813755463 ], [ 33.621970924813233, 744.094387556689412 ] ] ] } },
{ "type": "Feature", "properties": { "feature_type": "building", "subtype": "no-damage", "uid": "3dbe109a-9e70-473a-9665-593f12ba2449" }, "geometry": { "type": "Polygon", "coordinates": [ [ [ 79.558208100356538, 770.940349125322314 ], [ 79.967825605038357, 742.471932423374142 ], [ 114.170887399562005, 742.881549934179361 ], [ 113.966078647986507, 771.34996663510708 ], [ 79.558208100356538, 770.940349125322314 ] ] ] } },
{ "type": "Feature", "properties": { "feature_type": "building", "subtype": "no-damage", "uid": "751d9c53-ae3e-4e52-aea1-aed45e308bf5" }, "geometry": { "type": "Polygon", "coordinates": [ [ [ 0.006830542018789, 624.353369119895547 ], [ 20.997230402432489, 623.927724938487358 ], [ 30.733132792119122, 634.905904027664292 ], [ 25.38229946623122, 651.085646193395405 ], [ 0.006826053686093, 651.177792222909488 ], [ 0.006830542018789, 624.353369119895547 ] ] ] } },
{ "type": "Feature", "properties": { "feature_type": "building", "subtype": "no-damage", "uid": "11f1cf32-90f8-44bb-913e-d89e02187c60" }, "geometry": { "type": "Polygon", "coordinates": [ [ [ 78.581170483695715, 629.014778389234266 ], [ 76.245887343502446, 655.036504853010115 ], [ 37.880521404130938, 651.366774197718314 ], [ 40.215804549937182, 625.678659614757862 ], [ 78.581170483695715, 629.014778389234266 ] ] ] } },
{ "type": "Feature", "properties": { "feature_type": "building", "subtype": "no-damage", "uid": "2c48706b-3e91-47d8-b3e7-e47258df2db1" }, "geometry": { "type": "Polygon", "coordinates": [ [ [ 82.250901141792156, 629.682002146782906 ], [ 93.260093102304197, 630.349225903311094 ], [ 93.59370498158863, 625.011435861291261 ], [ 109.835091995312993, 624.935430231301439 ], [ 125.438844619488705, 636.816654702984465 ], [ 123.314751458435794, 678.078932547486602 ], [ 103.374044424483301, 677.903713153960553 ], [ 103.859667559410099, 655.452503587042884 ], [ 82.098889882067667, 657.196568606822325 ], [ 82.250901141792156, 629.682002146782906 ] ] ] } },
{ "type": "Feature", "properties": { "feature_type": "building", "subtype": "no-damage", "uid": "da19d453-b20d-430b-9e35-ac280d04528c" }, "geometry": { "type": "Polygon", "coordinates": [ [ [ 182.973050489587905, 723.56384232045184 ], [ 237.351786555010506, 725.565513589015723 ], [ 235.683727170069403, 753.588911314211828 ], [ 230.679549001979012, 757.258641969503628 ], [ 177.301648569817189, 755.924194458488387 ], [ 178.636096080831805, 729.568856118999747 ], [ 182.973050489587905, 723.56384232045184 ] ] ] } },
{ "type": "Feature", "properties": { "feature_type": "building", "subtype": "no-damage", "uid": "ec74b727-70b7-4eb5-95e5-85ff25905488" }, "geometry": { "type": "Polygon", "coordinates": [ [ [ 177.635260448081112, 684.531252631421467 ], [ 240.35429345428301, 685.865700141416141 ], [ 240.354293454793208, 709.552143454792258 ], [ 235.016503411500508, 713.889097868653266 ], [ 177.301648570837813, 712.888262235391835 ], [ 177.635260448081112, 684.531252631421467 ] ] ] } },
{ "type": "Feature", "properties": { "feature_type": "building", "subtype": "no-damage", "uid": "740ac911-0dab-49e5-82ad-f811b3a53553" }, "geometry": { "type": "Polygon", "coordinates": [ [ [ 181.150127040810901, 643.284205617352086 ], [ 182.457095217606508, 622.224490897653482 ], [ 224.541470553338911, 624.577033618131964 ], [ 224.541470553849194, 642.61319447445328 ], [ 221.666140561020796, 645.227130834169088 ], [ 181.150127040810901, 643.284205617352086 ] ] ] } },
{ "type": "Feature", "properties": { "feature_type": "building", "subtype": "minor-damage", "uid": "fe252059-df7f-4d23-9b06-4a09bfd97e97" }, "geometry": { "type": "Polygon", "coordinates": [ [ [ 261.778985910837321, 622.806599337598982 ], [ 297.11894905910242, 623.658164713614838 ], [ 294.564252928505027, 770.978974947021356 ], [ 259.224289779984815, 769.275844191928172 ], [ 261.778985910837321, 622.806599337598982 ] ] ] } },
{ "type": "Feature", "properties": { "feature_type": "building", "subtype": "no-damage", "uid": "1b8c1dad-3d41-4459-9d03-2a5bf1cb4421" }, "geometry": { "type": "Polygon", "coordinates": [ [ [ 447.17281567380968, 697.613809502173467 ], [ 490.176867215652919, 699.316940255225518 ], [ 489.325301839382405, 767.442170421192714 ], [ 485.067474953437625, 773.403128060446988 ], [ 443.340771476382827, 772.551562682390113 ], [ 447.17281567380968, 697.613809502173467 ] ] ] } },
{ "type": "Feature", "properties": { "feature_type": "building", "subtype": "no-damage", "uid": "4f2bac1a-9f1f-4adf-88b4-13b8c68b4b83" }, "geometry": { "type": "Polygon", "coordinates": [ [ [ 453.801377988506374, 614.688918215201625 ], [ 453.821137546374814, 586.883535113211906 ], [ 451.729988464114115, 586.099354208766954 ], [ 451.991382096717814, 580.610087861324018 ], [ 449.377445740575183, 580.087300587952086 ], [ 449.68318664519029, 567.308358507138564 ], [ 452.498580941852424, 566.105788414099493 ], [ 452.514169369324009, 560.482777916617806 ], [ 454.86671209005641, 560.221384280442066 ], [ 454.866712088525617, 534.343414356199332 ], [ 472.118692040138228, 534.604807991354505 ], [ 472.380085676313684, 531.468084361328465 ], [ 486.233948366318714, 531.468084361328465 ], [ 486.495341999942923, 536.957350709791967 ], [ 501.841488375844619, 536.957350712853554 ], [ 502.175100252322522, 614.355306337447814 ], [ 453.801377988506374, 614.688918215201625 ] ] ] } },
{ "type": "Feature", "properties": { "feature_type": "building", "subtype": "no-damage", "uid": "53a99412-5508-4040-bdd6-4076d41f41c0" }, "geometry": { "type": "Polygon", "coordinates": [ [ [ 0.006838809154099, 525.88820440402435 ], [ 39.613254774080808, 526.4109014157807 ], [ 42.488584767419468, 528.763444137279748 ], [ 41.709403718641148, 541.447627623802077 ], [ 37.522105689779067, 545.754030450939354 ], [ 0.006838180756905, 545.75403045706264 ], [ 0.006838809154099, 525.88820440402435 ] ] ] } },
{ "type": "Feature", "properties": { "feature_type": "building", "subtype": "un-classified", "uid": "c41d6af5-0822-459b-92c3-440b1f031e92" }, "geometry": { "type": "Polygon", "coordinates": [ [ [ 46.017335484113879, 529.447615229828216 ], [ 86.055803636714586, 528.86253373687839 ], [ 86.456429280680695, 548.661283666189661 ], [ 45.355154561487112, 548.545634519249916 ], [ 46.017335484113879, 529.447615229828216 ] ] ] } },
{ "type": "Feature", "properties": { "feature_type": "building", "subtype": "no-damage", "uid": "bf9dcf57-1018-4079-aac2-8f730d544310" }, "geometry": { "type": "Polygon", "coordinates": [ [ [ 90.992689556071525, 549.801972467279484 ], [ 91.53922133379973, 528.407219750588411 ], [ 98.380786245082419, 527.778545710047069 ], [ 98.878682642083433, 511.393013985144592 ], [ 126.568468492063005, 513.394685251667397 ], [ 126.234856614564507, 551.426439307436453 ], [ 90.992689556071525, 549.801972467279484 ] ] ] } },
{ "type": "Feature", "properties": { "feature_type": "building", "subtype": "no-damage", "uid": "388e7074-b231-494e-84b9-7cc70f864a46" }, "geometry": { "type": "Polygon", "coordinates": [ [ [ 272.122944719713018, 405.873584168174375 ], [ 272.974510094707796, 452.48678857071809 ], [ 260.560250091290811, 452.379219065571988 ], [ 260.286697652668522, 463.880922332135185 ], [ 184.087511181761698, 463.593122112035587 ], [ 184.906746194697206, 393.487619852749503 ], [ 258.023471106210422, 392.053958579218602 ], [ 258.433088613188374, 405.980953799640076 ], [ 272.122944719713018, 405.873584168174375 ] ] ] } },
{ "type": "Feature", "properties": { "feature_type": "building", "subtype": "no-damage", "uid": "6802a1a9-e132-4202-bc6a-24ec73e0f8fd" }, "geometry": { "type": "Polygon", "coordinates": [ [ [ 156.570309670646992, 293.762664711903426 ], [ 323.439359216751086, 295.630184520869875 ], [ 323.439359216240916, 344.169411012960722 ], [ 320.033097708862726, 349.704585963186389 ], [ 156.532545310573113, 345.872541763971583 ], [ 156.570309670646992, 293.762664711903426 ] ] ] } },
{ "type": "Feature", "properties": { "feature_type": "building", "subtype": "no-damage", "uid": "b57a8f2c-47d2-4b2b-9462-d4a466fbf5e0" }, "geometry": { "type": "Polygon", "coordinates": [ [ [ 159.436808231568193, 212.97669367925829 ], [ 321.270341978591489, 213.91604618099251 ], [ 322.67455660299828, 278.933930966948822 ], [ 320.418776598493992, 282.041276344918572 ], [ 154.460519162928506, 281.410684904569678 ], [ 154.554808085298902, 214.725534194198701 ], [ 159.436808231568193, 212.97669367925829 ] ] ] } },
{ "type": "Feature", "properties": { "feature_type": "building", "subtype": "no-damage", "uid": "cd6e555c-b9bb-4417-ac4d-60a56b64899f" }, "geometry": { "type": "Polygon", "coordinates": [ [ [ 25.714749783536611, 86.93691769977319 ], [ 36.145495909875507, 87.097390715005531 ], [ 37.108334012750142, 96.244352703672618 ], [ 44.490092811916163, 96.0838796863992 ], [ 46.576242032897667, 107.477463911791503 ], [ 43.527254704704227, 120.796724351608603 ], [ 7.902244864154925, 121.278143400367199 ], [ 8.062717881683399, 93.034892358204232 ], [ 26.03569581935896, 93.516311409003947 ], [ 25.714749783536611, 86.93691769977319 ] ] ] } },
{ "type": "Feature", "properties": { "feature_type": "building", "subtype": "no-damage", "uid": "38ff5738-d0cb-483a-87cd-d78233ad592e" }, "geometry": { "type": "Polygon", "coordinates": [ [ [ 50.596322814850488, 125.075127732696799 ], [ 50.356459955039078, 95.629285894830502 ], [ 67.848302764932228, 96.060434180469116 ], [ 73.598962748292806, 102.072487800263403 ], [ 73.337569116454546, 123.76815955488 ], [ 50.596322814850488, 125.075127732696799 ] ] ] } },
{ "type": "Feature", "properties": { "feature_type": "building", "subtype": "no-damage", "uid": "3f49e06f-bb69-4fa7-891a-dc30c3309031" }, "geometry": { "type": "Polygon", "coordinates": [ [ [ 90.765503588593049, 80.592054458527045 ], [ 104.822768385124604, 82.665331537815746 ], [ 123.976553296054306, 82.720967897545961 ], [ 125.814452989185696, 119.5026681670426 ], [ 89.517775636577213, 120.189844492246706 ], [ 90.765503588593049, 80.592054458527045 ] ] ] } },
{ "type": "Feature", "properties": { "feature_type": "building", "subtype": "no-damage", "uid": "6e64f4f7-fea8-4cce-b79d-7365275176e4" }, "geometry": { "type": "Polygon", "coordinates": [ [ [ 196.712109144470105, 139.441601275018087 ], [ 194.34636496083769, 114.3378882362817 ], [ 187.027343162975086, 115.644856413078003 ], [ 187.288736799405797, 97.347301921601527 ], [ 194.084971324662092, 97.608695559818301 ], [ 194.084971324917205, 86.630162860850277 ], [ 210.029983096162312, 85.845981952323214 ], [ 222.576877606310006, 89.505492852659586 ], [ 223.099664877385408, 104.404930083037002 ], [ 230.418686674992813, 105.189110990543497 ], [ 230.680080311678694, 120.872729125365794 ], [ 222.0540903365102, 121.134122762562001 ], [ 222.576877607075403, 139.170283620924408 ], [ 196.712109144470105, 139.441601275018087 ] ] ] } },
{ "type": "Feature", "properties": { "feature_type": "building", "subtype": "un-classified", "uid": "24eeb0c1-5166-4402-bfa8-1d700837bd58" }, "geometry": { "type": "Polygon", "coordinates": [ [ [ 252.461629450068386, 95.398474838142448 ], [ 264.224343053985706, 96.444049381824655 ], [ 263.96294941832042, 113.434635695484303 ], [ 251.677448544093096, 113.173242059308606 ], [ 252.461629450068386, 95.398474838142448 ] ] ] } },
{ "type": "Feature", "properties": { "feature_type": "building", "subtype": "no-damage", "uid": "a795dc79-d1cd-457e-b637-7c86142195bb" }, "geometry": { "type": "Polygon", "coordinates": [ [ [ 194.991153334793495, 43.412235881503641 ], [ 218.677596652239714, 39.742505226211833 ], [ 228.685952980001105, 42.4114002472217 ], [ 231.021236125807405, 81.443989940334248 ], [ 194.99115333606909, 81.777601815026429 ], [ 194.991153334793495, 43.412235881503641 ] ] ] } },
{ "type": "Feature", "properties": { "feature_type": "building", "subtype": "un-classified", "uid": "43d2f9f5-eaa5-495d-852c-475796ebd7a6" }, "geometry": { "type": "Polygon", "coordinates": [ [ [ 241.696816213413314, 64.763396049582582 ], [ 265.716871403255425, 63.428948540608459 ], [ 266.717707037281684, 83.112049328082719 ], [ 242.364039968665509, 83.779273083590326 ], [ 241.696816213413314, 64.763396049582582 ] ] ] } },
{ "type": "Feature", "properties": { "feature_type": "building", "subtype": "no-damage", "uid": "70298382-bf0b-4bea-ac5f-0a7cd9539137" }, "geometry": { "type": "Polygon", "coordinates": [ [ [ 309.052295950552718, 42.940014004065411 ], [ 329.931812868196175, 43.980222956240127 ], [ 331.03668254474411, 62.30504374533659 ], [ 322.111411270468693, 62.730826432323937 ], [ 322.4563680449088, 79.810629520986822 ], [ 291.406562147454281, 81.039482039115086 ], [ 290.12921408113499, 45.273736204610188 ], [ 309.052295950552718, 42.940014004065411 ] ] ] } },
{ "type": "Feature", "properties": { "feature_type": "building", "subtype": "no-damage", "uid": "d07d3a94-40e5-4b7f-a1b2-4a8c9608e760" }, "geometry": { "type": "Polygon", "coordinates": [ [ [ 128.106377493266507, 0.003018745619104 ], [ 127.322385786638904, 12.512102742821099 ], [ 121.083992636356598, 18.524156364656491 ], [ 96.251597250450828, 18.036423197224281 ], [ 92.818425881882987, 15.38743273463041 ], [ 92.557032246983098, 9.898166385146396 ], [ 90.204489526250683, 3.363325497082875 ], [ 90.430676510325071, 0.002266766195337 ], [ 128.106377493266507, 0.003018745619104 ] ] ] } },
{ "type": "Feature", "properties": { "feature_type": "building", "subtype": "un-classified", "uid": "32ef42f1-ddb9-4e8f-bf0b-05d9f4b23317" }, "geometry": { "type": "Polygon", "coordinates": [ [ [ 82.319477399129454, 30.769157848023941 ], [ 83.548329919298169, 21.962381457559189 ], [ 96.451281374691305, 25.03451275798253 ], [ 96.656090126777087, 29.5403053278546 ], [ 94.812811347799681, 33.841289147426743 ], [ 82.319477399129454, 30.769157848023941 ] ] ] } },
{ "type": "Feature", "properties": { "feature_type": "building", "subtype": "no-damage", "uid": "25eb6500-dede-4744-a32f-5cdf6e714a17" }, "geometry": { "type": "Polygon", "coordinates": [ [ [ 244.27731512089531, 0.004894036946539 ], [ 244.854907419208189, 18.403951848842549 ], [ 228.59740323088721, 18.671726715389489 ], [ 228.597403234459108, 35.345939369646658 ], [ 205.578183670223808, 38.682058147184669 ], [ 203.242900528499689, 17.998121729510629 ], [ 191.900096684365991, 17.998121730531171 ], [ 189.565344777331887, 0.004094266678787 ], [ 244.27731512089531, 0.004894036946539 ] ] ] } },
{ "type": "Feature", "properties": { "feature_type": "building", "subtype": "no-damage", "uid": "36f46cc5-e9ec-4685-a342-0f0ee0e9d6fc" }, "geometry": { "type": "Polygon", "coordinates": [ [ [ 335.707117484504124, 0.005899057096868 ], [ 337.041119756589126, 17.680283441832199 ], [ 319.026078361464783, 19.014730952847401 ], [ 318.692466481159897, 36.028936715229626 ], [ 315.356347703623612, 39.365055492767652 ], [ 295.006023165244414, 38.364219859506242 ], [ 292.337128143470522, 34.36087732748117 ], [ 292.003516266737392, 18.347507197339802 ], [ 282.970663884802377, 17.21153023015728 ], [ 282.945340101956674, 0.005369700199494 ], [ 335.707117484504124, 0.005899057096868 ] ] ] } },
{ "type": "Feature", "properties": { "feature_type": "building", "subtype": "minor-damage", "uid": "9ecc3a61-51b4-46a1-814c-57fa3659e1a1" }, "geometry": { "type": "Polygon", "coordinates": [ [ [ 592.754209568245642, 372.180821930292609 ], [ 623.870000003289761, 405.480000002300415 ], [ 684.157797252473301, 469.775087239233585 ], [ 659.586795502487917, 499.835355336164127 ], [ 653.051954616213607, 498.789780793502416 ], [ 641.550634647196262, 507.154377132754689 ], [ 626.128410144730424, 490.686578089405316 ], [ 622.468899244651084, 490.947971722519412 ], [ 618.025207441402813, 483.628949927969927 ], [ 619.070781983043389, 481.537800840605485 ], [ 601.034621125200488, 465.331395432411284 ], [ 597.636503862317113, 465.331395435472928 ], [ 591.624450244056675, 460.103522720123522 ], [ 592.670024787228044, 455.659830915342184 ], [ 572.542714842787177, 435.271127338542385 ], [ 568.883203944748857, 436.316701880183587 ], [ 562.124515086882525, 436.521510635586196 ], [ 556.594678750460616, 430.582056788101113 ], [ 556.549868640571162, 424.824581369254588 ], [ 559.417191184314788, 419.909171290618417 ], [ 538.526698352672497, 400.657148485858102 ], [ 536.478610821354209, 401.476383498283781 ], [ 529.719921960681404, 395.946547162624427 ], [ 531.563200740169123, 392.669607108839614 ], [ 512.925604194737502, 373.238213250774322 ], [ 510.788112456897807, 374.369826523748827 ], [ 504.249902440373319, 368.460290544700683 ], [ 506.135924559445186, 366.197064000792807 ], [ 490.636667711700397, 350.23198825494552 ], [ 499.785444957689094, 337.162306473715773 ], [ 504.880645256834782, 326.994208205664791 ], [ 517.984482940144289, 314.4775184082593 ], [ 522.556895966683783, 314.477518407238676 ], [ 525.595103081573029, 317.387004298583122 ], [ 532.721043044371186, 311.022942913297413 ], [ 592.754209568245642, 372.180821930292609 ] ] ] } },
{ "type": "Feature", "properties": { "feature_type": "building", "subtype": "minor-damage", "uid": "48c43e98-8fe1-471b-ab4e-9c86d9a5183b" }, "geometry": { "type": "Polygon", "coordinates": [ [ [ 839.110000005491315, 422.30000000028798 ], [ 838.628494431822787, 496.302684493311176 ], [ 811.184121496185981, 496.712302003095886 ], [ 810.160077730909506, 503.675799614327218 ], [ 797.871552535600699, 504.495034627773407 ], [ 797.328089062420304, 494.544904158535701 ], [ 765.173114802786813, 493.316051638366389 ], [ 766.540480596161728, 469.360000002091397 ], [ 770.002995894766855, 466.001227304164274 ], [ 770.720000003600603, 420.090000000894008 ], [ 839.110000005491315, 422.30000000028798 ] ] ] } },
{ "type": "Feature", "properties": { "feature_type": "building", "subtype": "minor-damage", "uid": "8683a7e4-7f8d-411f-9aec-1277912f3904" }, "geometry": { "type": "Polygon", "coordinates": [ [ [ 799.543340649363927, 378.245452482432086 ], [ 800.140000278198613, 394.027927297083181 ], [ 812.314457503770768, 394.027927295042105 ], [ 812.60223131281839, 400.392550104617214 ], [ 838.947371155686255, 400.128103483722384 ], [ 839.110000005491315, 422.30000000028798 ], [ 770.720000003600603, 420.090000000894008 ], [ 770.850000006251321, 399.290000002335375 ], [ 778.8488393851419, 399.600187614647609 ], [ 778.670000004083363, 394.670000003708424 ], [ 779.09227498354835, 394.659141214476222 ], [ 779.438030457455056, 377.461674806408496 ], [ 799.543340649363927, 378.245452482432086 ] ] ] } },
{ "type": "Feature", "properties": { "feature_type": "building", "subtype": "no-damage", "uid": "f0bf4ea5-aa58-4d0e-a618-868b8f589f78" }, "geometry": { "type": "Polygon", "coordinates": [ [ [ 770.002995894766855, 466.001227304164274 ], [ 766.540480596161728, 469.360000002091397 ], [ 713.416980820161143, 470.787088781862224 ], [ 714.236215836158294, 400.947303919249521 ], [ 717.899107211060027, 398.278598406300375 ], [ 760.167190267102683, 398.843141594993085 ], [ 770.850000006251321, 399.290000002335375 ], [ 770.002995894766855, 466.001227304164274 ] ] ] } },
{ "type": "Feature", "properties": { "feature_type": "building", "subtype": "no-damage", "uid": "32d13f98-2a5d-48e5-93ad-1e685021d0da" }, "geometry": { "type": "Polygon", "coordinates": [ [ [ 778.8488393851419, 399.600187614647609 ], [ 760.167190267102683, 398.843141594993085 ], [ 760.257704724152973, 394.121201463611726 ], [ 778.670000004083363, 394.670000003708424 ], [ 778.8488393851419, 399.600187614647609 ] ] ] } },
{ "type": "Feature", "properties": { "feature_type": "building", "subtype": "minor-damage", "uid": "b2da241b-5c5b-4b86-8e90-f50bddc63f73" }, "geometry": { "type": "Polygon", "coordinates": [ [ [ 899.840000002940656, 341.133351393304224 ], [ 899.032730043794231, 383.094287984537573 ], [ 836.670000002763004, 380.660000002590607 ], [ 836.151265824700431, 339.182310521895999 ], [ 899.840000002940656, 341.133351393304224 ] ] ] } },
{ "type": "Feature", "properties": { "feature_type": "building", "subtype": "minor-damage", "uid": "8720ed1f-6e8d-4b18-a99b-5d6751e235c7" }, "geometry": { "type": "Polygon", "coordinates": [ [ [ 860.464645164638, 310.218653840560876 ], [ 899.654439299020623, 310.255419902522988 ], [ 899.840000002940656, 341.133351393304224 ], [ 836.151265824700431, 339.182310521895999 ], [ 836.170645983234522, 304.812057092925386 ], [ 860.087440741589035, 304.560587476708918 ], [ 860.464645164638, 310.218653840560876 ] ] ] } },
{ "type": "Feature", "properties": { "feature_type": "building", "subtype": "no-damage", "uid": "aa648b7d-c546-4499-817d-43738ff0c917" }, "geometry": { "type": "Polygon", "coordinates": [ [ [ 836.670000002763004, 380.660000002590607 ], [ 799.543340649363927, 378.245452482432086 ], [ 779.438030457455056, 377.461674806408496 ], [ 694.163204905367593, 377.302997948850589 ], [ 692.900000003491186, 375.890000001788223 ], [ 692.120000003660493, 353.680000003191424 ], [ 692.211266443706336, 335.713149543835414 ], [ 836.151265824700431, 339.182310521895999 ], [ 836.670000002763004, 380.660000002590607 ] ] ] } },
{ "type": "Feature", "properties": { "feature_type": "building", "subtype": "no-damage", "uid": "03431644-82f9-4d16-914d-8d24d31bb421" }, "geometry": { "type": "Polygon", "coordinates": [ [ [ 675.139651590157087, 369.71379343707639 ], [ 692.120000003660493, 353.680000003191424 ], [ 692.900000003491186, 375.890000001788223 ], [ 664.670744434075118, 403.518518363821727 ], [ 625.347463810617796, 403.313709611480704 ], [ 623.870000003289761, 405.480000002300415 ], [ 592.754209568245642, 372.180821930292609 ], [ 597.874428400240845, 366.855794344933202 ], [ 598.284045905177777, 331.423880034815284 ], [ 607.270534876056672, 321.795498995348623 ], [ 592.730000004296585, 307.990000001866576 ], [ 604.844708425865406, 295.178221477030377 ], [ 675.139651590157087, 369.71379343707639 ] ] ] } },
{ "type": "Feature", "properties": { "feature_type": "building", "subtype": "no-damage", "uid": "221d0435-9eaf-4524-bf7b-f74f1e3bc138" }, "geometry": { "type": "Polygon", "coordinates": [ [ [ 578.243110867219684, 250.155200875277814 ], [ 582.526198105908861, 246.286531752671891 ], [ 602.802264677466724, 266.152980818537515 ], [ 597.988636221903334, 272.349874974064676 ], [ 606.637360954394239, 282.571095107852614 ], [ 603.310928362639174, 287.651464878081981 ], [ 607.181686285679348, 292.671354054982601 ], [ 592.730000002510678, 308.144380532049013 ], [ 592.66749030035578, 308.084639498178319 ], [ 579.002605086621543, 320.85012980709422 ], [ 531.447767595771325, 274.094713329077422 ], [ 546.225244415742281, 260.696467673792824 ], [ 542.580133465702033, 256.755807189825873 ], [ 543.466782076660706, 253.406245775239398 ], [ 554.20508190186888, 242.766462464140488 ], [ 559.13090750835579, 248.086354120200212 ], [ 566.815195456220522, 241.387231293068197 ], [ 578.243110867219684, 250.155200875277814 ] ] ] } },
{ "type": "Feature", "properties": { "feature_type": "building", "subtype": "no-damage", "uid": "a2cfeadf-647b-431a-9c15-41ea43b3c3a7" }, "geometry": { "type": "Polygon", "coordinates": [ [ [ 730.497342904986112, 582.390700041426157 ], [ 732.165402291458122, 564.04204676802874 ], [ 831.581741843925897, 567.04455366781292 ], [ 831.581741843925897, 580.722640652657219 ], [ 830.580906210665034, 585.05959506549766 ], [ 730.497342904986112, 582.390700041426157 ] ] ] } },
{ "type": "Feature", "properties": { "feature_type": "building", "subtype": "no-damage", "uid": "b134849a-4227-46e5-8760-7546bac69638" }, "geometry": { "type": "Polygon", "coordinates": [ [ [ 820.906161756575102, 550.030347905430745 ], [ 820.62321325088385, 535.672371320851425 ], [ 840.255650662713947, 535.537229988971376 ], [ 840.922874418986567, 545.693393496672343 ], [ 837.920367518948751, 550.030347905430745 ], [ 820.906161756575102, 550.030347905430745 ] ] ] } },
{ "type": "Feature", "properties": { "feature_type": "building", "subtype": "no-damage", "uid": "af14944c-f65d-4e79-80aa-9c0cd0a491a7" }, "geometry": { "type": "Polygon", "coordinates": [ [ [ 785.863959642899658, 537.699780401562066 ], [ 812.21929798135443, 538.033392279315876 ], [ 811.885686103600733, 561.052611839225506 ], [ 784.529512131885099, 560.385388082697318 ], [ 785.863959642899658, 537.699780401562066 ] ] ] } },
{ "type": "Feature", "properties": { "feature_type": "building", "subtype": "no-damage", "uid": "21385379-3a7c-4b76-931f-f96c7dfb6c73" }, "geometry": { "type": "Polygon", "coordinates": [ [ [ 899.552308894076305, 511.269833786396077 ], [ 925.358211802821529, 511.269833784355001 ], [ 928.430343100691971, 517.82371389192474 ], [ 928.020725597030719, 525.401637763240728 ], [ 898.73307387909972, 525.196829009879139 ], [ 899.552308894076305, 511.269833786396077 ] ] ] } },
{ "type": "Feature", "properties": { "feature_type": "building", "subtype": "no-damage", "uid": "270f0ce4-d84e-43ce-8e72-1ff579b263a8" }, "geometry": { "type": "Polygon", "coordinates": [ [ [ 923.433428048909832, 527.999112458619948 ], [ 949.911475902582652, 528.641004528734243 ], [ 949.430056855099906, 539.071750654568064 ], [ 923.27295503240191, 538.269385565139373 ], [ 923.433428048909832, 527.999112458619948 ] ] ] } },
{ "type": "Feature", "properties": { "feature_type": "building", "subtype": "no-damage", "uid": "6194c0f6-2dcc-4d32-b61c-d634359e8535" }, "geometry": { "type": "Polygon", "coordinates": [ [ [ 1022.982891761937026, 116.347872060285795 ], [ 1018.193139112065978, 119.328162381675796 ], [ 994.191447413700871, 120.876658620840502 ], [ 982.061560213040593, 120.618575912782205 ], [ 981.862275585363477, 98.576967027973595 ], [ 992.915765683502741, 98.850946849145998 ], [ 992.942802226045842, 97.225136589168372 ], [ 1000.34494248275405, 96.358801508387629 ], [ 1000.127349660511982, 93.519891741178199 ], [ 1007.353665438173948, 93.003726326082244 ], [ 1007.552033626997968, 95.780880960434672 ], [ 1016.386560164844013, 96.200923206655531 ], [ 1016.386560165610035, 97.431622219548316 ], [ 1022.982881469030985, 97.396541756135079 ], [ 1022.982891761937026, 116.347872060285795 ] ] ] } },
{ "type": "Feature", "properties": { "feature_type": "building", "subtype": "no-damage", "uid": "30ba319f-8340-425f-b4a0-efc1ba2bc1b4" }, "geometry": { "type": "Polygon", "coordinates": [ [ [ 1022.982835615680983, 21.787529133719541 ], [ 1008.262671406102982, 22.27033240652953 ], [ 1008.262671404571961, 16.850595569963541 ], [ 993.551957137107706, 16.592512864966899 ], [ 993.293874433897145, 4.9787910737834 ], [ 997.422526797910564, 0.000808965328596 ], [ 1022.982820979868961, 0.000176533942285 ], [ 1022.982835615680983, 21.787529133719541 ] ] ] } },
{ "type": "Feature", "properties": { "feature_type": "building", "subtype": "no-damage", "uid": "4eccac0e-b390-4faa-b16b-7ca258481d88" }, "geometry": { "type": "Polygon", "coordinates": [ [ [ 780.176443284853804, 36.635698653293971 ], [ 781.164601881885687, 87.031787218543087 ], [ 774.90626408639605, 93.290125014801262 ], [ 740.979485507933305, 93.290125017862877 ], [ 740.979485507678191, 82.420380423717305 ], [ 740.95622617238962, 82.420380422696766 ], [ 746.659647342754738, 78.618075842449912 ], [ 748.969647339515632, 36.635698651252888 ], [ 780.176443284853804, 36.635698653293971 ] ] ] } },
{ "type": "Feature", "properties": { "feature_type": "building", "subtype": "no-damage", "uid": "15a78f36-a9c3-4549-a6f1-d08fdda740b3" }, "geometry": { "type": "Polygon", "coordinates": [ [ [ 748.969647339515632, 36.635698651252888 ], [ 746.659647342754738, 78.618075842449912 ], [ 740.95622617238962, 82.420380422696766 ], [ 690.583396940158309, 82.749766621962692 ], [ 689.26585213875785, 17.201912863946522 ], [ 748.225981905557433, 16.213754261046009 ], [ 748.969647339515632, 36.635698651252888 ] ] ] } },
{ "type": "Feature", "properties": { "feature_type": "building", "subtype": "no-damage", "uid": "46d4acb0-1820-4c63-baf8-05ecb9cecdf6" }, "geometry": { "type": "Polygon", "coordinates": [ [ [ 574.713875653992773, 61.724557997885569 ], [ 612.61829945473778, 47.731897207707433 ], [ 631.672677395380219, 89.476406703499634 ], [ 590.974723601186724, 101.884663549950005 ], [ 574.713875653992773, 61.724557997885569 ] ] ] } },
{ "type": "Feature", "properties": { "feature_type": "building", "subtype": "no-damage", "uid": "ffb4b8a3-40bd-42fb-8665-60bf8b55e117" }, "geometry": { "type": "Polygon", "coordinates": [ [ [ 560.303462667915142, 0.006606998200372 ], [ 563.897655041622784, 4.010271186924914 ], [ 568.562942024259769, 1.070298541689858 ], [ 591.538865278005233, 28.730903780877629 ], [ 567.59103513367802, 47.154418246173172 ], [ 548.955218719878985, 23.31116694839379 ], [ 536.567248810905312, 31.827896256145301 ], [ 512.31255532848877, 0.006665988444768 ], [ 560.303462667915142, 0.006606998200372 ] ] ] } },
{ "type": "Feature", "properties": { "feature_type": "building", "subtype": "no-damage", "uid": "2d6a5bd3-2bd3-41f7-bbb4-f4d764b83e94" }, "geometry": { "type": "Polygon", "coordinates": [ [ [ 211.797459342204405, 489.964586683919208 ], [ 299.134153484781109, 494.026758503912902 ], [ 299.540370665657576, 509.463011424175079 ], [ 301.977673758571086, 509.463011422134116 ], [ 300.759022213134926, 526.117915888598532 ], [ 298.3217191207317, 526.524133068964943 ], [ 298.727936301097998, 541.554168805799122 ], [ 210.172590613340304, 540.335517257555807 ], [ 210.985024980451186, 521.243309703789691 ], [ 208.547721885751798, 521.243309703789691 ], [ 208.953939067138691, 504.588405238345672 ], [ 211.391242160562399, 504.588405236304709 ], [ 211.797459342204405, 489.964586683919208 ] ] ] } }
]
}
