{
"type": "FeatureCollection",
"name": "midwest-flooding_00000439_post_disaster",
"features": [
{ "type": "Feature", "properties": { "feature_type": "building", "subtype": "no-damage", "uid": "026b2f48-3576-4939-a4c2-8302b5acd59b" }, "geometry": { "type": "Polygon", "coordinates": [ [ [ 249.896799896068188, 768.077734234779768 ], [ 269.398391220664507, 769.104133779017161 ], [ 272.819723032564411, 770.472666503982737 ], [ 270.424790767980994, 787.921458741648621 ], [ 248.87040035465381, 786.895059195358272 ], [ 249.212533534868697, 778.170663077551808 ], [ 249.896799896068188, 768.077734234779768 ] ] ] } },
{ "type": "Feature", "properties": { "feature_type": "building", "subtype": "no-damage", "uid": "aec907c1-3066-4c9d-b11a-aadb42471378" }, "geometry": { "type": "Polygon", "coordinates": [ [ [ 243.482583914194095, 794.862162699273654 ], [ 273.07710408155998, 796.401762015629743 ], [ 272.050704539632306, 816.416553113889108 ], [ 266.23444046006972, 816.245486521472117 ], [ 264.865907734847781, 835.57601125416943 ], [ 240.232318690862002, 833.523212171853174 ], [ 243.482583914194095, 794.862162699273654 ] ] ] } },
{ "type": "Feature", "properties": { "feature_type": "building", "subtype": "no-damage", "uid": "3362e125-349d-4cdd-b02f-a6b6fa5c6f7a" }, "geometry": { "type": "Polygon", "coordinates": [ [ [ 289.001325565437014, 797.414984131552274 ], [ 297.041455324351318, 797.928183906750291 ], [ 296.699322140800518, 807.850046160184661 ], [ 288.145992612333714, 807.258899377393391 ], [ 289.001325565437014, 797.414984131552274 ] ] ] } },
{ "type": "Feature", "properties": { "feature_type": "building", "subtype": "no-damage", "uid": "aba79fa0-aae2-42cc-9c1c-ff84e11b7178" }, "geometry": { "type": "Polygon", "coordinates": [ [ [ 350.558031552721275, 786.487396930991395 ], [ 373.344007039546284, 786.487396928938438 ], [ 373.612077342355917, 805.118282768024187 ], [ 350.423996402727823, 805.520388218261246 ], [ 350.558031552721275, 786.487396930991395 ] ] ] } },
{ "type": "Feature", "properties": { "feature_type": "building", "subtype": "major-damage", "uid": "dfc24db2-f5fb-4f08-b99a-87ebb7ad47da" }, "geometry": { "type": "Polygon", "coordinates": [ [ [ 351.94373978806891, 819.313758484112896 ], [ 380.15782677052232, 819.037671844358897 ], [ 380.472886912019874, 834.667506018382596 ], [ 370.208891475806922, 834.838572610799588 ], [ 370.037824886212718, 828.509108758090406 ], [ 351.437029278693899, 828.262250891929511 ], [ 351.94373978806891, 819.313758484112896 ] ] ] } },
{ "type": "Feature", "properties": { "feature_type": "building", "subtype": "no-damage", "uid": "c9a6bed4-afb4-4994-9381-0e99356717d8" }, "geometry": { "type": "Polygon", "coordinates": [ [ [ 341.521607487374411, 840.478415873603581 ], [ 355.699313856819913, 840.793476014588123 ], [ 357.484654658981924, 842.473796770953186 ], [ 357.169594518510678, 865.683227200604051 ], [ 355.594293812562285, 865.683227200604051 ], [ 354.439073290829526, 867.153507859215779 ], [ 340.996507254282221, 868.623788522959899 ], [ 333.225023759559804, 867.993668236885128 ], [ 333.855144044607925, 840.688455967251116 ], [ 341.521607487374411, 840.478415873603581 ] ] ] } },
{ "type": "Feature", "properties": { "feature_type": "building", "subtype": "no-damage", "uid": "139514d1-9f32-42a9-a347-b5f5b4a57b5b" }, "geometry": { "type": "Polygon", "coordinates": [ [ [ 390.389838627183906, 755.946770700916318 ], [ 390.284818580360081, 764.978494756499231 ], [ 380.727994285015484, 765.083514805889081 ], [ 380.938034380202623, 755.736730605215939 ], [ 390.389838627183906, 755.946770700916318 ] ] ] } },
{ "type": "Feature", "properties": { "feature_type": "building", "subtype": "major-damage", "uid": "894c671d-1741-45a1-a3ba-3e4a4b449ae2" }, "geometry": { "type": "Polygon", "coordinates": [ [ [ 63.852742039012902, 459.744069671910722 ], [ 71.204145343874288, 468.040653401266979 ], [ 29.196126465037391, 505.322770148410825 ], [ 21.328273338641559, 495.851448959214508 ], [ 61.386379507023179, 459.766803765229326 ], [ 63.852742039012902, 459.744069671910722 ] ] ] } },
{ "type": "Feature", "properties": { "feature_type": "building", "subtype": "no-damage", "uid": "64b47d6d-3adc-4152-b229-97e8d8a40a15" }, "geometry": { "type": "Polygon", "coordinates": [ [ [ 37.982382013751433, 345.197505651120423 ], [ 50.164707486874313, 345.827625936168715 ], [ 49.639607251985858, 354.859349991751515 ], [ 38.087402061858199, 354.754329946467408 ], [ 37.982382013751433, 345.197505651120423 ] ] ] } },
{ "type": "Feature", "properties": { "feature_type": "building", "subtype": "no-damage", "uid": "18abe941-259a-4a62-bfbf-00133cf68441" }, "geometry": { "type": "Polygon", "coordinates": [ [ [ 134.223958781978496, 370.551978320138119 ], [ 142.64000484289059, 370.640004056716691 ], [ 142.379584153401112, 380.184242452833985 ], [ 126.161331013688795, 380.184242455913306 ], [ 126.400004844511301, 369.340004055426618 ], [ 134.223958781978496, 370.551978320138119 ] ] ] } },
{ "type": "Feature", "properties": { "feature_type": "building", "subtype": "no-damage", "uid": "c4381212-37e4-4331-aa7a-5ffa325654fb" }, "geometry": { "type": "Polygon", "coordinates": [ [ [ 142.64000484289059, 370.640004056716691 ], [ 134.223958781978496, 370.551978320138119 ], [ 126.400004844511301, 369.340004055426618 ], [ 126.831506765195698, 355.521774866351279 ], [ 143.04975990259851, 356.057915470430885 ], [ 142.64000484289059, 370.640004056716691 ] ] ] } },
{ "type": "Feature", "properties": { "feature_type": "building", "subtype": "no-damage", "uid": "8a29e7c8-66ab-48fb-bc20-e43763fe9f7d" }, "geometry": { "type": "Polygon", "coordinates": [ [ [ 108.229259736450999, 360.962160311563878 ], [ 120.201545118492604, 361.27722045049552 ], [ 119.781464926065496, 371.884245215106375 ], [ 108.019219644856506, 371.464165027811418 ], [ 108.229259736450999, 360.962160311563878 ] ] ] } },
{ "type": "Feature", "properties": { "feature_type": "building", "subtype": "no-damage", "uid": "acb94f2b-e469-47c6-903e-bf4a58a6e5eb" }, "geometry": { "type": "Polygon", "coordinates": [ [ [ 131.068707164031508, 279.206209655991813 ], [ 144.20415185979661, 280.546561155413315 ], [ 142.595730058848801, 294.88832219368129 ], [ 129.19221506617609, 293.950076147576112 ], [ 131.068707164031508, 279.206209655991813 ] ] ] } },
{ "type": "Feature", "properties": { "feature_type": "building", "subtype": "no-damage", "uid": "2c8e1350-00e4-40f7-961d-f1dccbe3f2f2" }, "geometry": { "type": "Polygon", "coordinates": [ [ [ 338.219386116182591, 294.643172234394115 ], [ 360.800176070667703, 295.840638368995485 ], [ 360.28697629777929, 304.393967898490814 ], [ 337.706186342267813, 303.025435170445917 ], [ 338.219386116182591, 294.643172234394115 ] ] ] } },
{ "type": "Feature", "properties": { "feature_type": "building", "subtype": "no-damage", "uid": "958d6d13-d842-47c4-ac18-51f1b1e436a2" }, "geometry": { "type": "Polygon", "coordinates": [ [ [ 293.408806940816078, 333.307455372413187 ], [ 306.580934413987677, 335.531321048172799 ], [ 318.897728936878821, 338.952652860586795 ], [ 310.173332815995082, 374.363437105984303 ], [ 286.908276501080309, 369.231439389929392 ], [ 288.276809224505882, 363.244108721027715 ], [ 288.276809222709687, 355.888245326133926 ], [ 289.6453419466485, 352.637980105110501 ], [ 293.408806940816078, 333.307455372413187 ] ] ] } },
{ "type": "Feature", "properties": { "feature_type": "building", "subtype": "no-damage", "uid": "ce9ecd62-353f-4cdf-9122-4b9dc0899892" }, "geometry": { "type": "Polygon", "coordinates": [ [ [ 388.872210417088013, 468.67315007728331 ], [ 388.359010646508978, 483.555943455382078 ], [ 386.306211561370674, 486.977275263690274 ], [ 365.778220691510796, 486.464075493624478 ], [ 366.462487053223583, 467.475683940628926 ], [ 388.872210417088013, 468.67315007728331 ] ] ] } },
{ "type": "Feature", "properties": { "feature_type": "building", "subtype": "no-damage", "uid": "c395a553-0be1-42f8-8a29-9facd948f83a" }, "geometry": { "type": "Polygon", "coordinates": [ [ [ 400.863105303645511, 499.520994342546373 ], [ 417.86786833449861, 500.870532817459775 ], [ 416.523340702492476, 512.660306135048813 ], [ 399.528220953753873, 511.454368177002891 ], [ 400.863105303645511, 499.520994342546373 ] ] ] } },
{ "type": "Feature", "properties": { "feature_type": "building", "subtype": "no-damage", "uid": "d62281f5-c2eb-4754-9a8a-9d39ffc4509f" }, "geometry": { "type": "Polygon", "coordinates": [ [ [ 384.983564526780299, 490.188072293531377 ], [ 385.117599678570002, 498.632286739271422 ], [ 368.229170785041276, 499.03439218745558 ], [ 368.22917078863378, 490.322107441215508 ], [ 384.983564526780299, 490.188072293531377 ] ] ] } },
{ "type": "Feature", "properties": { "feature_type": "building", "subtype": "no-damage", "uid": "7709930b-39a4-498c-b403-b792e67be30b" }, "geometry": { "type": "Polygon", "coordinates": [ [ [ 357.493308198604325, 545.642906681414615 ], [ 357.835441382924898, 504.586924948869921 ], [ 380.587297929057002, 504.929058130624526 ], [ 380.245164744993019, 545.985039865222006 ], [ 357.493308198604325, 545.642906681414615 ] ] ] } },
{ "type": "Feature", "properties": { "feature_type": "building", "subtype": "no-damage", "uid": "05d53157-cd1c-4fde-9a38-bad01bb4d5bc" }, "geometry": { "type": "Polygon", "coordinates": [ [ [ 332.965256736530307, 548.77132681190119 ], [ 346.82165057346748, 548.942393399186017 ], [ 346.479517391456397, 556.982523160668279 ], [ 332.623123556058772, 556.811456569277766 ], [ 332.965256736530307, 548.77132681190119 ] ] ] } },
{ "type": "Feature", "properties": { "feature_type": "building", "subtype": "no-damage", "uid": "1eb29957-1acb-4b1a-aa72-fb6bc9c8298c" }, "geometry": { "type": "Polygon", "coordinates": [ [ [ 427.460813046661826, 564.187598777706853 ], [ 427.974012813648187, 552.041870849539237 ], [ 436.527342345194313, 552.384004028214576 ], [ 435.8430759821984, 564.700798549825549 ], [ 427.460813046661826, 564.187598777706853 ] ] ] } },
{ "type": "Feature", "properties": { "feature_type": "building", "subtype": "no-damage", "uid": "72fb55dd-192c-40ef-b143-c71ffaaf2713" }, "geometry": { "type": "Polygon", "coordinates": [ [ [ 471.339092131302891, 306.630369913029483 ], [ 492.38028277174169, 308.854235591868417 ], [ 491.011750045493386, 322.026363066326326 ], [ 470.141625995931918, 319.973563979904327 ], [ 471.339092131302891, 306.630369913029483 ] ] ] } },
{ "type": "Feature", "properties": { "feature_type": "building", "subtype": "no-damage", "uid": "3fe9b452-4f87-41ac-83d4-04e4d938e597" }, "geometry": { "type": "Polygon", "coordinates": [ [ [ 527.609033524754182, 279.793375125348916 ], [ 527.666598683339316, 273.392816380209695 ], [ 540.421599658243053, 273.346860825190902 ], [ 540.479003865969844, 279.839169732075391 ], [ 549.212169287449456, 279.873676638235281 ], [ 549.418727871320243, 296.317536563419822 ], [ 532.837484124164007, 297.409021289412578 ], [ 520.525028880263449, 295.786567249125198 ], [ 520.61105253537562, 279.788482444250008 ], [ 527.609033524754182, 279.793375125348916 ] ] ] } },
{ "type": "Feature", "properties": { "feature_type": "building", "subtype": "no-damage", "uid": "e242ad49-f087-48e1-a327-014184ce2563" }, "geometry": { "type": "Polygon", "coordinates": [ [ [ 487.384394685549807, 277.496327058742793 ], [ 507.75149718034362, 277.340490819603076 ], [ 508.126454531142201, 295.771897610288704 ], [ 469.198411560838792, 296.665099805711122 ], [ 469.119359225557105, 293.077838558578776 ], [ 455.384435567649973, 292.906120667690516 ], [ 455.697360033659891, 280.806374723223826 ], [ 470.336287988237302, 280.870603206338501 ], [ 470.355514088696111, 277.83726606499539 ], [ 474.798986062874974, 277.788316869482514 ], [ 474.695681746935577, 270.099435170413301 ], [ 487.319245903234673, 270.161928063667176 ], [ 487.384394685549807, 277.496327058742793 ] ] ] } },
{ "type": "Feature", "properties": { "feature_type": "building", "subtype": "no-damage", "uid": "78b0c53a-2c10-4c3b-9fd7-7f57ac85b068" }, "geometry": { "type": "Polygon", "coordinates": [ [ [ 788.109045194207397, 343.559503016110909 ], [ 794.804689207158503, 306.928400198792815 ], [ 819.427496060451176, 310.879380378956682 ], [ 813.073027766901191, 348.552299530548225 ], [ 788.109045194207397, 343.559503016110909 ] ] ] } },
{ "type": "Feature", "properties": { "feature_type": "building", "subtype": "no-damage", "uid": "2ca4c3b2-9c53-4342-b8fe-55f8a414c60d" }, "geometry": { "type": "Polygon", "coordinates": [ [ [ 875.162398505691954, 444.494624732686589 ], [ 886.733842690884558, 449.734523984036002 ], [ 875.817385914420015, 472.659083210742324 ], [ 864.245941729997298, 467.855842232391581 ], [ 855.512776309287574, 462.834272112409394 ], [ 866.429233084982229, 441.001358564093891 ], [ 875.162398505691954, 444.494624732686589 ] ] ] } },
{ "type": "Feature", "properties": { "feature_type": "building", "subtype": "no-damage", "uid": "c3d2d377-8965-4438-87fe-edad200add6f" }, "geometry": { "type": "Polygon", "coordinates": [ [ [ 905.96615594330342, 435.094811026364027 ], [ 915.943060425943031, 434.149630600331193 ], [ 916.888240849922568, 443.391394755720228 ], [ 907.751496743669122, 443.916494989325827 ], [ 906.491256177165383, 442.3411942823505 ], [ 905.96615594330342, 435.094811026364027 ] ] ] } },
{ "type": "Feature", "properties": { "feature_type": "building", "subtype": "no-damage", "uid": "71b61594-4491-48ed-b15e-9b7819ee086e" }, "geometry": { "type": "Polygon", "coordinates": [ [ [ 880.120343523390261, 570.052644573277462 ], [ 892.608204638441521, 570.223711160562175 ], [ 893.463537590261808, 581.514106139988712 ], [ 880.633543296535208, 581.514106139988712 ], [ 880.120343523390261, 570.052644573277462 ] ] ] } },
{ "type": "Feature", "properties": { "feature_type": "building", "subtype": "no-damage", "uid": "dd125b9b-a985-4d03-831d-5f3ace37d354" }, "geometry": { "type": "Polygon", "coordinates": [ [ [ 818.6215505988622, 222.671844902799506 ], [ 823.643120716020462, 223.76349057708461 ], [ 821.678158497278218, 239.919846604131408 ], [ 817.966563193470165, 239.701517470711394 ], [ 817.093246651065556, 244.723087584534994 ], [ 816.001600975497581, 249.526328563912102 ], [ 814.473297027957642, 249.30799943151851 ], [ 813.163322212297885, 253.456253004476991 ], [ 812.290005669380093, 258.477823121379913 ], [ 792.640383475541739, 254.111240409869197 ], [ 794.38701655958107, 244.504758449062109 ], [ 791.738538201935967, 243.599612944595606 ], [ 792.833484112983342, 238.420071386509107 ], [ 789.336917714814149, 237.217611020332612 ], [ 793.513700015380209, 218.52359132368241 ], [ 798.753599268267976, 219.833566138572593 ], [ 800.718561488806586, 212.628704664887891 ], [ 809.888385179948727, 213.938679477725287 ], [ 819.931525413238887, 215.248654292615498 ], [ 818.6215505988622, 222.671844902799506 ] ] ] } },
{ "type": "Feature", "properties": { "feature_type": "building", "subtype": "no-damage", "uid": "29195f78-1828-409f-9373-4bfab5614dac" }, "geometry": { "type": "Polygon", "coordinates": [ [ [ 521.18447739776002, 114.565516783313399 ], [ 522.669320989199036, 104.430031003382396 ], [ 538.362818194889314, 105.690264654271701 ], [ 537.573795639247237, 115.986286843232705 ], [ 548.853628908805945, 116.507239098888107 ], [ 547.409618943666032, 137.616059599367389 ], [ 503.790734448878425, 134.310018908201812 ], [ 504.201554780624292, 131.904074555056411 ], [ 487.931215085089377, 130.015393092384699 ], [ 489.893959426448987, 112.076070692110605 ], [ 521.18447739776002, 114.565516783313399 ] ] ] } },
{ "type": "Feature", "properties": { "feature_type": "building", "subtype": "no-damage", "uid": "a1c73c43-ec40-498b-b937-92e9057ecae2" }, "geometry": { "type": "Polygon", "coordinates": [ [ [ 546.0754980186083, 92.689187760850885 ], [ 546.075498017581822, 80.714526416888759 ], [ 553.773494593458508, 81.05665960069625 ], [ 553.260294822366404, 93.031320938499746 ], [ 546.0754980186083, 92.689187760850885 ] ] ] } },
{ "type": "Feature", "properties": { "feature_type": "building", "subtype": "no-damage", "uid": "3687f5b6-2e67-496c-9f0e-590c1727efe1" }, "geometry": { "type": "Polygon", "coordinates": [ [ [ 521.270842381949024, 73.529729615438384 ], [ 529.139905551012362, 73.529729614411949 ], [ 537.522168486035753, 73.700796209908219 ], [ 537.522168486549049, 89.096789354993504 ], [ 521.270842383745276, 89.267855949463339 ], [ 521.270842381949024, 73.529729615438384 ] ] ] } },
{ "type": "Feature", "properties": { "feature_type": "building", "subtype": "no-damage", "uid": "74c3c3c0-8689-4941-9b5f-b79580ab939a" }, "geometry": { "type": "Polygon", "coordinates": [ [ [ 396.034875011045472, 98.631837107135567 ], [ 406.296344380321727, 97.976849700716897 ], [ 407.169660920160197, 107.146673394684001 ], [ 397.126520684817081, 107.583331662550506 ], [ 396.034875011045472, 98.631837107135567 ] ] ] } },
{ "type": "Feature", "properties": { "feature_type": "building", "subtype": "no-damage", "uid": "e2411f78-17aa-46a4-b312-2d9c297d9e00" }, "geometry": { "type": "Polygon", "coordinates": [ [ [ 402.148090803515117, 54.529351736479612 ], [ 415.466168067101478, 54.311022601006719 ], [ 415.247838933424873, 79.418873182441942 ], [ 401.274774260084087, 78.763885777049708 ], [ 402.148090803515117, 54.529351736479612 ] ] ] } },
{ "type": "Feature", "properties": { "feature_type": "building", "subtype": "no-damage", "uid": "67d357b2-4b63-49d2-8b1c-a0bcfe50a7b0" }, "geometry": { "type": "Polygon", "coordinates": [ [ [ 362.343771418527808, 64.942113855377784 ], [ 363.370170964561225, 55.704517963399717 ], [ 378.595097521074877, 57.586250459457567 ], [ 377.739764568228281, 66.823846349382777 ], [ 362.343771418527808, 64.942113855377784 ] ] ] } },
{ "type": "Feature", "properties": { "feature_type": "building", "subtype": "no-damage", "uid": "af9dfbac-c344-48f3-9249-7be40a9709a4" }, "geometry": { "type": "Polygon", "coordinates": [ [ [ 328.130453302351327, 41.848124125432612 ], [ 333.433517609282092, 43.045590261060553 ], [ 340.960447595564574, 44.58518957331092 ], [ 328.98578625596781, 96.931566287334931 ], [ 315.642592190635924, 93.852367656675568 ], [ 328.130453302351327, 41.848124125432612 ] ] ] } },
{ "type": "Feature", "properties": { "feature_type": "building", "subtype": "no-damage", "uid": "c2945ddb-f35b-45c7-bc03-b873bba0f801" }, "geometry": { "type": "Polygon", "coordinates": [ [ [ 351.617067528235907, 103.358159694350803 ], [ 356.420308512230804, 87.856791076802054 ], [ 365.808461339872281, 90.913398973422517 ], [ 360.568562086984514, 106.196438459604096 ], [ 351.617067528235907, 103.358159694350803 ] ] ] } },
{ "type": "Feature", "properties": { "feature_type": "building", "subtype": "no-damage", "uid": "a13cfd9a-1832-4992-9238-7dc112206a9f" }, "geometry": { "type": "Polygon", "coordinates": [ [ [ 20.999412241105262, 88.928332412221806 ], [ 21.170478830442871, 81.572469019380904 ], [ 29.039541998479869, 81.914602198056215 ], [ 29.039541998993091, 89.099399001559462 ], [ 20.999412241105262, 88.928332412221806 ] ] ] } },
{ "type": "Feature", "properties": { "feature_type": "building", "subtype": "no-damage", "uid": "fe6a32bb-4286-48e0-823e-a60ed13fd551" }, "geometry": { "type": "Polygon", "coordinates": [ [ [ 146.823625658852109, 112.051071122478405 ], [ 154.910169290966394, 112.051071124531305 ], [ 154.490089105211098, 121.292835274788104 ], [ 146.823625659621911, 121.082795182167004 ], [ 146.823625658852109, 112.051071122478405 ] ] ] } },
{ "type": "Feature", "properties": { "feature_type": "building", "subtype": "no-damage", "uid": "4850dd29-5c82-415f-a2cf-749485f5fb1d" }, "geometry": { "type": "Polygon", "coordinates": [ [ [ 110.601882928559903, 119.9316428791509 ], [ 112.348516011059601, 133.904707549415804 ], [ 59.731194352098193, 140.236252480182486 ], [ 58.639548676273662, 127.3548334842027 ], [ 110.601882928559903, 119.9316428791509 ] ] ] } },
{ "type": "Feature", "properties": { "feature_type": "building", "subtype": "no-damage", "uid": "85d2ea20-75aa-4f53-8e76-e9594574b2b3" }, "geometry": { "type": "Polygon", "coordinates": [ [ [ 21.71750557165058, 117.988194900380805 ], [ 45.515381343835173, 113.839941322290201 ], [ 47.698672701642849, 124.974727232434006 ], [ 23.464138657486139, 129.122980807445288 ], [ 21.71750557165058, 117.988194900380805 ] ] ] } },
{ "type": "Feature", "properties": { "feature_type": "building", "subtype": "no-damage", "uid": "e6b259ce-f7d5-4a1d-b898-cbeda5ffa5e0" }, "geometry": { "type": "Polygon", "coordinates": [ [ [ 0.391862230471026, 138.247785159975791 ], [ 6.133869985309802, 137.264675905713489 ], [ 5.713789796988462, 148.606840997577507 ], [ 0.391885553926623, 149.682830619523486 ], [ 0.391862230471026, 138.247785159975791 ] ] ] } },
{ "type": "Feature", "properties": { "feature_type": "building", "subtype": "no-damage", "uid": "de5851f1-8e6f-47f8-8b30-e845ce805791" }, "geometry": { "type": "Polygon", "coordinates": [ [ [ 60.571163368937093, 293.342877976396323 ], [ 67.044429434273127, 293.161629999045999 ], [ 67.044429430167384, 289.326362301472273 ], [ 88.291812474094215, 289.172951593938876 ], [ 88.445223182140822, 296.766781631726985 ], [ 106.394276003322105, 296.536665574019423 ], [ 106.394276004092006, 299.834995794712825 ], [ 123.269453870230095, 299.681585088205793 ], [ 123.422864580842798, 316.019825474901722 ], [ 109.155668746878106, 316.019825473875301 ], [ 109.002258037035205, 308.349290081807283 ], [ 104.203804755879204, 308.478566765203823 ], [ 104.753830703688493, 331.024383296436724 ], [ 81.450072547512178, 331.244253647579797 ], [ 81.218948155471637, 319.456909539318417 ], [ 60.648877054983892, 319.572471736236821 ], [ 60.571163368937093, 293.342877976396323 ] ] ] } }
]
}
