{
"type": "FeatureCollection",
"name": "midwest-flooding_00000138_post_disaster",
"features": [
{ "type": "Feature", "properties": { "feature_type": "building", "subtype": "minor-damage", "uid": "4280fdcc-0d19-4c2b-83ce-ce8eb8a82191" }, "geometry": { "type": "Polygon", "coordinates": [ [ [ 968.752170544549358, 315.452502709863495 ], [ 975.537785120342051, 310.203253699435493 ], [ 972.337023527410338, 305.210065615969597 ], [ 985.524161291377936, 296.888085474805223 ], [ 989.109014276807329, 302.009304025347774 ], [ 997.046903030349654, 297.272176867816711 ], [ 1008.569644760588972, 314.812350396053887 ], [ 980.146881814389758, 333.248737168144828 ], [ 968.752170544549358, 315.452502709863495 ] ] ] } },
{ "type": "Feature", "properties": { "feature_type": "building", "subtype": "minor-damage", "uid": "32bcd788-db77-431d-83ac-73da45059529" }, "geometry": { "type": "Polygon", "coordinates": [ [ [ 846.369724215819133, 394.268985071571876 ], [ 876.440643677739104, 355.261896151427095 ], [ 886.369720859686026, 362.779626014856319 ], [ 856.866177236345493, 401.928558894068203 ], [ 846.369724215819133, 394.268985071571876 ] ] ] } },
{ "type": "Feature", "properties": { "feature_type": "building", "subtype": "no-damage", "uid": "5b34252a-8b14-431e-b878-599dee478a55" }, "geometry": { "type": "Polygon", "coordinates": [ [ [ 865.843787185674273, 320.64826098072848 ], [ 869.940762025284357, 330.762667612682321 ], [ 875.702132892972372, 338.828586828939422 ], [ 851.888466644673258, 352.143755053569691 ], [ 841.646029544620774, 333.195246425499874 ], [ 865.843787185674273, 320.64826098072848 ] ] ] } },
{ "type": "Feature", "properties": { "feature_type": "building", "subtype": "no-damage", "uid": "a2505f78-2a76-48b4-a969-328d2cb171bf" }, "geometry": { "type": "Polygon", "coordinates": [ [ [ 859.578268625764281, 279.326111556542116 ], [ 867.641953591949687, 261.575160545484323 ], [ 878.908634400363667, 266.568348629977493 ], [ 870.970745648619186, 284.364583084149501 ], [ 859.578268625764281, 279.326111556542116 ] ] ] } }
]
}
