{
"type": "FeatureCollection",
"name": "midwest-flooding_00000042_post_disaster",
"features": [
{ "type": "Feature", "properties": { "feature_type": "building", "subtype": "no-damage", "uid": "1e9760cd-5877-4e44-b5d6-f36e5ded11b1" }, "geometry": { "type": "Polygon", "coordinates": [ [ [ 460.518794786974183, 446.420007674276178 ], [ 541.60361028173304, 449.265088922041173 ], [ 541.603610281222927, 469.180657638033892 ], [ 539.469799348969104, 491.230037291380484 ], [ 535.913447792322359, 494.430753695371209 ], [ 454.472997138532605, 491.230037291380484 ], [ 455.895537765730808, 451.39889985531471 ], [ 460.518794786974183, 446.420007674276178 ] ] ] } },
{ "type": "Feature", "properties": { "feature_type": "building", "subtype": "no-damage", "uid": "f2de958d-6cb6-4bfa-9869-21acef0f7783" }, "geometry": { "type": "Polygon", "coordinates": [ [ [ 126.836815433369296, 655.006715666797959 ], [ 131.104437303742714, 586.369130618279087 ], [ 134.660788856564011, 581.745873592446287 ], [ 152.086911485612092, 582.457143907957857 ], [ 197.963846570129306, 583.524049371534261 ], [ 236.016808228646596, 586.013495463073582 ], [ 256.999282413066283, 587.791671240121332 ], [ 254.509836322546505, 653.939810200161219 ], [ 245.974592589195595, 659.629972689570423 ], [ 126.836815433369296, 655.006715666797959 ] ] ] } },
{ "type": "Feature", "properties": { "feature_type": "building", "subtype": "no-damage", "uid": "b62793f0-f023-48ea-92e2-f7a36cdfb4fe" }, "geometry": { "type": "Polygon", "coordinates": [ [ [ 152.086911485612092, 582.457143907957857 ], [ 154.576357575621813, 519.509721348848302 ], [ 157.284132799811204, 517.569499342433005 ], [ 173.780655981463212, 518.087180725985945 ], [ 199.742022347432595, 519.154086193642797 ], [ 220.999108572374098, 520.477665974977981 ], [ 238.861889473351908, 522.354802596613354 ], [ 236.016808228646596, 586.013495463073582 ], [ 197.963846570129306, 583.524049371534261 ], [ 152.086911485612092, 582.457143907957857 ] ] ] } },
{ "type": "Feature", "properties": { "feature_type": "building", "subtype": "no-damage", "uid": "18fdfe1f-ab07-42ca-b663-b994191f2295" }, "geometry": { "type": "Polygon", "coordinates": [ [ [ 173.780655981463212, 518.087180725985945 ], [ 173.780655982993295, 484.301840937595216 ], [ 200.097657504678409, 485.368746403211787 ], [ 222.147037155735092, 486.791287027094313 ], [ 220.999108572374098, 520.477665974977981 ], [ 199.742022347432595, 519.154086193642797 ], [ 173.780655981463212, 518.087180725985945 ] ] ] } },
{ "type": "Feature", "properties": { "feature_type": "building", "subtype": "no-damage", "uid": "24e4657a-4e2d-405e-b46d-1e92150c163d" }, "geometry": { "type": "Polygon", "coordinates": [ [ [ 683.625641857181677, 591.551917482426802 ], [ 1022.984021858229994, 609.4563813537942 ], [ 1022.983990005788996, 746.472253488396063 ], [ 1017.865321551024977, 750.112302022403128 ], [ 674.044782797706603, 730.002751896111931 ], [ 674.309019909048288, 709.964309111912826 ], [ 675.075411990618136, 687.385191444938187 ], [ 678.313275581566813, 598.294870225377736 ], [ 683.625641857181677, 591.551917482426802 ] ] ] } },
{ "type": "Feature", "properties": { "feature_type": "building", "subtype": "no-damage", "uid": "9fa3a5e2-5f9b-4523-aceb-bc8b33b40e83" }, "geometry": { "type": "Polygon", "coordinates": [ [ [ 674.309019909048288, 709.964309111912826 ], [ 639.856986433260545, 708.340104742753397 ], [ 640.260313924069692, 686.136753683558595 ], [ 675.075411990618136, 687.385191444938187 ], [ 674.309019909048288, 709.964309111912826 ] ] ] } },
{ "type": "Feature", "properties": { "feature_type": "building", "subtype": "no-damage", "uid": "879d3425-35dd-402e-992a-a6075fec8bd6" }, "geometry": { "type": "Polygon", "coordinates": [ [ [ 639.856986433260545, 708.340104742753397 ], [ 674.309019909048288, 709.964309111912826 ], [ 674.044782797706603, 730.002751896111931 ], [ 604.321284287616436, 727.343852330368918 ], [ 606.51890441412047, 706.981926631010651 ], [ 639.856986433260545, 708.340104742753397 ] ] ] } },
{ "type": "Feature", "properties": { "feature_type": "building", "subtype": "no-damage", "uid": "5526499f-b96d-4892-85b9-07ce26b73ce7" }, "geometry": { "type": "Polygon", "coordinates": [ [ [ 918.89718795809199, 961.699045215523711 ], [ 916.097294975802242, 1022.330163718803988 ], [ 889.592248797051639, 1020.49218901437996 ], [ 890.363664949942745, 998.919065552039456 ], [ 888.6578238997173, 998.919065553059568 ], [ 889.628632587110019, 963.585929100245039 ], [ 891.708812960803129, 960.324689238444989 ], [ 918.89718795809199, 961.699045215523711 ] ] ] } },
{ "type": "Feature", "properties": { "feature_type": "building", "subtype": "no-damage", "uid": "ce338a90-c488-4417-9729-e16c9b17da3a" }, "geometry": { "type": "Polygon", "coordinates": [ [ [ 878.746923398424087, 998.270000001724384 ], [ 888.6578238997173, 998.919065553059568 ], [ 890.363664949942745, 998.919065552039456 ], [ 889.592248797051639, 1020.49218901437996 ], [ 856.788946539335825, 1020.300820340716996 ], [ 857.867796956898928, 997.658971410126583 ], [ 878.746923398424087, 998.270000001724384 ] ] ] } },
{ "type": "Feature", "properties": { "feature_type": "building", "subtype": "no-damage", "uid": "51618389-102b-4e9c-98ba-b217c9534039" }, "geometry": { "type": "Polygon", "coordinates": [ [ [ 519.169481385177392, 1018.93002609480402 ], [ 519.274501432218699, 1007.692881044040973 ], [ 526.100804499342075, 1007.797901092102961 ], [ 526.03128331969458, 1014.463621094516043 ], [ 526.077112376261539, 1017.968584314131022 ], [ 525.995784451535656, 1019.140066187866978 ], [ 519.169481385177392, 1018.93002609480402 ] ] ] } },
{ "type": "Feature", "properties": { "feature_type": "building", "subtype": "no-damage", "uid": "52fb78cf-191b-4c90-b9a8-2bad9e7d05ab" }, "geometry": { "type": "Polygon", "coordinates": [ [ [ 526.03128331969458, 1014.463621094516043 ], [ 526.632277427420149, 1013.787592008562001 ], [ 527.305153596598302, 1013.360570834413011 ], [ 528.136353573874317, 1013.233458689527993 ], [ 529.118568658107961, 1013.311617724076996 ], [ 529.917496383925936, 1013.629268203269021 ], [ 530.767411811631405, 1014.34800229508096 ], [ 531.144505871883212, 1014.856277695561971 ], [ 531.379870397210198, 1015.704158525339949 ], [ 531.342410626713786, 1016.597839550718959 ], [ 531.05072657511721, 1017.593611437000959 ], [ 530.471629698114612, 1018.576887111266046 ], [ 529.533122485540844, 1019.038301724584016 ], [ 528.373839282578274, 1019.170601381367987 ], [ 527.186410745689159, 1018.956015772758974 ], [ 526.077112376261539, 1017.968584314131022 ], [ 526.03128331969458, 1014.463621094516043 ] ] ] } },
{ "type": "Feature", "properties": { "feature_type": "building", "subtype": "no-damage", "uid": "4079bf46-f6e6-4d10-8f30-cce11474056b" }, "geometry": { "type": "Polygon", "coordinates": [ [ [ 465.592751448717422, 959.543503887031761 ], [ 471.624333194820622, 956.192625139254119 ], [ 475.101584051881616, 961.603818214128296 ], [ 469.345735646678122, 965.172980185501729 ], [ 465.592751448717422, 959.543503887031761 ] ] ] } },
{ "type": "Feature", "properties": { "feature_type": "building", "subtype": "no-damage", "uid": "5106b422-7739-445e-a2fb-290a2f36ec93" }, "geometry": { "type": "Polygon", "coordinates": [ [ [ 455.773043160274085, 969.49545597227916 ], [ 458.595037674390085, 974.948454867416331 ], [ 452.958305008233083, 978.073705568344621 ], [ 449.875496559471117, 972.444229271914878 ], [ 455.773043160274085, 969.49545597227916 ] ] ] } },
{ "type": "Feature", "properties": { "feature_type": "building", "subtype": "no-damage", "uid": "42c360ea-4304-4bd0-b898-b8cfa32e4bb0" }, "geometry": { "type": "Polygon", "coordinates": [ [ [ 452.275772373455823, 947.001370367094296 ], [ 457.905248671161928, 944.588737669061629 ], [ 460.451916518320786, 949.682073367968655 ], [ 454.688405071234001, 952.496811517203582 ], [ 452.275772373455823, 947.001370367094296 ] ] ] } },
{ "type": "Feature", "properties": { "feature_type": "building", "subtype": "no-damage", "uid": "3ad1f6e4-b288-4664-8b72-fd9ed89df48a" }, "geometry": { "type": "Polygon", "coordinates": [ [ [ 359.062718580143212, 964.817491900707637 ], [ 369.155647421749222, 964.817491898667413 ], [ 369.158959588233188, 976.370559064557824 ], [ 367.853082415864321, 978.09702255368893 ], [ 358.837090534058689, 977.92398458761329 ], [ 359.062718580143212, 964.817491900707637 ] ] ] } }
]
}
