{
"type": "FeatureCollection",
"name": "midwest-flooding_00000227_post_disaster",
"features": [
{ "type": "Feature", "properties": { "feature_type": "building", "subtype": "no-damage", "uid": "e57eb6c0-0034-4ede-b5d1-8b57e0603208" }, "geometry": { "type": "Polygon", "coordinates": [ [ [ 764.655676621401199, 912.701840693388249 ], [ 805.748686982890376, 912.890238025247754 ], [ 804.512247717333594, 928.494875462560344 ], [ 805.924241734450561, 941.454529505156643 ], [ 764.317409694991056, 942.469330285155934 ], [ 762.485681801341002, 928.057887564064117 ], [ 764.655676621401199, 912.701840693388249 ] ] ] } },
{ "type": "Feature", "properties": { "feature_type": "building", "subtype": "no-damage", "uid": "a144ee1d-30d7-4429-ad9f-322a0c990c0d" }, "geometry": { "type": "Polygon", "coordinates": [ [ [ 682.542355357214319, 781.362684976251103 ], [ 690.805453387293142, 797.783212257431387 ], [ 667.480568873013908, 810.052708137022591 ], [ 662.599203601108002, 801.257211332847874 ], [ 671.873797616011529, 795.236860833660558 ], [ 669.20319973132348, 788.570709683845166 ], [ 682.542355357214319, 781.362684976251103 ] ] ] } },
{ "type": "Feature", "properties": { "feature_type": "building", "subtype": "minor-damage", "uid": "fcd0530f-936e-4355-a7c8-2c9e86b3b36f" }, "geometry": { "type": "Polygon", "coordinates": [ [ [ 768.945142433202136, 748.833791877210047 ], [ 788.028093616776232, 746.71346396866511 ], [ 789.088257573356373, 756.785021540149955 ], [ 770.535388363842117, 758.905349448694778 ], [ 768.945142433202136, 748.833791877210047 ] ] ] } },
{ "type": "Feature", "properties": { "feature_type": "building", "subtype": "no-damage", "uid": "32f7d621-bb6c-44a6-a740-632988deb205" }, "geometry": { "type": "Polygon", "coordinates": [ [ [ 770.740299572987965, 708.607544233966337 ], [ 758.978604908353645, 727.530474478041924 ], [ 752.512601133002477, 723.91993894488553 ], [ 762.684197012825052, 706.592236374110939 ], [ 765.677900939180745, 708.442731189900428 ], [ 770.740299572987965, 708.607544233966337 ] ] ] } },
{ "type": "Feature", "properties": { "feature_type": "building", "subtype": "no-damage", "uid": "8f4d7e0c-09bc-4943-9c74-e456d4765597" }, "geometry": { "type": "Polygon", "coordinates": [ [ [ 829.482917747194051, 672.33720598261084 ], [ 847.505704978290055, 686.649419374261925 ], [ 817.556073259190725, 727.730772611932935 ], [ 800.59344998031645, 717.394174056879365 ], [ 803.508900859052915, 707.322616485394633 ], [ 829.482917747194051, 672.33720598261084 ] ] ] } },
{ "type": "Feature", "properties": { "feature_type": "building", "subtype": "no-damage", "uid": "60a9d7a2-deed-4715-a2f3-26b0ca52a5b5" }, "geometry": { "type": "Polygon", "coordinates": [ [ [ 294.6467788954659, 878.673633967548199 ], [ 307.103705362912876, 870.457363320013997 ], [ 319.560631832923605, 892.190724391059348 ], [ 307.898828330796619, 899.611872074555663 ], [ 294.6467788954659, 878.673633967548199 ] ] ] } },
{ "type": "Feature", "properties": { "feature_type": "building", "subtype": "no-damage", "uid": "2ff302a0-c0c9-49c6-a204-c1a56684225c" }, "geometry": { "type": "Polygon", "coordinates": [ [ [ 686.972580197914226, 265.811482823263987 ], [ 698.687856848642582, 248.726704380954914 ], [ 704.545495172468463, 253.119933123438699 ], [ 692.992930699666658, 270.367423745725318 ], [ 686.972580197914226, 265.811482823263987 ] ] ] } },
{ "type": "Feature", "properties": { "feature_type": "building", "subtype": "no-damage", "uid": "7e77351a-4307-4df8-a903-2e940e40056e" }, "geometry": { "type": "Polygon", "coordinates": [ [ [ 647.030163314096171, 194.337466808681199 ], [ 657.11831820940256, 193.035769404754205 ], [ 660.047137372341012, 216.629034879004394 ], [ 656.467469507695228, 219.232429687883894 ], [ 650.60983117925457, 218.418868808506687 ], [ 647.030163314096171, 194.337466808681199 ] ] ] } },
{ "type": "Feature", "properties": { "feature_type": "building", "subtype": "no-damage", "uid": "ac73ff83-a099-4cab-8002-b6a26e85fd9c" }, "geometry": { "type": "Polygon", "coordinates": [ [ [ 608.18876544529769, 150.476319942737803 ], [ 623.443716035882858, 148.4432313033181 ], [ 629.707397998868373, 183.831234540267303 ], [ 614.264583196468266, 187.896395016717605 ], [ 609.340786090265397, 184.197177908487589 ], [ 603.224718360121756, 152.411367459848606 ], [ 608.18876544529769, 150.476319942737803 ] ] ] } },
{ "type": "Feature", "properties": { "feature_type": "building", "subtype": "no-damage", "uid": "1827ac47-a539-46c9-95d3-4a1a1811514f" }, "geometry": { "type": "Polygon", "coordinates": [ [ [ 990.857575664303113, 818.449069236297191 ], [ 992.592107984551831, 808.859807985753037 ], [ 1007.336433019337051, 811.559473133862184 ], [ 1006.090433719973021, 821.112134426934517 ], [ 990.857575664303113, 818.449069236297191 ] ] ] } }
]
}
