{
"type": "FeatureCollection",
"name": "midwest-flooding_00000213_post_disaster",
"features": [
{ "type": "Feature", "properties": { "feature_type": "building", "subtype": "major-damage", "uid": "6474ab12-f519-4d5d-ad6d-09621e31b681" }, "geometry": { "type": "Polygon", "coordinates": [ [ [ 398.608671596097793, 402.941555122549573 ], [ 423.071263834640376, 397.803447525614217 ], [ 429.227589932920523, 423.488915890193425 ], [ 404.499956710757203, 428.422365859347906 ], [ 400.422013067564876, 416.007384845304614 ], [ 398.608671596097793, 402.941555122549573 ] ] ] } },
{ "type": "Feature", "properties": { "feature_type": "building", "subtype": "no-damage", "uid": "55bccfba-5db1-42c0-9afe-0eb796970948" }, "geometry": { "type": "Polygon", "coordinates": [ [ [ 326.764658666839921, 0.007022943905686 ], [ 318.213633330779203, 23.234768768841821 ], [ 294.401889799664389, 15.22315574387072 ], [ 299.428918902508428, 0.007090016227317 ], [ 326.764658666839921, 0.007022943905686 ] ] ] } },
{ "type": "Feature", "properties": { "feature_type": "building", "subtype": "no-damage", "uid": "e41dfe09-5085-416c-9700-ffe783af7f4d" }, "geometry": { "type": "Polygon", "coordinates": [ [ [ 311.024642905968506, 50.729347943543111 ], [ 303.603495222567688, 72.727750003442495 ], [ 297.772593472222979, 74.848077915553304 ], [ 293.796978640353018, 78.293610766056034 ], [ 292.206732708324125, 83.594430539142081 ], [ 296.447388528437614, 83.064348561114372 ], [ 297.772593470425193, 86.509881411617101 ], [ 301.597916192015418, 87.755880712066428 ], [ 306.599232129137192, 93.171449365427392 ], [ 315.565882947412319, 109.568447429626403 ], [ 287.200904308977272, 123.995409694049101 ], [ 280.244344984249892, 117.519677086687295 ], [ 268.088002737849081, 116.989595109686903 ], [ 257.106573325981174, 95.198859600204827 ], [ 266.762797793806783, 78.558651749419823 ], [ 270.221939111251118, 71.429761978899833 ], [ 274.979068445019891, 70.607422089277122 ], [ 285.845748983803901, 64.246438363217507 ], [ 291.676650733891677, 43.308200259373542 ], [ 311.024642905968506, 50.729347943543111 ] ] ] } },
{ "type": "Feature", "properties": { "feature_type": "building", "subtype": "no-damage", "uid": "00e33d81-7d07-4287-a9fb-9c130e68f463" }, "geometry": { "type": "Polygon", "coordinates": [ [ [ 346.668663787680714, 137.149763290524305 ], [ 343.716377715275485, 127.046905778511601 ], [ 364.483032697172803, 117.898833854424296 ], [ 369.079545846607573, 128.282161344471689 ], [ 346.668663787680714, 137.149763290524305 ] ] ] } }
]
}
