{
"type": "FeatureCollection",
"name": "midwest-flooding_00000372_post_disaster",
"features": [
{ "type": "Feature", "properties": { "feature_type": "building", "subtype": "destroyed", "uid": "bf46038d-dd1a-44e2-a258-f8892c07e31b" }, "geometry": { "type": "Polygon", "coordinates": [ [ [ 191.505561531588398, 223.462645071184994 ], [ 219.23336174145831, 247.47884997925749 ], [ 208.098575829629993, 258.831965021762528 ], [ 198.710423005291801, 266.9101430363894 ], [ 172.29259760539199, 241.802292453384297 ], [ 191.505561531588398, 223.462645071184994 ] ] ] } },
{ "type": "Feature", "properties": { "feature_type": "building", "subtype": "minor-damage", "uid": "17430022-4ec1-4d4e-8665-0da792187dfc" }, "geometry": { "type": "Polygon", "coordinates": [ [ [ 434.936141626023186, 0.012074049116822 ], [ 428.050709754016509, 10.600524293352571 ], [ 401.218896333165674, 0.011910105674333 ], [ 434.936141626023186, 0.012074049116822 ] ] ] } }
]
}
