{
"type": "FeatureCollection",
"name": "palu-tsunami_00000104_post_disaster",
"features": [
{ "type": "Feature", "properties": { "feature_type": "building", "subtype": "no-damage", "uid": "d53cab3d-63a7-4569-b83a-e15d1686ffda" }, "geometry": { "type": "Polygon", "coordinates": [ [ [ 974.029742424918481, 420.155357192161375 ], [ 983.578196164560154, 415.062848529774612 ], [ 994.399777070733307, 407.424085536194411 ], [ 1014.45152993075601, 438.933982887983518 ], [ 1002.675103645946024, 444.981336924100617 ], [ 994.399777070266055, 450.39212737648478 ], [ 974.029742424918481, 420.155357192161375 ] ] ] } },
{ "type": "Feature", "properties": { "feature_type": "building", "subtype": "no-damage", "uid": "5e4bef80-580c-4764-afbc-913d64a4047d" }, "geometry": { "type": "Polygon", "coordinates": [ [ [ 1023.999983670865049, 456.524103371025092 ], [ 1023.999983668996038, 466.489371283664809 ], [ 1011.885344243827035, 474.696062509356693 ], [ 1007.391203811944024, 467.075563515139379 ], [ 1023.999983670865049, 456.524103371025092 ] ] ] } },
{ "type": "Feature", "properties": { "feature_type": "building", "subtype": "no-damage", "uid": "8c192ce9-9dbb-42df-86ce-7ee8dd4ac2d1" }, "geometry": { "type": "Polygon", "coordinates": [ [ [ 978.320504694794295, 585.467474741952287 ], [ 985.516156930257239, 578.731119458088529 ], [ 980.463890465956297, 572.760259094799608 ], [ 989.496730501267621, 564.492913977262106 ], [ 995.161392900953956, 571.382368243745645 ], [ 999.295065456219504, 567.401794665727721 ], [ 1007.103113625665969, 575.516040804383351 ], [ 1007.103113622394972, 576.893931655437314 ], [ 985.516156928388341, 594.959611731661994 ], [ 978.320504694794295, 585.467474741952287 ] ] ] } },
{ "type": "Feature", "properties": { "feature_type": "building", "subtype": "major-damage", "uid": "13eb97b9-20df-4727-8f42-d27e449ea178" }, "geometry": { "type": "Polygon", "coordinates": [ [ [ 957.694838575006884, 601.896951912235409 ], [ 967.464709082453055, 590.173107305172152 ], [ 976.648387352817622, 597.598208891389845 ], [ 980.556335555562441, 593.104068458806864 ], [ 987.981437140380422, 599.161388170338114 ], [ 984.855078576409028, 603.460131194921587 ], [ 987.981437142249433, 606.000297525081351 ], [ 975.671400305577322, 620.85050069377894 ], [ 962.970568647532559, 610.689835369401862 ], [ 965.119940160292117, 608.345066447241607 ], [ 957.694838575006884, 601.896951912235409 ] ] ] } },
{ "type": "Feature", "properties": { "feature_type": "building", "subtype": "destroyed", "uid": "13d35c1f-9d19-445e-ae55-ccbf1afa51d4" }, "geometry": { "type": "Polygon", "coordinates": [ [ [ 939.258102412559424, 548.880748805776648 ], [ 945.243273094501319, 543.643724456888776 ], [ 948.984004775650192, 547.883220358903486 ], [ 942.749451978719321, 552.870862597007545 ], [ 939.258102412559424, 548.880748805776648 ] ] ] } },
{ "type": "Feature", "properties": { "feature_type": "building", "subtype": "major-damage", "uid": "f4871a48-3d04-435d-b78e-68e92c36e916" }, "geometry": { "type": "Polygon", "coordinates": [ [ [ 914.070509115920686, 568.083171418365737 ], [ 919.806297688714039, 561.349854401036964 ], [ 924.295175701513813, 565.339968188529838 ], [ 926.29023259619521, 563.344911294783401 ], [ 924.045793590729886, 561.349854401036964 ], [ 934.270460178659164, 551.623952035612547 ], [ 944.245744649730455, 562.098000733388403 ], [ 929.033435830237067, 576.811545336916879 ], [ 923.79641147924508, 571.823903098812821 ], [ 920.803826138858199, 575.065870553954255 ], [ 914.070509115920686, 568.083171418365737 ] ] ] } },
{ "type": "Feature", "properties": { "feature_type": "building", "subtype": "no-damage", "uid": "fc39bce2-8504-4669-b9b7-33d5ace4f049" }, "geometry": { "type": "Polygon", "coordinates": [ [ [ 877.910102901337154, 557.60912272058988 ], [ 889.132297930533127, 548.631366694992835 ], [ 896.613761287924945, 557.60912272058988 ], [ 884.643419917499727, 566.836260860708762 ], [ 877.910102901337154, 557.60912272058988 ] ] ] } },
{ "type": "Feature", "properties": { "feature_type": "building", "subtype": "no-damage", "uid": "7ac72f25-c66d-4560-8369-15b39b7b9d22" }, "geometry": { "type": "Polygon", "coordinates": [ [ [ 395.96602758994851, 151.008935558455391 ], [ 402.21874471228432, 145.733205482660395 ], [ 408.080667013014079, 153.353704476877709 ], [ 401.827949892079914, 158.629434552672791 ], [ 395.96602758994851, 151.008935558455391 ] ] ] } },
{ "type": "Feature", "properties": { "feature_type": "building", "subtype": "no-damage", "uid": "93fdf776-96d2-48d1-af2f-be7cf1600097" }, "geometry": { "type": "Polygon", "coordinates": [ [ [ 15.571718037750991, 613.817237108299423 ], [ 40.759311330651798, 596.111107167889145 ], [ 56.221002268638529, 618.555497235619669 ], [ 32.52970164137556, 634.515952396805233 ], [ 23.302563503123231, 626.535724814343553 ], [ 15.571718037750991, 613.817237108299423 ] ] ] } },
{ "type": "Feature", "properties": { "feature_type": "building", "subtype": "no-damage", "uid": "d913ad10-3fe6-4afa-be88-23ad42401645" }, "geometry": { "type": "Polygon", "coordinates": [ [ [ 81.674548019690789, 641.159628976858471 ], [ 87.410336591549637, 633.92754773048614 ], [ 93.644889388480593, 639.66333630467966 ], [ 87.909100813818284, 646.895417547314082 ], [ 81.674548019690789, 641.159628976858471 ] ] ] } },
{ "type": "Feature", "properties": { "feature_type": "building", "subtype": "no-damage", "uid": "782ef2be-5e8a-41ef-bbac-092031b4e9e5" }, "geometry": { "type": "Polygon", "coordinates": [ [ [ 66.462239194590538, 715.475498315638674 ], [ 59.230157952421429, 708.243417073004252 ], [ 54.741279938687207, 698.766896822101558 ], [ 68.457296087403066, 688.542230235109514 ], [ 82.921458576413698, 709.739709741445154 ], [ 87.410336588746191, 706.497742290041629 ], [ 91.649832491696515, 713.231059311108311 ], [ 87.050465409988377, 716.381473679708847 ], [ 89.904157708266155, 721.211286889832195 ], [ 76.936287889565776, 731.685335587608051 ], [ 66.462239194590538, 715.475498315638674 ] ] ] } },
{ "type": "Feature", "properties": { "feature_type": "building", "subtype": "no-damage", "uid": "74274f52-2716-44e0-add4-23568235a21a" }, "geometry": { "type": "Polygon", "coordinates": [ [ [ 6.111502724257084, 756.748765967264376 ], [ 11.1918353862134, 751.863830714944356 ], [ 18.616936968928869, 759.875124528898709 ], [ 12.559617255527071, 765.346252012693299 ], [ 6.111502724257084, 756.748765967264376 ] ] ] } },
{ "type": "Feature", "properties": { "feature_type": "building", "subtype": "no-damage", "uid": "8ba001ac-9c51-4c11-8ace-ef775f16c1e6" }, "geometry": { "type": "Polygon", "coordinates": [ [ [ 801.997178344451072, 1005.706548304672992 ], [ 812.67335665889118, 1005.346677125681026 ], [ 812.91327078257973, 1012.784014831065974 ], [ 802.35704952274159, 1013.263843070967027 ], [ 801.997178344451072, 1005.706548304672992 ] ] ] } },
{ "type": "Feature", "properties": { "feature_type": "building", "subtype": "no-damage", "uid": "f4709641-98c1-4af2-a906-a0ffdb679c77" }, "geometry": { "type": "Polygon", "coordinates": [ [ [ 1023.999983668996038, 509.634083522902074 ], [ 1023.999983667594051, 512.123332449300847 ], [ 1018.188812932068004, 516.639194479780599 ], [ 1010.207289348923041, 506.662289996705624 ], [ 1012.727770482273968, 504.24682891298221 ], [ 1017.558692651358001, 501.621327730471307 ], [ 1023.999983668996038, 509.634083522902074 ] ] ] } }
]
}
