{
"type": "FeatureCollection",
"name": "palu-tsunami_00000009_post_disaster",
"features": [
{ "type": "Feature", "properties": { "feature_type": "building", "subtype": "no-damage", "uid": "ec9dd040-bb13-496e-a4e7-cc48d2d13f11" }, "geometry": { "type": "Polygon", "coordinates": [ [ [ 1023.999981869832027, 711.12532028782482 ], [ 1021.88885684461502, 735.835947638834341 ], [ 1013.448347458176045, 737.56837175778503 ], [ 1008.085892305773996, 735.199384059664226 ], [ 1008.085892306241021, 721.513267025271716 ], [ 1006.176201556114961, 721.194985235686659 ], [ 1006.400493850737007, 711.12532028782482 ], [ 1023.999981869832027, 711.12532028782482 ] ] ] } },
{ "type": "Feature", "properties": { "feature_type": "building", "subtype": "no-damage", "uid": "31e832e0-510a-4f92-bee6-152d0a0f2496" }, "geometry": { "type": "Polygon", "coordinates": [ [ [ 1020.292562572442989, 816.203485608098163 ], [ 1020.361587915976997, 818.481321853866689 ], [ 1023.999981871000045, 818.619999913400761 ], [ 1023.999981871234013, 839.51664489001223 ], [ 1017.11468176242704, 839.488330644632242 ], [ 1016.874767641780977, 836.369447089781033 ], [ 1013.641182032067945, 836.068363511610414 ], [ 1014.109981875142012, 818.969999913243782 ], [ 1017.244721248583005, 818.825775483989673 ], [ 1017.313728875224001, 816.203485608098163 ], [ 1020.292562572442989, 816.203485608098163 ] ] ] } },
{ "type": "Feature", "properties": { "feature_type": "building", "subtype": "no-damage", "uid": "93e4846a-4d73-4d5d-a093-201451d7d131" }, "geometry": { "type": "Polygon", "coordinates": [ [ [ 1022.306561401336012, 808.511690599827261 ], [ 1023.999981870065994, 808.596776037363611 ], [ 1023.99998187053302, 818.119999914693039 ], [ 1020.847210447164002, 817.999291357584639 ], [ 1020.777640574469956, 815.703485609390327 ], [ 1016.82671367146304, 815.703485609390327 ], [ 1016.757126089584972, 818.347813784774189 ], [ 1013.079981876084048, 818.519999912911658 ], [ 1006.438503443196964, 817.896059884590954 ], [ 1006.438503441794978, 810.458722177731488 ], [ 1008.477773461915035, 809.499065700753363 ], [ 1008.239981876893012, 805.289999915855105 ], [ 1022.428785747276947, 804.765085353024233 ], [ 1022.306561401336012, 808.511690599827261 ] ] ] } },
{ "type": "Feature", "properties": { "feature_type": "building", "subtype": "no-damage", "uid": "d8fc4b6f-4e23-471b-a4f4-19ffea3e114e" }, "geometry": { "type": "Polygon", "coordinates": [ [ [ 1022.659981873509992, 790.299999914675141 ], [ 1023.592362989272033, 801.341985637094808 ], [ 1023.609981873952052, 804.179999913042252 ], [ 1004.749981875662002, 804.929999914841801 ], [ 1003.19966283129304, 804.820740370345561 ], [ 1002.839791651024029, 799.902500919758722 ], [ 1005.958675206108978, 799.182758559221725 ], [ 1004.639147546059007, 794.984261469171884 ], [ 1006.299981872262947, 792.589999913541305 ], [ 1013.872053188081964, 789.644176435228133 ], [ 1022.659981873509992, 790.299999914675141 ] ] ] } },
{ "type": "Feature", "properties": { "feature_type": "building", "subtype": "no-damage", "uid": "6becdf41-e985-4dd1-b9bb-c4b85b6a7dd9" }, "geometry": { "type": "Polygon", "coordinates": [ [ [ 1018.874615397991988, 765.821102874449252 ], [ 1017.647934449905051, 789.258072679328848 ], [ 1013.796151374285046, 789.137139718041681 ], [ 1006.139981872694989, 792.119999914606524 ], [ 1003.679491068146035, 791.505506735921131 ], [ 1003.67949107071604, 790.305936135026172 ], [ 999.600951039120446, 790.066022018585045 ], [ 999.613315206156699, 786.846666580897136 ], [ 997.55899737854736, 781.266372944648765 ], [ 999.659981876882966, 774.079999915328472 ], [ 1001.280349872898, 773.991776007709063 ], [ 1001.40030693438905, 767.873965959965176 ], [ 1005.478846962947955, 767.274180661386595 ], [ 1010.15717229382301, 767.754008898006759 ], [ 1010.277129354146041, 765.234910645471928 ], [ 1018.874615397991988, 765.821102874449252 ] ] ] } },
{ "type": "Feature", "properties": { "feature_type": "building", "subtype": "no-damage", "uid": "fc7d45df-feb7-40ef-a2af-ba70e244edb7" }, "geometry": { "type": "Polygon", "coordinates": [ [ [ 997.80269078973231, 770.495137721057176 ], [ 998.942917029230671, 770.440841235831499 ], [ 999.055566789246654, 774.119404164013645 ], [ 999.123388399760529, 774.119404164013645 ], [ 997.03338839953642, 781.282495813929813 ], [ 999.039981873476449, 786.869999913223296 ], [ 992.140132700467348, 787.138442063617731 ], [ 990.134353775195905, 786.294070163734546 ], [ 989.875403608514603, 770.603730698984123 ], [ 991.178519310931961, 770.6580271842098 ], [ 991.164816730521579, 767.751484963075086 ], [ 997.831895115308157, 767.622687755754669 ], [ 997.80269078973231, 770.495137721057176 ] ] ] } },
{ "type": "Feature", "properties": { "feature_type": "building", "subtype": "no-damage", "uid": "fb9a624d-aeb3-40ab-9b97-02e96712c33d" }, "geometry": { "type": "Polygon", "coordinates": [ [ [ 988.939981876170464, 773.859999915747608 ], [ 989.192609670978413, 787.201719119227164 ], [ 986.100194885706401, 788.442792516995155 ], [ 972.259981881628391, 789.129999912316407 ], [ 972.399981876986658, 773.51999991333696 ], [ 988.939981876170464, 773.859999915747608 ] ] ] } },
{ "type": "Feature", "properties": { "feature_type": "building", "subtype": "no-damage", "uid": "1f43c25d-70b7-4ac9-8095-81dbccb28132" }, "geometry": { "type": "Polygon", "coordinates": [ [ [ 970.501482444718363, 767.225587795142246 ], [ 972.039981880879395, 767.559999914835316 ], [ 971.489981881226186, 791.479999914466362 ], [ 963.493876047963568, 791.145635553783677 ], [ 963.853747231269153, 788.266666119111505 ], [ 958.845174623531534, 787.980438168594446 ], [ 958.99998187942515, 767.259999913367892 ], [ 962.337780553798893, 767.056004090134024 ], [ 962.640513833953833, 762.990656575698267 ], [ 970.572846640432431, 762.928400909529387 ], [ 970.501482444718363, 767.225587795142246 ] ] ] } },
{ "type": "Feature", "properties": { "feature_type": "building", "subtype": "no-damage", "uid": "eb3b5746-daf9-4db2-a989-3d26d9017e9e" }, "geometry": { "type": "Polygon", "coordinates": [ [ [ 958.447111204687189, 765.657577682313331 ], [ 958.499981882352699, 767.289999913140832 ], [ 958.049981879217057, 798.489999912497069 ], [ 937.103322905366895, 798.103145020285183 ], [ 937.400022858079865, 770.924310135426026 ], [ 943.82091824935344, 770.752935394637348 ], [ 944.180789427752984, 765.474824761913055 ], [ 958.447111204687189, 765.657577682313331 ] ] ] } },
{ "type": "Feature", "properties": { "feature_type": "building", "subtype": "no-damage", "uid": "cf743d71-a41a-49d2-bcd5-be9f7f323618" }, "geometry": { "type": "Polygon", "coordinates": [ [ [ 984.245582100602405, 789.75692664494261 ], [ 990.329190877442784, 789.58675576986991 ], [ 990.371733596678155, 791.969148020887587 ], [ 990.371733595042883, 793.032715986353992 ], [ 984.50083841110893, 793.16034414265846 ], [ 984.245582100602405, 789.75692664494261 ] ] ] } },
{ "type": "Feature", "properties": { "feature_type": "building", "subtype": "no-damage", "uid": "00c3239d-0eb1-4587-940e-8bc24c41ac09" }, "geometry": { "type": "Polygon", "coordinates": [ [ [ 954.403727996591329, 899.0870431772546 ], [ 958.384301570254706, 934.606007389767115 ], [ 935.87875097319386, 936.136997227318943 ], [ 931.898177398829603, 919.90850495674556 ], [ 932.204375362134897, 913.631446624652085 ], [ 920.875050575464684, 915.00933748031764 ], [ 918.42546683725061, 893.575479765805994 ], [ 934.960157070195464, 891.585192975119639 ], [ 935.113256055819534, 894.340974682712954 ], [ 944.452294056942947, 893.575479765805994 ], [ 948.585966613193364, 895.412667567130256 ], [ 954.403727996591329, 899.0870431772546 ] ] ] } },
{ "type": "Feature", "properties": { "feature_type": "building", "subtype": "no-damage", "uid": "2d925c21-4595-446c-8e03-d386077694ed" }, "geometry": { "type": "Polygon", "coordinates": [ [ [ 913.716062084095825, 827.652221623978562 ], [ 934.53171133746639, 827.975857169852588 ], [ 934.169307717166475, 831.320784707981716 ], [ 939.113055792272689, 831.553339443871664 ], [ 939.113055796244112, 839.667585581027311 ], [ 933.2952944133134, 839.514486595403127 ], [ 933.295294417284936, 845.332247978100099 ], [ 926.865137101202436, 845.026050010589643 ], [ 926.865137101202436, 849.159722570110603 ], [ 919.210187921386137, 849.312821551996876 ], [ 918.750890970120508, 845.485346959986259 ], [ 912.167634671918108, 844.7198520430793 ], [ 912.394376880986101, 840.48539323302532 ], [ 905.27818040854163, 840.739278465444613 ], [ 905.805308058531409, 832.64246991039056 ], [ 912.960272612877361, 832.404102644641512 ], [ 913.716062084095825, 827.652221623978562 ] ] ] } },
{ "type": "Feature", "properties": { "feature_type": "building", "subtype": "no-damage", "uid": "d9b493ad-696c-4d35-962c-c15d5148d5ee" }, "geometry": { "type": "Polygon", "coordinates": [ [ [ 875.698451361652019, 845.21107710016463 ], [ 878.301134083621264, 843.833186244498961 ], [ 898.816397892799273, 841.383602508154013 ], [ 902.03147655072371, 854.856313071134196 ], [ 899.122595861711261, 859.143084612541315 ], [ 879.525925953195497, 862.205064287644973 ], [ 875.698451361652019, 845.21107710016463 ] ] ] } },
{ "type": "Feature", "properties": { "feature_type": "building", "subtype": "no-damage", "uid": "73cee028-3c2f-4200-9ac2-739559772326" }, "geometry": { "type": "Polygon", "coordinates": [ [ [ 828.624507880795704, 848.197621121110501 ], [ 848.986672709255572, 845.901136366651713 ], [ 852.354850350234301, 846.360433316048329 ], [ 855.876126972398424, 866.263301196746056 ], [ 831.99268552154092, 869.325280868111804 ], [ 828.318309915621512, 859.833143882766308 ], [ 828.624507880795704, 848.197621121110501 ] ] ] } },
{ "type": "Feature", "properties": { "feature_type": "building", "subtype": "no-damage", "uid": "d1036d2e-c3eb-4c53-a6ce-e36f66fdd0a5" }, "geometry": { "type": "Polygon", "coordinates": [ [ [ 783.919604656520505, 850.187907908058833 ], [ 807.037551188602151, 850.187907908058833 ], [ 808.568541024985961, 869.784577821246216 ], [ 783.613406689010162, 871.315567658798045 ], [ 781.929317864899645, 862.742024572245782 ], [ 781.929317866768542, 852.943689615652147 ], [ 783.919604656520505, 850.187907908058833 ] ] ] } },
{ "type": "Feature", "properties": { "feature_type": "building", "subtype": "no-damage", "uid": "18c442d1-39d5-4d44-a07b-24f8b67f74de" }, "geometry": { "type": "Polygon", "coordinates": [ [ [ 701.717726386100935, 829.342124707656353 ], [ 708.556635738809291, 829.537522118561355 ], [ 709.14282797059002, 851.422032050217808 ], [ 723.211441496415318, 851.422032050217808 ], [ 723.016044086911961, 828.755932474941119 ], [ 734.739888688885003, 828.36513765686891 ], [ 736.693862790693402, 872.524952341991934 ], [ 702.69471343852365, 873.306541981874147 ], [ 701.717726386100935, 829.342124707656353 ] ] ] } },
{ "type": "Feature", "properties": { "feature_type": "building", "subtype": "no-damage", "uid": "bf6e03d4-5e62-4696-8168-3ed03ea6ce0a" }, "geometry": { "type": "Polygon", "coordinates": [ [ [ 664.842897230048948, 818.623940867180636 ], [ 686.040376738384793, 812.638770180649317 ], [ 692.274929533195177, 836.579452923036797 ], [ 670.329303688341952, 842.564623609568116 ], [ 664.842897230048948, 818.623940867180636 ] ] ] } },
{ "type": "Feature", "properties": { "feature_type": "building", "subtype": "major-damage", "uid": "3c885ef6-f423-4626-ab80-0872b4eb4937" }, "geometry": { "type": "Polygon", "coordinates": [ [ [ 742.40073401514212, 787.20179477036686 ], [ 774.072262217198841, 788.199323219368011 ], [ 773.324115882784099, 813.636298629650469 ], [ 741.403205564739096, 811.391859624070207 ], [ 742.40073401514212, 787.20179477036686 ] ] ] } },
{ "type": "Feature", "properties": { "feature_type": "building", "subtype": "major-damage", "uid": "8ce0c666-47de-4c12-993f-9929f92e8a56" }, "geometry": { "type": "Polygon", "coordinates": [ [ [ 825.694359371713176, 785.456119987418219 ], [ 823.449920360993133, 800.419046700008721 ], [ 825.444977260630935, 811.890623846701828 ], [ 799.010473400645424, 812.638770180649317 ], [ 800.756148184295057, 785.95488421004984 ], [ 825.694359371713176, 785.456119987418219 ] ] ] } },
{ "type": "Feature", "properties": { "feature_type": "building", "subtype": "no-damage", "uid": "652b0329-845b-49dd-aabb-bfe43c72ad34" }, "geometry": { "type": "Polygon", "coordinates": [ [ [ 683.071150463980416, 770.603408332204936 ], [ 684.068678915785085, 789.307066722008585 ], [ 662.123053073735264, 790.803359393641472 ], [ 661.125524621930595, 772.099701003837822 ], [ 683.071150463980416, 770.603408332204936 ] ] ] } },
{ "type": "Feature", "properties": { "feature_type": "building", "subtype": "no-damage", "uid": "9ec6471f-1c6d-47e4-b769-e1a8976f956f" }, "geometry": { "type": "Polygon", "coordinates": [ [ [ 628.988813834046482, 747.706619627708619 ], [ 656.670228252246488, 747.706619627708619 ], [ 656.670228249443085, 750.948587082290146 ], [ 665.149220051936368, 750.948587082290146 ], [ 665.398602162784982, 763.417692677984405 ], [ 662.15663471030598, 766.659660132565932 ], [ 644.949268990966402, 767.158424355197553 ], [ 644.9492689928353, 764.415221126985671 ], [ 628.988813832878463, 764.913985349617292 ], [ 624.001171599319605, 755.686847208504446 ], [ 628.988813834046482, 747.706619627708619 ] ] ] } },
{ "type": "Feature", "properties": { "feature_type": "building", "subtype": "major-damage", "uid": "9eefd047-ed42-4417-ab56-487ea5839ec3" }, "geometry": { "type": "Polygon", "coordinates": [ [ [ 681.729894421943527, 767.360150554530037 ], [ 682.902278879197297, 747.820409542520565 ], [ 695.212315713885573, 747.429614720710561 ], [ 712.01649298233599, 749.578986233190335 ], [ 712.407287803211716, 767.164753143625035 ], [ 681.729894421943527, 767.360150554530037 ] ] ] } },
{ "type": "Feature", "properties": { "feature_type": "building", "subtype": "no-damage", "uid": "43d7eac4-8d60-4f0a-9ec1-51ce7ee197c3" }, "geometry": { "type": "Polygon", "coordinates": [ [ [ 737.425929487085568, 750.057057871203256 ], [ 796.626342680250445, 750.806540160395571 ], [ 869.831154694823567, 755.149566534467795 ], [ 869.194591111448176, 772.973346852155828 ], [ 803.946823883226216, 769.790528937615477 ], [ 764.161599961282491, 768.835683565122281 ], [ 764.161599960347985, 769.790528937615477 ], [ 738.062493069993707, 769.790528937615477 ], [ 731.696857242548049, 760.878638780640358 ], [ 737.425929487085568, 750.057057871203256 ] ] ] } },
{ "type": "Feature", "properties": { "feature_type": "building", "subtype": "no-damage", "uid": "96c93f91-29d0-4b25-a069-0208c7b0b97d" }, "geometry": { "type": "Polygon", "coordinates": [ [ [ 873.654218776374705, 732.299547252935895 ], [ 886.703772218982067, 733.254392625429091 ], [ 885.748926848124256, 745.985664283590381 ], [ 872.381091608689644, 744.712537117774332 ], [ 873.654218776374705, 732.299547252935895 ] ] ] } },
{ "type": "Feature", "properties": { "feature_type": "building", "subtype": "destroyed", "uid": "7a7eca02-97bd-497c-a767-7dace20a3d86" }, "geometry": { "type": "Polygon", "coordinates": [ [ [ 909.729828132989041, 730.736829550158291 ], [ 923.407646841676524, 731.323021782873525 ], [ 922.821454608494037, 745.196237897325886 ], [ 909.534430722083926, 744.414648257443559 ], [ 909.729828132989041, 730.736829550158291 ] ] ] } },
{ "type": "Feature", "properties": { "feature_type": "building", "subtype": "major-damage", "uid": "cd7b7fea-fe93-4f9c-9782-034ea83c88da" }, "geometry": { "type": "Polygon", "coordinates": [ [ [ 918.692308946556068, 597.923696312772904 ], [ 926.331071936079979, 602.379641393129418 ], [ 920.601999691308833, 718.55249525703141 ], [ 917.100899984847047, 719.189058839939548 ], [ 916.464336401939022, 724.918131086112112 ], [ 901.505092211541864, 724.599849296527054 ], [ 902.77821937548913, 716.961086301630189 ], [ 883.681311891516998, 717.27936809121536 ], [ 884.222377826669458, 637.53309889765103 ], [ 888.03998189495519, 594.53999991479418 ], [ 918.692308946556068, 597.923696312772904 ] ] ] } },
{ "type": "Feature", "properties": { "feature_type": "building", "subtype": "major-damage", "uid": "79e3113d-0276-4ee7-99eb-b491a2605d6d" }, "geometry": { "type": "Polygon", "coordinates": [ [ [ 888.03998189495519, 594.53999991479418 ], [ 884.222377826669458, 637.53309889765103 ], [ 826.072307659593889, 631.025002620254668 ], [ 829.573407359280623, 603.971050348530639 ], [ 852.590107643100396, 607.027832114898047 ], [ 854.934876566718913, 597.648756428834417 ], [ 865.486336710036539, 599.407333119504187 ], [ 864.509349659482837, 608.200216572852582 ], [ 876.233194264259282, 609.177203623639912 ], [ 878.270521440068819, 593.467751232416504 ], [ 888.03998189495519, 594.53999991479418 ] ] ] } },
{ "type": "Feature", "properties": { "feature_type": "building", "subtype": "no-damage", "uid": "3f195881-a06a-4780-a7c0-26822965fbd5" }, "geometry": { "type": "Polygon", "coordinates": [ [ [ 693.250918139574992, 669.908564646553714 ], [ 694.227905187559031, 650.17342622363924 ], [ 719.434171091285975, 650.17342622363924 ], [ 719.629568499154061, 669.908564646553714 ], [ 693.250918139574992, 669.908564646553714 ] ] ] } },
{ "type": "Feature", "properties": { "feature_type": "building", "subtype": "no-damage", "uid": "a7b90d85-41d9-4ffe-9599-913099fb64e4" }, "geometry": { "type": "Polygon", "coordinates": [ [ [ 712.986056557350707, 693.551651268879823 ], [ 712.204466913029592, 685.735754866318757 ], [ 715.917017706442266, 682.609396303051653 ], [ 720.020363319562421, 682.609396303051653 ], [ 720.411158138569135, 693.551651268879823 ], [ 712.986056557350707, 693.551651268879823 ] ] ] } },
{ "type": "Feature", "properties": { "feature_type": "building", "subtype": "destroyed", "uid": "b4a7b79f-a5e6-40c7-aabf-3afdb895c4d8" }, "geometry": { "type": "Polygon", "coordinates": [ [ [ 678.961957403509018, 498.157922390284796 ], [ 701.878246384929639, 499.112767766515788 ], [ 700.923401011268425, 512.798884797170331 ], [ 673.551166954397104, 511.844039420939282 ], [ 672.596321576997866, 503.568712846872415 ], [ 678.961957403509018, 498.157922390284796 ] ] ] } },
{ "type": "Feature", "properties": { "feature_type": "building", "subtype": "no-damage", "uid": "6fb09474-253b-445d-af4e-57d1d1529b65" }, "geometry": { "type": "Polygon", "coordinates": [ [ [ 1023.999981869597946, 157.4013203232835 ], [ 1023.999981869365001, 177.924136383422791 ], [ 1014.785863601185952, 179.29191825602021 ], [ 1011.268710215407964, 159.947574654915798 ], [ 1018.270909626229013, 158.356165695776696 ], [ 1023.999981869597946, 157.4013203232835 ] ] ] } },
{ "type": "Feature", "properties": { "feature_type": "building", "subtype": "no-damage", "uid": "949df165-b5b9-40a5-8c87-ebb421c775de" }, "geometry": { "type": "Polygon", "coordinates": [ [ [ 1023.999981871701038, 151.350088608734609 ], [ 1013.418081729990035, 152.913267892237087 ], [ 1013.027286906778954, 148.223730049205301 ], [ 1008.533146478389995, 149.005319689087599 ], [ 1007.556159423631016, 141.384820693693712 ], [ 1012.441094680138008, 140.994025875621503 ], [ 1011.268710216108957, 133.959719109204912 ], [ 1023.999981873335969, 131.318144864813689 ], [ 1023.999981871701038, 151.350088608734609 ] ] ] } },
{ "type": "Feature", "properties": { "feature_type": "building", "subtype": "no-damage", "uid": "10c1123b-4979-4b8c-885b-ab7378627066" }, "geometry": { "type": "Polygon", "coordinates": [ [ [ 1023.999981872402032, 94.966389798490709 ], [ 1023.999981873802994, 118.6094764245547 ], [ 1018.093355287851978, 119.000271242626894 ], [ 1017.116368234728952, 121.3450401660117 ], [ 999.725998741739545, 122.712822034871294 ], [ 999.530601328965531, 120.758847933296593 ], [ 998.749011687214306, 110.207387789278499 ], [ 994.059473846985725, 110.207387789278499 ], [ 994.059473846518472, 103.759273255577 ], [ 998.162819460339506, 103.759273255577 ], [ 997.967422050135383, 98.09274836175787 ], [ 1001.875370253285041, 96.724966489160394 ], [ 1023.999981872402032, 94.966389798490709 ] ] ] } },
{ "type": "Feature", "properties": { "feature_type": "building", "subtype": "no-damage", "uid": "df1cad98-a501-46c3-b942-ed6b26a3b0e5" }, "geometry": { "type": "Polygon", "coordinates": [ [ [ 980.512087962301848, 116.337464116683194 ], [ 993.366477784256404, 110.028348282390198 ], [ 999.945131640732939, 125.094329478920301 ], [ 986.869812127888849, 131.33209658488471 ], [ 980.512087962301848, 116.337464116683194 ] ] ] } },
{ "type": "Feature", "properties": { "feature_type": "building", "subtype": "no-damage", "uid": "3aae9bbc-0454-4251-b5a7-cbd191bae061" }, "geometry": { "type": "Polygon", "coordinates": [ [ [ 947.0572915995009, 90.488607270380754 ], [ 979.884056494183369, 89.120825397783292 ], [ 986.527568436453976, 92.442581371955498 ], [ 983.596607281755496, 112.763912023847297 ], [ 978.320877208811794, 112.959309431014404 ], [ 978.320877209279047, 117.648847274046204 ], [ 961.516699943398407, 116.281065405186595 ], [ 961.516699945500932, 113.936296481801804 ], [ 948.62047087646215, 114.913283532589205 ], [ 947.0572915995009, 90.488607270380754 ] ] ] } },
{ "type": "Feature", "properties": { "feature_type": "building", "subtype": "no-damage", "uid": "a9f6fb44-e399-45ed-86cd-502290e804e4" }, "geometry": { "type": "Polygon", "coordinates": [ [ [ 986.673553752608655, 69.383728451748553 ], [ 1017.526126578645972, 67.93134972858924 ], [ 1017.526126578178037, 83.17234771563912 ], [ 998.377180393117897, 84.149334766426492 ], [ 991.147476219533814, 87.080295918788593 ], [ 986.8487331987792, 81.999963253946703 ], [ 986.673553752608655, 69.383728451748553 ] ] ] } },
{ "type": "Feature", "properties": { "feature_type": "building", "subtype": "no-damage", "uid": "03afd60c-6779-4ec5-bf8d-babde62d19d3" }, "geometry": { "type": "Polygon", "coordinates": [ [ [ 1019.069333459446966, 43.246170551552822 ], [ 1018.968641887311946, 59.601159852038847 ], [ 995.589454810017401, 60.197461064084223 ], [ 990.482918442869845, 63.313710644283262 ], [ 975.801908982958253, 52.566853089360109 ], [ 979.905254590004461, 44.555559275894012 ], [ 1019.069333459446966, 43.246170551552822 ] ] ] } },
{ "type": "Feature", "properties": { "feature_type": "building", "subtype": "no-damage", "uid": "c9b9e39f-4a27-441f-ad08-013e611e818c" }, "geometry": { "type": "Polygon", "coordinates": [ [ [ 984.71028500450916, 31.512534100246381 ], [ 990.767604717335189, 31.512534100246381 ], [ 990.679430604006939, 42.199999914859077 ], [ 980.802336799023351, 42.25939165516953 ], [ 979.043760109288087, 36.788264172255431 ], [ 981.193131619898963, 32.880315969105958 ], [ 982.908406532097274, 31.51155666838304 ], [ 984.71028500450916, 31.51155666838304 ], [ 984.71028500450916, 31.512534100246381 ] ] ] } },
{ "type": "Feature", "properties": { "feature_type": "building", "subtype": "no-damage", "uid": "2777fc6d-f291-4aa1-9961-adeb170561be" }, "geometry": { "type": "Polygon", "coordinates": [ [ [ 1004.908187470442954, 18.244670145201152 ], [ 1004.939981872900034, 42.099999914369953 ], [ 990.679430604006939, 42.199999914859077 ], [ 990.767604717335189, 31.512534100246381 ], [ 990.767604714531785, 18.42090762193839 ], [ 1004.908187470442954, 18.244670145201152 ] ] ] } },
{ "type": "Feature", "properties": { "feature_type": "building", "subtype": "no-damage", "uid": "8a552693-ce66-4f2b-8258-682100549c15" }, "geometry": { "type": "Polygon", "coordinates": [ [ [ 1017.927844714928028, 18.616305032843439 ], [ 1017.732447304490051, 34.638892659775642 ], [ 1011.088935362686016, 35.029687481585754 ], [ 1010.893537950846962, 42.063994244264478 ], [ 1004.939981872900034, 42.099999914369953 ], [ 1004.908187470442954, 18.244670145201152 ], [ 1017.927844714928028, 18.616305032843439 ] ] ] } },
{ "type": "Feature", "properties": { "feature_type": "building", "subtype": "no-damage", "uid": "0a316ce9-81c9-4a90-aa1d-48ccad3a5224" }, "geometry": { "type": "Polygon", "coordinates": [ [ [ 984.710285002640148, 15.099151651504069 ], [ 984.710285002873775, 31.01155666593737 ], [ 982.73963286085484, 31.01155666593737 ], [ 980.179981879858701, 32.959999913770218 ], [ 973.963427447015761, 33.466508201821107 ], [ 974.354222268125113, 15.880741291386389 ], [ 975.722004136517398, 14.903754240599021 ], [ 984.710285002640148, 15.099151651504069 ] ] ] } },
{ "type": "Feature", "properties": { "feature_type": "building", "subtype": "no-damage", "uid": "3dafae65-318f-4729-b16d-b23472773a5d" }, "geometry": { "type": "Polygon", "coordinates": [ [ [ 957.116405069699567, 34.482367472570651 ], [ 956.748670711967065, 16.831118297669988 ], [ 962.080818899790188, 15.544048046306891 ], [ 970.53870913324613, 15.360180864870809 ], [ 971.825779384142038, 33.930765935738201 ], [ 957.116405069699567, 34.482367472570651 ] ] ] } },
{ "type": "Feature", "properties": { "feature_type": "building", "subtype": "no-damage", "uid": "1991fa33-80ed-4c52-9721-cb714373670b" }, "geometry": { "type": "Polygon", "coordinates": [ [ [ 977.344879731019091, 14.24854337129047 ], [ 977.683515224916505, 9.056132460815425 ], [ 983.553197121784706, 9.169010958625455 ], [ 983.778954116937484, 14.13566487348044 ], [ 977.344879731019091, 14.24854337129047 ] ] ] } },
{ "type": "Feature", "properties": { "feature_type": "building", "subtype": "no-damage", "uid": "886d7f03-853e-48c9-8c21-a6ab5a537237" }, "geometry": { "type": "Polygon", "coordinates": [ [ [ 934.734419698493753, 44.524909167478 ], [ 951.707633926225185, 46.420058080609927 ], [ 951.585846132803681, 68.695537079519895 ], [ 935.263175010237774, 68.068779527497298 ], [ 935.4384185703193, 63.158606019445422 ], [ 930.884699142014256, 62.94175831639977 ], [ 931.44909163526961, 49.218234976222107 ], [ 934.734419698493753, 44.524909167478 ] ] ] } },
{ "type": "Feature", "properties": { "feature_type": "building", "subtype": "no-damage", "uid": "e433474d-f5b9-4047-aaab-9e5e28360f2d" }, "geometry": { "type": "Polygon", "coordinates": [ [ [ 930.193166431372447, 29.137175330695381 ], [ 928.670995545350706, 46.579344371816987 ], [ 930.724336101825884, 49.421389243603294 ], [ 930.239252858576492, 63.97388649949977 ], [ 919.002202685442285, 62.821368533958967 ], [ 918.570008449298939, 64.98233972215138 ], [ 907.477023023025367, 63.97388649949977 ], [ 906.612634545131868, 52.016512596734849 ], [ 908.773605737295838, 45.533599032157639 ], [ 913.239612854701022, 45.821728525411793 ], [ 915.544648786016296, 26.228923088790971 ], [ 929.374864387457933, 27.381441058069651 ], [ 930.193166431372447, 29.137175330695381 ] ] ] } },
{ "type": "Feature", "properties": { "feature_type": "building", "subtype": "no-damage", "uid": "ab49f412-e28f-4db2-9b8c-d45a6946cde8" }, "geometry": { "type": "Polygon", "coordinates": [ [ [ 890.565608550882189, 64.430214948111455 ], [ 905.689405465375785, 64.783987977061514 ], [ 905.512518954872235, 75.131849026192953 ], [ 923.28961357784749, 75.397178796971019 ], [ 925.766024767882641, 79.111795584126241 ], [ 925.67758151157966, 85.568153333496355 ], [ 930.188187607565055, 85.656596591668347 ], [ 929.922857837955007, 92.11295434103846 ], [ 926.119797791225892, 92.024511082866468 ], [ 925.942911277451799, 93.881819474575138 ], [ 890.742495066058041, 93.26271667858488 ], [ 890.477165295513601, 90.520975716369989 ], [ 886.497218735244019, 90.255645945591908 ], [ 886.939435017927281, 75.485622055143011 ], [ 890.034949009793195, 75.574065309577108 ], [ 890.565608550882189, 64.430214948111455 ] ] ] } },
{ "type": "Feature", "properties": { "feature_type": "building", "subtype": "no-damage", "uid": "cec439b0-fb81-493b-957e-b1eb50ab9c99" }, "geometry": { "type": "Polygon", "coordinates": [ [ [ 880.251120683481872, 103.963950720287301 ], [ 832.848530030396432, 105.137282172473306 ], [ 831.67519857821037, 98.801292331416334 ], [ 833.552528897783304, 91.995969910232517 ], [ 842.469847933042502, 91.526637326367791 ], [ 842.704514224507648, 83.313317164803479 ], [ 877.669791490448006, 82.609318292744277 ], [ 880.485786974012626, 83.547983452997954 ], [ 880.251120683481872, 103.963950720287301 ] ] ] } },
{ "type": "Feature", "properties": { "feature_type": "building", "subtype": "no-damage", "uid": "260a2131-8909-44dc-829c-11458825774c" }, "geometry": { "type": "Polygon", "coordinates": [ [ [ 818.391828940132882, 77.434255008329089 ], [ 834.818469268401714, 78.084790679066501 ], [ 829.586167507086088, 105.7962818597329 ], [ 817.621046718664161, 105.006132375062705 ], [ 812.654392803108067, 99.813721464587672 ], [ 813.896056282055497, 78.366806839565186 ], [ 818.391828940132882, 77.434255008329089 ] ] ] } },
{ "type": "Feature", "properties": { "feature_type": "building", "subtype": "no-damage", "uid": "baea0385-b8b2-4d43-b9ac-7504dca4f068" }, "geometry": { "type": "Polygon", "coordinates": [ [ [ 846.890528277271301, 210.394837729517405 ], [ 844.775880864071155, 201.950593000305588 ], [ 844.888516524768988, 138.444126556277098 ], [ 865.345710433443628, 138.011932320133809 ], [ 865.633839921791832, 133.978119437003102 ], [ 878.599667048610513, 133.257795707605709 ], [ 879.608120266356195, 137.147543844109208 ], [ 882.057220947101996, 137.003479101220108 ], [ 885.879687540846362, 208.865851090337713 ], [ 846.890528277271301, 210.394837729517405 ] ] ] } },
{ "type": "Feature", "properties": { "feature_type": "building", "subtype": "major-damage", "uid": "d94c28da-6d32-4ee8-bed2-8ad3c44dc515" }, "geometry": { "type": "Polygon", "coordinates": [ [ [ 673.390467953427219, 165.870588819051704 ], [ 673.989468472120507, 181.744102587666703 ], [ 705.969981922595025, 181.449999913813087 ], [ 709.889981921117396, 197.099999913735786 ], [ 654.512678978509598, 199.511321180771887 ], [ 653.049115886929371, 165.361515711036901 ], [ 673.390467953427219, 165.870588819051704 ] ] ] } },
{ "type": "Feature", "properties": { "feature_type": "building", "subtype": "major-damage", "uid": "8365a1fb-8239-420c-804a-719015b27c65" }, "geometry": { "type": "Polygon", "coordinates": [ [ [ 836.917609770673607, 122.443051150833895 ], [ 842.009114182953567, 121.544550372677307 ], [ 841.709613926293514, 135.920562841872709 ], [ 836.917609766935698, 136.819063620029311 ], [ 830.029103793202921, 136.819063620029311 ], [ 832.579521769205257, 174.142894259115792 ], [ 817.456036489543749, 175.11860298917199 ], [ 818.919599583927265, 193.657068815385998 ], [ 710.632348416784794, 198.047758091294298 ], [ 710.615930818210018, 197.969999914627095 ], [ 710.615930815406614, 197.072049361238101 ], [ 710.399981917023979, 197.079999915133101 ], [ 706.36998191730936, 180.989999912310594 ], [ 708.069981917915356, 159.799999914445408 ], [ 773.399981908394466, 156.169999915753095 ], [ 773.423554706022969, 156.586080765640304 ], [ 808.76458535377833, 154.789079209327014 ], [ 807.267084057162037, 121.844050629570901 ], [ 823.739598342601994, 121.544550372677307 ], [ 824.638099118188848, 112.859042836791005 ], [ 836.318609246139886, 112.559542579897396 ], [ 836.917609770673607, 122.443051150833895 ] ] ] } },
{ "type": "Feature", "properties": { "feature_type": "building", "subtype": "major-damage", "uid": "3517e8a9-b724-47b6-9ea5-2a2a8b6737b3" }, "geometry": { "type": "Polygon", "coordinates": [ [ [ 773.369981907453393, 155.669999913307493 ], [ 708.109981916989682, 159.289999914567403 ], [ 708.132498081788526, 158.982082843216489 ], [ 698.548489769146954, 158.982082843216489 ], [ 695.553487174045472, 143.10856907460149 ], [ 699.746490810972091, 126.336554527829804 ], [ 771.548365521344294, 123.458449708048803 ], [ 773.369981907453393, 155.669999913307493 ] ] ] } },
{ "type": "Feature", "properties": { "feature_type": "building", "subtype": "major-damage", "uid": "536d8745-8089-4231-91a4-c84f88bdb1b2" }, "geometry": { "type": "Polygon", "coordinates": [ [ [ 624.061953696114415, 135.684931987629597 ], [ 648.620974991271964, 134.786431209472909 ], [ 649.219975514403927, 162.639955365969314 ], [ 635.442963566938261, 163.238955887232294 ], [ 622.264952137465002, 160.543453549024491 ], [ 624.061953696114415, 135.684931987629597 ] ] ] } },
{ "type": "Feature", "properties": { "feature_type": "building", "subtype": "destroyed", "uid": "5d101f97-9cc6-45f7-9327-5b5a3b8e644e" }, "geometry": { "type": "Polygon", "coordinates": [ [ [ 605.312508360892139, 95.265889550769288 ], [ 601.419004987634025, 87.778383057409016 ], [ 602.916506287520974, 76.397373187052864 ], [ 626.876527063284357, 74.899871887633239 ], [ 628.074528105810487, 93.768388251349648 ], [ 605.312508360892139, 95.265889550769288 ] ] ] } },
{ "type": "Feature", "properties": { "feature_type": "building", "subtype": "no-damage", "uid": "35a17d50-6676-4535-8672-6d07e914e793" }, "geometry": { "type": "Polygon", "coordinates": [ [ [ 649.00855669688417, 81.022399809429402 ], [ 690.075157506576261, 78.441070616862874 ], [ 691.013822670100581, 89.235719974731609 ], [ 693.125819283942064, 89.001053682799238 ], [ 692.891152991542526, 100.2650356245327 ], [ 650.651220725225585, 103.785029977352906 ], [ 649.00855669688417, 81.022399809429402 ] ] ] } },
{ "type": "Feature", "properties": { "feature_type": "building", "subtype": "major-damage", "uid": "ff01ea03-fbce-4517-81a0-073e6e057db2" }, "geometry": { "type": "Polygon", "coordinates": [ [ [ 636.693595844021047, 56.424080898222194 ], [ 665.322883271240357, 56.424080898222194 ], [ 666.026882139795362, 74.493385261139451 ], [ 636.928262133149929, 74.258718969207095 ], [ 636.693595844021047, 56.424080898222194 ] ] ] } },
{ "type": "Feature", "properties": { "feature_type": "building", "subtype": "destroyed", "uid": "d2fb2c50-d1ec-4a84-ac9a-17822b9d8feb" }, "geometry": { "type": "Polygon", "coordinates": [ [ [ 614.165631970365212, 38.120110247110439 ], [ 628.480275682456409, 36.712112506729937 ], [ 629.888273424705858, 50.322757349097557 ], [ 614.869630838686476, 51.730755093215947 ], [ 614.165631970365212, 38.120110247110439 ] ] ] } },
{ "type": "Feature", "properties": { "feature_type": "building", "subtype": "no-damage", "uid": "75613438-cf5e-4dde-a232-4b30bdf88e51" }, "geometry": { "type": "Polygon", "coordinates": [ [ [ 677.056197789129556, 54.546750577714853 ], [ 715.306803117126037, 53.842751705655651 ], [ 715.776135698421058, 64.168068483397548 ], [ 708.266814406579442, 63.933402191465191 ], [ 708.501480695474811, 70.269392032522177 ], [ 705.216152635054073, 72.850721228826586 ], [ 676.586865209937287, 72.146722356767398 ], [ 671.658873110195032, 64.637401063524393 ], [ 677.056197789129556, 54.546750577714853 ] ] ] } },
{ "type": "Feature", "properties": { "feature_type": "building", "subtype": "no-damage", "uid": "ded520a7-f168-4e44-82ff-913d4a0ee198" }, "geometry": { "type": "Polygon", "coordinates": [ [ [ 731.983388126091086, 56.739811133612243 ], [ 760.435912805486737, 54.343809056035987 ], [ 761.933414100000505, 72.313824645333668 ], [ 732.881888904948596, 74.110826201646915 ], [ 731.983388126091086, 56.739811133612243 ] ] ] } },
{ "type": "Feature", "properties": { "feature_type": "building", "subtype": "destroyed", "uid": "6c203e39-fe63-4502-9ced-cce302572128" }, "geometry": { "type": "Polygon", "coordinates": [ [ [ 650.219817219687229, 14.21077424728901 ], [ 661.600827090978328, 14.809774764814129 ], [ 661.301326828010588, 25.891284378276669 ], [ 649.3213164396617, 24.99278359638215 ], [ 650.219817219687229, 14.21077424728901 ] ] ] } },
{ "type": "Feature", "properties": { "feature_type": "building", "subtype": "un-classified", "uid": "664e953e-b841-4c5a-8a5f-060a210176f6" }, "geometry": { "type": "Polygon", "coordinates": [ [ [ 731.384387609734063, 25.211955092819569 ], [ 731.384387610668455, 38.769795548052443 ], [ 728.688885272927905, 42.962799185679827 ], [ 705.219981918926464, 42.57999991447506 ], [ 705.073895612948263, 36.576152543044593 ], [ 708.402390104040251, 33.485407657441399 ], [ 706.945016885972905, 29.84197461192279 ], [ 706.509981917106415, 23.939999912262291 ], [ 731.384387609734063, 25.211955092819569 ] ] ] } },
{ "type": "Feature", "properties": { "feature_type": "building", "subtype": "un-classified", "uid": "66f0e823-67f9-4b83-a4af-98ae273e66e5" }, "geometry": { "type": "Polygon", "coordinates": [ [ [ 705.999981919097308, 23.90999991248934 ], [ 706.452089435514495, 29.955947182428979 ], [ 707.810711702880667, 33.352502850026553 ], [ 704.568550060282178, 36.363081513547982 ], [ 704.719981922554894, 42.569999913304777 ], [ 673.58083747792557, 42.064298403785322 ], [ 674.479338256082201, 22.297281258174401 ], [ 705.999981919097308, 23.90999991248934 ] ] ] } },
{ "type": "Feature", "properties": { "feature_type": "building", "subtype": "no-damage", "uid": "4982dced-a95d-4a8e-8fad-90ba8a1fe1cc" }, "geometry": { "type": "Polygon", "coordinates": [ [ [ 780.537375033367539, 13.2995076317923 ], [ 801.892007456472584, 14.472839083978331 ], [ 801.892007454837199, 28.787482798405151 ], [ 785.465367128437379, 29.491481670464349 ], [ 781.710706481815691, 31.368811994709571 ], [ 778.190712126425524, 21.043495216967671 ], [ 780.537375033367539, 13.2995076317923 ] ] ] } },
{ "type": "Feature", "properties": { "feature_type": "building", "subtype": "no-damage", "uid": "8c6f35f4-137e-4ada-af0e-c4fb1549a12c" }, "geometry": { "type": "Polygon", "coordinates": [ [ [ 748.624959658205626, 27.984559679157961 ], [ 758.208967968043794, 27.984559679157961 ], [ 758.208967969912692, 46.853076046612273 ], [ 744.132455761348297, 46.553575785980762 ], [ 742.634954465199257, 40.863070852671633 ], [ 747.127458359019556, 34.873065654993113 ], [ 748.624959658205626, 27.984559679157961 ] ] ] } }
]
}
