{
"type": "FeatureCollection",
"name": "palu-tsunami_00000036_post_disaster",
"features": [
{ "type": "Feature", "properties": { "feature_type": "building", "subtype": "major-damage", "uid": "7cf1d87e-377d-4e7c-a087-32b7f1a0056a" }, "geometry": { "type": "Polygon", "coordinates": [ [ [ 226.71499743988889, 976.818119262234745 ], [ 249.631286417832314, 972.998737763575718 ], [ 254.087231501159891, 980.000937177160949 ], [ 256.633485831419478, 990.504236291932102 ], [ 254.087231501159891, 993.050490623125484 ], [ 255.678640453951004, 1005.781762279092959 ], [ 259.179740163080794, 1007.373171236556004 ], [ 260.671546150985023, 1022.959361014215006 ], [ 235.561693744855091, 1022.959372639171988 ], [ 230.701546674575013, 1018.077955764097965 ], [ 224.168743113133587, 983.183755092087267 ], [ 226.71499743988889, 976.818119262234745 ] ] ] } },
{ "type": "Feature", "properties": { "feature_type": "building", "subtype": "no-damage", "uid": "2d1c5549-3cc2-428f-8834-6d5c2cc994f0" }, "geometry": { "type": "Polygon", "coordinates": [ [ [ 1.299004390915882, 1009.727900687002943 ], [ 19.619982941710429, 1008.569999910851948 ], [ 21.859139475976399, 1022.959501470605005 ], [ 1.298978420258011, 1022.959516687709993 ], [ 1.299004390915882, 1009.727900687002943 ] ] ] } },
{ "type": "Feature", "properties": { "feature_type": "building", "subtype": "no-damage", "uid": "b9341bae-fc79-4279-a546-b2d9df68ba2e" }, "geometry": { "type": "Polygon", "coordinates": [ [ [ 22.270433967218949, 1004.676017603776017 ], [ 19.287316615796371, 1006.450096364844967 ], [ 19.619982941710429, 1008.569999910851948 ], [ 1.299004390915882, 1009.727900687002943 ], [ 1.299034853161723, 993.749792524459508 ], [ 2.319865021104886, 993.640055575998304 ], [ 2.548705735759892, 988.760382739724832 ], [ 18.22633547343634, 987.426044175898824 ], [ 22.270433967218949, 1004.676017603776017 ] ] ] } },
{ "type": "Feature", "properties": { "feature_type": "building", "subtype": "no-damage", "uid": "2d89d0ac-2897-43a5-a6ce-e9551ee41eaa" }, "geometry": { "type": "Polygon", "coordinates": [ [ [ 27.979122919659339, 1022.959497037422011 ], [ 27.21237343777636, 997.081702927405672 ], [ 41.280986967938148, 996.300113284193571 ], [ 41.867179198478368, 1002.552830407462011 ], [ 59.64834351380695, 1002.357432999462958 ], [ 61.136368683124317, 1022.959473780033022 ], [ 27.979122919659339, 1022.959497037422011 ] ] ] } },
{ "type": "Feature", "properties": { "feature_type": "building", "subtype": "no-damage", "uid": "882be177-a9b6-4ca2-8b88-d994bb9cdc04" }, "geometry": { "type": "Polygon", "coordinates": [ [ [ 78.769525127302757, 1022.959461934538012 ], [ 77.182094081903955, 1017.83383744117998 ], [ 78.839982932916342, 1012.28999990892703 ], [ 101.774218534887694, 1009.072862359515057 ], [ 104.289982929668895, 1007.329999911494042 ], [ 105.134656288597796, 1022.959444904537008 ], [ 78.769525127302757, 1022.959461934538012 ] ] ] } },
{ "type": "Feature", "properties": { "feature_type": "building", "subtype": "no-damage", "uid": "c2d8d203-bf3f-4e6f-974f-53d75eb252d1" }, "geometry": { "type": "Polygon", "coordinates": [ [ [ 93.41446543882752, 993.962703082971302 ], [ 103.5994827622022, 994.599266666704125 ], [ 104.259982931447894, 1006.749999909442977 ], [ 101.587162629981705, 1008.594232286332044 ], [ 79.091784829131413, 1011.468201611328027 ], [ 65.973331702314411, 1011.812700011133984 ], [ 65.087386008264758, 994.599266666704125 ], [ 93.414465437893028, 992.053012335510743 ], [ 93.41446543882752, 993.962703082971302 ] ] ] } },
{ "type": "Feature", "properties": { "feature_type": "building", "subtype": "no-damage", "uid": "d20cbeb2-82d3-43fa-b82f-ceaec12c283b" }, "geometry": { "type": "Polygon", "coordinates": [ [ [ 113.3322469690426, 1022.959439772361975 ], [ 111.331051465751301, 1021.324791044634026 ], [ 111.004519284192696, 1014.546001626168959 ], [ 109.130333697663104, 1008.336302774754017 ], [ 110.956155277171703, 1002.828011029572053 ], [ 120.912597750706794, 1002.866978011495007 ], [ 120.570292917618204, 998.33091727487249 ], [ 128.960031335858901, 998.086782243415769 ], [ 129.708177669144987, 1002.076896034647007 ], [ 133.91577825317691, 1006.590426670716965 ], [ 133.448909350761198, 1011.802798396332946 ], [ 128.091927937924993, 1011.903819471838005 ], [ 128.353813244246709, 1020.669563820944973 ], [ 128.421078937676612, 1022.959430539679033 ], [ 113.3322469690426, 1022.959439772361975 ] ] ] } },
{ "type": "Feature", "properties": { "feature_type": "building", "subtype": "no-damage", "uid": "8dc19da4-d4fb-4b88-8941-27b4259661d0" }, "geometry": { "type": "Polygon", "coordinates": [ [ [ 142.68880012467659, 1022.959422050843955 ], [ 140.090070455824787, 1003.196948321653963 ], [ 137.106949975990005, 998.312013069333489 ], [ 138.361853346678998, 992.232893614778618 ], [ 151.423120240817894, 990.496116667116553 ], [ 153.963286567707712, 998.312013069333489 ], [ 159.825208870773707, 997.33502601812188 ], [ 163.956195200151711, 1022.959409842771038 ], [ 142.68880012467659, 1022.959422050843955 ] ] ] } },
{ "type": "Feature", "properties": { "feature_type": "building", "subtype": "no-damage", "uid": "3e9017d2-da6e-4c0e-ac58-aa90361d90c9" }, "geometry": { "type": "Polygon", "coordinates": [ [ [ 192.827524920918989, 1022.959394121044966 ], [ 192.381218329274901, 1021.362134872353977 ], [ 198.047743218968009, 1019.994353001404988 ], [ 200.97870437236989, 1016.281802212033995 ], [ 203.518870701362289, 1018.235776310719984 ], [ 209.185395598297589, 1016.672597031771033 ], [ 209.855986360779895, 1022.959385303272029 ], [ 192.827524920918989, 1022.959394121044966 ] ] ] } },
{ "type": "Feature", "properties": { "feature_type": "building", "subtype": "no-damage", "uid": "2c87fb53-1350-4f46-8615-76f5525a61f7" }, "geometry": { "type": "Polygon", "coordinates": [ [ [ 204.585634077556989, 987.087324523374946 ], [ 207.192333693365498, 1001.693237704801959 ], [ 199.876246144031597, 1003.612172173011004 ], [ 202.223069490401912, 1012.411421434034992 ], [ 179.571300462426706, 1018.603971082054045 ], [ 180.185910499071809, 1022.959400886694993 ], [ 170.580731174538613, 1022.959406149697998 ], [ 164.052212043450709, 1011.399874429459032 ], [ 164.623025156213913, 996.78784025604341 ], [ 181.204199347988094, 992.753467757748467 ], [ 182.473630073821312, 995.580836201085276 ], [ 187.877032582613708, 993.571259429919905 ], [ 186.879504134572102, 990.578674089300193 ], [ 204.585634077556989, 987.087324523374946 ] ] ] } },
{ "type": "Feature", "properties": { "feature_type": "building", "subtype": "no-damage", "uid": "3442d6a1-1ad5-439e-abd9-788ec0e6c720" }, "geometry": { "type": "Polygon", "coordinates": [ [ [ 191.249982920602804, 979.819999910749857 ], [ 192.933622355693103, 988.014789004897693 ], [ 182.829089431062812, 993.37325343396958 ], [ 179.76710976114461, 991.995362579177709 ], [ 165.375805294423799, 996.129035139815414 ], [ 161.548330707435014, 994.138748350806395 ], [ 153.740282536586591, 996.282134122435195 ], [ 149.759708962071898, 983.728017461640093 ], [ 154.965074405721907, 982.809423558445587 ], [ 154.779982920153088, 982.429999908766035 ], [ 160.2349690518258, 981.269387123666888 ], [ 161.678778899510803, 984.878911741827096 ], [ 186.179327301290897, 978.645044396124945 ], [ 191.249982920602804, 979.819999910749857 ] ] ] } },
{ "type": "Feature", "properties": { "feature_type": "building", "subtype": "no-damage", "uid": "5f6651d2-6ecc-41b1-be4e-bd04969eb7ab" }, "geometry": { "type": "Polygon", "coordinates": [ [ [ 180.838914286259012, 961.937823786712102 ], [ 187.522831903307292, 961.619541992976679 ], [ 191.13998291964981, 979.279999911933714 ], [ 186.173577304283413, 978.130576547609394 ], [ 161.980241619697694, 984.286277344360315 ], [ 160.542756552808811, 980.692564667093279 ], [ 154.549982922811807, 981.969999908943805 ], [ 152.668589655911603, 978.216454049948425 ], [ 158.541292537548003, 965.805763320068081 ], [ 180.838914280652091, 959.515147036300618 ], [ 180.838914286259012, 961.937823786712102 ] ] ] } },
{ "type": "Feature", "properties": { "feature_type": "building", "subtype": "no-damage", "uid": "e5d5bf4d-c4fd-4a5e-8788-a2a0237c8249" }, "geometry": { "type": "Polygon", "coordinates": [ [ [ 161.773992799154712, 921.977305722708024 ], [ 169.504838263592404, 949.40933803228063 ], [ 146.561683974288002, 956.641419274915052 ], [ 143.070334409062696, 943.17478523278146 ], [ 131.598757263008707, 946.416752687923008 ], [ 130.351846703015099, 927.713094296901545 ], [ 134.900746981431411, 926.633480759927465 ], [ 134.540875801739105, 923.634554263349173 ], [ 140.658685852770191, 922.07511248647404 ], [ 141.858256445981908, 927.113308999828632 ], [ 153.494091243495092, 921.595284250310897 ], [ 161.773992799154712, 921.977305722708024 ] ] ] } },
{ "type": "Feature", "properties": { "feature_type": "building", "subtype": "no-damage", "uid": "e8a97230-eb3d-4287-9678-3208de2a2bdf" }, "geometry": { "type": "Polygon", "coordinates": [ [ [ 56.68975593327265, 928.907886106840579 ], [ 57.6667429821483, 945.125871146486816 ], [ 42.425744999783653, 945.712063377961385 ], [ 39.103989027812638, 941.413320353377912 ], [ 39.494783847316192, 928.51709128710354 ], [ 56.68975593327265, 928.907886106840579 ] ] ] } },
{ "type": "Feature", "properties": { "feature_type": "building", "subtype": "no-damage", "uid": "eec6853d-c8de-49d1-a2b1-d22606de1a34" }, "geometry": { "type": "Polygon", "coordinates": [ [ [ 75.548936039472906, 913.558925549508103 ], [ 68.974085406128935, 927.434474085595866 ], [ 71.562481245878828, 933.535692851953854 ], [ 69.912547166301891, 940.502081186489818 ], [ 70.416075410530766, 943.672607287119604 ], [ 70.665457526454318, 947.662721074612477 ], [ 61.285220399975273, 947.107140998589102 ], [ 56.122360493064143, 910.833103061553857 ], [ 75.154335534114409, 910.006022181785852 ], [ 75.548936039472906, 913.558925549508103 ] ] ] } },
{ "type": "Feature", "properties": { "feature_type": "building", "subtype": "no-damage", "uid": "122479cc-c3f5-4178-b5bf-16dc97437ab8" }, "geometry": { "type": "Polygon", "coordinates": [ [ [ 108.820920637588301, 932.949176474821911 ], [ 102.586367838554807, 933.44794070012756 ], [ 103.833278401351805, 936.191143929963346 ], [ 99.593782497466989, 936.689908155268995 ], [ 98.346871936305277, 942.176314614940679 ], [ 80.890124112281015, 943.423225172597768 ], [ 73.658042864505006, 945.418282070082228 ], [ 71.349982936926494, 944.169999909576745 ], [ 70.427136348901357, 940.498885104626424 ], [ 72.086811490385315, 933.491367837781468 ], [ 69.526926323230143, 927.457352796545251 ], [ 76.839982932835568, 913.549999911497594 ], [ 107.574010077828305, 913.219585658820506 ], [ 108.820920637588301, 932.949176474821911 ] ] ] } },
{ "type": "Feature", "properties": { "feature_type": "building", "subtype": "no-damage", "uid": "c61958a6-e918-47dd-bad2-371bd51ccba9" }, "geometry": { "type": "Polygon", "coordinates": [ [ [ 98.593530536302353, 865.848377822513498 ], [ 132.00827011983651, 868.031337593176431 ], [ 131.980447509178106, 877.114410990451802 ], [ 141.589086389517803, 877.940052083823161 ], [ 140.342175828122492, 907.616523397926017 ], [ 135.354533593755008, 907.117759172620481 ], [ 134.606387256730898, 913.352311972119537 ], [ 96.847855754740962, 911.485304297801918 ], [ 98.593530536302353, 865.848377822513498 ] ] ] } },
{ "type": "Feature", "properties": { "feature_type": "building", "subtype": "no-damage", "uid": "9e31b818-afcd-431e-9c5a-20031d8789dc" }, "geometry": { "type": "Polygon", "coordinates": [ [ [ 148.530985175844592, 913.940606649901497 ], [ 147.894421593046104, 910.439506944977779 ], [ 148.212703383978095, 905.983561866323839 ], [ 159.989129663414587, 904.710434698858194 ], [ 164.763356535805286, 907.574970823786998 ], [ 164.445074747676699, 911.394352318708115 ], [ 148.530985175844592, 913.940606649901497 ] ] ] } },
{ "type": "Feature", "properties": { "feature_type": "building", "subtype": "no-damage", "uid": "f76a8d87-01eb-44ed-9eb8-6dd117cf09b2" }, "geometry": { "type": "Polygon", "coordinates": [ [ [ 62.611208722833638, 854.203374314661914 ], [ 77.846397532115091, 852.725157582940369 ], [ 81.088364983052259, 853.223921808246018 ], [ 80.589600759148254, 857.962181931828354 ], [ 94.056234801285399, 856.465889259649543 ], [ 97.298202257128594, 858.959710378701629 ], [ 97.048820142840398, 897.115173496833904 ], [ 72.932941337241289, 899.146259409533172 ], [ 72.120506975432036, 892.646784496371197 ], [ 57.090471238740967, 893.053001678911073 ], [ 59.527774333513563, 870.711056665384149 ], [ 62.37129460405113, 869.49240511776452 ], [ 62.611208722833638, 854.203374314661914 ] ] ] } },
{ "type": "Feature", "properties": { "feature_type": "building", "subtype": "no-damage", "uid": "7635eeee-bd6f-430f-8e7d-825230420e96" }, "geometry": { "type": "Polygon", "coordinates": [ [ [ 130.949868870754187, 850.217124102084313 ], [ 102.324910712375299, 855.245849135249614 ], [ 100.828618039962393, 848.761914224966631 ], [ 96.629982928808218, 849.569999910547608 ], [ 91.439350596896276, 828.53288644255656 ], [ 123.659982929287807, 820.3999999101203 ], [ 130.949868870754187, 850.217124102084313 ] ] ] } },
{ "type": "Feature", "properties": { "feature_type": "building", "subtype": "no-damage", "uid": "180e563b-89de-45af-bd00-7eb854ae0b27" }, "geometry": { "type": "Polygon", "coordinates": [ [ [ 96.139982932633814, 849.669999911159039 ], [ 83.70018686783088, 852.082816223786722 ], [ 80.059982935329856, 834.319999910753495 ], [ 79.50654199548157, 830.920128310226119 ], [ 90.979982929771495, 828.739999911772543 ], [ 96.139982932633814, 849.669999911159039 ] ] ] } },
{ "type": "Feature", "properties": { "feature_type": "building", "subtype": "no-damage", "uid": "37ded479-ee8e-402b-9fab-0f751d905191" }, "geometry": { "type": "Polygon", "coordinates": [ [ [ 78.134845861675529, 809.858304770745008 ], [ 90.805061423791869, 808.328672062923715 ], [ 94.359982932122719, 827.279999909573917 ], [ 90.83468194614062, 828.169793599321224 ], [ 90.859982933383094, 828.259999910332795 ], [ 78.934783370276648, 830.519756896021022 ], [ 79.509982932901352, 834.059999908416216 ], [ 68.080626841552331, 835.102713926505089 ], [ 65.166976043442375, 809.359540549177268 ], [ 77.636081637771525, 807.115101540909109 ], [ 78.134845861675529, 809.858304770745008 ] ] ] } },
{ "type": "Feature", "properties": { "feature_type": "building", "subtype": "no-damage", "uid": "a33ce4b7-2b0e-4162-81b5-dcfe7ef07685" }, "geometry": { "type": "Polygon", "coordinates": [ [ [ 118.734968870261994, 808.05566177537321 ], [ 120.409982925535402, 807.63999990985144 ], [ 123.539982924956306, 819.919999908680666 ], [ 94.8399829298246, 827.159999911082991 ], [ 91.213507422880411, 807.79391397761799 ], [ 80.649982933751048, 809.018216054106688 ], [ 79.773400657554575, 802.450484643298068 ], [ 101.756939623514896, 798.722863405850262 ], [ 114.311056287584094, 796.27327966524399 ], [ 115.019982931172194, 796.019999908329282 ], [ 118.734968870261994, 808.05566177537321 ] ] ] } },
{ "type": "Feature", "properties": { "feature_type": "building", "subtype": "no-damage", "uid": "664bf52a-d184-42f5-a44c-af4177a9b94a" }, "geometry": { "type": "Polygon", "coordinates": [ [ [ 135.742113695954004, 802.626223528110586 ], [ 120.280422761938894, 807.115101540909109 ], [ 120.289982929614197, 807.149999911340956 ], [ 119.073082724005303, 807.455745108813858 ], [ 115.489982930167997, 795.859999910341344 ], [ 131.003853574472998, 790.406500043634082 ], [ 135.742113695954004, 802.626223528110586 ] ] ] } },
{ "type": "Feature", "properties": { "feature_type": "building", "subtype": "no-damage", "uid": "0e689253-0d1c-4e3c-9427-6a45c12d0955" }, "geometry": { "type": "Polygon", "coordinates": [ [ [ 106.139007167440496, 788.535631908095297 ], [ 72.971186289038698, 802.251648061012702 ], [ 67.169982936458638, 789.9799999095261 ], [ 71.636003221869771, 783.274858961346013 ], [ 77.066662832032634, 783.028010795824798 ], [ 89.560397175953369, 774.532271443736477 ], [ 99.389982930545685, 771.789999911193263 ], [ 106.139007167440496, 788.535631908095297 ] ] ] } },
{ "type": "Feature", "properties": { "feature_type": "building", "subtype": "no-damage", "uid": "d4c1ad83-5282-4099-8a3e-6f422f15b9bb" }, "geometry": { "type": "Polygon", "coordinates": [ [ [ 92.422991010314277, 751.62707935135802 ], [ 99.655072259492016, 748.883876117784212 ], [ 104.143950268320197, 759.607306930081904 ], [ 98.4081616971622, 762.849274385223339 ], [ 100.6526007068328, 768.834445070200672 ], [ 98.906925919430847, 770.580119853163296 ], [ 99.209982931641093, 771.319999910562387 ], [ 89.34703418094881, 774.072709622547109 ], [ 76.902557337145737, 782.534953874779717 ], [ 71.360404029363835, 782.786869934564038 ], [ 66.919982936565347, 789.449999911518603 ], [ 64.469982935835631, 784.279999908316199 ], [ 62.235804022063427, 778.850942679288437 ], [ 62.507801156090864, 775.586977083108422 ], [ 70.919781376891976, 770.945884548784193 ], [ 68.491318653782557, 762.294486095840284 ], [ 59.383863635830728, 765.185741656678715 ], [ 54.823979535773283, 754.68419040087042 ], [ 62.992109518567823, 751.585934200178713 ], [ 64.146997523190635, 750.286685198073769 ], [ 77.319982934275373, 744.879999910380093 ], [ 78.706974860196695, 748.634494007000399 ], [ 88.682259333604151, 744.394998104985689 ], [ 92.422991010314277, 751.62707935135802 ] ] ] } },
{ "type": "Feature", "properties": { "feature_type": "building", "subtype": "destroyed", "uid": "6a82ffe5-b223-422a-8e3d-ce17975dd8d5" }, "geometry": { "type": "Polygon", "coordinates": [ [ [ 167.18038907164339, 751.149718375818452 ], [ 173.414941869508795, 749.902807814423454 ], [ 176.656909322081304, 756.63612483549025 ], [ 171.918649194292499, 759.129945954542336 ], [ 175.16061664896759, 766.362027200914667 ], [ 158.7013972704151, 773.843490558070812 ], [ 148.949982922679112, 751.219999911017567 ], [ 154.399982921894605, 747.019999911503191 ], [ 154.461901369333788, 747.159604584587555 ], [ 165.434714290549209, 744.167019243967957 ], [ 167.18038907164339, 751.149718375818452 ] ] ] } },
{ "type": "Feature", "properties": { "feature_type": "building", "subtype": "destroyed", "uid": "7a0a56a6-a56f-4ffa-b8ca-77b2ece6b7f1" }, "geometry": { "type": "Polygon", "coordinates": [ [ [ 154.199982925811412, 746.549999910872316 ], [ 148.749982923558804, 750.739999909577932 ], [ 144.735999003906812, 741.423816010394148 ], [ 150.970551802706694, 738.929994895079972 ], [ 154.199982925811412, 746.549999910872316 ] ] ] } },
{ "type": "Feature", "properties": { "feature_type": "building", "subtype": "no-damage", "uid": "8efedac8-9543-4f16-8a0d-4bd5039988a1" }, "geometry": { "type": "Polygon", "coordinates": [ [ [ 112.040338347964294, 735.288452712797607 ], [ 92.089769396476925, 745.51311930352756 ], [ 88.169982929830894, 738.899999908953419 ], [ 88.942996761892061, 738.13191540405478 ], [ 102.675003037136605, 731.640421528282445 ], [ 106.809982929751996, 726.199999909798976 ], [ 107.052696107055397, 726.809460908768187 ], [ 109.047753002204104, 726.061314576416635 ], [ 112.040338347964294, 735.288452712797607 ] ] ] } },
{ "type": "Feature", "properties": { "feature_type": "building", "subtype": "no-damage", "uid": "87dbca22-29d3-4646-b32e-bfb656fe660a" }, "geometry": { "type": "Polygon", "coordinates": [ [ [ 106.599982930757406, 725.649999910174074 ], [ 102.350852084046295, 731.240603390995261 ], [ 88.650826055317722, 737.716979332050869 ], [ 87.119982930185643, 739.239999910284723 ], [ 82.862631258691835, 741.27362340151285 ], [ 76.129314239492231, 735.03907060201368 ], [ 76.304170251362962, 725.79903055417185 ], [ 102.260451279285704, 714.623180731414323 ], [ 106.599982930757406, 725.649999910174074 ] ] ] } },
{ "type": "Feature", "properties": { "feature_type": "building", "subtype": "no-damage", "uid": "7eb23de3-bbb8-4162-b836-5a786304d94b" }, "geometry": { "type": "Polygon", "coordinates": [ [ [ 60.504316772884494, 713.648257240843122 ], [ 69.034877595243742, 711.210954149341887 ], [ 73.780907724238446, 729.617598346979662 ], [ 70.788322379179135, 737.597825929441456 ], [ 37.620501507552341, 748.321256738001125 ], [ 31.38594871015415, 720.390460206860894 ], [ 37.12173727991042, 719.642313874509455 ], [ 35.939982942070493, 715.139999908710479 ], [ 59.099982935146848, 708.689999910390725 ], [ 60.504316772884494, 713.648257240843122 ] ] ] } },
{ "type": "Feature", "properties": { "feature_type": "building", "subtype": "no-damage", "uid": "edaabf4a-5707-41fd-a5eb-ef83fc064830" }, "geometry": { "type": "Polygon", "coordinates": [ [ [ 58.889982938021241, 708.229999910568608 ], [ 34.888101311422609, 714.909808224103472 ], [ 34.929982938417943, 715.049999908907807 ], [ 21.410664236279441, 717.148492755457369 ], [ 13.789340845033291, 679.932231131151752 ], [ 46.789982936691537, 669.219999910531556 ], [ 58.889982938021241, 708.229999910568608 ] ] ] } },
{ "type": "Feature", "properties": { "feature_type": "building", "subtype": "no-damage", "uid": "51d3be8a-1b98-470b-bbff-011358cf7cfd" }, "geometry": { "type": "Polygon", "coordinates": [ [ [ 87.157815716293342, 692.810374900934562 ], [ 57.429982936756787, 701.819999911745867 ], [ 51.159982936171843, 681.599999909972212 ], [ 56.170986573706813, 679.263998208687553 ], [ 53.199982935749603, 667.139999910522874 ], [ 76.346786873954642, 659.621372026586187 ], [ 87.157815716293342, 692.810374900934562 ] ] ] } },
{ "type": "Feature", "properties": { "feature_type": "building", "subtype": "no-damage", "uid": "5175f2df-02f9-4899-bfae-5e4378579503" }, "geometry": { "type": "Polygon", "coordinates": [ [ [ 9.512725024204796, 600.86556857870346 ], [ 20.334305933648661, 599.274159621240301 ], [ 21.607433096442261, 599.910723204973124 ], [ 21.92998294443429, 599.789999909900189 ], [ 23.158380813226199, 607.687869836275013 ], [ 26.37998294267496, 616.129999911873369 ], [ 22.880560262506549, 617.097939939594198 ], [ 24.15368743043981, 622.827012185713784 ], [ 22.88056026484276, 626.009830100640102 ], [ 25.108532803936729, 633.012029510487423 ], [ 18.10633338988228, 634.285156677953069 ], [ 18.424615181515161, 637.467974592879386 ], [ 1.299454061809007, 642.497147336394505 ], [ 1.299473304663365, 597.051185153546726 ], [ 7.92131606907745, 595.454778126319184 ], [ 9.512725024204796, 600.86556857870346 ] ] ] } },
{ "type": "Feature", "properties": { "feature_type": "building", "subtype": "no-damage", "uid": "c1c14a25-1939-4063-9f5b-2ee0b9d3e9c9" }, "geometry": { "type": "Polygon", "coordinates": [ [ [ 56.300148357092837, 623.463575769446607 ], [ 32.747295796117292, 629.829211595561219 ], [ 28.60963250629154, 615.160322603526538 ], [ 26.85998294201217, 615.528388734062332 ], [ 23.64432347827632, 607.558844812000757 ], [ 22.409982941668918, 599.599999909486087 ], [ 32.429014006587003, 595.773059916316583 ], [ 30.201041463287851, 589.089142296466662 ], [ 45.7968492397491, 584.633197217812722 ], [ 56.300148357092837, 623.463575769446607 ] ] ] } },
{ "type": "Feature", "properties": { "feature_type": "building", "subtype": "no-damage", "uid": "dc6f413b-b49f-4682-ba5a-991e0a295a1f" }, "geometry": { "type": "Polygon", "coordinates": [ [ [ 157.542943064558102, 611.593082094481019 ], [ 131.76211796191879, 622.414663002987595 ], [ 127.624454672560304, 615.73074538313756 ], [ 126.429982924124502, 609.749999911738882 ], [ 136.509982924924088, 605.59999990879237 ], [ 153.086997985435687, 600.134937605979758 ], [ 157.542943064558102, 611.593082094481019 ] ] ] } },
{ "type": "Feature", "properties": { "feature_type": "building", "subtype": "no-damage", "uid": "fce047e4-b157-459d-a0aa-e6bdbd74d1d9" }, "geometry": { "type": "Polygon", "coordinates": [ [ [ 126.987891089761803, 582.62943907762326 ], [ 135.669982926843204, 605.409999908378154 ], [ 125.892753685142694, 609.433489297900337 ], [ 125.919982928201605, 609.509999911019008 ], [ 111.392083314468593, 614.457618219409824 ], [ 100.570502406893695, 603.317755520905962 ], [ 99.615657035032129, 589.313356697473296 ], [ 122.531946013442806, 580.401466536427392 ], [ 126.987891089761803, 582.62943907762326 ] ] ] } },
{ "type": "Feature", "properties": { "feature_type": "building", "subtype": "destroyed", "uid": "39d25652-2831-4ef1-ad0d-9b7662d73db0" }, "geometry": { "type": "Polygon", "coordinates": [ [ [ 190.60263036735131, 599.488264948693313 ], [ 205.316174964809704, 594.500622710589255 ], [ 207.809996083395191, 598.490736498082242 ], [ 210.553199314867101, 596.495679604335692 ], [ 216.538370000079709, 613.703045323178344 ], [ 199.081622171383003, 622.680801352513299 ], [ 192.098923034858188, 612.456134765521256 ], [ 193.345833598122397, 604.475907183059576 ], [ 190.60263036735131, 599.488264948693313 ] ] ] } },
{ "type": "Feature", "properties": { "feature_type": "building", "subtype": "no-damage", "uid": "3d9d01ae-edc4-40df-98ea-0c7d8d20492e" }, "geometry": { "type": "Polygon", "coordinates": [ [ [ 14.02717298570232, 564.90440666233485 ], [ 6.069982942728455, 568.209999908941768 ], [ 3.336129164910793, 565.740367648410029 ], [ 1.29948299711118, 560.343511418592698 ], [ 1.299483704747711, 556.536461169372728 ], [ 11.624702668898429, 553.727409415234547 ], [ 14.02717298570232, 564.90440666233485 ] ] ] } },
{ "type": "Feature", "properties": { "feature_type": "building", "subtype": "no-damage", "uid": "a43775bc-b6ce-478b-8659-ccc6d2d6e79b" }, "geometry": { "type": "Polygon", "coordinates": [ [ [ 6.015879171278529, 533.836218453990909 ], [ 13.714461989425841, 552.401492926946162 ], [ 1.299483798896778, 555.993968260269639 ], [ 1.29948658178432, 535.581809043858925 ], [ 5.889982945225597, 533.609999910450597 ], [ 6.015879171278529, 533.836218453990909 ] ] ] } },
{ "type": "Feature", "properties": { "feature_type": "building", "subtype": "no-damage", "uid": "c731dd3f-255e-4a0f-a381-86ad775320d8" }, "geometry": { "type": "Polygon", "coordinates": [ [ [ 72.991524236043574, 504.476773640148792 ], [ 76.37369496637109, 511.67169140636048 ], [ 82.363823542591547, 509.504029420829511 ], [ 89.39910598869902, 526.080966056799639 ], [ 57.488766073335533, 541.738566795876409 ], [ 45.852011415380048, 516.708666746049062 ], [ 72.991524236043574, 504.476773640148792 ] ] ] } },
{ "type": "Feature", "properties": { "feature_type": "building", "subtype": "no-damage", "uid": "32784251-a044-4646-9f69-07364c822931" }, "geometry": { "type": "Polygon", "coordinates": [ [ [ 46.20087677946163, 492.370799343929093 ], [ 55.828547526334773, 488.435243137833879 ], [ 54.248248556101977, 481.888290253113723 ], [ 59.639253228469698, 477.695286616039994 ], [ 68.923761280490808, 475.598784799372083 ], [ 72.218264139694355, 481.289289734065676 ], [ 82.43588100322097, 477.764502673496224 ], [ 89.137765212309645, 494.83149027836572 ], [ 52.750747255678192, 509.442314151748178 ], [ 45.56274102055918, 500.157806099028676 ], [ 46.20087677946163, 492.370799343929093 ] ] ] } },
{ "type": "Feature", "properties": { "feature_type": "building", "subtype": "no-damage", "uid": "80025e82-20a7-4089-9cb5-61893473c2a0" }, "geometry": { "type": "Polygon", "coordinates": [ [ [ 49.266960483347049, 458.483337097262279 ], [ 62.505397366422542, 452.967321730853712 ], [ 62.689264543605233, 453.886657624009217 ], [ 74.456763993566582, 449.473845328639527 ], [ 81.995318325106169, 468.963766296429128 ], [ 56.024639326218463, 477.989565972948014 ], [ 54.670097351599708, 474.490332533338574 ], [ 49.703443437811458, 469.072164629258225 ], [ 49.590564938485898, 463.315361228369284 ], [ 49.266960483347049, 458.483337097262279 ] ] ] } },
{ "type": "Feature", "properties": { "feature_type": "building", "subtype": "no-damage", "uid": "fc6de400-ec9b-4ae7-aa68-38fe238b06db" }, "geometry": { "type": "Polygon", "coordinates": [ [ [ 1.299466389729821, 405.712385597481727 ], [ 2.109217727654283, 405.532205235364927 ], [ 5.39454579514076, 411.398862495895173 ], [ 44.595956861861509, 400.521944180720993 ], [ 49.23848355770258, 419.682311037966826 ], [ 16.189195151529091, 428.294835403979675 ], [ 16.189195149660129, 434.161492664509979 ], [ 6.098544665610277, 435.569490407784883 ], [ 2.109217731625832, 428.52950169514861 ], [ 1.299473356059878, 424.475478123357391 ], [ 1.299466389729821, 405.712385597481727 ] ] ] } },
{ "type": "Feature", "properties": { "feature_type": "building", "subtype": "no-damage", "uid": "4d676569-940b-47a4-882a-0188225c4d5b" }, "geometry": { "type": "Polygon", "coordinates": [ [ [ 1.299457376416836, 385.536647255735375 ], [ 7.060741475523942, 382.575769870383226 ], [ 8.163944547964931, 386.253113450480896 ], [ 38.720799570131362, 378.151301638372217 ], [ 41.034285577774419, 399.859284688619027 ], [ 5.222069681035803, 407.765573382464879 ], [ 1.299465476039998, 403.498697223690499 ], [ 1.299457376416836, 385.536647255735375 ] ] ] } },
{ "type": "Feature", "properties": { "feature_type": "building", "subtype": "un-classified", "uid": "abde7eff-c3d3-4e10-9b13-fc4da0402acf" }, "geometry": { "type": "Polygon", "coordinates": [ [ [ 74.304324482872005, 349.105874759833284 ], [ 79.466982867327474, 350.419462966597678 ], [ 81.109646902472434, 358.867449422508912 ], [ 71.722995284219692, 360.979446035552314 ], [ 69.610998670007703, 351.123461840104085 ], [ 74.304324482872005, 349.105874759833284 ] ] ] } },
{ "type": "Feature", "properties": { "feature_type": "building", "subtype": "no-damage", "uid": "3dc33689-a90e-4d39-ab1f-160edc6d0794" }, "geometry": { "type": "Polygon", "coordinates": [ [ [ 1.299393255996546, 290.014383679883622 ], [ 6.624013218587125, 287.617085981709693 ], [ 11.786671604444329, 308.737052115880886 ], [ 8.501343538826815, 310.145049859155677 ], [ 9.205342411632536, 312.726379054536721 ], [ 1.299413250875333, 314.741786575041317 ], [ 1.299393255996546, 290.014383679883622 ] ] ] } },
{ "type": "Feature", "properties": { "feature_type": "building", "subtype": "no-damage", "uid": "ab586bd4-c7ef-4dc7-ada4-e98cf6d76672" }, "geometry": { "type": "Polygon", "coordinates": [ [ [ 12.412375510841031, 126.737268236522596 ], [ 18.760447567655088, 145.060677624628909 ], [ 48.915666243660148, 135.0210132972243 ], [ 55.079982937339388, 150.049999911940404 ], [ 54.444344461165308, 151.568231120154792 ], [ 56.929982938839188, 155.969999908514808 ], [ 6.929982946631942, 171.529999910951886 ], [ 1.299246006389362, 157.767233254586188 ], [ 1.299201547938628, 126.685671180229207 ], [ 5.431564996879869, 124.8671442701568 ], [ 12.412375510841031, 126.737268236522596 ] ] ] } },
{ "type": "Feature", "properties": { "feature_type": "building", "subtype": "destroyed", "uid": "9cbf1fd0-739a-4a19-a17d-ed7cad19b451" }, "geometry": { "type": "Polygon", "coordinates": [ [ [ 79.304047460542847, 158.810586862093004 ], [ 59.907024937909931, 160.22788068327651 ], [ 55.80798140918413, 151.593424610422801 ], [ 58.509982935791172, 143.159999911678113 ], [ 76.309044864367678, 140.241570756653999 ], [ 79.304047460542847, 158.810586862093004 ] ] ] } },
{ "type": "Feature", "properties": { "feature_type": "building", "subtype": "no-damage", "uid": "ffd351c4-86b5-4b90-abc0-5d945dc61318" }, "geometry": { "type": "Polygon", "coordinates": [ [ [ 55.546297192185648, 141.996967509588188 ], [ 55.737646230977447, 130.596239205500609 ], [ 61.155814131554997, 130.596239205500609 ], [ 61.720206624912088, 139.062126558429696 ], [ 60.02702915208306, 141.996967509588188 ], [ 55.546297192185648, 141.996967509588188 ] ] ] } },
{ "type": "Feature", "properties": { "feature_type": "building", "subtype": "destroyed", "uid": "7ffecb25-094b-4654-bc9f-1308c8e1eabb" }, "geometry": { "type": "Polygon", "coordinates": [ [ [ 65.896711047860251, 129.241697229480508 ], [ 73.008056426172857, 129.12881873179029 ], [ 73.346691916440051, 135.33713612343999 ], [ 65.89671104972922, 135.788650117938602 ], [ 65.896711047860251, 129.241697229480508 ] ] ] } },
{ "type": "Feature", "properties": { "feature_type": "building", "subtype": "destroyed", "uid": "af413cda-076b-4df3-93ed-51f5d0bc4e49" }, "geometry": { "type": "Polygon", "coordinates": [ [ [ 65.417043403838832, 116.994428260604295 ], [ 64.984849164561851, 109.2149319863275 ], [ 70.315244759572309, 108.638673003739896 ], [ 70.891503744496219, 116.850363517760798 ], [ 65.417043403838832, 116.994428260604295 ] ] ] } },
{ "type": "Feature", "properties": { "feature_type": "building", "subtype": "destroyed", "uid": "dd68eab0-710d-4a15-ab74-5cab56dd701f" }, "geometry": { "type": "Polygon", "coordinates": [ [ [ 62.856228201834497, 104.578784880524907 ], [ 63.056403289483107, 96.04990596909721 ], [ 70.578649713593833, 95.569293115640008 ], [ 70.946384072865257, 103.659448987369402 ], [ 67.085173318854558, 105.314253595796899 ], [ 62.856228201834497, 104.578784880524907 ] ] ] } },
{ "type": "Feature", "properties": { "feature_type": "building", "subtype": "destroyed", "uid": "65a3aeb8-5810-4cbd-a876-bf77159e8871" }, "geometry": { "type": "Polygon", "coordinates": [ [ [ 62.704976842079333, 93.928556330809187 ], [ 62.253462853654689, 86.817210957638153 ], [ 68.574658738323762, 86.139939967759148 ], [ 69.026172732355292, 93.47704234004847 ], [ 62.704976842079333, 93.928556330809187 ] ] ] } },
{ "type": "Feature", "properties": { "feature_type": "building", "subtype": "no-damage", "uid": "76690dd6-f51c-417e-bce4-59a54a9a25d0" }, "geometry": { "type": "Polygon", "coordinates": [ [ [ 46.337633308953841, 92.272581283615111 ], [ 56.818062506721681, 91.537112568343161 ], [ 57.369664039905111, 99.627268440072598 ], [ 46.040169675494063, 100.031583521780504 ], [ 44.315094340086453, 96.501526401101273 ], [ 46.337633308953841, 92.272581283615111 ] ] ] } },
{ "type": "Feature", "properties": { "feature_type": "building", "subtype": "destroyed", "uid": "f78b475b-dfed-4f5f-ae4b-17b6e59fe20d" }, "geometry": { "type": "Polygon", "coordinates": [ [ [ 50.630806475934747, 80.949875050078205 ], [ 50.77487122041358, 72.882249282638654 ], [ 58.410302748111079, 73.31444352238276 ], [ 58.698432239404937, 79.509227591740355 ], [ 56.825590543191431, 81.093939796659569 ], [ 50.630806475934747, 80.949875050078205 ] ] ] } },
{ "type": "Feature", "properties": { "feature_type": "building", "subtype": "destroyed", "uid": "b50651af-0644-4c18-afad-d9b8e2b9c425" }, "geometry": { "type": "Polygon", "coordinates": [ [ [ 61.14753291914063, 72.161925553469729 ], [ 66.62199326260145, 71.729731317463546 ], [ 66.76605800778114, 78.356709626565248 ], [ 63.884763092973628, 80.373616067490644 ], [ 61.291597665488418, 79.221098102315537 ], [ 61.14753291914063, 72.161925553469729 ] ] ] } },
{ "type": "Feature", "properties": { "feature_type": "building", "subtype": "destroyed", "uid": "b9d21e62-f7a8-4934-b99b-195502455c54" }, "geometry": { "type": "Polygon", "coordinates": [ [ [ 60.196298140615738, 52.924831092635458 ], [ 66.102952717279422, 52.924831092635458 ], [ 66.102952719615629, 61.856845332087367 ], [ 60.05223339450157, 62.000910078668753 ], [ 60.196298140615738, 52.924831092635458 ] ] ] } },
{ "type": "Feature", "properties": { "feature_type": "building", "subtype": "destroyed", "uid": "169dd2d7-ce44-4925-b853-300f96adc798" }, "geometry": { "type": "Polygon", "coordinates": [ [ [ 60.196298141550223, 63.441557537006602 ], [ 65.958887974202312, 63.297492790425231 ], [ 66.102952719849242, 68.62788838777044 ], [ 60.531847099050992, 68.996254554326796 ], [ 60.196298141550223, 63.441557537006602 ] ] ] } },
{ "type": "Feature", "properties": { "feature_type": "building", "subtype": "no-damage", "uid": "5c743b12-744c-4234-b14b-92786e78d2e8" }, "geometry": { "type": "Polygon", "coordinates": [ [ [ 45.993001314192213, 71.379883819056062 ], [ 44.705931067138337, 67.702540238958363 ], [ 46.912337210384983, 61.634923335161282 ], [ 57.392766406050242, 61.818790513044789 ], [ 57.576633587204483, 71.379883819056062 ], [ 45.993001314192213, 71.379883819056062 ] ] ] } },
{ "type": "Feature", "properties": { "feature_type": "building", "subtype": "no-damage", "uid": "686a94dd-bc87-4e2b-afb3-1e8bfc29bcbb" }, "geometry": { "type": "Polygon", "coordinates": [ [ [ 25.402261967951269, 84.520822212075345 ], [ 32.461434515397258, 84.088627972331238 ], [ 32.749564002953193, 92.444383232933518 ], [ 25.97852095287519, 92.588447975776972 ], [ 25.402261967951269, 84.520822212075345 ] ] ] } },
{ "type": "Feature", "properties": { "feature_type": "building", "subtype": "un-classified", "uid": "4b422afb-96a2-414a-9ae2-91fd86173059" }, "geometry": { "type": "Polygon", "coordinates": [ [ [ 26.413578386278651, 58.454113386669363 ], [ 29.348419337204309, 58.566991884359538 ], [ 38.15294218157095, 68.951813701759605 ], [ 30.702961309720461, 76.288916074048942 ], [ 25.84918589595863, 76.063159078668576 ], [ 21.67268146787082, 79.56239251827796 ], [ 12.98103712539956, 69.403327696258259 ], [ 26.413578386278651, 58.454113386669363 ] ] ] } },
{ "type": "Feature", "properties": { "feature_type": "building", "subtype": "destroyed", "uid": "0d34a836-3c0b-415e-a8dd-2154f3958cf8" }, "geometry": { "type": "Polygon", "coordinates": [ [ [ 54.558410360807578, 32.111556053619182 ], [ 54.702475108790722, 26.060836730842961 ], [ 56.863446297699802, 26.060836730842961 ], [ 57.007511041010517, 23.611736050173452 ], [ 64.210748331533622, 23.179541810429338 ], [ 64.642942571745081, 31.967491307037811 ], [ 54.558410360807578, 32.111556053619182 ] ] ] } },
{ "type": "Feature", "properties": { "feature_type": "building", "subtype": "no-damage", "uid": "770a7d8f-0ecf-4008-8a5b-86f1f33e0ab5" }, "geometry": { "type": "Polygon", "coordinates": [ [ [ 44.041683920171543, 34.560656734288699 ], [ 44.473878152673528, 26.493030966849151 ], [ 52.397439176337294, 26.204901473686409 ], [ 52.829633415614282, 32.687815036206743 ], [ 51.965244935658582, 33.984397751701138 ], [ 44.041683920171543, 34.560656734288699 ] ] ] } },
{ "type": "Feature", "properties": { "feature_type": "building", "subtype": "no-damage", "uid": "eb7a1f25-5753-4708-8ae1-271f4fec6b0c" }, "geometry": { "type": "Polygon", "coordinates": [ [ [ 33.524957473694982, 28.7980669009373 ], [ 41.016324256680029, 28.077743171768368 ], [ 41.592583240202217, 36.28943368205136 ], [ 34.457745112130489, 36.554763454163357 ], [ 33.524957473694982, 28.7980669009373 ] ] ] } },
{ "type": "Feature", "properties": { "feature_type": "building", "subtype": "destroyed", "uid": "692e8b5c-8934-42cc-83ab-038daef8d77c" }, "geometry": { "type": "Polygon", "coordinates": [ [ [ 22.977698808997111, 33.204869407682942 ], [ 32.480179921598157, 31.195983801868699 ], [ 33.275156713551297, 35.912127378061022 ], [ 23.680484384652321, 38.056818837912381 ], [ 22.977698808997111, 33.204869407682942 ] ] ] } },
{ "type": "Feature", "properties": { "feature_type": "building", "subtype": "no-damage", "uid": "41a9d13d-b9ec-4ff0-bf1f-9d07f92b4c58" }, "geometry": { "type": "Polygon", "coordinates": [ [ [ 19.910821365637521, 21.96227296730493 ], [ 19.706395128045379, 15.441155831151489 ], [ 25.590144854427781, 15.441155831151489 ], [ 25.95787921112937, 21.876507094453508 ], [ 19.910821365637521, 21.96227296730493 ] ] ] } },
{ "type": "Feature", "properties": { "feature_type": "building", "subtype": "no-damage", "uid": "0c084142-10ad-40a4-bd94-8c7fd41537eb" }, "geometry": { "type": "Polygon", "coordinates": [ [ [ 42.322058132008927, 20.037835304404659 ], [ 41.770456596722923, 12.315413792180159 ], [ 50.41221400584314, 11.579945073170281 ], [ 50.77994836231111, 19.486233767016209 ], [ 42.322058132008927, 20.037835304404659 ] ] ] } },
{ "type": "Feature", "properties": { "feature_type": "building", "subtype": "destroyed", "uid": "e77be985-1bfe-4f7a-8689-926ad78a1b42" }, "geometry": { "type": "Polygon", "coordinates": [ [ [ 57.583033983250949, 10.660609180014809 ], [ 64.202252421167572, 10.2928748242478 ], [ 64.202252422569302, 19.118499411249189 ], [ 58.134635515499888, 19.302366589132699 ], [ 57.583033983250949, 10.660609180014809 ] ] ] } },
{ "type": "Feature", "properties": { "feature_type": "building", "subtype": "destroyed", "uid": "a6fc9082-7b23-49e6-b756-5a1f34c17866" }, "geometry": { "type": "Polygon", "coordinates": [ [ [ 57.031432442124419, 0.731781518236524 ], [ 62.547447812739712, 0.731781518236524 ], [ 63.28291652801186, 7.167132781538544 ], [ 57.583033979513019, 7.534867137305557 ], [ 57.031432442124419, 0.731781518236524 ] ] ] } },
{ "type": "Feature", "properties": { "feature_type": "building", "subtype": "no-damage", "uid": "b40b0472-79d7-4559-baff-eef96f5e365b" }, "geometry": { "type": "Polygon", "coordinates": [ [ [ 153.911483118905494, 860.53990393678896 ], [ 160.714568741247092, 867.894591093246504 ], [ 156.117889267525413, 872.491270566499566 ], [ 149.314803648454614, 864.584981872653657 ], [ 153.911483118905494, 860.53990393678896 ] ] ] } },
{ "type": "Feature", "properties": { "feature_type": "building", "subtype": "no-damage", "uid": "c8a934c5-81b7-4298-a149-1664ca421bf6" }, "geometry": { "type": "Polygon", "coordinates": [ [ [ 64.831902303704993, 966.20506824728966 ], [ 76.095884243131906, 964.562404212845991 ], [ 78.442547145008461, 979.346380507887147 ], [ 67.178565211188427, 981.223710833499695 ], [ 64.831902303704993, 966.20506824728966 ] ] ] } },
{ "type": "Feature", "properties": { "feature_type": "building", "subtype": "destroyed", "uid": "596ad887-1537-40fd-8e1f-6712db8f4b5c" }, "geometry": { "type": "Polygon", "coordinates": [ [ [ 63.797043341275263, 281.72097323770538 ], [ 77.574055288960849, 282.918974275801418 ], [ 76.376054249229227, 295.797485446546602 ], [ 61.40104126111116, 294.000483889402688 ], [ 62.299542041085083, 288.010478695184986 ], [ 63.797043341275263, 281.72097323770538 ] ] ] } }
]
}
