{
"type": "FeatureCollection",
"name": "palu-tsunami_00000018_post_disaster",
"features": [
{ "type": "Feature", "properties": { "feature_type": "building", "subtype": "no-damage", "uid": "2a6570fe-063f-4bc5-a79c-e510823e4bf4" }, "geometry": { "type": "Polygon", "coordinates": [ [ [ 964.642292567844493, 1022.958564573646981 ], [ 961.060161489891584, 1021.763580329171987 ], [ 952.842382070419035, 1011.166970023271006 ], [ 951.32858059774685, 1004.030477368658012 ], [ 964.952793847123303, 995.596440594345268 ], [ 970.57548503163423, 995.163925886532638 ], [ 972.305543855175642, 996.24521265419537 ], [ 983.334668865618937, 1008.571881783871049 ], [ 982.685896807637732, 1014.410830318783951 ], [ 969.384720334933377, 1022.958565964142053 ], [ 964.642292567844493, 1022.958564573646981 ] ] ] } },
{ "type": "Feature", "properties": { "feature_type": "building", "subtype": "no-damage", "uid": "4ddec459-484f-492f-8924-6c33d528b6dc" }, "geometry": { "type": "Polygon", "coordinates": [ [ [ 677.191959423216872, 1022.958522111224966 ], [ 673.842273753034192, 1017.009711297180957 ], [ 680.742405568872186, 1007.073521480131944 ], [ 685.710500472724561, 1006.245505663913036 ], [ 705.030869557071014, 1012.317621660728946 ], [ 699.635102917499012, 1022.958522466325007 ], [ 677.191959423216872, 1022.958522111224966 ] ] ] } },
{ "type": "Feature", "properties": { "feature_type": "building", "subtype": "no-damage", "uid": "897d82cb-28bd-485a-a1ac-797a90d98547" }, "geometry": { "type": "Polygon", "coordinates": [ [ [ 779.414936574839317, 827.104961219344773 ], [ 780.242952390357004, 829.036998127592483 ], [ 799.011310927053501, 836.213135216437536 ], [ 781.622978755627173, 858.017551755045588 ], [ 766.16668348847702, 854.705488482695841 ], [ 765.890678218039511, 849.737393574171278 ], [ 779.414936574839317, 827.104961219344773 ] ] ] } },
{ "type": "Feature", "properties": { "feature_type": "building", "subtype": "no-damage", "uid": "e09c5693-9134-48f4-b1ad-b803c8c76e17" }, "geometry": { "type": "Polygon", "coordinates": [ [ [ 332.856575054829079, 1022.958579555107008 ], [ 342.921852556409874, 979.717101183355794 ], [ 345.405900008803428, 976.957048458889631 ], [ 352.582037092509097, 978.337074822991667 ], [ 366.93431126809719, 982.201148639486973 ], [ 357.855037662967788, 1022.958571410246009 ], [ 332.856575054829079, 1022.958579555107008 ] ] ] } },
{ "type": "Feature", "properties": { "feature_type": "building", "subtype": "major-damage", "uid": "cdc39388-a839-4a1a-974d-258ad9665c25" }, "geometry": { "type": "Polygon", "coordinates": [ [ [ 332.157646922674701, 950.782144952491535 ], [ 333.682636576648179, 947.732165643610188 ], [ 335.715956115201607, 947.732165643610188 ], [ 338.088162242462715, 947.901608938548065 ], [ 342.324244618712385, 948.918268708175219 ], [ 349.101976412722422, 953.493237671497127 ], [ 343.171461089196612, 976.537525779306861 ], [ 335.03818293708548, 975.012536124866187 ], [ 332.157646925945414, 977.893072138809657 ], [ 330.971543859978681, 976.537525779306861 ], [ 331.818760333499881, 973.148659880549758 ], [ 327.413234664648428, 969.929237276730646 ], [ 332.157646922674701, 950.782144952491535 ] ] ] } },
{ "type": "Feature", "properties": { "feature_type": "building", "subtype": "destroyed", "uid": "ccf4f084-a1b1-441f-ac13-8a26c10e43d3" }, "geometry": { "type": "Polygon", "coordinates": [ [ [ 361.979666821925377, 944.682186334728954 ], [ 363.843543065307415, 939.937774076469168 ], [ 369.94350168353742, 940.954433846096208 ], [ 379.262882900914406, 943.6655265651018 ], [ 377.060120066722277, 967.726474442538574 ], [ 375.535130417654784, 967.726474442538574 ], [ 371.637934633149712, 967.218144557725054 ], [ 361.810223526987613, 970.9458970463578 ], [ 360.285233873715015, 962.812618889340911 ], [ 361.979666821925377, 944.682186334728954 ] ] ] } },
{ "type": "Feature", "properties": { "feature_type": "building", "subtype": "major-damage", "uid": "598ddd56-21e2-46ef-81c9-f94e12dfe2a8" }, "geometry": { "type": "Polygon", "coordinates": [ [ [ 314.863206456255, 968.732846984112712 ], [ 315.659785990406704, 964.882712582557133 ], [ 316.854655285910724, 964.218896307329032 ], [ 327.21018919974631, 968.334557219723479 ], [ 327.413234664648428, 969.929237276730646 ], [ 328.272295239830783, 971.388112092500592 ], [ 330.396507322569676, 973.114034411083821 ], [ 330.927560348452516, 978.955617642061384 ], [ 337.034670090269117, 979.486670663738892 ], [ 336.105327302800504, 985.726543662843596 ], [ 329.59992779052061, 986.788649706198839 ], [ 327.741242216751573, 992.09917991923669 ], [ 308.88885996939058, 989.178388300010056 ], [ 314.863206456255, 968.732846984112712 ] ] ] } },
{ "type": "Feature", "properties": { "feature_type": "building", "subtype": "no-damage", "uid": "181818c3-0f4c-4464-85f7-f0bdff6a8dc6" }, "geometry": { "type": "Polygon", "coordinates": [ [ [ 297.281977595628689, 1022.958592215337035 ], [ 305.108458973882307, 993.971775814318335 ], [ 308.88885996939058, 989.178388300010056 ], [ 332.584773337503918, 997.494380223037638 ], [ 326.051401037425023, 1022.958581880074007 ], [ 297.281977595628689, 1022.958592215337035 ] ] ] } },
{ "type": "Feature", "properties": { "feature_type": "building", "subtype": "no-damage", "uid": "8099d12d-13cc-4718-a0ae-092900946a12" }, "geometry": { "type": "Polygon", "coordinates": [ [ [ 373.975446813281621, 897.034991363212953 ], [ 421.178345851060612, 897.034991363212953 ], [ 420.826085408272888, 914.295752955845046 ], [ 371.861884170572978, 918.5228782403276 ], [ 367.987019322803917, 912.182190309865859 ], [ 367.987019326074517, 904.784721056414696 ], [ 373.975446812113375, 899.148554009192026 ], [ 373.975446813281621, 897.034991363212953 ] ] ] } },
{ "type": "Feature", "properties": { "feature_type": "building", "subtype": "destroyed", "uid": "d6175483-12bd-4150-a255-900bb6fc2c33" }, "geometry": { "type": "Polygon", "coordinates": [ [ [ 329.992302469752474, 891.827385196732735 ], [ 330.441885978582775, 886.88196663791291 ], [ 373.975446813281621, 897.034991363212953 ], [ 364.61023239504209, 919.251979038206514 ], [ 324.597300404204816, 911.609059443225533 ], [ 329.992302469752474, 891.827385196732735 ] ] ] } },
{ "type": "Feature", "properties": { "feature_type": "building", "subtype": "destroyed", "uid": "9700d051-cf6f-4133-8ff5-64636ff12feb" }, "geometry": { "type": "Polygon", "coordinates": [ [ [ 343.929391143269811, 864.852374865023762 ], [ 345.27814165784622, 863.953207852969967 ], [ 377.648154052767723, 872.495294460004743 ], [ 373.975446813281621, 897.034991363212953 ], [ 333.588970518201222, 882.835715087408971 ], [ 334.488137527918809, 876.991129516535466 ], [ 343.929391143269811, 864.852374865023762 ] ] ] } },
{ "type": "Feature", "properties": { "feature_type": "building", "subtype": "destroyed", "uid": "3af1c3de-c3d8-492c-b69d-b28ba1116f68" }, "geometry": { "type": "Polygon", "coordinates": [ [ [ 329.287034848294809, 914.719390789796421 ], [ 329.839045393608501, 913.891374969840058 ], [ 334.5311350281915, 914.443385517723641 ], [ 354.95552519662408, 920.791506786612331 ], [ 359.095604289864923, 918.859469878364621 ], [ 368.479783558563611, 922.999548966932821 ], [ 368.479783555760207, 924.379575331034857 ], [ 367.375762467935999, 928.243649147530164 ], [ 359.923620103279973, 952.808118410604379 ], [ 348.883409199808113, 947.840023505817726 ], [ 349.987430291837313, 939.007854780797857 ], [ 325.698966306909085, 929.34767023955942 ], [ 329.287034848294809, 914.719390789796421 ] ] ] } },
{ "type": "Feature", "properties": { "feature_type": "building", "subtype": "major-damage", "uid": "fbd5b282-0752-43f9-ae42-1fcb2f204ce5" }, "geometry": { "type": "Polygon", "coordinates": [ [ [ 251.019228563754808, 988.708020227386669 ], [ 250.191212751040609, 985.119951682964142 ], [ 266.199518558598413, 990.916062407707273 ], [ 279.447771639821099, 995.608152040421032 ], [ 273.927666190654975, 1006.924368217833944 ], [ 275.583697824727324, 1019.896616031422013 ], [ 243.843091476311088, 1007.752384037790989 ], [ 251.019228563754808, 988.708020227386669 ] ] ] } },
{ "type": "Feature", "properties": { "feature_type": "building", "subtype": "major-damage", "uid": "df9dc865-aa8b-42d6-bd5f-2d9b7171ff2c" }, "geometry": { "type": "Polygon", "coordinates": [ [ [ 238.32298602574329, 963.591540416428984 ], [ 239.151001846867814, 960.003471872006457 ], [ 245.775128384558911, 961.107492964035714 ], [ 281.655813822244284, 969.387651141172 ], [ 277.515734732274211, 987.327993863284746 ], [ 236.114943846123595, 980.703867318585253 ], [ 238.32298602574329, 963.591540416428984 ] ] ] } },
{ "type": "Feature", "properties": { "feature_type": "building", "subtype": "destroyed", "uid": "7493bb96-2dc7-4382-b4bf-c3646fc4aa7e" }, "geometry": { "type": "Polygon", "coordinates": [ [ [ 146.864052230900313, 1009.25740378363696 ], [ 165.080400224151987, 1015.053514508379976 ], [ 162.774063212799007, 1022.95865148330904 ], [ 147.790086944366209, 1022.958659202049944 ], [ 144.158716804161401, 1022.19873010683898 ], [ 142.17196259912069, 1017.813567232846026 ], [ 139.687915142989397, 1016.985551416628027 ], [ 139.411909871383813, 1012.01745650810301 ], [ 144.103999504331398, 1013.397482872205046 ], [ 146.864052230900313, 1009.25740378363696 ] ] ] } },
{ "type": "Feature", "properties": { "feature_type": "building", "subtype": "destroyed", "uid": "1974f220-2940-41ba-85b3-33abf2267520" }, "geometry": { "type": "Polygon", "coordinates": [ [ [ 223.041507465043196, 967.856612886741232 ], [ 235.461744732383607, 970.064655070799631 ], [ 236.114943846123595, 980.703867318585253 ], [ 250.191212751040609, 985.119951682964142 ], [ 243.843091476311088, 1007.752384037790989 ], [ 244.569918726439596, 1011.465445963956995 ], [ 250.366029451883691, 1019.745604141093963 ], [ 232.97769728069099, 1017.261556688700011 ], [ 216.141375649205202, 1010.637430144000973 ], [ 211.173280741147693, 1001.805261422719013 ], [ 207.861217470666787, 980.000844884110847 ], [ 216.693386198957711, 980.000844884110847 ], [ 219.453438920153303, 968.960633978770488 ], [ 223.041507465043196, 967.856612886741232 ] ] ] } },
{ "type": "Feature", "properties": { "feature_type": "building", "subtype": "no-damage", "uid": "544df726-3520-4c8d-9152-3402ef714ec5" }, "geometry": { "type": "Polygon", "coordinates": [ [ [ 759.418233087375484, 776.267278289289266 ], [ 753.782066037582808, 798.459686045905073 ], [ 747.79363855084307, 795.641602524162636 ], [ 743.566513264024252, 782.960226659501473 ], [ 752.020763837661889, 777.324059612278916 ], [ 759.418233087375484, 776.267278289289266 ] ] ] } },
{ "type": "Feature", "properties": { "feature_type": "building", "subtype": "no-damage", "uid": "b6703f17-1a65-49ac-bbc1-23fb1482decd" }, "geometry": { "type": "Polygon", "coordinates": [ [ [ 634.708945328401228, 762.359677810438598 ], [ 648.264408920392725, 767.442976658574139 ], [ 647.247749151232824, 777.948460940982841 ], [ 628.608986712273691, 774.390151751025883 ], [ 631.828409319363686, 765.070770529444189 ], [ 634.708945328401228, 762.359677810438598 ] ] ] } },
{ "type": "Feature", "properties": { "feature_type": "building", "subtype": "no-damage", "uid": "883bbbb7-e8fd-4baa-a572-66e2282e2527" }, "geometry": { "type": "Polygon", "coordinates": [ [ [ 626.067337291242893, 775.915141405466557 ], [ 636.911708165630444, 777.948460940982841 ], [ 648.433852216264995, 781.506770134677708 ], [ 643.519996663300844, 799.806645987965567 ], [ 637.250594755506086, 800.653862462654729 ], [ 621.83125491803014, 791.165037946135158 ], [ 622.000698214836916, 777.101244466293679 ], [ 626.067337291242893, 775.915141405466557 ] ] ] } },
{ "type": "Feature", "properties": { "feature_type": "building", "subtype": "no-damage", "uid": "95f1fab9-ad13-4402-9c9d-ebaf26e601c2" }, "geometry": { "type": "Polygon", "coordinates": [ [ [ 583.123156837525471, 739.444304937538959 ], [ 593.338709615756443, 738.739784058037799 ], [ 613.417554727328252, 741.910128023268612 ], [ 609.190429436771524, 780.306516049526977 ], [ 592.28192829533657, 793.692412793689186 ], [ 579.248291995129534, 783.47686001475779 ], [ 583.123156837525471, 739.444304937538959 ] ] ] } },
{ "type": "Feature", "properties": { "feature_type": "building", "subtype": "no-damage", "uid": "d3b57b83-7e29-4015-9109-8f31bbb63c09" }, "geometry": { "type": "Polygon", "coordinates": [ [ [ 561.551581455473297, 719.165709718769449 ], [ 580.595945268447849, 721.925762446973408 ], [ 578.663908355527724, 740.970126257377387 ], [ 573.143802903324513, 745.662215890091261 ], [ 566.795681637005373, 740.694120985304608 ], [ 561.551581455473297, 719.165709718769449 ] ] ] } },
{ "type": "Feature", "properties": { "feature_type": "building", "subtype": "no-damage", "uid": "61acad45-69dc-448d-b6bc-9bb4fa5edf56" }, "geometry": { "type": "Polygon", "coordinates": [ [ [ 585.01202962511752, 671.140792280912365 ], [ 578.939913631338413, 691.56518245541838 ], [ 576.731871446579134, 702.60539336075874 ], [ 560.447560366481071, 700.39735118043825 ], [ 552.719412734891876, 690.461161367127033 ], [ 560.447560365079426, 684.389045366573214 ], [ 564.86364472829041, 667.276718464416945 ], [ 574.247823993017619, 665.620686828242128 ], [ 585.564040170664839, 667.828729008562618 ], [ 585.01202962511752, 671.140792280912365 ] ] ] } },
{ "type": "Feature", "properties": { "feature_type": "building", "subtype": "no-damage", "uid": "73ff8258-79a3-453f-ad2b-31f3a0b2d627" }, "geometry": { "type": "Polygon", "coordinates": [ [ [ 588.214168303283941, 670.690064367773175 ], [ 589.569714662786851, 671.537280842462451 ], [ 585.503075586147247, 694.073239065458552 ], [ 596.516889753837177, 695.598228719899225 ], [ 600.414085535071763, 685.601074318566134 ], [ 607.530703921994473, 683.906641369187582 ], [ 615.833425370211557, 684.753857843876858 ], [ 615.833425374416606, 691.192703051515196 ], [ 596.178003162559776, 710.848125260567826 ], [ 576.731871446579134, 702.60539336075874 ], [ 588.214168303283941, 670.690064367773175 ] ] ] } },
{ "type": "Feature", "properties": { "feature_type": "building", "subtype": "no-damage", "uid": "bc3cfbdb-8661-48d9-b465-ca171033dcfa" }, "geometry": { "type": "Polygon", "coordinates": [ [ [ 589.569714662786851, 671.537280842462451 ], [ 603.294621549248859, 672.553940612089605 ], [ 597.533549522529825, 692.209362821142236 ], [ 596.516889753837177, 695.598228719899225 ], [ 585.503075586147247, 694.073239065458552 ], [ 589.569714662786851, 671.537280842462451 ] ] ] } },
{ "type": "Feature", "properties": { "feature_type": "building", "subtype": "no-damage", "uid": "979c3f47-b300-40a1-80eb-94bd8dc16007" }, "geometry": { "type": "Polygon", "coordinates": [ [ [ 627.186126127543616, 683.059424894498306 ], [ 627.52501271625124, 682.212208419809144 ], [ 631.422208504027026, 682.720538304622664 ], [ 633.963857926225955, 682.889981599560542 ], [ 632.099981683778424, 678.823342521052155 ], [ 666.666413836616812, 688.989940217323124 ], [ 660.058125337311026, 716.77864058339253 ], [ 662.091444877967092, 719.998063187211756 ], [ 660.566455222591912, 723.217485791030867 ], [ 633.286084745072799, 717.286970468206164 ], [ 635.149960986585825, 711.017568555505704 ], [ 637.183280528643536, 704.409280052929489 ], [ 622.441713874656898, 699.834311093345491 ], [ 627.186126127543616, 683.059424894498306 ] ] ] } },
{ "type": "Feature", "properties": { "feature_type": "building", "subtype": "destroyed", "uid": "7969dbcc-54bd-432c-ad3f-7b8f1c60b8b3" }, "geometry": { "type": "Polygon", "coordinates": [ [ [ 318.842687293283973, 946.300634036885413 ], [ 332.157646922674701, 950.782144952491535 ], [ 327.21018919974631, 968.334557219723479 ], [ 314.346852242126204, 959.788139202739899 ], [ 318.842687293283973, 946.300634036885413 ] ] ] } },
{ "type": "Feature", "properties": { "feature_type": "building", "subtype": "destroyed", "uid": "01d26fdf-c0b8-4014-aa84-269a45dce7ec" }, "geometry": { "type": "Polygon", "coordinates": [ [ [ 247.466959757673692, 939.141277857765317 ], [ 273.850356837764082, 941.087594033577716 ], [ 274.282871547912976, 945.412741100490848 ], [ 296.557378921537691, 947.791571984115876 ], [ 293.962290682838102, 959.253211701904206 ], [ 286.825798031962677, 958.17192493797927 ], [ 281.655813822244284, 969.387651141172 ], [ 265.416320069524716, 964.227130824929532 ], [ 257.631055355061278, 954.49554993465415 ], [ 255.900996528950088, 946.061513160340951 ], [ 246.169415635870905, 943.898939625015487 ], [ 244.006842102414311, 940.006307269652893 ], [ 247.466959757673692, 939.141277857765317 ] ] ] } },
{ "type": "Feature", "properties": { "feature_type": "building", "subtype": "destroyed", "uid": "e47f9d69-33ae-4e09-984b-8b421d927e77" }, "geometry": { "type": "Polygon", "coordinates": [ [ [ 268.663555340715504, 890.312900771519594 ], [ 317.275496135627918, 896.301328262230641 ], [ 315.514193932903481, 911.800787648634241 ], [ 313.400631291830223, 920.255038225075054 ], [ 280.288149880985827, 911.448527208883661 ], [ 271.129378427379777, 936.459018490979702 ], [ 264.084169612510777, 938.924841576709355 ], [ 260.209304765442482, 938.924841576709355 ], [ 267.606774019127613, 889.256119452267967 ], [ 268.663555340715504, 890.312900771519594 ] ] ] } },
{ "type": "Feature", "properties": { "feature_type": "building", "subtype": "destroyed", "uid": "b9dba12c-6f88-4e30-aed1-ee87957c4d8b" }, "geometry": { "type": "Polygon", "coordinates": [ [ [ 304.946380716790827, 941.742925102189588 ], [ 271.129378427379777, 936.459018490979702 ], [ 280.288149880985827, 911.448527208883661 ], [ 313.400631291830223, 920.255038225075054 ], [ 304.946380716790827, 941.742925102189588 ] ] ] } },
{ "type": "Feature", "properties": { "feature_type": "building", "subtype": "destroyed", "uid": "b49fbf5e-1350-45fa-8352-164300dae034" }, "geometry": { "type": "Polygon", "coordinates": [ [ [ 277.470066353169273, 861.427544640953784 ], [ 312.696110412796315, 867.063711691914364 ], [ 304.594120279843708, 893.483244736750407 ], [ 279.231368561266777, 889.256119452267967 ], [ 267.606774019127613, 889.256119452267967 ], [ 277.470066353169273, 861.427544640953784 ] ] ] } },
{ "type": "Feature", "properties": { "feature_type": "building", "subtype": "destroyed", "uid": "4bb9d4bb-2096-4dee-9988-a196b751b175" }, "geometry": { "type": "Polygon", "coordinates": [ [ [ 253.516356400136004, 832.894448953876463 ], [ 257.391221242298286, 830.076365428396116 ], [ 277.117805917156602, 839.23513688433809 ], [ 269.720336662303396, 856.495898473232273 ], [ 244.005324500705314, 852.6210336285003 ], [ 253.516356400136004, 832.894448953876463 ] ] ] } },
{ "type": "Feature", "properties": { "feature_type": "building", "subtype": "destroyed", "uid": "3cc292af-07d2-4cce-b4a4-7e38cd7b6127" }, "geometry": { "type": "Polygon", "coordinates": [ [ [ 233.462016732302914, 890.371095882667646 ], [ 246.869972623100608, 894.263728241768149 ], [ 243.842369683363302, 905.725367959556365 ], [ 230.434413785323386, 902.914022368118708 ], [ 233.462016732302914, 890.371095882667646 ] ] ] } },
{ "type": "Feature", "properties": { "feature_type": "building", "subtype": "destroyed", "uid": "5b13bc77-eafb-4ad3-a8fa-bbbfae4fec3f" }, "geometry": { "type": "Polygon", "coordinates": [ [ [ 230.001899082183087, 905.725367959556365 ], [ 230.434413785323386, 902.914022368118708 ], [ 245.572428508773612, 907.022912079256571 ], [ 242.112310855616812, 925.188529747582947 ], [ 226.109266722848787, 920.214610624557622 ], [ 230.001899082183087, 905.725367959556365 ] ] ] } },
{ "type": "Feature", "properties": { "feature_type": "building", "subtype": "destroyed", "uid": "8b78e253-1004-4f62-8576-cf272290d9b4" }, "geometry": { "type": "Polygon", "coordinates": [ [ [ 296.142787704837076, 821.963044056244939 ], [ 336.65273837193638, 834.644419920906103 ], [ 331.368831764230492, 854.018744152041563 ], [ 290.858881097832011, 841.689628730868776 ], [ 287.336276694719515, 832.883117718415406 ], [ 296.142787704837076, 821.963044056244939 ] ] ] } },
{ "type": "Feature", "properties": { "feature_type": "building", "subtype": "destroyed", "uid": "82052ae2-5e6a-45d0-b7be-580a080ebc54" }, "geometry": { "type": "Polygon", "coordinates": [ [ [ 290.506620655978907, 794.838990131907622 ], [ 293.676964620976207, 795.543511011408782 ], [ 297.199569025023322, 792.373167046177969 ], [ 345.106988946041326, 804.702282467350642 ], [ 336.65273837193638, 834.644419920906103 ], [ 317.982935023104687, 827.951471546955986 ], [ 296.142787704837076, 821.963044056244939 ], [ 283.461411845315013, 815.974616569271689 ], [ 290.506620655978907, 794.838990131907622 ] ] ] } },
{ "type": "Feature", "properties": { "feature_type": "building", "subtype": "destroyed", "uid": "9aeebfca-ce0b-4ffd-9cf9-c9bdbd6c2b23" }, "geometry": { "type": "Polygon", "coordinates": [ [ [ 294.96651054411268, 775.671664792790352 ], [ 296.264054665681897, 774.374120673090147 ], [ 312.699613506028925, 780.213069211740844 ], [ 307.941951735975181, 794.702311873004305 ], [ 290.857620835544481, 788.214591278241301 ], [ 294.96651054411268, 775.671664792790352 ] ] ] } },
{ "type": "Feature", "properties": { "feature_type": "building", "subtype": "destroyed", "uid": "4673ad93-2640-4f58-92fd-31afe399a2c0" }, "geometry": { "type": "Polygon", "coordinates": [ [ [ 312.699613506028925, 780.213069211740844 ], [ 346.868275303619725, 788.863363338091403 ], [ 350.760907657113478, 791.242194221716431 ], [ 347.733304712937411, 804.001378059204853 ], [ 307.941951735975181, 794.702311873004305 ], [ 312.699613506028925, 780.213069211740844 ] ] ] } },
{ "type": "Feature", "properties": { "feature_type": "building", "subtype": "destroyed", "uid": "860cb514-7c18-4e23-b6ca-95e72239458f" }, "geometry": { "type": "Polygon", "coordinates": [ [ [ 347.561840502733389, 842.706181645457036 ], [ 369.918267583619013, 850.710334550520543 ], [ 378.750436306536699, 854.298403094943069 ], [ 370.470278126362984, 871.686735272910141 ], [ 339.833692869742379, 860.370519091758979 ], [ 347.561840502733389, 842.706181645457036 ] ] ] } },
{ "type": "Feature", "properties": { "feature_type": "building", "subtype": "major-damage", "uid": "0a5556cd-aaa0-44d5-9a53-0ad2a26dade5" }, "geometry": { "type": "Polygon", "coordinates": [ [ [ 395.862763209394473, 876.654830177696795 ], [ 419.323211375767983, 879.966893450046541 ], [ 425.119322103548313, 884.934988358571104 ], [ 423.18728519506692, 891.283109627459794 ], [ 418.495195556278816, 894.319167627736647 ], [ 408.28300047556678, 895.423188716027994 ], [ 389.514641935599627, 895.699193991838683 ], [ 391.446678842679319, 886.039009446862337 ], [ 395.862763209394473, 876.654830177696795 ] ] ] } },
{ "type": "Feature", "properties": { "feature_type": "building", "subtype": "major-damage", "uid": "dd3177b9-c326-4831-9d32-e5a31883e70c" }, "geometry": { "type": "Polygon", "coordinates": [ [ [ 411.043053195827895, 830.83795492389811 ], [ 434.503501367574586, 838.566102556888836 ], [ 432.571464461663027, 844.914223825777526 ], [ 440.023606818609721, 844.638218553704746 ], [ 440.299612093953215, 853.470387278724615 ], [ 433.123475007443972, 854.850413642826652 ], [ 428.707390643532221, 870.030703636735325 ], [ 416.563158650834509, 870.582714180880885 ], [ 398.346810661320717, 865.614619272356322 ], [ 394.482736844357873, 862.854566547890158 ], [ 411.043053195827895, 830.83795492389811 ] ] ] } },
{ "type": "Feature", "properties": { "feature_type": "building", "subtype": "major-damage", "uid": "ceb4d046-8162-420f-bd37-98c4f0d3f79d" }, "geometry": { "type": "Polygon", "coordinates": [ [ [ 419.59921665041071, 815.105654382105968 ], [ 433.399480279750492, 821.453775650994658 ], [ 435.883527731910306, 815.933670202062331 ], [ 448.855775544097185, 820.349754562703424 ], [ 440.023606818609721, 844.638218553704746 ], [ 432.571464461663027, 844.914223825777526 ], [ 434.503501367574586, 838.566102556888836 ], [ 411.043053195827895, 830.83795492389811 ], [ 419.59921665041071, 815.105654382105968 ] ] ] } },
{ "type": "Feature", "properties": { "feature_type": "building", "subtype": "major-damage", "uid": "040c01e6-da19-4588-af62-82fbd305ac5e" }, "geometry": { "type": "Polygon", "coordinates": [ [ [ 467.271316821938115, 888.149185311040242 ], [ 459.172758249765025, 908.196436862548353 ], [ 444.568800168349014, 909.391306159453961 ], [ 438.328927172748422, 900.628931309249651 ], [ 440.851429020343687, 891.866556459045455 ], [ 448.153408059299579, 893.990768545755714 ], [ 448.949987589947114, 887.485369035812255 ], [ 463.022892652255223, 885.759446717229025 ], [ 467.271316821938115, 888.149185311040242 ] ] ] } },
{ "type": "Feature", "properties": { "feature_type": "building", "subtype": "destroyed", "uid": "ae73a980-e98a-48e8-84a4-1a3a4747ddec" }, "geometry": { "type": "Polygon", "coordinates": [ [ [ 358.164878779616117, 822.361697577060568 ], [ 402.325722393970921, 839.750029751289617 ], [ 394.045564211694625, 858.242383017547922 ], [ 347.561840502733389, 842.706181645457036 ], [ 344.916625692552998, 834.781934842765054 ], [ 350.712736416128223, 822.637702849133348 ], [ 358.164878779616117, 822.361697577060568 ] ] ] } },
{ "type": "Feature", "properties": { "feature_type": "building", "subtype": "destroyed", "uid": "4c15c355-089b-4319-b4ae-6f17cc3b459d" }, "geometry": { "type": "Polygon", "coordinates": [ [ [ 362.856968412797414, 803.593339038729368 ], [ 409.225854209341719, 819.325639576783715 ], [ 402.325722393970921, 839.750029751289617 ], [ 354.024799691982309, 820.705665940885638 ], [ 349.608715329472091, 819.877650120929275 ], [ 358.716889323294481, 800.005270494306842 ], [ 362.856968412797414, 803.593339038729368 ] ] ] } },
{ "type": "Feature", "properties": { "feature_type": "building", "subtype": "destroyed", "uid": "96b1da32-3a2d-4b2a-af69-1b126221331e" }, "geometry": { "type": "Polygon", "coordinates": [ [ [ 377.093809429493604, 865.670045373866628 ], [ 392.004819379352625, 869.567241157437138 ], [ 390.140943136905094, 879.056065673956823 ], [ 379.127128969682417, 876.514416249888995 ], [ 377.648154052767723, 872.495294460004743 ], [ 375.060489888837708, 871.431117401753568 ], [ 377.093809429493604, 865.670045373866628 ] ] ] } },
{ "type": "Feature", "properties": { "feature_type": "building", "subtype": "destroyed", "uid": "14a1c753-7105-452e-ac12-144423267cf6" }, "geometry": { "type": "Polygon", "coordinates": [ [ [ 487.468085901925576, 824.781957198759642 ], [ 500.853982643518577, 827.247780284489409 ], [ 519.52378598907967, 836.758812180181849 ], [ 488.172606781426794, 878.325544171670913 ], [ 477.957054007634611, 873.393898003949403 ], [ 449.776218759605911, 846.622104519362665 ], [ 452.594302287188782, 840.985937468402199 ], [ 457.878208895361922, 834.997509977691152 ], [ 469.855063872112112, 841.690458347903359 ], [ 473.729928720815678, 837.463333063420805 ], [ 487.468085901925576, 824.781957198759642 ] ] ] } },
{ "type": "Feature", "properties": { "feature_type": "building", "subtype": "destroyed", "uid": "07132f12-9c33-477b-a73d-915d2dcdc187" }, "geometry": { "type": "Polygon", "coordinates": [ [ [ 380.733172410334078, 789.203652697981624 ], [ 384.255776817184483, 789.203652697981624 ], [ 395.175850474916672, 792.021736223461858 ], [ 385.664818579457517, 812.805102217337549 ], [ 375.09700536311118, 810.691539575096272 ], [ 380.733172410334078, 789.203652697981624 ] ] ] } },
{ "type": "Feature", "properties": { "feature_type": "building", "subtype": "major-damage", "uid": "11e7c1b7-410d-4cc7-8421-fdd022dbb41d" }, "geometry": { "type": "Polygon", "coordinates": [ [ [ 396.863478521995887, 792.371720924124361 ], [ 406.352303034778004, 795.082813643129953 ], [ 409.232839052225927, 803.385535091346696 ], [ 404.996756679947509, 817.279885276250411 ], [ 386.696880828995177, 811.010483363549952 ], [ 396.863478521995887, 792.371720924124361 ] ] ] } },
{ "type": "Feature", "properties": { "feature_type": "building", "subtype": "destroyed", "uid": "d073e588-94c4-4d0f-af47-11b58f6643bd" }, "geometry": { "type": "Polygon", "coordinates": [ [ [ 379.071932560529604, 776.952381084780086 ], [ 377.038613023845073, 787.288422075988933 ], [ 382.291355162947184, 788.135638550678095 ], [ 375.174736780696776, 808.638277234420116 ], [ 358.716889323294481, 800.005270494306842 ], [ 363.483149429984678, 776.444051199966452 ], [ 366.194242150392085, 773.73295848096086 ], [ 379.071932560529604, 776.952381084780086 ] ] ] } },
{ "type": "Feature", "properties": { "feature_type": "building", "subtype": "destroyed", "uid": "d3c1f2f4-0e04-4a68-8f19-110a07511cf5" }, "geometry": { "type": "Polygon", "coordinates": [ [ [ 381.783025276264709, 767.632999866936188 ], [ 395.338488870358674, 772.885742006271698 ], [ 389.407973548000882, 788.643968435491729 ], [ 377.038613023845073, 787.288422075988933 ], [ 381.783025276264709, 767.632999866936188 ] ] ] } },
{ "type": "Feature", "properties": { "feature_type": "building", "subtype": "destroyed", "uid": "b6217e72-4a9c-40e1-80b0-580b329f42c2" }, "geometry": { "type": "Polygon", "coordinates": [ [ [ 463.082373085200913, 342.115107533973401 ], [ 462.530362538251779, 341.01108644568211 ], [ 484.33477907125382, 345.151165530512401 ], [ 481.57472634585298, 358.399418619911216 ], [ 473.570573443592593, 361.987487160595776 ], [ 457.286262359523221, 353.43132371138671 ], [ 463.082373085200913, 342.115107533973401 ] ] ] } },
{ "type": "Feature", "properties": { "feature_type": "building", "subtype": "no-damage", "uid": "2f266846-120d-402a-87aa-f46c6ec5533c" }, "geometry": { "type": "Polygon", "coordinates": [ [ [ 498.411047974068197, 391.796056604267392 ], [ 497.583032155980675, 390.968040784310972 ], [ 528.219617412134085, 400.352220057214481 ], [ 513.867343237947694, 414.704494231166677 ], [ 495.927000519338605, 414.704494231166677 ], [ 492.89094252466839, 403.112272785418611 ], [ 498.411047974068197, 391.796056604267392 ] ] ] } },
{ "type": "Feature", "properties": { "feature_type": "building", "subtype": "major-damage", "uid": "dbec4508-c279-4d29-9436-f44496b6eaea" }, "geometry": { "type": "Polygon", "coordinates": [ [ [ 486.815315059411773, 422.092530581047072 ], [ 496.241506188582321, 426.606481261568717 ], [ 489.736106675367921, 438.024121216422884 ], [ 480.309915554841211, 431.784248217318179 ], [ 486.815315059411773, 422.092530581047072 ] ] ] } },
{ "type": "Feature", "properties": { "feature_type": "building", "subtype": "no-damage", "uid": "ddb232bc-109b-4db1-977c-e5e363067030" }, "geometry": { "type": "Polygon", "coordinates": [ [ [ 479.911625785545993, 446.388206302237904 ], [ 488.541237381031976, 449.707287682115975 ], [ 484.425576467469398, 460.195584850903401 ], [ 478.716756490976479, 459.399005322124879 ], [ 474.46833231895738, 450.636630475658478 ], [ 479.911625785545993, 446.388206302237904 ] ] ] } },
{ "type": "Feature", "properties": { "feature_type": "building", "subtype": "destroyed", "uid": "1f598e32-0ded-4ca2-81d1-34a1b9b62891" }, "geometry": { "type": "Polygon", "coordinates": [ [ [ 347.699531918843491, 484.698027281386089 ], [ 342.107903190332991, 500.964583591681787 ], [ 330.755202433000875, 499.778480527116926 ], [ 328.721882891410473, 499.94792382205469 ], [ 326.180233467342589, 489.442439535908022 ], [ 332.788521968984583, 477.581408893996411 ], [ 348.038418511989903, 482.495264447194074 ], [ 347.699531918843491, 484.698027281386089 ] ] ] } },
{ "type": "Feature", "properties": { "feature_type": "building", "subtype": "destroyed", "uid": "83acc0f0-0655-4a48-82de-0467c570aa4e" }, "geometry": { "type": "Polygon", "coordinates": [ [ [ 347.530088626241877, 490.628542600472997 ], [ 363.457758342457282, 496.8979445131734 ], [ 355.324480187542804, 513.672830712020527 ], [ 350.410624638783702, 510.961737993014879 ], [ 342.107903190332991, 500.964583591681787 ], [ 347.530088626241877, 490.628542600472997 ] ] ] } },
{ "type": "Feature", "properties": { "feature_type": "building", "subtype": "destroyed", "uid": "7fc3033e-c1e4-469b-8f6b-38de9bd9f51f" }, "geometry": { "type": "Polygon", "coordinates": [ [ [ 366.677180950481727, 501.642356767695276 ], [ 366.677180948846399, 500.625696998068179 ], [ 376.843778642547989, 507.23398550438219 ], [ 372.268809679693106, 513.672830708282618 ], [ 367.524397420965897, 512.4867276437177 ], [ 360.746665623918886, 507.064542209444426 ], [ 366.677180950481727, 501.642356767695276 ] ] ] } },
{ "type": "Feature", "properties": { "feature_type": "building", "subtype": "destroyed", "uid": "7b0f0d47-0055-4554-ad2c-8148c601a2e2" }, "geometry": { "type": "Polygon", "coordinates": [ [ [ 320.006468588052599, 497.271267326922327 ], [ 339.878848213274125, 505.55142550779658 ], [ 327.458610948970772, 535.636000223540918 ], [ 307.86223659815829, 529.287878954652228 ], [ 320.006468588052599, 497.271267326922327 ] ] ] } },
{ "type": "Feature", "properties": { "feature_type": "building", "subtype": "destroyed", "uid": "4d7490a1-e033-417a-ba07-bc7fbe7cdda5" }, "geometry": { "type": "Polygon", "coordinates": [ [ [ 339.956121691072383, 512.626279965635149 ], [ 347.581069961640594, 513.981826325137945 ], [ 350.800492566394325, 512.965166555510791 ], [ 355.324480187542804, 513.672830712020527 ], [ 360.746665623918886, 507.064542209444426 ], [ 364.186512859943718, 511.101290311194475 ], [ 376.894759978414015, 516.862362339081415 ], [ 377.911419744303203, 518.048465403646333 ], [ 372.489234309095195, 524.317867308870973 ], [ 369.269811704107781, 534.315021710204064 ], [ 366.050389102858389, 546.006609060915707 ], [ 327.458610948970772, 535.636000223540918 ], [ 335.550596025725213, 516.692919044143537 ], [ 339.956121691072383, 512.626279965635149 ] ] ] } },
{ "type": "Feature", "properties": { "feature_type": "building", "subtype": "no-damage", "uid": "0e1e8829-6b29-424e-8134-866a1fc34162" }, "geometry": { "type": "Polygon", "coordinates": [ [ [ 372.489234309095195, 524.317867308870973 ], [ 377.064203270081123, 523.470650834181697 ], [ 385.536368018842893, 528.723392977255116 ], [ 388.586347325855286, 536.856671134271892 ], [ 385.366924723437819, 548.378815190045657 ], [ 381.300285645396514, 552.106567678678402 ], [ 366.050389102858389, 546.006609060915707 ], [ 372.489234309095195, 524.317867308870973 ] ] ] } },
{ "type": "Feature", "properties": { "feature_type": "building", "subtype": "destroyed", "uid": "6c090815-1ed3-4825-bf7a-da023b2ada7b" }, "geometry": { "type": "Polygon", "coordinates": [ [ [ 443.601621411271822, 502.135690409201118 ], [ 447.277996415765188, 502.784462469051221 ], [ 455.279518481097909, 504.730778648601415 ], [ 465.011099371140119, 511.651013951176992 ], [ 458.090864071367605, 529.16785955965338 ], [ 442.736591999851498, 527.005286028065711 ], [ 436.465128758761125, 511.218499243364306 ], [ 443.601621411271822, 502.135690409201118 ] ] ] } },
{ "type": "Feature", "properties": { "feature_type": "building", "subtype": "no-damage", "uid": "4b17d52e-b33f-4bc1-91b5-3d0ee69d3b3a" }, "geometry": { "type": "Polygon", "coordinates": [ [ [ 437.455449725683991, 541.000603952975212 ], [ 452.083729168906189, 547.348725221863901 ], [ 446.839628993448173, 564.185046851947277 ], [ 446.011613173024614, 566.66909430807857 ], [ 428.899286274138319, 557.836925583058587 ], [ 430.279312638707609, 551.764809586242791 ], [ 437.455449725683991, 541.000603952975212 ] ] ] } },
{ "type": "Feature", "properties": { "feature_type": "building", "subtype": "no-damage", "uid": "901138cf-7005-423a-9f6f-e4be217e9316" }, "geometry": { "type": "Polygon", "coordinates": [ [ [ 456.775818804423579, 538.792561772654608 ], [ 463.399945350057692, 541.828619769193665 ], [ 466.436003345895983, 535.756503772377755 ], [ 474.164150978186115, 538.240551224771139 ], [ 471.404098249981985, 543.484651405368481 ], [ 496.244572782326486, 554.524862310708954 ], [ 484.100340792432178, 585.989463390555329 ], [ 481.064282793790483, 588.749516118759402 ], [ 442.699549902543708, 571.913194484938003 ], [ 449.875686991856185, 553.420841222417607 ], [ 456.49981353164992, 539.068567044727502 ], [ 456.775818804423579, 538.792561772654608 ] ] ] } },
{ "type": "Feature", "properties": { "feature_type": "building", "subtype": "destroyed", "uid": "bdd765e4-f32d-4b81-8960-d8fd5fdcf881" }, "geometry": { "type": "Polygon", "coordinates": [ [ [ 412.518213678102313, 554.399542256137238 ], [ 424.196110747928287, 556.994630495537535 ], [ 420.735993096406787, 566.293696681738197 ], [ 409.706868083393772, 562.184806970600334 ], [ 412.518213678102313, 554.399542256137238 ] ] ] } },
{ "type": "Feature", "properties": { "feature_type": "building", "subtype": "destroyed", "uid": "6787355f-cfc1-465d-ad18-61df41261337" }, "geometry": { "type": "Polygon", "coordinates": [ [ [ 309.325517459712728, 541.054073116230256 ], [ 327.923649831881107, 548.623080478655879 ], [ 332.032539541383812, 542.784131943743091 ], [ 346.08926749366691, 548.406823126618519 ], [ 340.466576312426582, 562.463551080069237 ], [ 306.297914512733314, 552.083198129943753 ], [ 304.784113043565412, 547.109279006918314 ], [ 309.325517459712728, 541.054073116230256 ] ] ] } },
{ "type": "Feature", "properties": { "feature_type": "building", "subtype": "no-damage", "uid": "7b4ec891-c607-430c-a5d4-cd0c5fdbf86b" }, "geometry": { "type": "Polygon", "coordinates": [ [ [ 601.655323348101774, 576.942071243556825 ], [ 595.307202082016261, 594.054398145713094 ], [ 574.054796092225502, 586.602255784795148 ], [ 574.054796089889351, 574.734029063236221 ], [ 580.678922634588957, 571.973976335032262 ], [ 601.655323348101774, 576.942071243556825 ] ] ] } },
{ "type": "Feature", "properties": { "feature_type": "building", "subtype": "no-damage", "uid": "178063b3-749d-4d22-9e2a-5382164498a9" }, "geometry": { "type": "Polygon", "coordinates": [ [ [ 604.13937080470032, 569.213923610566098 ], [ 624.839766246140357, 574.734029063236221 ], [ 615.179581704434327, 602.886566870732963 ], [ 607.451434076582927, 603.714582686951417 ], [ 595.583207354556407, 598.19447723801909 ], [ 595.307202082016261, 594.054398145713094 ], [ 603.035349712671177, 570.593949974668135 ], [ 604.13937080470032, 569.213923610566098 ] ] ] } },
{ "type": "Feature", "properties": { "feature_type": "building", "subtype": "no-damage", "uid": "edc22664-942a-4423-ad9b-dd403ee98c95" }, "geometry": { "type": "Polygon", "coordinates": [ [ [ 649.914995023417646, 588.556685404238578 ], [ 637.372068542638431, 613.21002366732796 ], [ 623.531597938888467, 610.182420720114919 ], [ 620.720252345348058, 605.424758952864863 ], [ 628.289259709175781, 585.529082457025538 ], [ 632.398149418211233, 579.041361862262647 ], [ 649.914995023417646, 588.556685404238578 ] ] ] } },
{ "type": "Feature", "properties": { "feature_type": "building", "subtype": "no-damage", "uid": "ed7ac215-3250-4c22-9db0-0ddd796a1f59" }, "geometry": { "type": "Polygon", "coordinates": [ [ [ 709.869577141819718, 691.14013277585741 ], [ 716.141040383610971, 693.086448951669809 ], [ 716.789812440424043, 688.328787184419753 ], [ 725.872621272485048, 689.842588656157318 ], [ 719.168643325217317, 720.551132809934757 ], [ 707.49074625796095, 718.821073982421922 ], [ 705.328172724971523, 713.414640151583853 ], [ 709.869577141819718, 691.14013277585741 ] ] ] } },
{ "type": "Feature", "properties": { "feature_type": "building", "subtype": "no-damage", "uid": "1a1dd960-43f5-4781-a6b2-9d24658211ae" }, "geometry": { "type": "Polygon", "coordinates": [ [ [ 725.872621272485048, 689.842588656157318 ], [ 740.033156940340973, 692.805878225453057 ], [ 736.18302253247748, 705.152860970111988 ], [ 742.422895535086695, 706.480493520568075 ], [ 739.58612697846786, 721.670249494629047 ], [ 719.539867650584483, 717.76625786963632 ], [ 725.872621272485048, 689.842588656157318 ] ] ] } },
{ "type": "Feature", "properties": { "feature_type": "building", "subtype": "no-damage", "uid": "977ce84b-dc4f-417e-8eee-b0d58985ac40" }, "geometry": { "type": "Polygon", "coordinates": [ [ [ 766.306217036612225, 707.430216878427473 ], [ 767.831206687782355, 707.938546763241106 ], [ 765.289557267452324, 718.613474344325596 ], [ 761.392361486685104, 727.593968972293737 ], [ 739.58612697846786, 721.670249494629047 ], [ 742.422895535086695, 706.480493520568075 ], [ 743.770258818754883, 704.041350979670483 ], [ 751.225763792749945, 698.449722246721421 ], [ 761.222918188009317, 702.346918030292045 ], [ 760.714588304130302, 706.244113813862555 ], [ 766.306217036612225, 707.430216878427473 ] ] ] } },
{ "type": "Feature", "properties": { "feature_type": "building", "subtype": "no-damage", "uid": "b6e26200-394d-4068-b060-1383a6891a2c" }, "geometry": { "type": "Polygon", "coordinates": [ [ [ 770.732002855081419, 710.342325530533572 ], [ 771.926872150118129, 710.209562273245297 ], [ 777.370165616940312, 711.006141805761672 ], [ 782.54793257409176, 714.059696678538785 ], [ 785.070434422154335, 723.485887803971082 ], [ 785.203197676172067, 723.618651057521447 ], [ 788.920568828382443, 726.67220593029856 ], [ 785.203197680844369, 736.762213334696753 ], [ 763.430023812154104, 728.39812824888179 ], [ 770.732002855081419, 710.342325530533572 ] ] ] } },
{ "type": "Feature", "properties": { "feature_type": "building", "subtype": "major-damage", "uid": "6604c111-a8b3-4eb0-b7e9-b8bc633e1d11" }, "geometry": { "type": "Polygon", "coordinates": [ [ [ 443.197114398938083, 732.489724286652631 ], [ 462.852536606356182, 742.656321982923714 ], [ 453.194268797468226, 758.583991703343713 ], [ 449.127629718959611, 757.567331933716559 ], [ 432.183300229612826, 745.02852811205355 ], [ 435.741609419803524, 737.234136544912531 ], [ 439.977691794885175, 737.234136544912531 ], [ 443.197114398938083, 732.489724286652631 ] ] ] } },
{ "type": "Feature", "properties": { "feature_type": "building", "subtype": "destroyed", "uid": "5da6a6f6-6c28-471e-9e7c-6bae34875f03" }, "geometry": { "type": "Polygon", "coordinates": [ [ [ 434.047176470658485, 752.822919675456774 ], [ 436.927712485770087, 750.959043431140458 ], [ 444.383217461867673, 756.720115459027284 ], [ 448.958186422620088, 759.600651472970753 ], [ 436.758269192467708, 777.053310847831426 ], [ 431.674970347135286, 774.850548017377264 ], [ 424.727795254683315, 764.853393616044059 ], [ 427.269444678517516, 762.481187486914223 ], [ 434.047176470658485, 752.822919675456774 ] ] ] } },
{ "type": "Feature", "properties": { "feature_type": "building", "subtype": "destroyed", "uid": "f286395e-e7a0-4dd1-8bf6-3b4414b502c7" }, "geometry": { "type": "Polygon", "coordinates": [ [ [ 284.415984662607912, 749.935969032460207 ], [ 298.154141844652315, 755.924396523171254 ], [ 296.264054665681897, 774.374120673090147 ], [ 277.892479588034121, 769.493110412146279 ], [ 284.415984662607912, 749.935969032460207 ] ] ] } },
{ "type": "Feature", "properties": { "feature_type": "building", "subtype": "destroyed", "uid": "0ce94caa-0c18-4ebe-9911-287f6ebc0b6d" }, "geometry": { "type": "Polygon", "coordinates": [ [ [ 300.4371477848685, 761.038859839443376 ], [ 310.300440119143786, 764.913724684175236 ], [ 314.175304963875874, 757.163994990973492 ], [ 321.57277421265502, 761.391120279193956 ], [ 354.685255625368427, 771.958933497875933 ], [ 350.760907657113478, 791.242194221716431 ], [ 343.060661087901508, 787.106132444528953 ], [ 322.277295098230184, 781.469965393568373 ], [ 296.264054665681897, 774.374120673090147 ], [ 300.4371477848685, 761.038859839443376 ] ] ] } },
{ "type": "Feature", "properties": { "feature_type": "building", "subtype": "destroyed", "uid": "234fa15c-1d3e-4cd8-ad87-8c6ce853a111" }, "geometry": { "type": "Polygon", "coordinates": [ [ [ 324.267362803287028, 743.749082848173089 ], [ 326.199399711534682, 739.609003759605002 ], [ 329.511462983884485, 729.396808674220892 ], [ 362.908100964971311, 741.265035395779819 ], [ 361.252069332300721, 751.201225209091035 ], [ 354.685255625368427, 771.958933497875933 ], [ 321.57277421265502, 761.391120279193956 ], [ 324.267362803287028, 743.749082848173089 ] ] ] } },
{ "type": "Feature", "properties": { "feature_type": "building", "subtype": "destroyed", "uid": "2a73a903-ac83-40bf-83fa-ca3d01e75856" }, "geometry": { "type": "Polygon", "coordinates": [ [ [ 329.511462983884485, 729.396808674220892 ], [ 321.57277421265502, 761.391120279193956 ], [ 298.154141844652315, 755.924396523171254 ], [ 304.946993724080073, 730.224824494177255 ], [ 329.511462983884485, 729.396808674220892 ] ] ] } },
{ "type": "Feature", "properties": { "feature_type": "building", "subtype": "destroyed", "uid": "a4207350-7017-4ebf-9795-4f78ff9c702f" }, "geometry": { "type": "Polygon", "coordinates": [ [ [ 289.791183732901175, 725.799110717915937 ], [ 304.946993724080073, 730.224824494177255 ], [ 298.154141844652315, 755.924396523171254 ], [ 284.415984662607912, 749.935969032460207 ], [ 289.791183732901175, 725.799110717915937 ] ] ] } },
{ "type": "Feature", "properties": { "feature_type": "building", "subtype": "destroyed", "uid": "a0016274-0528-47e3-bf95-62a98486a523" }, "geometry": { "type": "Polygon", "coordinates": [ [ [ 253.117641663441503, 649.696370760711261 ], [ 270.505973840007528, 647.764333848725755 ], [ 271.609994930167773, 657.148513121629207 ], [ 270.781979112547617, 659.356555301949697 ], [ 254.773673302653492, 661.288592213935317 ], [ 253.117641663441503, 649.696370760711261 ] ] ] } },
{ "type": "Feature", "properties": { "feature_type": "building", "subtype": "destroyed", "uid": "5ef58a9a-008f-4857-b17b-565cc1e475df" }, "geometry": { "type": "Polygon", "coordinates": [ [ [ 287.943266020165026, 659.438637278223382 ], [ 325.898564072227714, 668.080245316315768 ], [ 324.54301771739722, 681.296822317730175 ], [ 319.629162162330488, 685.024574806362921 ], [ 281.165534224519718, 676.213523473332543 ], [ 278.962771389860279, 669.77467826569432 ], [ 287.943266020165026, 659.438637278223382 ] ] ] } },
{ "type": "Feature", "properties": { "feature_type": "building", "subtype": "destroyed", "uid": "d80ca128-1e50-417d-8445-b21bfdbe4021" }, "geometry": { "type": "Polygon", "coordinates": [ [ [ 295.229327701091108, 640.122101655308484 ], [ 305.395925389886713, 642.663751079376198 ], [ 307.259801635604788, 640.291544950246362 ], [ 336.912378241319516, 649.272039578214503 ], [ 333.692955640537207, 662.658059878304584 ], [ 332.167965985862907, 668.927461794742953 ], [ 286.418276363855398, 658.083090918720586 ], [ 287.604379427485924, 652.491462185771525 ], [ 290.146028855291604, 642.494307788176229 ], [ 290.82380203410861, 638.935998590743452 ], [ 295.229327701091108, 640.122101655308484 ] ] ] } },
{ "type": "Feature", "properties": { "feature_type": "building", "subtype": "destroyed", "uid": "47112904-b181-4bfe-a5e3-f090e0f8b0ab" }, "geometry": { "type": "Polygon", "coordinates": [ [ [ 329.965203154240612, 671.469111215072758 ], [ 335.217945291707281, 668.927461794742953 ], [ 343.690110037198281, 670.79133803532136 ], [ 352.162274783624014, 673.841317340464798 ], [ 344.367883214613585, 698.58003840139088 ], [ 337.929038012581884, 700.613357936907164 ], [ 323.865244533674286, 692.988409668441818 ], [ 329.965203154240612, 671.469111215072758 ] ] ] } },
{ "type": "Feature", "properties": { "feature_type": "building", "subtype": "destroyed", "uid": "af64be65-532e-445d-9cd1-62bbb004240c" }, "geometry": { "type": "Polygon", "coordinates": [ [ [ 329.494800731116186, 712.602548954478607 ], [ 363.044573118532583, 723.785806416638707 ], [ 360.841810282938809, 731.749641278717718 ], [ 367.280655491511823, 732.766301048344758 ], [ 362.908100964971311, 741.265035395779819 ], [ 323.055955526748392, 727.852445495147208 ], [ 315.431007257348313, 724.971909481203738 ], [ 319.497646330950772, 712.263662364602851 ], [ 321.869852460314519, 710.230342825348657 ], [ 329.494800731116186, 712.602548954478607 ] ] ] } },
{ "type": "Feature", "properties": { "feature_type": "building", "subtype": "destroyed", "uid": "0d0820d6-c8fd-49eb-be29-e362fd5faf81" }, "geometry": { "type": "Polygon", "coordinates": [ [ [ 373.984689760826882, 740.824124734669567 ], [ 394.961653015685897, 747.311845329432458 ], [ 393.447851540443992, 750.123190920870229 ], [ 384.581300065793585, 748.609389449132664 ], [ 380.688667706926708, 755.962139459520927 ], [ 372.038373582211079, 753.150793868083156 ], [ 373.984689760826882, 740.824124734669567 ] ] ] } },
{ "type": "Feature", "properties": { "feature_type": "building", "subtype": "destroyed", "uid": "556bec19-9468-4026-8be7-3f21ff0d79be" }, "geometry": { "type": "Polygon", "coordinates": [ [ [ 384.148785358214582, 722.225992362268244 ], [ 384.365042709551119, 722.442249714305717 ], [ 428.697800107333023, 733.903889432093933 ], [ 425.237682456512175, 746.663073273320265 ], [ 413.9923000914618, 755.097110047633464 ], [ 376.796035351330318, 741.040382090444837 ], [ 384.148785358214582, 722.225992362268244 ] ] ] } },
{ "type": "Feature", "properties": { "feature_type": "building", "subtype": "destroyed", "uid": "7f93d023-8eab-43ee-a58a-84de0f560287" }, "geometry": { "type": "Polygon", "coordinates": [ [ [ 384.581300065793585, 748.609389449132664 ], [ 393.447851540443992, 750.123190920870229 ], [ 394.961653015685897, 747.311845329432458 ], [ 416.803645686170285, 756.178396811558287 ], [ 425.670197159886186, 776.506588011472331 ], [ 419.614991274337513, 781.48050713449777 ], [ 407.28832214349319, 781.69676448653513 ], [ 395.338488870358674, 772.885742006271698 ], [ 379.607380941833583, 764.396176233834012 ], [ 384.581300065793585, 748.609389449132664 ] ] ] } },
{ "type": "Feature", "properties": { "feature_type": "building", "subtype": "destroyed", "uid": "4f0e1488-597c-447b-8894-ddafe720bec4" }, "geometry": { "type": "Polygon", "coordinates": [ [ [ 289.603671257245992, 689.20744159869605 ], [ 289.251410819831676, 688.50292071919489 ], [ 317.079985619933211, 690.616483361436167 ], [ 326.591017519831098, 704.354640545348957 ], [ 329.494800731116186, 712.602548954478607 ], [ 321.869852460314519, 710.230342825348657 ], [ 319.497646330950772, 712.263662364602851 ], [ 315.431007257348313, 724.971909481203738 ], [ 300.171484476395676, 728.308350508193257 ], [ 286.785587734335479, 717.740537289511281 ], [ 289.603671257245992, 689.20744159869605 ] ] ] } },
{ "type": "Feature", "properties": { "feature_type": "building", "subtype": "destroyed", "uid": "1f51ae42-adc2-49ec-8d38-0fed84b0ea02" }, "geometry": { "type": "Polygon", "coordinates": [ [ [ 352.162274783624014, 673.841317340464798 ], [ 360.408019812045609, 676.878326177523263 ], [ 384.713990210903489, 686.741618516704193 ], [ 367.100968182024474, 723.024443896983371 ], [ 340.329174695801385, 712.45663068203919 ], [ 343.147258225720577, 701.888817463357213 ], [ 352.162274783624014, 673.841317340464798 ] ] ] } },
{ "type": "Feature", "properties": { "feature_type": "building", "subtype": "destroyed", "uid": "b865a6d6-e224-4fa7-9b0b-75b56510437e" }, "geometry": { "type": "Polygon", "coordinates": [ [ [ 389.997896817908611, 701.536557019868724 ], [ 423.110378229220203, 712.45663068203919 ], [ 416.417429855737112, 731.478694473424071 ], [ 384.148785358214582, 722.225992362268244 ], [ 389.997896817908611, 701.536557019868724 ] ] ] } },
{ "type": "Feature", "properties": { "feature_type": "building", "subtype": "destroyed", "uid": "5248ed4e-4ae6-4c6e-a1d4-9ddedec6f202" }, "geometry": { "type": "Polygon", "coordinates": [ [ [ 400.2134495959059, 680.753191025993146 ], [ 401.270230914223077, 681.809972348982683 ], [ 442.484702459889093, 692.73004600741524 ], [ 434.03045188508338, 712.80889112178977 ], [ 389.997896817908611, 701.536557019868724 ], [ 400.2134495959059, 680.753191025993146 ] ] ] } },
{ "type": "Feature", "properties": { "feature_type": "building", "subtype": "destroyed", "uid": "c955e69f-2283-4bad-84c3-023bfbe69cf4" }, "geometry": { "type": "Polygon", "coordinates": [ [ [ 413.951606773978824, 662.787908553859893 ], [ 461.154505807085513, 675.821544858271636 ], [ 452.347994795799821, 697.66169217513675 ], [ 401.270230914223077, 681.809972348982683 ], [ 413.951606773978824, 662.787908553859893 ] ] ] } },
{ "type": "Feature", "properties": { "feature_type": "building", "subtype": "destroyed", "uid": "69d38fc8-e8c2-40fe-8a25-5b36d1a60581" }, "geometry": { "type": "Polygon", "coordinates": [ [ [ 466.968656353995982, 674.202983673798713 ], [ 468.914972533312721, 672.905439554098621 ], [ 479.727840191484972, 673.986726321761353 ], [ 482.755443135427413, 677.230586621011753 ], [ 492.270766672731327, 692.368601342125203 ], [ 489.459421080826189, 734.755042569466241 ], [ 468.266200471360094, 733.024983741953406 ], [ 464.373568118800677, 707.939130771051282 ], [ 466.968656353995982, 674.202983673798713 ] ] ] } },
{ "type": "Feature", "properties": { "feature_type": "building", "subtype": "major-damage", "uid": "da17418a-e890-4acb-aec6-cd501b8f7b59" }, "geometry": { "type": "Polygon", "coordinates": [ [ [ 410.005153334259887, 638.366598070253303 ], [ 462.771947503785384, 651.774553967591714 ], [ 461.906918087225506, 654.802156911066845 ], [ 458.6630577903112, 666.912568692443074 ], [ 415.627844515733784, 656.53221573857968 ], [ 408.707609215260618, 647.233149552379132 ], [ 409.788895981288022, 638.799112778065933 ], [ 410.005153334259887, 638.366598070253303 ] ] ] } },
{ "type": "Feature", "properties": { "feature_type": "building", "subtype": "destroyed", "uid": "de8c2a99-0c6c-4c25-ac3b-faea1a2fdfea" }, "geometry": { "type": "Polygon", "coordinates": [ [ [ 363.9936972016406, 636.929570581477947 ], [ 366.753749924004296, 637.75758640143431 ], [ 379.449992466688116, 641.345654945856836 ], [ 380.830018827052299, 636.101554765259493 ], [ 388.282161188671409, 642.449676034148183 ], [ 379.17398718994292, 665.358113664785378 ], [ 355.989544293773292, 655.973934391881926 ], [ 363.9936972016406, 636.929570581477947 ] ] ] } },
{ "type": "Feature", "properties": { "feature_type": "building", "subtype": "destroyed", "uid": "fc28ac58-3186-44a6-96e8-5c6d788aeac2" }, "geometry": { "type": "Polygon", "coordinates": [ [ [ 347.15737557062198, 628.92541767641444 ], [ 350.469438842504587, 627.26938604023951 ], [ 368.961792107829126, 632.513486220836967 ], [ 366.753749924004296, 637.75758640143431 ], [ 363.9936972016406, 636.929570581477947 ], [ 355.989544293773292, 655.973934391881926 ], [ 350.193433573001585, 654.317902759445019 ], [ 336.912378241319516, 649.272039578214503 ], [ 347.15737557062198, 628.92541767641444 ] ] ] } },
{ "type": "Feature", "properties": { "feature_type": "building", "subtype": "major-damage", "uid": "d5f83b06-8279-4c30-a1d3-cef7a61d3c9e" }, "geometry": { "type": "Polygon", "coordinates": [ [ [ 361.350346732387607, 598.556769039830442 ], [ 364.047847765044708, 595.859268007407195 ], [ 398.216194181270282, 613.39302472376562 ], [ 385.17827252004048, 634.07386597857419 ], [ 379.449992466688116, 641.345654945856836 ], [ 346.514091048919227, 623.283861845143065 ], [ 361.350346732387607, 598.556769039830442 ] ] ] } },
{ "type": "Feature", "properties": { "feature_type": "building", "subtype": "destroyed", "uid": "5c8a5595-f282-4c7a-a3ee-59384d519d6d" }, "geometry": { "type": "Polygon", "coordinates": [ [ [ 301.422804576489227, 579.858794738536858 ], [ 321.571189476586881, 587.310937099454804 ], [ 316.6030945685294, 603.595248181654711 ], [ 290.658598949762393, 594.211068912489168 ], [ 298.110741306241891, 579.306784190653389 ], [ 301.422804576489227, 579.858794738536858 ] ] ] } },
{ "type": "Feature", "properties": { "feature_type": "building", "subtype": "destroyed", "uid": "22361501-58a9-4744-84d1-5e21bbf30d40" }, "geometry": { "type": "Polygon", "coordinates": [ [ [ 303.906852032153211, 560.538425652322189 ], [ 306.114894212006618, 559.710409836103736 ], [ 340.891558556260975, 573.234668190099569 ], [ 340.339548011180909, 576.822736738260005 ], [ 321.571189476586881, 587.310937099454804 ], [ 297.00672021911862, 572.682657649691805 ], [ 303.906852032153211, 560.538425652322189 ] ] ] } },
{ "type": "Feature", "properties": { "feature_type": "building", "subtype": "major-damage", "uid": "ba3b5e26-4983-45b4-8402-551d54850a16" }, "geometry": { "type": "Polygon", "coordinates": [ [ [ 350.827748374244891, 551.154246383156647 ], [ 366.560048906225688, 556.398346560016194 ], [ 349.999732554755781, 584.826889639585715 ], [ 337.30349001323998, 584.274879099177952 ], [ 337.855500560656424, 580.410805282682531 ], [ 340.339548011180909, 576.822736738260005 ], [ 339.235526924291207, 570.750620737706299 ], [ 335.647458381971092, 570.750620737706299 ], [ 343.099600737749711, 555.018320199651953 ], [ 345.307642921574484, 552.534272743520773 ], [ 346.08926749366691, 548.406823126618519 ], [ 350.827748374244891, 551.154246383156647 ] ] ] } },
{ "type": "Feature", "properties": { "feature_type": "building", "subtype": "major-damage", "uid": "72247452-9c8e-4697-a1fd-e3994daca7ee" }, "geometry": { "type": "Polygon", "coordinates": [ [ [ 426.177187787964272, 621.535590900029433 ], [ 467.025968129502019, 633.40381762158836 ], [ 469.234010313093222, 628.435722716801706 ], [ 478.342184306681986, 630.367759625049416 ], [ 473.098084130523205, 651.896170887846665 ], [ 422.313113974272198, 639.751938894214959 ], [ 426.177187787964272, 621.535590900029433 ] ] ] } },
{ "type": "Feature", "properties": { "feature_type": "building", "subtype": "major-damage", "uid": "fc02aa4a-ffa9-4c3f-8d38-e83ecc2def91" }, "geometry": { "type": "Polygon", "coordinates": [ [ [ 437.217398690968878, 586.482921275760532 ], [ 476.410147400536914, 597.247126909028111 ], [ 479.998215945193181, 610.495379994689074 ], [ 477.514168487426502, 625.675669988597633 ], [ 478.342184306681986, 630.367759625049416 ], [ 469.234010313093222, 628.435722716801706 ], [ 467.025968129502019, 633.40381762158836 ], [ 426.177187787964272, 621.535590900029433 ], [ 412.376924158624377, 617.395511811461347 ], [ 423.693140335570774, 589.242974003964605 ], [ 437.217398690968878, 586.482921275760532 ] ] ] } },
{ "type": "Feature", "properties": { "feature_type": "building", "subtype": "major-damage", "uid": "1b72ba47-e8c4-4775-a0b2-972489f33af0" }, "geometry": { "type": "Polygon", "coordinates": [ [ [ 498.490569208415081, 578.478768370697026 ], [ 503.458664112734823, 578.478768370697026 ], [ 497.9385586586626, 592.831042548387131 ], [ 486.622342483585101, 588.690963456081022 ], [ 488.0023688486217, 577.098742006594989 ], [ 498.214563932604392, 577.926757822813443 ], [ 498.490569208415081, 578.478768370697026 ] ] ] } },
{ "type": "Feature", "properties": { "feature_type": "building", "subtype": "no-damage", "uid": "8bd4e539-d629-4978-af4f-1a9631011a1b" }, "geometry": { "type": "Polygon", "coordinates": [ [ [ 753.648131539576411, 682.190210272722652 ], [ 765.240352987661254, 685.778278817145178 ], [ 756.960194812627151, 697.646505538704105 ], [ 746.195989180994502, 692.678410633917451 ], [ 753.648131539576411, 682.190210272722652 ] ] ] } },
{ "type": "Feature", "properties": { "feature_type": "building", "subtype": "no-damage", "uid": "179e4ba7-a0fb-4e95-99a9-782bec37fa9e" }, "geometry": { "type": "Polygon", "coordinates": [ [ [ 751.716094634132105, 678.602141728300126 ], [ 740.033156940340973, 692.805878225453057 ], [ 727.151625369655335, 685.502273545072399 ], [ 734.051757184091571, 673.634046819775563 ], [ 737.363820456908684, 667.009920278814093 ], [ 744.26395227087778, 671.702009911527966 ], [ 742.055910090089924, 677.222115364198089 ], [ 751.716094634132105, 678.602141728300126 ] ] ] } },
{ "type": "Feature", "properties": { "feature_type": "building", "subtype": "no-damage", "uid": "886f4e9c-c49b-4ea9-acec-362253911c3d" }, "geometry": { "type": "Polygon", "coordinates": [ [ [ 709.153644841658206, 659.627116286056889 ], [ 710.533671202723212, 659.903121558129669 ], [ 734.051757184091571, 673.634046819775563 ], [ 721.849887380604059, 686.123622457378701 ], [ 700.321476120843045, 677.843464280242415 ], [ 709.153644841658206, 659.627116286056889 ] ] ] } },
{ "type": "Feature", "properties": { "feature_type": "building", "subtype": "no-damage", "uid": "5e2797f3-f6d6-4f93-8cd1-767a2311bdc0" }, "geometry": { "type": "Polygon", "coordinates": [ [ [ 698.389439211894455, 624.574446661787874 ], [ 700.045470847835759, 625.954473025889911 ], [ 714.397745019919512, 633.406615386807857 ], [ 705.565576297001826, 650.242937016891347 ], [ 693.421344302201646, 644.99883683629389 ], [ 689.281265213633219, 639.202726111550874 ], [ 698.389439211894455, 624.574446661787874 ] ] ] } },
{ "type": "Feature", "properties": { "feature_type": "building", "subtype": "no-damage", "uid": "c7183961-6817-43e5-b4dc-48cdc40e6bf6" }, "geometry": { "type": "Polygon", "coordinates": [ [ [ 703.633539387352471, 615.742277936768005 ], [ 725.161950648982383, 625.678467753817131 ], [ 727.093987558398226, 630.922567934414474 ], [ 714.397745019919512, 633.406615386807857 ], [ 698.389439211894455, 624.574446661787874 ], [ 703.633539387352471, 615.742277936768005 ] ] ] } },
{ "type": "Feature", "properties": { "feature_type": "building", "subtype": "no-damage", "uid": "f58ee6ac-699e-43eb-a6a9-5b05ec0079f2" }, "geometry": { "type": "Polygon", "coordinates": [ [ [ 657.126616372521539, 608.31882155431208 ], [ 686.659180541551564, 607.490805734355718 ], [ 677.275001275656336, 623.499111548220753 ], [ 652.986537287691135, 616.87498500352126 ], [ 657.126616372521539, 608.31882155431208 ] ] ] } },
{ "type": "Feature", "properties": { "feature_type": "building", "subtype": "major-damage", "uid": "ab67edf9-c7d3-417d-bd1b-38ba2e852e87" }, "geometry": { "type": "Polygon", "coordinates": [ [ [ 507.892901514572088, 571.902328306438903 ], [ 510.928959511111202, 570.798307214409647 ], [ 525.557238958071252, 574.110370486759393 ], [ 524.177212593969216, 593.706744845046842 ], [ 504.85684351289342, 589.842671028551536 ], [ 507.892901514572088, 571.902328306438903 ] ] ] } },
{ "type": "Feature", "properties": { "feature_type": "building", "subtype": "major-damage", "uid": "96851b71-dcc8-4fe4-ba8a-de067779a041" }, "geometry": { "type": "Polygon", "coordinates": [ [ [ 501.268774973143081, 591.774707936799246 ], [ 504.85684351289342, 589.842671028551536 ], [ 510.9289595097095, 590.946692116842883 ], [ 531.905360228361928, 595.362776481221772 ], [ 530.249328591953372, 613.855129747480078 ], [ 521.693165142043085, 613.579124475407184 ], [ 499.060732791887972, 609.991055930984658 ], [ 501.268774973143081, 591.774707936799246 ] ] ] } },
{ "type": "Feature", "properties": { "feature_type": "building", "subtype": "no-damage", "uid": "5a2abb0f-3299-4a57-afc2-4d155125f9a2" }, "geometry": { "type": "Polygon", "coordinates": [ [ [ 561.525000256961448, 609.544210290502633 ], [ 562.229521138798759, 606.37386632527182 ], [ 568.570209067625342, 607.07838720477298 ], [ 590.762616824475458, 619.055242186195187 ], [ 580.547064047879871, 644.770254351530184 ], [ 557.297874969675377, 648.997379636012624 ], [ 554.479791448166566, 645.474775231031231 ], [ 558.002395850111043, 613.066814695484027 ], [ 561.525000256961448, 609.544210290502633 ] ] ] } },
{ "type": "Feature", "properties": { "feature_type": "building", "subtype": "major-damage", "uid": "0a7c6fa2-e849-4d05-a800-be58c0caa355" }, "geometry": { "type": "Polygon", "coordinates": [ [ [ 491.559114812661278, 632.551065090015527 ], [ 509.172136839204313, 635.72140905524634 ], [ 508.819876397584721, 637.130450817986457 ], [ 508.115355516915486, 660.731900337342267 ], [ 484.866166441514508, 654.74347285036913 ], [ 478.342184306681986, 630.367759625049416 ], [ 491.559114812661278, 632.551065090015527 ] ] ] } },
{ "type": "Feature", "properties": { "feature_type": "building", "subtype": "major-damage", "uid": "fc84a8da-0688-4e40-86fc-eae0fab42e5f" }, "geometry": { "type": "Polygon", "coordinates": [ [ [ 499.060732791887972, 609.991055930984658 ], [ 521.693165142043085, 613.579124475407184 ], [ 516.569606091020432, 619.86968922909216 ], [ 508.819876395949393, 618.460647466352043 ], [ 507.058574196729296, 626.210377159553786 ], [ 509.172136839204313, 635.72140905524634 ], [ 491.559114812661278, 632.551065090015527 ], [ 499.060732791887972, 609.991055930984658 ] ] ] } },
{ "type": "Feature", "properties": { "feature_type": "building", "subtype": "major-damage", "uid": "cd959235-587d-4c82-94c0-ba679a00924c" }, "geometry": { "type": "Polygon", "coordinates": [ [ [ 509.172136839204313, 635.72140905524634 ], [ 528.169695187084699, 638.554813799860199 ], [ 534.873673132016393, 640.501129979410507 ], [ 533.359871660278714, 647.85387998979877 ], [ 528.60220989326217, 646.772593222136038 ], [ 528.169695186150307, 658.017975587886895 ], [ 514.112967229895617, 660.829321179324552 ], [ 508.922790754832704, 653.692828524711558 ], [ 509.172136839204313, 635.72140905524634 ] ] ] } },
{ "type": "Feature", "properties": { "feature_type": "building", "subtype": "major-damage", "uid": "9dcaea44-be04-4912-931f-7f4a344d09d5" }, "geometry": { "type": "Polygon", "coordinates": [ [ [ 508.819876395949393, 618.460647466352043 ], [ 516.569606091020432, 619.86968922909216 ], [ 518.870628998080406, 616.280306424133755 ], [ 523.412033414227722, 616.280306424133755 ], [ 541.793908435526646, 617.577850543833961 ], [ 556.931923156173525, 622.119254959046657 ], [ 554.479791448166566, 645.474775231031231 ], [ 542.226423137498955, 645.691306458211102 ], [ 534.87367313154914, 645.042534398360999 ], [ 534.873673132016393, 640.501129979410507 ], [ 526.007121655964283, 638.338556447822839 ], [ 509.172136839204313, 635.72140905524634 ], [ 507.058574196729296, 626.210377159553786 ], [ 508.819876395949393, 618.460647466352043 ] ] ] } },
{ "type": "Feature", "properties": { "feature_type": "building", "subtype": "no-damage", "uid": "70d1956a-bd92-4117-bb9b-cd002d431def" }, "geometry": { "type": "Polygon", "coordinates": [ [ [ 689.012112967547978, 683.635673781230025 ], [ 702.39800970470219, 688.919580388702002 ], [ 697.114103096762619, 705.475821098095139 ], [ 683.728206357739509, 701.953216693113745 ], [ 680.910122832492789, 691.737663914182349 ], [ 689.012112967547978, 683.635673781230025 ] ] ] } },
{ "type": "Feature", "properties": { "feature_type": "building", "subtype": "no-damage", "uid": "ec4836e6-9f5c-4bed-903c-5497595f5d09" }, "geometry": { "type": "Polygon", "coordinates": [ [ [ 702.39800970470219, 688.919580388702002 ], [ 702.398009703767684, 683.987934220980605 ], [ 706.977395432673347, 685.044715543970142 ], [ 709.869577141819718, 691.14013277585741 ], [ 705.328172724971523, 713.414640151583853 ], [ 697.114103096762619, 705.475821098095139 ], [ 702.39800970470219, 688.919580388702002 ] ] ] } },
{ "type": "Feature", "properties": { "feature_type": "building", "subtype": "no-damage", "uid": "e1ea9b16-8c37-43b4-8f19-415ce5abf3d9" }, "geometry": { "type": "Polygon", "coordinates": [ [ [ 666.666413836616812, 688.989940217323124 ], [ 672.303361922798786, 690.357637550080312 ], [ 680.859525372008306, 694.773721914459202 ], [ 683.728206357739509, 701.953216693113745 ], [ 697.114103096762619, 705.475821098095139 ], [ 707.49074625796095, 718.821073982421922 ], [ 699.627883910573701, 728.170359902553287 ], [ 660.058125337311026, 716.77864058339253 ], [ 666.666413836616812, 688.989940217323124 ] ] ] } },
{ "type": "Feature", "properties": { "feature_type": "building", "subtype": "no-damage", "uid": "44322d35-1f0f-4157-9662-3fa6123e7d43" }, "geometry": { "type": "Polygon", "coordinates": [ [ [ 611.249102113464915, 641.157154239576471 ], [ 631.480359863415515, 631.715900620488014 ], [ 645.417448532026697, 639.358820215468995 ], [ 642.270363992875559, 645.652989292369398 ], [ 644.518281521841914, 651.047991360953915 ], [ 639.572862960685711, 667.232997559231762 ], [ 631.929943363368238, 666.783414053204865 ], [ 601.358264996292178, 652.846325381323481 ], [ 611.249102113464915, 641.157154239576471 ] ] ] } },
{ "type": "Feature", "properties": { "feature_type": "building", "subtype": "no-damage", "uid": "fbb9cc73-cb96-4e37-8d96-351f7102e621" }, "geometry": { "type": "Polygon", "coordinates": [ [ [ 645.417448532026697, 639.358820215468995 ], [ 652.161201114253345, 638.459653203415201 ], [ 659.354537200871619, 642.955488259946037 ], [ 669.694957823837512, 641.606737745603368 ], [ 684.531213505670621, 645.652989292369398 ], [ 668.346207310195609, 679.821335716770363 ], [ 639.572862960685711, 667.232997559231762 ], [ 642.270363992875559, 645.652989292369398 ], [ 645.417448532026697, 639.358820215468995 ] ] ] } },
{ "type": "Feature", "properties": { "feature_type": "building", "subtype": "no-damage", "uid": "544fcc07-9893-47ca-928d-4c45cfa4e62d" }, "geometry": { "type": "Polygon", "coordinates": [ [ [ 613.34841941462571, 715.082878137841817 ], [ 628.528709406899566, 717.014915046089413 ], [ 628.252704132724148, 731.919199767925193 ], [ 614.452440507122219, 728.88314176764834 ], [ 613.34841941462571, 715.082878137841817 ] ] ] } },
{ "type": "Feature", "properties": { "feature_type": "building", "subtype": "no-damage", "uid": "386b6fd7-f57f-414b-96af-4abf552cdef8" }, "geometry": { "type": "Polygon", "coordinates": [ [ [ 706.362196275348424, 655.189733978425807 ], [ 693.38994846479693, 681.686240149747732 ], [ 673.517568840042713, 672.578066152654969 ], [ 684.531213505670621, 645.652989292369398 ], [ 706.362196275348424, 655.189733978425807 ] ] ] } },
{ "type": "Feature", "properties": { "feature_type": "building", "subtype": "destroyed", "uid": "0eb3652c-2d5c-4b57-9ca2-2019eba72e6f" }, "geometry": { "type": "Polygon", "coordinates": [ [ [ 493.839344189432893, 414.710916975177383 ], [ 493.839344187797622, 422.781619771836915 ], [ 482.616023103950511, 422.907724502800988 ], [ 482.742127840054309, 414.710916975177383 ], [ 493.839344189432893, 414.710916975177383 ] ] ] } }
]
}
