{
"type": "FeatureCollection",
"name": "palu-tsunami_00000046_post_disaster",
"features": [
{ "type": "Feature", "properties": { "feature_type": "building", "subtype": "no-damage", "uid": "e1d76e5d-437d-4888-aeeb-0a4d39b683fe" }, "geometry": { "type": "Polygon", "coordinates": [ [ [ 16.889982645467519, 691.639999907065658 ], [ 1.312102010718819, 698.452868469190889 ], [ 1.312114248462115, 680.898570966761895 ], [ 9.639982649263063, 677.279999908227751 ], [ 16.889982645467519, 691.639999907065658 ] ] ] } },
{ "type": "Feature", "properties": { "feature_type": "building", "subtype": "no-damage", "uid": "4ffe4847-8bca-4c25-b14f-a97bcc148a33" }, "geometry": { "type": "Polygon", "coordinates": [ [ [ 35.129982645279057, 683.669999905432974 ], [ 16.889982645467519, 691.639999907065658 ], [ 9.639982649263063, 677.279999908227751 ], [ 18.373854593186849, 673.478450738031711 ], [ 19.055141615690651, 671.775233186328251 ], [ 26.54929882889018, 667.659999907720362 ], [ 35.129982645279057, 683.669999905432974 ] ] ] } },
{ "type": "Feature", "properties": { "feature_type": "building", "subtype": "no-damage", "uid": "67cbf70b-da97-483b-876d-0f07f2094018" }, "geometry": { "type": "Polygon", "coordinates": [ [ [ 89.689982636446388, 659.819999905387363 ], [ 35.129982645279057, 683.669999905432974 ], [ 26.54929882889018, 667.659999907720362 ], [ 26.549298830759149, 666.324937030595947 ], [ 43.24083080489055, 657.127562267096778 ], [ 47.624685074989912, 657.083050909727945 ], [ 72.876816152160487, 643.161178367799039 ], [ 79.728367594510345, 641.593539733035982 ], [ 89.689982636446388, 659.819999905387363 ] ] ] } },
{ "type": "Feature", "properties": { "feature_type": "building", "subtype": "no-damage", "uid": "c648ca22-3001-49bd-8b45-ff9ec46837d0" }, "geometry": { "type": "Polygon", "coordinates": [ [ [ 84.660655793802931, 650.23081847246408 ], [ 91.612209190532596, 647.24890048366376 ], [ 97.403148850392895, 656.44627524716293 ], [ 89.689982636446388, 659.819999905387363 ], [ 84.660655793802931, 650.23081847246408 ] ] ] } },
{ "type": "Feature", "properties": { "feature_type": "building", "subtype": "no-damage", "uid": "f2b083ff-39e8-4f5f-8c97-577a433d68d6" }, "geometry": { "type": "Polygon", "coordinates": [ [ [ 4.146881403196141, 610.217735852997748 ], [ 4.189982647711312, 610.189999906204662 ], [ 8.823769377079373, 617.550494023826332 ], [ 11.028861900453389, 622.246545155698868 ], [ 9.317676622589396, 626.076312203770613 ], [ 1.312142916268801, 630.070698192751365 ], [ 1.312152388646093, 607.573836397267428 ], [ 4.146881403196141, 610.217735852997748 ] ] ] } },
{ "type": "Feature", "properties": { "feature_type": "building", "subtype": "no-damage", "uid": "09c0f3c5-70f2-4c88-a3df-4faab0dc5ce1" }, "geometry": { "type": "Polygon", "coordinates": [ [ [ 24.06998264629016, 608.989999906343428 ], [ 8.823769377079373, 617.550494023826332 ], [ 4.189982647711312, 610.189999906204662 ], [ 20.022390426664028, 601.049862463517115 ], [ 24.06998264629016, 608.989999906343428 ] ] ] } },
{ "type": "Feature", "properties": { "feature_type": "building", "subtype": "no-damage", "uid": "9805504d-6628-4571-9e69-9228aab07136" }, "geometry": { "type": "Polygon", "coordinates": [ [ [ 24.92643790863886, 590.155044959558268 ], [ 26.907856783528519, 588.91483965075588 ], [ 34.836080091390961, 602.940800615806438 ], [ 24.06998264629016, 608.989999906343428 ], [ 20.022390426664028, 601.049862463517115 ], [ 4.189982647711312, 610.189999906204662 ], [ 1.312152401261601, 607.552561190231813 ], [ 1.31215754932321, 592.786581827059649 ], [ 6.354621365378519, 590.467749289706944 ], [ 1.518130734573778, 580.190206695599386 ], [ 5.639941662251591, 577.889661059895616 ], [ 5.61998264771767, 577.859999908136388 ], [ 16.466126602619401, 572.00876511880881 ], [ 24.92643790863886, 590.155044959558268 ] ] ] } },
{ "type": "Feature", "properties": { "feature_type": "building", "subtype": "no-damage", "uid": "254ae0c3-7510-498a-b984-f3ca3e69f2ea" }, "geometry": { "type": "Polygon", "coordinates": [ [ [ 94.059982634758583, 561.719999907386182 ], [ 93.593468869396546, 561.946297818355902 ], [ 96.534198697949222, 566.370460736391692 ], [ 82.786929309192985, 573.165090885272662 ], [ 91.590495257257601, 592.859999906401868 ], [ 83.41046003903682, 597.287328472089825 ], [ 86.105962374753446, 602.378832887735484 ], [ 52.262433022835388, 618.252346657458475 ], [ 46.571928090943587, 608.967838604739086 ], [ 50.165931203363463, 606.871336784333266 ], [ 42.599982643623022, 590.299999904953552 ], [ 54.518924246072309, 583.51493921109784 ], [ 52.180846633331022, 577.435937426522628 ], [ 36.086029825067968, 585.700843355277357 ], [ 35.542831834774148, 585.266284961920974 ], [ 32.722531782585342, 578.356549833371218 ], [ 35.011768888432947, 572.061147786685069 ], [ 34.862022526969767, 568.916474113257664 ], [ 32.429982645824147, 565.269999906664111 ], [ 32.495415883967532, 565.240800676857702 ], [ 23.809908350760921, 549.06778664761066 ], [ 27.104411204591191, 546.97128483094275 ], [ 26.90998264351731, 546.599999906891753 ], [ 53.985478848259518, 532.066172805307247 ], [ 74.579982637223836, 525.539999908205573 ], [ 94.059982634758583, 561.719999907386182 ] ] ] } },
{ "type": "Feature", "properties": { "feature_type": "building", "subtype": "no-damage", "uid": "a6d3b2b9-76f8-430d-a5f3-cc165494fdae" }, "geometry": { "type": "Polygon", "coordinates": [ [ [ 56.689982642122203, 492.319999905443183 ], [ 42.919982642869662, 500.959999905191808 ], [ 27.727766363013139, 507.842216189555984 ], [ 27.02269980194724, 506.00664356063038 ], [ 6.553961673437559, 518.240831866581402 ], [ 6.080042113538831, 516.108193857083393 ], [ 1.312170557780576, 518.517048044318813 ], [ 1.312170096146444, 493.398658042921795 ], [ 7.160507548412125, 490.631065500690227 ], [ 30.52152780647484, 481.64605770749472 ], [ 46.694541833390083, 478.052054589468923 ], [ 48.233096130111512, 477.20532967846151 ], [ 56.689982642122203, 492.319999905443183 ] ] ] } },
{ "type": "Feature", "properties": { "feature_type": "building", "subtype": "major-damage", "uid": "5959fbf7-b9ca-45e6-aa09-f353492fb50f" }, "geometry": { "type": "Polygon", "coordinates": [ [ [ 115.756488088194899, 551.16428846801648 ], [ 94.059982634758583, 561.719999907386182 ], [ 48.233096130111512, 477.20532967846151 ], [ 61.546941073688423, 469.700217806471414 ], [ 71.430449646393043, 465.507214169397628 ], [ 115.756488088194899, 551.16428846801648 ] ] ] } },
{ "type": "Feature", "properties": { "feature_type": "building", "subtype": "no-damage", "uid": "c6a6e939-2e65-4d7c-8b35-4581bd4cd4e0" }, "geometry": { "type": "Polygon", "coordinates": [ [ [ 96.534198697949222, 566.370460736391692 ], [ 107.499128628098902, 589.023934946462873 ], [ 92.768711354267126, 595.490326914945854 ], [ 92.569982635039494, 595.099999908136397 ], [ 82.786929309192985, 573.165090885272662 ], [ 96.534198697949222, 566.370460736391692 ] ] ] } },
{ "type": "Feature", "properties": { "feature_type": "building", "subtype": "major-damage", "uid": "0b3e7ec5-a934-4af2-9b8d-71c18d9e8848" }, "geometry": { "type": "Polygon", "coordinates": [ [ [ 126.238997181349404, 584.708317560868522 ], [ 109.939982632708606, 593.579999904823467 ], [ 96.534198697949222, 566.370460736391692 ], [ 111.563484449718302, 559.250795478902091 ], [ 126.238997181349404, 584.708317560868522 ] ] ] } },
{ "type": "Feature", "properties": { "feature_type": "building", "subtype": "no-damage", "uid": "0d08f444-a342-433d-ad8e-c67116643be7" }, "geometry": { "type": "Polygon", "coordinates": [ [ [ 34.862022526969767, 568.916474113257664 ], [ 35.011768888432947, 572.061147786685069 ], [ 32.722531782585342, 578.356549833371218 ], [ 35.542831834774148, 585.266284961920974 ], [ 36.086029825067968, 585.700843355277357 ], [ 52.180846633331022, 577.435937426522628 ], [ 54.518924246072309, 583.51493921109784 ], [ 42.399982639596672, 589.839999905131322 ], [ 42.599982643623022, 590.299999904953552 ], [ 34.292417436906781, 593.094324835015982 ], [ 23.210907828442089, 569.733304573455371 ], [ 32.429982645824147, 565.269999906664111 ], [ 34.862022526969767, 568.916474113257664 ] ] ] } },
{ "type": "Feature", "properties": { "feature_type": "building", "subtype": "no-damage", "uid": "51d5f11c-0bef-46c3-ac12-ced86447009c" }, "geometry": { "type": "Polygon", "coordinates": [ [ [ 53.985478848259518, 532.066172805307247 ], [ 26.90998264351731, 546.599999906891753 ], [ 18.879982645440421, 532.969999907284091 ], [ 17.221989704107909, 527.594116949614431 ], [ 24.85765770809487, 522.824805288335256 ], [ 21.891227395383151, 516.555588964956996 ], [ 29.866034582470451, 512.568185373517053 ], [ 27.727766363013139, 507.842216189555984 ], [ 42.919982642869662, 500.959999905191808 ], [ 56.689982642122203, 492.319999905443183 ], [ 74.579982637223836, 525.539999908205573 ], [ 53.985478848259518, 532.066172805307247 ] ] ] } },
{ "type": "Feature", "properties": { "feature_type": "building", "subtype": "no-damage", "uid": "68a54d53-23de-442f-b0fc-ce5e5125f478" }, "geometry": { "type": "Polygon", "coordinates": [ [ [ 29.866034582470451, 512.568185373517053 ], [ 21.891227395383151, 516.555588964956996 ], [ 24.85765770809487, 522.824805288335256 ], [ 17.221989704107909, 527.594116949614431 ], [ 18.879982645440421, 532.969999907284091 ], [ 1.312168788806057, 541.817907491618143 ], [ 1.312170557780576, 518.517048044318813 ], [ 6.080042113538831, 516.108193857083393 ], [ 6.553961673437559, 518.240831866581402 ], [ 27.02269980194724, 506.00664356063038 ], [ 29.866034582470451, 512.568185373517053 ] ] ] } },
{ "type": "Feature", "properties": { "feature_type": "building", "subtype": "no-damage", "uid": "bcdedfde-3cff-4142-9de6-ce07cf158e54" }, "geometry": { "type": "Polygon", "coordinates": [ [ [ 5.498290588187036, 648.93760321162722 ], [ 18.279008083525319, 643.202665872084026 ], [ 23.194668664316229, 653.68940843571329 ], [ 17.62358667306469, 657.458081544342349 ], [ 10.25009581250805, 658.932779715658967 ], [ 5.498290588187036, 648.93760321162722 ] ] ] } },
{ "type": "Feature", "properties": { "feature_type": "building", "subtype": "un-classified", "uid": "4e3de03a-3f44-41fd-9bb9-738876b09db2" }, "geometry": { "type": "Polygon", "coordinates": [ [ [ 11.61998264749276, 974.659999904616484 ], [ 10.11311167239122, 975.583087477806771 ], [ 18.34998264813369, 993.55999990803798 ], [ 1.311709168015312, 997.490491157881593 ], [ 1.311746886981506, 977.172363203385771 ], [ 11.03998264917943, 973.379999905761338 ], [ 11.61998264749276, 974.659999904616484 ] ] ] } },
{ "type": "Feature", "properties": { "feature_type": "building", "subtype": "un-classified", "uid": "c448c3fd-eb4e-42f7-b670-f7100d57fa08" }, "geometry": { "type": "Polygon", "coordinates": [ [ [ 5.91361799744395, 965.531207208572027 ], [ 7.07998264524419, 964.549999905598611 ], [ 10.829982647381421, 972.919999905939108 ], [ 1.311748929525645, 976.048833660080618 ], [ 1.311768826751058, 964.93814350257594 ], [ 2.478088917045468, 964.410925988414874 ], [ 5.91361799744395, 965.531207208572027 ] ] ] } }
]
}
