{
"type": "FeatureCollection",
"name": "santa-rosa-wildfire_00000092_post_disaster",
"features": [
{ "type": "Feature", "properties": { "feature_type": "building", "subtype": "destroyed", "uid": "0406b3f7-0074-4eb7-bf85-a6cc60a2e088" }, "geometry": { "type": "Polygon", "coordinates": [ [ [ 0.000429496711139, 60.525531149243783 ], [ 18.072048772013272, 73.532196542102511 ], [ 5.736729346573881, 92.839653031346955 ], [ 0.000437938404415, 92.303375741877659 ], [ 0.000429496711139, 60.525531149243783 ] ] ] } },
{ "type": "Feature", "properties": { "feature_type": "building", "subtype": "destroyed", "uid": "839816f1-29ef-4fb0-8f18-cea1462de63e" }, "geometry": { "type": "Polygon", "coordinates": [ [ [ 6.97585449465632, 38.153847799222461 ], [ 28.04803837884565, 28.605514476913829 ], [ 33.809963656669737, 37.330715617232649 ], [ 37.596371698290973, 35.684451255332071 ], [ 40.888900431965993, 40.95249722339333 ], [ 46.321572837306171, 40.129365039324483 ], [ 53.729762480928251, 40.293991473227592 ], [ 59.98556707007701, 55.604250077781067 ], [ 47.96783720492332, 62.353933973839787 ], [ 48.790969386133092, 65.811089141939277 ], [ 37.431745261009503, 70.914508676097412 ], [ 35.456228020908441, 67.457353510076985 ], [ 22.779992408188139, 71.408387986122918 ], [ 6.97585449465632, 38.153847799222461 ] ] ] } },
{ "type": "Feature", "properties": { "feature_type": "building", "subtype": "destroyed", "uid": "53bcd5bd-1114-42c9-83b0-7ed2c4475b63" }, "geometry": { "type": "Polygon", "coordinates": [ [ [ 72.003296943546871, 31.898043211110199 ], [ 76.448210727797004, 31.898043211110199 ], [ 99.495911847669419, 42.269508711250559 ], [ 86.98430267197071, 78.158071884260693 ], [ 72.991055560478827, 73.054652354260625 ], [ 73.320308435821431, 68.938991438074453 ], [ 60.973325689607783, 65.317209833992806 ], [ 72.003296943546871, 31.898043211110199 ] ] ] } },
{ "type": "Feature", "properties": { "feature_type": "building", "subtype": "destroyed", "uid": "db02a268-4067-4cca-a168-44705e65ff80" }, "geometry": { "type": "Polygon", "coordinates": [ [ [ 75.170151393371285, 0.002118255592835 ], [ 72.702923574877616, 7.498681633426912 ], [ 68.920949233072463, 19.054714345413391 ], [ 65.925785770689586, 25.75589279114984 ], [ 36.072280673867397, 16.899989625133081 ], [ 41.889614579213138, 0.00127758217566 ], [ 75.170151393371285, 0.002118255592835 ] ] ] } },
{ "type": "Feature", "properties": { "feature_type": "building", "subtype": "destroyed", "uid": "246312af-5c13-496b-95cd-65d2ad29cea0" }, "geometry": { "type": "Polygon", "coordinates": [ [ [ 27.782467657807778, 0.000902591468868 ], [ 14.73376220311915, 12.905635432269619 ], [ 1.800902719612505, 0.000182920419787 ], [ 27.782467657807778, 0.000902591468868 ] ] ] } },
{ "type": "Feature", "properties": { "feature_type": "building", "subtype": "destroyed", "uid": "c5dece35-bfb7-46ed-b6b2-e920a90b16fa" }, "geometry": { "type": "Polygon", "coordinates": [ [ [ 110.642090577526503, 0.002946282192857 ], [ 104.713055319273806, 19.850686199600371 ], [ 99.295512249265542, 19.850686199600371 ], [ 97.618653678170489, 24.494294545769471 ], [ 73.755666339890382, 16.496969060007451 ], [ 79.415784415303065, 0.002221058020545 ], [ 110.642090577526503, 0.002946282192857 ] ] ] } },
{ "type": "Feature", "properties": { "feature_type": "building", "subtype": "destroyed", "uid": "818165a3-bb54-4b80-92b7-622f39541def" }, "geometry": { "type": "Polygon", "coordinates": [ [ [ 175.493789043595513, 0.004278711595758 ], [ 191.780730457356498, 6.296099852807915 ], [ 189.475960342692503, 13.868915937093581 ], [ 197.213402859318307, 15.84443317303751 ], [ 190.299092527280692, 36.916617055677747 ], [ 154.904408661194708, 24.240381441392021 ], [ 160.172454634191098, 12.71653088106042 ], [ 153.752023608540497, 11.893398699070611 ], [ 157.373805213400004, 1.521933194772161 ], [ 164.617368421819691, 2.345065374682929 ], [ 165.439065868869704, 0.004087489558202 ], [ 175.493789043595513, 0.004278711595758 ] ] ] } },
{ "type": "Feature", "properties": { "feature_type": "building", "subtype": "destroyed", "uid": "86ed0a8b-f8df-4258-b8cd-a0f76c166287" }, "geometry": { "type": "Polygon", "coordinates": [ [ [ 189.408495218822509, 40.883615145597147 ], [ 185.786713615782105, 57.1816323681226 ], [ 177.884644660835392, 70.02249441839048 ], [ 139.032805628990388, 58.663270291961993 ], [ 146.111742403507094, 41.377494453543619 ], [ 150.885909060760895, 42.859132383620128 ], [ 155.166196411367793, 30.676776079359911 ], [ 180.683294079287492, 38.084965721426293 ], [ 189.408495218822509, 40.883615145597147 ] ] ] } },
{ "type": "Feature", "properties": { "feature_type": "building", "subtype": "destroyed", "uid": "1fc3bfdb-5fa4-48ad-bb99-4c802e7b9ca1" }, "geometry": { "type": "Polygon", "coordinates": [ [ [ 176.698147130806888, 76.134640014130937 ], [ 174.807159959254591, 92.943414868685466 ], [ 171.445404984083297, 106.180325064879995 ], [ 135.306539048159891, 95.884950465529755 ], [ 139.298623075491008, 84.118808069836433 ], [ 132.575113131645395, 81.387382152540908 ], [ 137.82785527628991, 65.208936355344036 ], [ 151.064765474556992, 68.570691327918169 ], [ 172.706063098538095, 74.873981899415639 ], [ 176.698147130806888, 76.134640014130937 ] ] ] } },
{ "type": "Feature", "properties": { "feature_type": "building", "subtype": "destroyed", "uid": "93cf1a6b-ef2d-4c00-b623-8934f94759d1" }, "geometry": { "type": "Polygon", "coordinates": [ [ [ 125.400087455557497, 126.958852445796396 ], [ 128.793138791919205, 121.308222435226497 ], [ 131.4636393313138, 114.142362425519295 ], [ 132.536582295971414, 111.516123275736007 ], [ 138.037964961815788, 101.978131353320407 ], [ 174.069575166139401, 114.227085850762805 ], [ 166.930247634632991, 137.401744004913212 ], [ 162.830907873103314, 140.218094147639789 ], [ 147.282791130412988, 135.595681062429406 ], [ 134.886319675289002, 130.342938921940402 ], [ 125.400087455557497, 126.958852445796396 ] ] ] } },
{ "type": "Feature", "properties": { "feature_type": "building", "subtype": "destroyed", "uid": "62da7dff-3e59-4dd9-bbb2-797344eb05fa" }, "geometry": { "type": "Polygon", "coordinates": [ [ [ 130.462823700791603, 149.546370502169793 ], [ 135.340000000309487, 151.019999999008888 ], [ 138.049164159421707, 153.709718073028114 ], [ 142.599999997923192, 151.419999999822608 ], [ 154.060826077418511, 168.049349642287012 ], [ 143.602620480035796, 178.507555241234087 ], [ 132.608096643577909, 184.138896720468892 ], [ 110.082730732886702, 158.395621396625188 ], [ 126.708596047797002, 148.205574912667799 ], [ 130.462823700791603, 149.546370502169793 ] ] ] } },
{ "type": "Feature", "properties": { "feature_type": "building", "subtype": "destroyed", "uid": "050e8fe2-0f68-4b9e-808e-b736fb067be4" }, "geometry": { "type": "Polygon", "coordinates": [ [ [ 74.685727165477431, 150.350847853376195 ], [ 89.166319532403762, 149.010052268032297 ], [ 89.166319533963033, 153.032439032380097 ], [ 104.719548374621496, 153.300598155686004 ], [ 106.060343963862906, 188.429442603964588 ], [ 92.384228948662297, 188.697601725191504 ], [ 73.881249809333752, 184.943374073754313 ], [ 73.613090692265104, 159.200098749910609 ], [ 76.56284099327415, 158.395621396625188 ], [ 74.685727165477431, 150.350847853376195 ] ] ] } },
{ "type": "Feature", "properties": { "feature_type": "building", "subtype": "destroyed", "uid": "72245dcf-d389-4eb8-99af-b99a715f9c22" }, "geometry": { "type": "Polygon", "coordinates": [ [ [ 50.283247432966697, 153.836916389823614 ], [ 51.355883903060473, 149.546370504248898 ], [ 63.95936244764755, 149.814529621317604 ], [ 63.95936244764755, 155.982189334689991 ], [ 67.1772718639061, 156.786666685896392 ], [ 70.39518127756584, 164.563281105839508 ], [ 70.127022157638507, 180.920987303169312 ], [ 60.741453029309973, 181.99362377352341 ], [ 61.545930386753042, 188.965760842260295 ], [ 36.070814179210821, 188.965760844339286 ], [ 36.875291535874261, 153.300598153607012 ], [ 50.283247432966697, 153.836916389823614 ] ] ] } },
{ "type": "Feature", "properties": { "feature_type": "building", "subtype": "destroyed", "uid": "52f5f47e-4c97-4f22-a7cc-4f08d4bf6d6f" }, "geometry": { "type": "Polygon", "coordinates": [ [ [ 226.724725525523212, 11.94419771610897 ], [ 230.533962703374414, 11.77207592553772 ], [ 256.976732457144522, 11.38510856231744 ], [ 256.866187442876083, 16.50290272083155 ], [ 264.64280186619402, 16.771061839979371 ], [ 263.570165390902616, 28.83822214757631 ], [ 257.402505681431421, 30.179017739157342 ], [ 258.010090050157487, 42.514337161744017 ], [ 222.809979462369398, 41.978018927606463 ], [ 222.541820346859993, 20.793448608485331 ], [ 227.636843587277014, 19.988971255199949 ], [ 226.724725525523212, 11.94419771610897 ] ] ] } },
{ "type": "Feature", "properties": { "feature_type": "building", "subtype": "destroyed", "uid": "97efc29f-69ee-4164-b1f0-b2f7881df062" }, "geometry": { "type": "Polygon", "coordinates": [ [ [ 218.041592373267008, 48.396707283500113 ], [ 220.3463624845526, 48.396707281421072 ], [ 226.602167073961311, 48.725960157543447 ], [ 264.960126795520978, 48.890586595604653 ], [ 265.289379666185823, 62.554580832020427 ], [ 264.30162105029342, 79.01722448636994 ], [ 221.992626847751808, 78.687971612326592 ], [ 222.486506158556693, 69.962770476165858 ], [ 217.712339496624992, 69.304264730158195 ], [ 218.041592373267008, 48.396707283500113 ] ] ] } },
{ "type": "Feature", "properties": { "feature_type": "building", "subtype": "destroyed", "uid": "4d190337-6f57-4b47-b740-dd69f28f55dc" }, "geometry": { "type": "Polygon", "coordinates": [ [ [ 215.040191189795507, 87.052171456849294 ], [ 218.332719920092103, 87.216797896989533 ], [ 255.702921020561803, 88.369182950943639 ], [ 257.019932513875915, 116.355677167703803 ], [ 246.154587698257814, 116.684930041747194 ], [ 245.825334828632606, 118.331194405726805 ], [ 217.509587737322988, 116.684930041747194 ], [ 217.838840609806908, 107.301223159578797 ], [ 214.875564748875689, 106.807343845395195 ], [ 215.040191189795507, 87.052171456849294 ] ] ] } },
{ "type": "Feature", "properties": { "feature_type": "building", "subtype": "destroyed", "uid": "904830ab-1a9e-4151-b2d8-8ca490162a8d" }, "geometry": { "type": "Polygon", "coordinates": [ [ [ 217.694440660626498, 136.72911561245391 ], [ 220.493090080897787, 135.247477680298289 ], [ 234.980216496437691, 126.0283972320331 ], [ 240.083636031373004, 131.954948952339095 ], [ 244.857802694344201, 129.979431712237101 ], [ 248.644210734406101, 133.765839752300906 ], [ 252.265992341344713, 130.637937458244693 ], [ 261.814325660790018, 147.1005811188314 ], [ 230.864555582592402, 163.727851209163106 ], [ 219.669957896049709, 144.30193169466051 ], [ 221.645475136150793, 143.314173076688604 ], [ 217.694440660626498, 136.72911561245391 ] ] ] } },
{ "type": "Feature", "properties": { "feature_type": "building", "subtype": "destroyed", "uid": "3cfff4fd-63af-49c7-af23-9a027e4096b3" }, "geometry": { "type": "Polygon", "coordinates": [ [ [ 260.991193478280877, 164.057104081127392 ], [ 263.460590026068189, 163.563224771101886 ], [ 266.423865881801873, 157.801299495094213 ], [ 273.008923344214224, 158.459805241101805 ], [ 275.642946332661495, 154.838023634941095 ], [ 294.081107229702923, 160.106069607160492 ], [ 284.203521034655125, 194.348368409953792 ], [ 252.92449808475331, 183.318397157568711 ], [ 260.991193478280877, 164.057104081127392 ] ] ] } },
{ "type": "Feature", "properties": { "feature_type": "building", "subtype": "destroyed", "uid": "10dc95b4-d548-4aae-89cf-4fe644422ce4" }, "geometry": { "type": "Polygon", "coordinates": [ [ [ 299.463450959330203, 161.736457271649499 ], [ 311.649812731786994, 160.265689471148306 ], [ 311.229593361255013, 155.223057012287086 ], [ 334.131549099431027, 155.433166698072995 ], [ 331.400123186034875, 165.518431613716388 ], [ 332.03045224339229, 195.564116666544493 ], [ 322.995735758501894, 198.085432898054108 ], [ 298.202792847993976, 198.295542581760913 ], [ 299.463450959330203, 161.736457271649499 ] ] ] } },
{ "type": "Feature", "properties": { "feature_type": "building", "subtype": "destroyed", "uid": "ff705491-299d-41c5-a901-69634879885b" }, "geometry": { "type": "Polygon", "coordinates": [ [ [ 336.862975011527624, 153.332069842293208 ], [ 355.142517670732502, 154.382618271222611 ], [ 354.932407984946678, 160.265689471148306 ], [ 368.169318183733708, 159.845470101655593 ], [ 369.009756924278008, 195.774226352330288 ], [ 336.862975013346727, 194.72367792547999 ], [ 336.862975011527624, 153.332069842293208 ] ] ] } },
{ "type": "Feature", "properties": { "feature_type": "building", "subtype": "destroyed", "uid": "95643ced-9def-4ea4-b56c-038a551de3f8" }, "geometry": { "type": "Polygon", "coordinates": [ [ [ 373.001840955247417, 157.114044186439088 ], [ 386.448860838000826, 157.114044184360097 ], [ 386.23875115247489, 154.592727959087512 ], [ 398.63522260603969, 154.382618275380707 ], [ 404.938513179093377, 165.938650983209101 ], [ 404.098074436989691, 192.412471383914294 ], [ 393.382480463734112, 192.202361696049394 ], [ 392.542041721110706, 198.085432898054108 ], [ 373.001840952388591, 197.034884469124705 ], [ 373.001840955247417, 157.114044186439088 ] ] ] } },
{ "type": "Feature", "properties": { "feature_type": "building", "subtype": "destroyed", "uid": "4c9f974c-8b67-4b01-8f43-9d0c271b525c" }, "geometry": { "type": "Polygon", "coordinates": [ [ [ 408.930597204085473, 149.97031486971909 ], [ 421.327068660508928, 149.129876130733606 ], [ 420.906849291016385, 152.491631101228705 ], [ 428.891017344898899, 153.752289213864998 ], [ 429.521346404855024, 160.265689471148306 ], [ 441.707708173153719, 160.265689473227411 ], [ 442.338037229471581, 197.665213522324308 ], [ 422.377617090477372, 195.774226354409393 ], [ 408.930597204345418, 194.513568239694109 ], [ 408.930597204085473, 149.97031486971909 ] ] ] } },
{ "type": "Feature", "properties": { "feature_type": "building", "subtype": "destroyed", "uid": "f43496fd-a201-4662-96e3-e41e0795fa8c" }, "geometry": { "type": "Polygon", "coordinates": [ [ [ 447.559021749480621, 156.540761927436591 ], [ 460.328944700399916, 156.153794568374394 ], [ 460.457933822252926, 154.476935998577886 ], [ 461.360857665348419, 151.123218856905993 ], [ 478.77438896659271, 152.155131823414308 ], [ 478.903378089225328, 184.789379371829511 ], [ 469.229194034451211, 185.563314096190993 ], [ 469.229194033411716, 192.786704855512511 ], [ 446.527108782712787, 191.238835410947587 ], [ 447.559021749480621, 156.540761927436591 ] ] ] } },
{ "type": "Feature", "properties": { "feature_type": "building", "subtype": "destroyed", "uid": "ca8f0dc6-7aa6-4516-bce7-f5d393933447" }, "geometry": { "type": "Polygon", "coordinates": [ [ [ 483.54698643461262, 148.801414685900511 ], [ 484.707888522713517, 147.5115234751662 ], [ 500.831528614003787, 147.640512598318708 ], [ 504.443223995741789, 154.476935998577886 ], [ 511.795603876912821, 154.605925117572298 ], [ 513.34347332771415, 160.668413793470108 ], [ 514.375386293962038, 182.983531683038706 ], [ 483.28900819350531, 182.854542561965189 ], [ 483.54698643461262, 148.801414685900511 ] ] ] } },
{ "type": "Feature", "properties": { "feature_type": "building", "subtype": "destroyed", "uid": "f6d3dc89-38e8-4fc5-95ff-7e89339f594e" }, "geometry": { "type": "Polygon", "coordinates": [ [ [ 530.644649083154832, 154.131576351934314 ], [ 543.156258263531413, 155.777840717992888 ], [ 545.95490768614161, 153.637697048145895 ], [ 557.314131807626836, 154.62545566403881 ], [ 559.783528360092191, 171.746605064395993 ], [ 563.240683527410283, 175.203760234574503 ], [ 561.100539850807422, 193.312668259140793 ], [ 546.942666306711885, 191.33715102319681 ], [ 545.29640194065405, 193.312668259140793 ], [ 524.553470931807283, 193.641921133184098 ], [ 530.644649083154832, 154.131576351934314 ] ] ] } },
{ "type": "Feature", "properties": { "feature_type": "building", "subtype": "destroyed", "uid": "339f97fa-04a0-48b7-adfa-893ba89ffb77" }, "geometry": { "type": "Polygon", "coordinates": [ [ [ 540.370814151852414, 73.038089362752601 ], [ 542.840210698080455, 73.53196867485714 ], [ 553.047049768210968, 74.848980164793417 ], [ 577.741015253621526, 76.001365220826571 ], [ 578.893400306535568, 79.623146824908204 ], [ 576.753256631232034, 91.805503131247477 ], [ 570.332825608180315, 102.176968635545904 ], [ 564.077021017992024, 103.987859441744803 ], [ 537.572164726643337, 100.859957143530593 ], [ 540.370814151852414, 73.038089362752601 ] ] ] } },
{ "type": "Feature", "properties": { "feature_type": "building", "subtype": "destroyed", "uid": "8a5babc1-3f80-412e-a9fb-c164622766d4" }, "geometry": { "type": "Polygon", "coordinates": [ [ [ 528.291329496776939, 47.848734128960587 ], [ 536.193398451723624, 38.958906554738647 ], [ 552.820668546984962, 30.562958292621261 ], [ 562.204375428629078, 26.28267094045292 ], [ 569.941817950192558, 41.922182414891672 ], [ 572.740467369684211, 50.647383555210503 ], [ 567.96630071217055, 51.470515735121261 ], [ 569.283312202885782, 62.665113423488563 ], [ 533.065496157409143, 71.225688127825237 ], [ 531.583858229672273, 54.927670905299777 ], [ 529.608340992170042, 49.494998497098287 ], [ 528.291329496776939, 47.848734128960587 ] ] ] } },
{ "type": "Feature", "properties": { "feature_type": "building", "subtype": "destroyed", "uid": "c107405d-4643-496d-ada2-51425d556025" }, "geometry": { "type": "Polygon", "coordinates": [ [ [ 528.057354032072226, 0.007418933135068 ], [ 517.347051984628251, 5.058871776675074 ], [ 504.74047084189931, 12.20260108923704 ], [ 499.187722058780821, 2.726132624513208 ], [ 495.819544421271416, 3.491627543369676 ], [ 493.053817799946216, 0.007417105656475 ], [ 528.057354032072226, 0.007418933135068 ] ] ] } },
{ "type": "Feature", "properties": { "feature_type": "building", "subtype": "destroyed", "uid": "8ffecfcf-96e2-403e-b819-7788146ca406" }, "geometry": { "type": "Polygon", "coordinates": [ [ [ 545.295883401399919, 0.007394720603001 ], [ 557.478001952560476, 21.237317573871952 ], [ 524.070561926394817, 42.038176460437313 ], [ 512.934748583386636, 24.809182232231979 ], [ 515.876284181788833, 21.86764663538769 ], [ 511.253871100998595, 15.144136692318449 ], [ 534.155826837355448, 1.27689743460821 ], [ 535.87228810527813, 0.007410009883511 ], [ 545.295883401399919, 0.007394720603001 ] ] ] } },
{ "type": "Feature", "properties": { "feature_type": "building", "subtype": "destroyed", "uid": "7a4dac5b-cd93-4999-9cf0-0b8ba216c689" }, "geometry": { "type": "Polygon", "coordinates": [ [ [ 502.443024472956495, 26.82419384609582 ], [ 478.576862975362701, 40.500308862342557 ], [ 460.52479621057438, 13.9591305030663 ], [ 459.870247857504296, 12.4228784979203 ], [ 460.886154339757127, 10.67136450864944 ], [ 463.559952370140991, 8.857532940116231 ], [ 459.537565601896915, 3.7625097012561 ], [ 465.573504658406478, 0.007367796999166 ], [ 489.013525462983409, 0.00741249641866 ], [ 502.443024472956495, 26.82419384609582 ] ] ] } },
{ "type": "Feature", "properties": { "feature_type": "building", "subtype": "destroyed", "uid": "1a482467-b6f3-4104-91cb-458f3565a45f" }, "geometry": { "type": "Polygon", "coordinates": [ [ [ 492.252977993941727, 54.712742110647838 ], [ 495.202728287934121, 53.640105640293683 ], [ 509.951479775307519, 53.908264757362453 ], [ 523.627594791027832, 54.712742110647838 ], [ 526.577345088138713, 91.182382154665518 ], [ 512.09675271809374, 94.668450689033932 ], [ 511.292275367407626, 90.109745684311363 ], [ 498.956955940928708, 93.059495980384114 ], [ 492.252977993941727, 54.712742110647838 ] ] ] } },
{ "type": "Feature", "properties": { "feature_type": "building", "subtype": "destroyed", "uid": "190d84c6-51ac-40aa-9789-1582d527f0d0" }, "geometry": { "type": "Polygon", "coordinates": [ [ [ 487.835015946094074, 54.863709270993198 ], [ 496.869732426826374, 94.994659237385605 ], [ 477.959860718840218, 97.936194838387976 ], [ 475.01832511472071, 91.212684895318745 ], [ 462.83196334434291, 92.473343007955009 ], [ 458.20955025965452, 56.334477069415342 ], [ 471.866679832092018, 54.443489897342388 ], [ 486.364248146633088, 53.813160839984739 ], [ 487.835015946094074, 54.863709270993198 ] ] ] } },
{ "type": "Feature", "properties": { "feature_type": "building", "subtype": "destroyed", "uid": "e7231f77-9fe5-4262-bea9-54d31f15e1b8" }, "geometry": { "type": "Polygon", "coordinates": [ [ [ 425.012219920054179, 7.378920304173902 ], [ 426.693097406860318, 7.589029987880743 ], [ 443.291762578219675, 8.009249361531554 ], [ 457.118006573380626, 12.11490265774577 ], [ 459.049989006176077, 36.163947240207627 ], [ 454.637685607273511, 41.626799068561567 ], [ 440.770446348270525, 42.467237813784138 ], [ 424.381890864775926, 41.836908758505537 ], [ 425.012219920054179, 7.378920304173902 ] ] ] } },
{ "type": "Feature", "properties": { "feature_type": "building", "subtype": "destroyed", "uid": "3e5b7d39-4e60-41d4-ae9a-3095a9ec464a" }, "geometry": { "type": "Polygon", "coordinates": [ [ [ 389.528210322958216, 5.871793176712751 ], [ 392.344205805935928, 5.402460596562745 ], [ 407.832180974267828, 6.575792050056326 ], [ 409.474845004272311, 13.85044705173712 ], [ 421.912158396173197, 14.31977963188713 ], [ 420.504160656243585, 50.223722066378237 ], [ 388.589545159799911, 48.111725450505602 ], [ 389.528210322958216, 5.871793176712751 ] ] ] } },
{ "type": "Feature", "properties": { "feature_type": "building", "subtype": "destroyed", "uid": "576d197d-2df4-4d97-9e9f-a4993275ba07" }, "geometry": { "type": "Polygon", "coordinates": [ [ [ 357.378928537479112, 9.157121241920885 ], [ 360.194924022015982, 9.626453824149934 ], [ 383.192220481840309, 7.04512462812729 ], [ 385.06955080114011, 18.07444027932431 ], [ 386.946881127716381, 18.309106570438839 ], [ 385.304217092774195, 45.999728838791043 ], [ 356.674929663356181, 48.815724325928223 ], [ 357.378928537479112, 9.157121241920885 ] ] ] } },
{ "type": "Feature", "properties": { "feature_type": "building", "subtype": "destroyed", "uid": "f7c81fbd-cc88-4b71-9831-81db9297aceb" }, "geometry": { "type": "Polygon", "coordinates": [ [ [ 306.925676098611291, 9.626453824149934 ], [ 312.792333359579288, 9.861120113185416 ], [ 313.496332230323674, 6.106459467827277 ], [ 340.717621919032524, 6.81045834117085 ], [ 345.176281435393207, 10.799785277643521 ], [ 346.349612885507725, 14.085113340772599 ], [ 348.226943208185901, 36.847743512352139 ], [ 311.61900190686589, 35.439745769823077 ], [ 311.619001904527011, 22.533099795946981 ], [ 306.691009806977092, 22.29843350483246 ], [ 306.925676098611291, 9.626453824149934 ] ] ] } },
{ "type": "Feature", "properties": { "feature_type": "building", "subtype": "destroyed", "uid": "c9eaec50-7ea9-403f-8105-4dbea4fff772" }, "geometry": { "type": "Polygon", "coordinates": [ [ [ 310.736415436577886, 56.645861699794807 ], [ 310.26708285642809, 42.565884280741308 ], [ 348.752354482765213, 43.504549438962279 ], [ 349.925685937817377, 62.043186380875582 ], [ 346.405691578118024, 62.747185252140113 ], [ 345.701692707113807, 71.429837998429008 ], [ 306.512422210811906, 69.787173966864472 ], [ 306.512422210032184, 56.645861701873862 ], [ 310.736415436577886, 56.645861699794807 ] ] ] } },
{ "type": "Feature", "properties": { "feature_type": "building", "subtype": "destroyed", "uid": "babd3735-c5af-447a-974b-e346655693e4" }, "geometry": { "type": "Polygon", "coordinates": [ [ [ 306.277755919957372, 92.080471549977815 ], [ 311.675080599216415, 90.20314123145684 ], [ 312.14441317858649, 78.235160419959797 ], [ 352.03768255057048, 79.643158162488859 ], [ 352.03768255057048, 99.120460264702174 ], [ 345.701692709972406, 100.293791716116701 ], [ 345.701692709452573, 107.333780428761997 ], [ 339.131036575661085, 109.915109624784705 ], [ 316.603072696246613, 106.6297815595765 ], [ 306.747088501406608, 104.517784943703901 ], [ 306.277755919957372, 92.080471549977815 ] ] ] } },
{ "type": "Feature", "properties": { "feature_type": "building", "subtype": "destroyed", "uid": "f5b56cd6-cdc9-4afa-aa9f-fa9fd355451c" }, "geometry": { "type": "Polygon", "coordinates": [ [ [ 355.557676905592018, 67.205844768762788 ], [ 357.669673516525904, 66.501845897498256 ], [ 375.738977879839808, 67.440511059877309 ], [ 377.616308205116809, 70.256506544935434 ], [ 385.594962075199476, 70.725839125085443 ], [ 386.768293529472089, 90.672473811606849 ], [ 385.125629497128784, 90.907140100642323 ], [ 383.248299172111672, 103.579119781324806 ], [ 368.229656586788224, 104.283118654668399 ], [ 356.496342067970716, 104.752451238976505 ], [ 355.557676905592018, 67.205844768762788 ] ] ] } },
{ "type": "Feature", "properties": { "feature_type": "building", "subtype": "destroyed", "uid": "5249466a-a5f3-4dc1-b261-25c52961f545" }, "geometry": { "type": "Polygon", "coordinates": [ [ [ 390.320900422689988, 67.193910838742426 ], [ 394.665917792703681, 67.380532597079025 ], [ 395.863918831647027, 65.883031302492242 ], [ 418.625938575208806, 67.380532599158073 ], [ 421.620941172177311, 72.771537275055408 ], [ 419.524439355910602, 107.214067152424505 ], [ 404.549426365350598, 107.813067671506602 ], [ 405.447927144753123, 102.122562735028694 ], [ 390.772414416072877, 101.523562215946598 ], [ 390.320900422689988, 67.193910838742426 ] ] ] } },
{ "type": "Feature", "properties": { "feature_type": "building", "subtype": "destroyed", "uid": "a50cac68-f97a-435e-8887-55106cb395c4" }, "geometry": { "type": "Polygon", "coordinates": [ [ [ 425.323487782555787, 68.559547340592417 ], [ 431.662336602442679, 67.551094120108615 ], [ 434.543631517997994, 66.254511408355015 ], [ 435.119890501576776, 63.949475476117613 ], [ 452.263595256290216, 61.356310054689438 ], [ 461.195609498383703, 97.084367019962087 ], [ 431.950466095011791, 103.711345325404494 ], [ 425.323487782555787, 68.559547340592417 ] ] ] } },
{ "type": "Feature", "properties": { "feature_type": "building", "subtype": "destroyed", "uid": "1d41bccf-caf7-439d-be31-9a1e65ecf78f" }, "geometry": { "type": "Polygon", "coordinates": [ [ [ 620.963025652957526, 137.686200343215887 ], [ 624.557028767448628, 137.087199824133791 ], [ 672.477070335577309, 145.473207097520913 ], [ 670.68006877547316, 156.554716707817107 ], [ 660.497059944064972, 156.255216449315498 ], [ 659.299058903302466, 173.925731775752411 ], [ 623.658527987786329, 170.331728657101507 ], [ 623.958028249406311, 156.255216449315498 ], [ 617.668522792289991, 155.955716190814002 ], [ 620.963025652957526, 137.686200343215887 ] ] ] } },
{ "type": "Feature", "properties": { "feature_type": "building", "subtype": "destroyed", "uid": "d302dc09-6232-4857-8c84-d989fdc667c2" }, "geometry": { "type": "Polygon", "coordinates": [ [ [ 626.354030326773227, 116.122181637547598 ], [ 632.643535783629659, 116.122181639626604 ], [ 633.8415368236125, 103.543170726427405 ], [ 671.578569553576131, 107.736174364160505 ], [ 669.781567997370075, 128.40169229016621 ], [ 658.101057865658504, 128.40169229016621 ], [ 658.700058383181045, 136.188699042391988 ], [ 631.445534746245585, 131.696195148236512 ], [ 632.044535262208797, 127.203691249922798 ], [ 625.455529548410254, 126.604690730840701 ], [ 626.354030326773227, 116.122181637547598 ] ] ] } },
{ "type": "Feature", "properties": { "feature_type": "building", "subtype": "destroyed", "uid": "0577e222-8e61-4812-8684-c456d73b09c7" }, "geometry": { "type": "Polygon", "coordinates": [ [ [ 628.772954046078553, 76.733502713468042 ], [ 635.255867608741596, 76.157243726770361 ], [ 635.543997101310651, 65.208323043964839 ], [ 672.136442544273223, 65.640517281909055 ], [ 674.729607969078529, 75.292855252960976 ], [ 685.678528656556637, 76.589437964714577 ], [ 685.96665814574726, 93.87720746585083 ], [ 670.839859832260345, 94.16533695712063 ], [ 669.687341866402107, 97.478826113999929 ], [ 628.77295404737788, 96.902567127302248 ], [ 628.772954046078553, 76.733502713468042 ] ] ] } },
{ "type": "Feature", "properties": { "feature_type": "building", "subtype": "destroyed", "uid": "d7d5b2bb-18ae-47dd-93ab-70510bb10dd1" }, "geometry": { "type": "Polygon", "coordinates": [ [ [ 652.768689460234214, 0.006870049212184 ], [ 652.3877519327973, 5.419311739240228 ], [ 657.718147532460762, 11.470031064222111 ], [ 636.82875938682389, 23.715534458781239 ], [ 631.642428535913723, 22.274887002432258 ], [ 622.566349547405821, 25.7324409018279 ], [ 615.795306493213161, 14.063196487729311 ], [ 619.108795646452563, 12.76661377597571 ], [ 613.058076319914335, 3.258340549519154 ], [ 616.364325055986342, 0.007119912730032 ], [ 652.768689460234214, 0.006870049212184 ] ] ] } },
{ "type": "Feature", "properties": { "feature_type": "building", "subtype": "destroyed", "uid": "9e6d8544-8044-4802-9ef5-832a1347f927" }, "geometry": { "type": "Polygon", "coordinates": [ [ [ 816.518339936380244, 66.626817962824347 ], [ 852.422282367995194, 61.464159572858087 ], [ 859.931603660267115, 99.245432327949231 ], [ 819.334335420137563, 106.989419909779997 ], [ 813.702344449244379, 72.728141515169639 ], [ 816.518339936380244, 66.626817962824347 ] ] ] } },
{ "type": "Feature", "properties": { "feature_type": "building", "subtype": "no-damage", "uid": "67837f7a-e362-4ee7-bee5-a4bf37b36d3a" }, "geometry": { "type": "Polygon", "coordinates": [ [ [ 895.835546091362403, 82.584125710794041 ], [ 897.947542705155001, 78.125466190013285 ], [ 929.158159326956138, 60.994826992708091 ], [ 946.288798526591904, 91.736111033074863 ], [ 914.608849324641028, 116.141405238298006 ], [ 895.835546091362403, 82.584125710794041 ] ] ] } },
{ "type": "Feature", "properties": { "feature_type": "building", "subtype": "destroyed", "uid": "b33bae40-7d79-405d-b7b6-860a77325c7a" }, "geometry": { "type": "Polygon", "coordinates": [ [ [ 931.97415481175301, 56.536167474006383 ], [ 942.534137882534992, 50.904176503890127 ], [ 947.931462559974875, 46.210850696152932 ], [ 945.584799656887071, 42.690856341909317 ], [ 943.00347046060574, 35.650867627184958 ], [ 953.094120947079887, 34.008203593541367 ], [ 961.072774823659643, 33.304204726434932 ], [ 965.062101760390306, 38.701529403357597 ], [ 968.816762407305873, 43.864187791244809 ], [ 970.694092731023602, 49.730845052475587 ], [ 971.867424182697391, 56.770833765120898 ], [ 970.92875902135836, 65.453486509330759 ], [ 972.806089343256872, 70.616144899297012 ], [ 948.166128849789857, 83.992123451244055 ], [ 931.97415481175301, 56.536167474006383 ] ] ] } },
{ "type": "Feature", "properties": { "feature_type": "building", "subtype": "destroyed", "uid": "bd2385d7-d2c6-4f48-8840-6c53c0c9559f" }, "geometry": { "type": "Polygon", "coordinates": [ [ [ 995.474219251673276, 6.898949386926686 ], [ 997.347060948564376, 8.771791083298922 ], [ 1011.609470783824008, 36.864416522645328 ], [ 980.059291448216072, 55.304703988860759 ], [ 964.212169404995848, 27.788337534132989 ], [ 995.474219251673276, 6.898949386926686 ] ] ] } },
{ "type": "Feature", "properties": { "feature_type": "building", "subtype": "destroyed", "uid": "f017b8bd-2777-400a-8278-9f1ae04a86f1" }, "geometry": { "type": "Polygon", "coordinates": [ [ [ 1022.976449496261012, 46.665121894223937 ], [ 1016.076438980202965, 37.24395315208379 ], [ 1000.373381684696028, 9.439457206086225 ], [ 1012.042626093332046, 1.659960933485573 ], [ 1015.500179995843951, 5.261579575397539 ], [ 1018.669604404228039, 4.541255846183529 ], [ 1022.976436217414971, 2.795243114263955 ], [ 1022.976449496261012, 46.665121894223937 ] ] ] } },
{ "type": "Feature", "properties": { "feature_type": "building", "subtype": "destroyed", "uid": "bdbe3f4c-4517-4010-bffc-636f4ff9d177" }, "geometry": { "type": "Polygon", "coordinates": [ [ [ 815.547188634588792, 114.007792211852305 ], [ 819.536515570279903, 113.303793342666907 ], [ 847.227137838878548, 110.722464148723205 ], [ 854.501792842894702, 131.6077639893075 ], [ 866.235107359113499, 129.495767379672003 ], [ 869.285769134245129, 145.218408840685299 ], [ 837.136487352404401, 149.677068355228897 ], [ 821.648512186151493, 148.97306948188529 ], [ 815.547188634588792, 114.007792211852305 ] ] ] } },
{ "type": "Feature", "properties": { "feature_type": "building", "subtype": "destroyed", "uid": "c52e782f-3bc8-4741-b768-011dc6d066fe" }, "geometry": { "type": "Polygon", "coordinates": [ [ [ 857.513886726793544, 151.361769571234504 ], [ 859.156550758877074, 150.188438119819892 ], [ 869.716533828879392, 161.687086349087906 ], [ 877.225855121671088, 188.439043452981991 ], [ 856.105888985304659, 195.009699589635403 ], [ 850.004565433222183, 185.857714259038488 ], [ 842.964576719540787, 187.03104570837391 ], [ 827.241935261393792, 191.255038942198297 ], [ 821.844610584733573, 175.767063774378613 ], [ 822.783275744773277, 163.564416671766992 ], [ 857.513886726793544, 151.361769571234504 ] ] ] } },
{ "type": "Feature", "properties": { "feature_type": "building", "subtype": "no-damage", "uid": "f72e10b7-24f5-489c-b63b-e67dd5409ba6" }, "geometry": { "type": "Polygon", "coordinates": [ [ [ 918.521546318067521, 163.027228738696209 ], [ 919.24187004832072, 160.722192806458793 ], [ 931.77550293414356, 157.408703653737604 ], [ 926.589172084013057, 141.705646353545688 ], [ 946.75823649991662, 136.951509744475487 ], [ 949.495466672955558, 144.875070763750614 ], [ 961.740970066729119, 143.722552800750407 ], [ 964.046006001564251, 161.010322299807598 ], [ 953.385214812112736, 163.027228738696209 ], [ 953.529279557747486, 171.094854504645696 ], [ 947.622624978923113, 171.959242984692196 ], [ 948.7751429440018, 177.72183281632519 ], [ 933.648344631294549, 179.882804001888189 ], [ 933.21615039075175, 185.645393837679393 ], [ 913.767409703282283, 189.535141975019201 ], [ 912.182697502858446, 173.255825694366791 ], [ 920.682517505968349, 170.374530777510699 ], [ 918.521546318067521, 163.027228738696209 ] ] ] } },
{ "type": "Feature", "properties": { "feature_type": "building", "subtype": "no-damage", "uid": "3674b70a-e40e-4f33-99fa-5a297080cff2" }, "geometry": { "type": "Polygon", "coordinates": [ [ [ 813.6513679988999, 227.855025901013988 ], [ 816.936696062027409, 230.201688805922089 ], [ 836.883330749318816, 255.78031446048081 ], [ 813.182035419269823, 278.073612049831183 ], [ 788.542074923723817, 247.566994292262791 ], [ 813.6513679988999, 227.855025901013988 ] ] ] } },
{ "type": "Feature", "properties": { "feature_type": "building", "subtype": "no-damage", "uid": "251100bd-12d8-48e6-86b2-a35a398b46d0" }, "geometry": { "type": "Polygon", "coordinates": [ [ [ 936.930308858579224, 270.539195812689286 ], [ 939.625811198605561, 266.046691910217589 ], [ 955.798825224990424, 251.071678924847987 ], [ 969.276336912388274, 250.772178664267386 ], [ 985.149850682870465, 267.843693475780185 ], [ 956.098325482192422, 292.402714774780179 ], [ 936.930308858579224, 270.539195812689286 ] ] ] } },
{ "type": "Feature", "properties": { "feature_type": "building", "subtype": "no-damage", "uid": "e5aa91d6-4421-4729-9f21-56fce1a2f5cf" }, "geometry": { "type": "Polygon", "coordinates": [ [ [ 877.453709819499068, 320.119770737172018 ], [ 888.118006193973429, 293.459029794736011 ], [ 931.32679324226433, 309.271607182173227 ], [ 918.456090719491954, 336.116215305128378 ], [ 877.453709819499068, 320.119770737172018 ] ] ] } },
{ "type": "Feature", "properties": { "feature_type": "building", "subtype": "no-damage", "uid": "ea6fb7e6-2396-4124-9c9a-331b13bbdc72" }, "geometry": { "type": "Polygon", "coordinates": [ [ [ 60.173388985997008, 739.617187722444669 ], [ 129.090282299515792, 712.264957696188276 ], [ 149.899681223527409, 759.622109296039525 ], [ 125.336054647040896, 769.65100893394208 ], [ 119.865860014123498, 759.299815608088011 ], [ 102.864823310870804, 766.004421992013249 ], [ 103.883325208522507, 776.891305119747699 ], [ 80.82164106759214, 786.545033365409495 ], [ 60.173388985997008, 739.617187722444669 ] ] ] } },
{ "type": "Feature", "properties": { "feature_type": "building", "subtype": "no-damage", "uid": "fbe60584-6f9d-4133-a7d3-bcff6782d1d4" }, "geometry": { "type": "Polygon", "coordinates": [ [ [ 167.597554576014289, 697.328306293180276 ], [ 171.727582055066108, 696.979887965054559 ], [ 238.767361543127095, 696.711728852143892 ], [ 240.644475367545397, 750.879870680914337 ], [ 215.169359163381614, 750.879870678835232 ], [ 214.901200043714113, 737.471914779657254 ], [ 192.643993253470001, 736.667437426371862 ], [ 192.107675017513486, 751.416188912972757 ], [ 166.900717932237512, 751.416188912972757 ], [ 167.597554576014289, 697.328306293180276 ] ] ] } },
{ "type": "Feature", "properties": { "feature_type": "building", "subtype": "no-damage", "uid": "ef237c60-23db-4c66-a2be-c6c9d6f6490b" }, "geometry": { "type": "Polygon", "coordinates": [ [ [ 257.270340680116703, 702.074911208072763 ], [ 289.717593953533708, 703.147547680506023 ], [ 290.253912190269773, 751.416188912972757 ], [ 259.415613623422814, 753.2933027407704 ], [ 257.270340680116703, 702.074911208072763 ] ] ] } },
{ "type": "Feature", "properties": { "feature_type": "building", "subtype": "no-damage", "uid": "ff92dd56-191b-406e-b71d-f1d7f25c6b8d" }, "geometry": { "type": "Polygon", "coordinates": [ [ [ 192.222311069226606, 781.641365917242979 ], [ 197.31733430938371, 780.568729446888824 ], [ 246.65861201451969, 781.373206798095111 ], [ 246.658612012180697, 807.652800358155446 ], [ 233.518815231897094, 806.580163885722186 ], [ 234.323292588040687, 827.764734204843307 ], [ 248.5357258412769, 826.42393861742039 ], [ 249.608362311890403, 855.921441592701285 ], [ 191.954151952677705, 854.848805120268025 ], [ 192.222311069226606, 781.641365917242979 ] ] ] } },
{ "type": "Feature", "properties": { "feature_type": "building", "subtype": "no-damage", "uid": "0e6f7529-929f-400a-8d7d-86ca1362bcbc" }, "geometry": { "type": "Polygon", "coordinates": [ [ [ 82.047810733697148, 847.264235005532669 ], [ 85.53387926650457, 848.336871473807832 ], [ 109.642703684944806, 859.921848116070919 ], [ 103.743203087084794, 870.80873124588436 ], [ 122.271678424454706, 878.907010921521874 ], [ 129.243815489289887, 865.767214141491763 ], [ 147.210476394741107, 879.711488274807266 ], [ 129.645739949543895, 927.578205048838981 ], [ 58.074008523216627, 896.069194470057937 ], [ 82.047810733697148, 847.264235005532669 ] ] ] } },
{ "type": "Feature", "properties": { "feature_type": "building", "subtype": "no-damage", "uid": "4a0d842d-e48d-4b5a-9a53-3bb594ba8695" }, "geometry": { "type": "Polygon", "coordinates": [ [ [ 166.517932886055206, 877.834374449088614 ], [ 170.54031965819749, 878.370692687384349 ], [ 201.914936457622503, 893.923921527270636 ], [ 180.757119208863912, 944.017427317582133 ], [ 173.221910834601402, 939.779130701960298 ], [ 156.596045523849199, 934.684107454783998 ], [ 145.279227997880696, 928.678223023881742 ], [ 166.517932886055206, 877.834374449088614 ] ] ] } },
{ "type": "Feature", "properties": { "feature_type": "building", "subtype": "destroyed", "uid": "2635a1f8-e7fe-4baf-adb3-573081c4343e" }, "geometry": { "type": "Polygon", "coordinates": [ [ [ 257.830404289309172, 867.873029413938298 ], [ 294.901285291248428, 869.194798541683099 ], [ 292.567882817374198, 959.992441948469377 ], [ 256.899428959338309, 959.613008437473127 ], [ 257.830404289309172, 867.873029413938298 ] ] ] } },
{ "type": "Feature", "properties": { "feature_type": "building", "subtype": "no-damage", "uid": "c2148156-0d9b-4205-ade3-f99d7eeb1631" }, "geometry": { "type": "Polygon", "coordinates": [ [ [ 642.314406706775685, 600.178286219114966 ], [ 652.040610610952626, 599.968176531250037 ], [ 653.70944634130376, 586.737676169439851 ], [ 671.644065638390998, 587.378198289068109 ], [ 672.284587754120821, 601.46968487307231 ], [ 682.926734409248184, 603.329931501745136 ], [ 682.296405352410602, 625.181338813081879 ], [ 680.195308495592258, 658.798888524269955 ], [ 639.43402946744402, 657.958449781126433 ], [ 640.694687585277279, 642.410333041287231 ], [ 640.274468210846976, 630.434080955649961 ], [ 642.314406706775685, 600.178286219114966 ] ] ] } },
{ "type": "Feature", "properties": { "feature_type": "building", "subtype": "no-damage", "uid": "9bc90bc1-baac-47a9-b85f-ae5450358878" }, "geometry": { "type": "Polygon", "coordinates": [ [ [ 673.313598266476561, 556.723869114705053 ], [ 681.605365610284593, 551.297190821733238 ], [ 709.762072996049938, 529.308143149326725 ], [ 728.265052136677809, 521.531528727304476 ], [ 741.673008033770316, 539.498189631205037 ], [ 691.527252974309704, 575.967829673143683 ], [ 673.313598266476561, 556.723869114705053 ] ] ] } },
{ "type": "Feature", "properties": { "feature_type": "building", "subtype": "no-damage", "uid": "2682fae2-eb87-41b7-9a02-ada82bda4eb3" }, "geometry": { "type": "Polygon", "coordinates": [ [ [ 750.077005248625028, 490.983141202170998 ], [ 785.755952248089102, 478.161019622616323 ], [ 809.170261217348298, 477.046052527566815 ], [ 815.302580229981913, 508.265131155686277 ], [ 785.198468700564717, 516.627384361280519 ], [ 756.76680780904303, 518.857318547221212 ], [ 750.077005248625028, 490.983141202170998 ] ] ] } },
{ "type": "Feature", "properties": { "feature_type": "building", "subtype": "no-damage", "uid": "1872ca9d-cdbe-4898-b747-e93cabd4c338" }, "geometry": { "type": "Polygon", "coordinates": [ [ [ 949.539552291716518, 570.252017588582021 ], [ 969.623977553776285, 561.856069322306553 ], [ 981.641707421268848, 583.422132512893199 ], [ 987.568259137673863, 590.830322161196705 ], [ 989.546867064560956, 598.490990068749056 ], [ 982.99066503459153, 600.551268445851292 ], [ 977.377393128587073, 604.016410142393624 ], [ 978.859031061001815, 612.765570874278183 ], [ 938.951725776332296, 627.927416212542539 ], [ 933.475781168358139, 611.157335847072659 ], [ 962.931991375259713, 597.148235723657194 ], [ 952.983833835208088, 574.194709741280121 ], [ 949.539552291716518, 570.252017588582021 ] ] ] } },
{ "type": "Feature", "properties": { "feature_type": "building", "subtype": "no-damage", "uid": "fc4c5317-4016-48eb-971b-5f2364dae890" }, "geometry": { "type": "Polygon", "coordinates": [ [ [ 995.267476849562854, 621.177104352011156 ], [ 996.340113322515322, 624.931332007606443 ], [ 998.753545383669689, 636.73033319605554 ], [ 979.177929775026996, 641.55719731992599 ], [ 984.00479389655618, 652.283562038020932 ], [ 989.099817140351547, 651.47908468473554 ], [ 993.658522142473089, 667.300472643769581 ], [ 986.012257252507652, 670.683183986972381 ], [ 980.415368172842932, 673.797736213106305 ], [ 975.155543006782864, 673.468132357142053 ], [ 967.811889633193573, 677.214899954057273 ], [ 963.295097075545755, 665.155199698903175 ], [ 960.943109753806652, 654.696994095798004 ], [ 959.602314161966433, 646.920379680012957 ], [ 939.75853943729453, 650.138289095233517 ], [ 935.736152667491183, 636.19401495983891 ], [ 971.669474472416141, 629.490037012329026 ], [ 972.742110944329056, 623.858695533094192 ], [ 995.267476849562854, 621.177104352011156 ] ] ] } },
{ "type": "Feature", "properties": { "feature_type": "building", "subtype": "no-damage", "uid": "47157f63-bba9-4361-8ea3-63d8509015c1" }, "geometry": { "type": "Polygon", "coordinates": [ [ [ 983.008388266581619, 691.827793411767061 ], [ 986.580252924680053, 694.138999957490796 ], [ 989.101569151250715, 713.469091039396858 ], [ 984.479156063703613, 715.149968525683903 ], [ 987.210581977359539, 720.192600982466161 ], [ 990.572336948372822, 738.892363009093629 ], [ 959.826663403716339, 745.440592985438911 ], [ 958.402712351570131, 739.161276477723845 ], [ 955.33271353791713, 723.682819167692401 ], [ 951.91215478224035, 698.131083987422585 ], [ 983.008388266581619, 691.827793411767061 ] ] ] } },
{ "type": "Feature", "properties": { "feature_type": "building", "subtype": "no-damage", "uid": "9616ad49-826e-419f-af41-d9c0fa6994bc" }, "geometry": { "type": "Polygon", "coordinates": [ [ [ 1006.599511719083011, 743.349522716738306 ], [ 1013.831268638753045, 771.911295932202165 ], [ 1003.818396034629018, 776.113158626888548 ], [ 1009.978833720483976, 802.466142057747106 ], [ 973.700700688952224, 809.995565897808319 ], [ 957.615113397993014, 752.498147501317703 ], [ 1006.599511719083011, 743.349522716738306 ] ] ] } },
{ "type": "Feature", "properties": { "feature_type": "building", "subtype": "no-damage", "uid": "78fb9ac1-af4b-4e1f-999b-f521c9367d35" }, "geometry": { "type": "Polygon", "coordinates": [ [ [ 817.467824736961347, 768.722418031092843 ], [ 823.152773280130987, 766.201101801662276 ], [ 819.358811908513644, 743.509255749261115 ], [ 822.090237821389906, 734.684648950411997 ], [ 829.023857447902742, 730.902674608345137 ], [ 834.486709275994144, 729.642016495708958 ], [ 839.529341732514013, 730.062235865201615 ], [ 844.571974190333208, 733.213881145752794 ], [ 845.622522620301652, 735.735197377262466 ], [ 848.98427758793639, 743.299146061396186 ], [ 848.984277588975942, 748.551888203964154 ], [ 846.25285167402069, 759.26748217488614 ], [ 846.673071047151552, 763.889895260096523 ], [ 849.322850492091675, 766.902221672715996 ], [ 851.377130602374791, 777.734291829596486 ], [ 852.380862279830808, 784.772400613558489 ], [ 820.60861436431037, 790.059972473109497 ], [ 817.467824736961347, 768.722418031092843 ] ] ] } },
{ "type": "Feature", "properties": { "feature_type": "building", "subtype": "no-damage", "uid": "a23fc882-6000-4ff0-b51f-991de8a0a387" }, "geometry": { "type": "Polygon", "coordinates": [ [ [ 724.073851779300526, 783.686139955572344 ], [ 744.722103863494453, 781.272707895716167 ], [ 751.157922689774409, 828.200553534522896 ], [ 754.912150342509221, 828.468712655749755 ], [ 776.633038895497521, 826.591598827952112 ], [ 776.096720659800894, 817.206029701438183 ], [ 797.5494500985792, 816.401552343994808 ], [ 800.767359511979066, 842.681145904055029 ], [ 756.52110505141809, 843.753782376488289 ], [ 757.32558240704202, 860.647806810034695 ], [ 734.800216497390352, 863.865716225255255 ], [ 724.073851779300526, 783.686139955572344 ] ] ] } },
{ "type": "Feature", "properties": { "feature_type": "building", "subtype": "no-damage", "uid": "5e497d2d-24b2-4b9d-a31f-af059b685c29" }, "geometry": { "type": "Polygon", "coordinates": [ [ [ 628.362908164409077, 800.880673444909917 ], [ 621.658930212224504, 792.567740792908239 ], [ 641.502704941574166, 783.182171662236215 ], [ 645.793250832344484, 794.17669549947891 ], [ 641.234545822946302, 800.076196093703516 ], [ 650.888274073021307, 815.093106701531269 ], [ 619.781816386506875, 831.182653777634187 ], [ 609.055451671795595, 809.729924341444303 ], [ 628.362908164409077, 800.880673444909917 ] ] ] } },
{ "type": "Feature", "properties": { "feature_type": "building", "subtype": "no-damage", "uid": "ae271572-5d07-4093-985f-0bd9f28e9f6a" }, "geometry": { "type": "Polygon", "coordinates": [ [ [ 564.613721297028178, 939.758395753544505 ], [ 568.605805326958034, 944.170699152969064 ], [ 580.161838040758084, 963.080570865382356 ], [ 612.098510263044886, 948.793112238179447 ], [ 623.864652665489416, 969.593971122665721 ], [ 562.932843813080808, 995.857681835506014 ], [ 551.166701415314151, 972.745616407374996 ], [ 557.259882301282687, 968.963642069466232 ], [ 546.544288330625818, 948.793112240258438 ], [ 564.613721297028178, 939.758395753544505 ] ] ] } },
{ "type": "Feature", "properties": { "feature_type": "building", "subtype": "no-damage", "uid": "5ff9cf89-29e1-4174-ac27-22f4bb3c1008" }, "geometry": { "type": "Polygon", "coordinates": [ [ [ 697.598591179944378, 989.489648121683899 ], [ 701.352818833198967, 988.417011651329631 ], [ 715.565252083836185, 986.808056940600864 ], [ 716.369729439460116, 992.975716651894118 ], [ 722.537389153349295, 991.366761947402438 ], [ 722.001070917652783, 981.981192816730413 ], [ 725.755298564410282, 981.17671546136603 ], [ 723.878184741811083, 973.131941926433115 ], [ 730.314003574068352, 964.819009266115245 ], [ 741.576686528114578, 964.550850149046482 ], [ 746.135391529456456, 1016.573719035029967 ], [ 725.218980331052535, 1019.791628448170968 ], [ 724.682662097175125, 1003.165763133772998 ], [ 721.196593560989299, 1002.897604018782999 ], [ 699.207545889373023, 1005.579195199866035 ], [ 697.598591179944378, 989.489648121683899 ] ] ] } },
{ "type": "Feature", "properties": { "feature_type": "building", "subtype": "no-damage", "uid": "59d6b18a-7cf1-4e2d-a156-dcb3fddce139" }, "geometry": { "type": "Polygon", "coordinates": [ [ [ 805.928772423565988, 1022.981008525428024 ], [ 805.734018428633476, 1010.057280903323999 ], [ 816.449612395392251, 1010.68760996276103 ], [ 819.601257682178925, 1002.283222533405024 ], [ 907.006886929562484, 1007.746074361759042 ], [ 906.613062033747269, 1022.979072928295977 ], [ 805.928772423565988, 1022.981008525428024 ] ] ] } },
{ "type": "Feature", "properties": { "feature_type": "building", "subtype": "no-damage", "uid": "5856d67d-29d2-49cf-973b-1fa85f3d3ada" }, "geometry": { "type": "Polygon", "coordinates": [ [ [ 1022.976516582813019, 492.279910609885974 ], [ 1018.621316170994987, 491.613408089912809 ], [ 1008.579103543083988, 490.954902343905076 ], [ 999.195396657021774, 487.168494303841328 ], [ 997.713758727985464, 479.924931095678119 ], [ 990.79944838919107, 477.949413853496992 ], [ 996.726000106635638, 454.737086298930592 ], [ 1022.97651600146105, 464.085558510244994 ], [ 1022.976516582813019, 492.279910609885974 ] ] ] } },
{ "type": "Feature", "properties": { "feature_type": "building", "subtype": "no-damage", "uid": "69a2f9be-2f03-4847-adb5-04b14c46b906" }, "geometry": { "type": "Polygon", "coordinates": [ [ [ 1022.976477569575991, 866.337000400682427 ], [ 1000.168290897549014, 874.271209830016915 ], [ 990.211951135256299, 832.679554205991849 ], [ 1022.976486281543998, 824.358403476317108 ], [ 1022.976477569575991, 866.337000400682427 ] ] ] } },
{ "type": "Feature", "properties": { "feature_type": "building", "subtype": "no-damage", "uid": "6c31e73b-804f-4066-9a24-3adf78b39599" }, "geometry": { "type": "Polygon", "coordinates": [ [ [ 865.180782289745252, 483.068058675228826 ], [ 887.362878643294039, 495.927244967689717 ], [ 898.614666649451806, 504.28571605768542 ], [ 881.576244808622846, 525.181893778516383 ], [ 869.038538175714507, 528.718170014816451 ], [ 843.64164525217052, 512.322707488134483 ], [ 865.180782289745252, 483.068058675228826 ] ] ] } },
{ "type": "Feature", "properties": { "feature_type": "building", "subtype": "no-damage", "uid": "6a4cd5ec-8f89-4261-a2ce-74ac9c48f7b6" }, "geometry": { "type": "Polygon", "coordinates": [ [ [ 944.586257641546922, 688.172080029273616 ], [ 947.158094897387173, 697.173510430046122 ], [ 933.33446963382994, 698.78090871738334 ], [ 930.762632374611371, 690.100957967841168 ], [ 944.586257641546922, 688.172080029273616 ] ] ] } },
{ "type": "Feature", "properties": { "feature_type": "building", "subtype": "destroyed", "uid": "d36c63b6-7cbf-466d-b860-00fbeb601e2c" }, "geometry": { "type": "Polygon", "coordinates": [ [ [ 0.0004521120186, 151.943427522221214 ], [ 11.635276413558559, 136.910835559682198 ], [ 27.469608302101449, 148.90654154163721 ], [ 22.55136885149815, 154.544523348332689 ], [ 30.58849185624398, 160.422419278575887 ], [ 26.270037701255749, 165.460615789915892 ], [ 25.070467105867529, 171.218554657345692 ], [ 13.79450348624489, 183.094303572329295 ], [ 10.795576992836629, 180.215334135495908 ], [ 8.876264036161352, 182.254604153426186 ], [ 4.077981645512681, 178.895806481971505 ], [ 0.000458218427088, 180.92397962576419 ], [ 0.0004521120186, 151.943427522221214 ] ] ] } },
{ "type": "Feature", "properties": { "feature_type": "building", "subtype": "no-damage", "uid": "2ba7b62b-6b20-41bc-97dc-450495e0f924" }, "geometry": { "type": "Polygon", "coordinates": [ [ [ 815.396294560653018, 554.297311371775436 ], [ 831.94694771624313, 593.764253509428841 ], [ 800.437050363105868, 607.132088744001862 ], [ 801.710177532918692, 610.633188449878844 ], [ 787.387496916249802, 615.407415323230225 ], [ 786.114369752674179, 611.906315617353243 ], [ 774.019661676225837, 616.680542490704738 ], [ 770.518561971130225, 608.723497701785618 ], [ 768.608871224337463, 609.041779492094975 ], [ 766.062616894327448, 603.949270834671324 ], [ 766.38089868203781, 600.448171126715351 ], [ 762.561517187672507, 592.491126341954441 ], [ 774.974507053910315, 587.080335887984347 ], [ 776.565916007275291, 581.669545429856157 ], [ 784.522960792812114, 579.123291103223437 ], [ 787.705778709677588, 580.396418268618845 ], [ 802.66502290696485, 572.757655274167178 ], [ 798.527359615533442, 562.890919741313155 ], [ 815.396294560653018, 554.297311371775436 ] ] ] } },
{ "type": "Feature", "properties": { "feature_type": "building", "subtype": "no-damage", "uid": "737a00ed-4f15-42a2-ab78-71eedf475398" }, "geometry": { "type": "Polygon", "coordinates": [ [ [ 895.764259858667174, 874.019110912911401 ], [ 908.813813307342457, 893.434300188310203 ], [ 917.725703466925324, 890.251482276900674 ], [ 936.82261095356489, 928.445297242921583 ], [ 910.723504058033541, 943.086259644969005 ], [ 902.766459270157839, 930.036706198626348 ], [ 900.538486732795945, 931.30983336402187 ], [ 896.719105235312099, 922.079661415944543 ], [ 899.265359566621555, 920.806534246390925 ], [ 878.577043123758244, 881.976155697672311 ], [ 895.764259858667174, 874.019110912911401 ] ] ] } },
{ "type": "Feature", "properties": { "feature_type": "building", "subtype": "no-damage", "uid": "2af34fc0-18f5-4bc6-95a9-aaf04df4c3d7" }, "geometry": { "type": "Polygon", "coordinates": [ [ [ 40.33067559446625, 749.690826693305098 ], [ 47.908528529401643, 764.585355617063556 ], [ 50.644092270918968, 763.412971157155198 ], [ 54.942835291966809, 771.815059791002909 ], [ 55.333630114448241, 777.872379507112896 ], [ 65.298898030940904, 797.802915338028811 ], [ 48.494720758835768, 806.205003971876522 ], [ 49.667105219783053, 812.848515916901192 ], [ 55.333630115227884, 814.802490016055344 ], [ 54.552040475202737, 820.85980973008634 ], [ 51.805113878770683, 830.997192118924545 ], [ 67.575489841018936, 834.905140323470164 ], [ 65.080774917797072, 842.790328300699798 ], [ 44.770807116205518, 892.20314735581394 ], [ 21.529878167963119, 882.01919909307378 ], [ 20.35749370597631, 877.915853482355033 ], [ 7.852059458557332, 872.835520819980161 ], [ 28.759582339560009, 828.871103545350593 ], [ 26.805608235988789, 825.549347573877753 ], [ 20.748288527418222, 824.18156570155918 ], [ 19.771301473163739, 814.411695197472 ], [ 21.92067298472718, 810.894541815667935 ], [ 26.372677264811468, 808.656136883907607 ], [ 27.281122147090379, 804.435294821940829 ], [ 8.820778244707522, 762.422098353496494 ], [ 21.55204990073468, 756.056462524440349 ], [ 20.278922735339869, 753.828489981879784 ], [ 33.010194393705959, 750.645672072549246 ], [ 34.601603351488997, 752.555362820642472 ], [ 40.33067559446625, 749.690826693305098 ] ] ] } },
{ "type": "Feature", "properties": { "feature_type": "building", "subtype": "destroyed", "uid": "ef64a82d-4164-4728-beb8-bad6071da48f" }, "geometry": { "type": "Polygon", "coordinates": [ [ [ 658.381943792349944, 24.22011265594551 ], [ 667.080491664161514, 22.150054395136909 ], [ 673.403601409132762, 51.773806475289383 ], [ 668.714063567942389, 52.164601298030867 ], [ 668.945773665807224, 54.686810407721588 ], [ 633.579908436225537, 60.351472807259462 ], [ 629.446235874922309, 40.60170391115777 ], [ 633.733007418957186, 39.530011026837762 ], [ 632.508215550086788, 32.64055675505049 ], [ 639.856966767726931, 30.80336895811114 ], [ 639.550768800964192, 27.741389282685262 ], [ 658.381943792349944, 24.22011265594551 ] ] ] } },
{ "type": "Feature", "properties": { "feature_type": "building", "subtype": "destroyed", "uid": "e54defd8-4c41-468e-bde7-48e31b106dbe" }, "geometry": { "type": "Polygon", "coordinates": [ [ [ 19.374592254008618, 184.717287956796298 ], [ 26.61677374801716, 185.924318202852987 ], [ 25.40974349936225, 192.925093647029996 ], [ 17.926155957337929, 191.718063400973307 ], [ 19.374592254008618, 184.717287956796298 ] ] ] } },
{ "type": "Feature", "properties": { "feature_type": "building", "subtype": "destroyed", "uid": "8b054986-10d2-43d7-8bd3-c967a25cdba4" }, "geometry": { "type": "Polygon", "coordinates": [ [ [ 448.754611088938475, 776.862907859213465 ], [ 455.278866997340174, 791.41701719974435 ], [ 459.293793711842, 789.911419684339307 ], [ 468.829244660667882, 814.502845812948749 ], [ 450.762074444890004, 823.034565083543271 ], [ 455.78073283684779, 837.588674421995165 ], [ 430.185575031573819, 845.116662011494782 ], [ 422.657587442597617, 828.053223476543053 ], [ 419.646392406071527, 830.060686830416444 ], [ 414.125868173306628, 817.012175007369592 ], [ 417.137063209572773, 815.506577489885558 ], [ 405.092283062169088, 784.89276128926042 ], [ 426.170648317071993, 777.866639540308256 ], [ 427.676245836634507, 783.387163771776386 ], [ 448.754611088938475, 776.862907859213465 ] ] ] } },
{ "type": "Feature", "properties": { "feature_type": "building", "subtype": "no-damage", "uid": "2dc4f5f6-86cf-4c77-90be-19a2008a727d" }, "geometry": { "type": "Polygon", "coordinates": [ [ [ 357.916894166902694, 1022.98276794655601 ], [ 357.916894165343422, 1014.715481969593952 ], [ 354.90569912907722, 1014.715481969593952 ], [ 353.901967450841596, 973.56248314657978 ], [ 356.41129664734018, 973.56248314657978 ], [ 361.931820878026087, 972.558751469642971 ], [ 360.92808920108979, 970.049422271064032 ], [ 388.530710363354785, 968.041958913032545 ], [ 430.687440871341323, 968.543824753579997 ], [ 432.694904227812572, 997.150177596173535 ], [ 390.03630788499629, 996.648311755626082 ], [ 390.538173721905082, 1000.663238471689056 ], [ 378.49339358047871, 1000.663238469609951 ], [ 379.497125254816126, 1016.722945329703975 ], [ 375.984064381381188, 1017.224811170251996 ], [ 375.557538545951616, 1022.982910329800006 ], [ 357.916894166902694, 1022.98276794655601 ] ] ] } },
{ "type": "Feature", "properties": { "feature_type": "building", "subtype": "no-damage", "uid": "504d8cd1-8562-46ab-bcf5-8b7292c73381" }, "geometry": { "type": "Polygon", "coordinates": [ [ [ 535.577401297252095, 876.200510309078368 ], [ 537.584864653203567, 884.230363741204428 ], [ 542.101657209551945, 884.230363741204428 ], [ 543.105388884409194, 885.234095420220228 ], [ 543.607254724956306, 908.821789869813983 ], [ 538.588596331439248, 908.319924031345636 ], [ 520.521426116700809, 908.821789869813983 ], [ 520.019560276413472, 912.334850747408723 ], [ 497.435597502987719, 912.334850747408723 ], [ 498.941195022550176, 901.795668116703609 ], [ 492.416939113368926, 902.297533959330053 ], [ 490.409475751699972, 893.765814690814636 ], [ 492.918804950277718, 885.735961258688576 ], [ 498.941195024889112, 886.237827099236029 ], [ 498.439329180963512, 877.706107828641507 ], [ 516.004633563211087, 877.706107828641507 ], [ 523.532621150628074, 874.193046953125872 ], [ 535.577401297252095, 876.200510309078368 ] ] ] } }
]
}
