{
"type": "FeatureCollection",
"name": "santa-rosa-wildfire_00000053_post_disaster",
"features": [
{ "type": "Feature", "properties": { "feature_type": "building", "subtype": "no-damage", "uid": "8e348420-66a9-4a28-8dab-b02f3520f0be" }, "geometry": { "type": "Polygon", "coordinates": [ [ [ 1022.976495957408019, 896.394246486420116 ], [ 1011.502321909822967, 911.557154036740712 ], [ 983.583345685445124, 892.289128196518277 ], [ 995.380096203022276, 874.987227437535239 ], [ 1006.783621701909055, 880.885602697886043 ], [ 1018.973597234798035, 867.515952111777096 ], [ 1022.976502230918982, 869.708036220169333 ], [ 1022.976495957408019, 896.394246486420116 ] ] ] } },
{ "type": "Feature", "properties": { "feature_type": "building", "subtype": "no-damage", "uid": "7842a1fb-bc6e-492e-8403-0109d632b01d" }, "geometry": { "type": "Polygon", "coordinates": [ [ [ 996.16654623780471, 906.445228812212235 ], [ 994.593646166940516, 936.723555137313951 ], [ 930.891193384653889, 926.106479672424939 ], [ 932.464093453698865, 899.367178504365256 ], [ 996.16654623780471, 906.445228812212235 ] ] ] } },
{ "type": "Feature", "properties": { "feature_type": "building", "subtype": "no-damage", "uid": "24dc7746-c6f7-4a42-95eb-73a23f792678" }, "geometry": { "type": "Polygon", "coordinates": [ [ [ 960.413027918745001, 947.95618782576787 ], [ 973.283730444116145, 952.001265759768216 ], [ 971.812793011137842, 958.620484202326452 ], [ 996.634862168380209, 968.181577506164786 ], [ 982.660956567170842, 1011.390364553957056 ], [ 964.458105853263191, 1000.90993535375901 ], [ 970.89345711789781, 984.178022074121259 ], [ 947.910059754412146, 975.53626466456285 ], [ 960.413027918745001, 947.95618782576787 ] ] ] } },
{ "type": "Feature", "properties": { "feature_type": "building", "subtype": "no-damage", "uid": "81196c0b-d641-4fd7-8e3e-8ef600042249" }, "geometry": { "type": "Polygon", "coordinates": [ [ [ 773.060591623084974, 1022.981516539529025 ], [ 778.221958571974028, 999.520757703044296 ], [ 800.984588738604771, 1004.918082384125 ], [ 798.168593253288122, 1017.824728355922048 ], [ 814.88462578475162, 1022.980857973625007 ], [ 773.060591623084974, 1022.981516539529025 ] ] ] } },
{ "type": "Feature", "properties": { "feature_type": "building", "subtype": "no-damage", "uid": "8951352f-886c-4eb9-8ccc-9dbd267b1c9d" }, "geometry": { "type": "Polygon", "coordinates": [ [ [ 864.404283335365335, 911.193185441708465 ], [ 883.646919146714595, 918.467840443389264 ], [ 874.964266401989221, 938.64914141686711 ], [ 883.253694131922202, 941.300234574888805 ], [ 901.012224639024112, 945.689130129512364 ], [ 898.665561736196196, 950.382455939328679 ], [ 891.860239314668661, 966.105097396183851 ], [ 877.076263016301596, 961.881104168596607 ], [ 846.569645263165967, 952.729118844236723 ], [ 864.404283335365335, 911.193185441708465 ] ] ] } },
{ "type": "Feature", "properties": { "feature_type": "building", "subtype": "no-damage", "uid": "c92bb30d-c67e-47dc-a70b-15c44ddc8d79" }, "geometry": { "type": "Polygon", "coordinates": [ [ [ 726.497670637544957, 984.956824698324453 ], [ 750.902964838598109, 990.119483086211744 ], [ 748.086969356919781, 1010.300784059690045 ], [ 771.553598393515358, 1012.882113253632951 ], [ 768.782383766657404, 1022.981578405603955 ], [ 714.717648086378063, 1022.982272336024948 ], [ 726.497670637544957, 984.956824698324453 ] ] ] } },
{ "type": "Feature", "properties": { "feature_type": "building", "subtype": "no-damage", "uid": "d2afbab3-b5e5-482c-8416-e5d2f4d90ab1" }, "geometry": { "type": "Polygon", "coordinates": [ [ [ 663.017988883948988, 966.203927550727485 ], [ 679.933769345137648, 968.226466517727772 ], [ 681.772441137075248, 972.45541163432631 ], [ 704.020369786020865, 980.913301859207422 ], [ 706.042908750681136, 977.419825464685687 ], [ 717.07493948541412, 979.44236443168586 ], [ 709.904119511696877, 1007.390175629440023 ], [ 685.817519070293997, 1004.080566405042987 ], [ 686.920722144313004, 997.829082325601917 ], [ 657.497003140073048, 986.856683854838707 ], [ 659.340645304491886, 975.948888033006142 ], [ 663.017988883948988, 966.203927550727485 ] ] ] } },
{ "type": "Feature", "properties": { "feature_type": "building", "subtype": "no-damage", "uid": "506ad452-8b17-4cec-92dc-69f66ba106db" }, "geometry": { "type": "Polygon", "coordinates": [ [ [ 808.904939587202648, 907.183162520160522 ], [ 839.610758470121027, 910.676638922998336 ], [ 835.565680531704629, 947.450074702514257 ], [ 816.259626744037746, 946.346871631873114 ], [ 816.627361103256931, 939.543786010874669 ], [ 804.49212729528449, 938.072848581274116 ], [ 808.904939587202648, 907.183162520160522 ] ] ] } },
{ "type": "Feature", "properties": { "feature_type": "building", "subtype": "no-damage", "uid": "0f0ed7a1-5e97-4a53-baae-cfb4b0f0577d" }, "geometry": { "type": "Polygon", "coordinates": [ [ [ 572.984446213892284, 822.696314977285283 ], [ 599.750762210012681, 820.965856254549294 ], [ 600.924093660127255, 835.690755640253656 ], [ 625.564054156452926, 827.712101765229363 ], [ 630.25737996314831, 849.038016413959213 ], [ 574.876135424651693, 862.442712746226789 ], [ 572.984446213892284, 822.696314977285283 ] ] ] } },
{ "type": "Feature", "properties": { "feature_type": "building", "subtype": "no-damage", "uid": "67f6659d-d30b-4e1b-9c49-2d1ae2bb01fc" }, "geometry": { "type": "Polygon", "coordinates": [ [ [ 650.695822445911631, 827.529329708013393 ], [ 699.375952710149249, 823.215900447361491 ], [ 700.916463161680781, 842.318230040644039 ], [ 651.003924537777266, 846.631659307533255 ], [ 650.695822445911631, 827.529329708013393 ] ] ] } },
{ "type": "Feature", "properties": { "feature_type": "building", "subtype": "no-damage", "uid": "20db7ca0-f47e-4710-b87b-b91187aca869" }, "geometry": { "type": "Polygon", "coordinates": [ [ [ 852.754312201269499, 786.597790142176223 ], [ 855.880713602904962, 786.073487143184479 ], [ 880.149885033139526, 790.486063768330382 ], [ 881.54333028348583, 786.189607579977064 ], [ 898.613034593861244, 788.744257206046314 ], [ 895.477782781751444, 805.3494797630226 ], [ 884.910822972819005, 805.465600201894176 ], [ 885.607545594093949, 809.413695075711644 ], [ 892.470038935428533, 811.764191244828453 ], [ 889.717463816029181, 828.672866983821223 ], [ 842.530461752477322, 821.201591660142185 ], [ 852.754312201269499, 786.597790142176223 ] ] ] } },
{ "type": "Feature", "properties": { "feature_type": "building", "subtype": "no-damage", "uid": "3d63fe4b-f95f-4f4b-9881-80e70dbb52c8" }, "geometry": { "type": "Polygon", "coordinates": [ [ [ 914.551402334460704, 771.989336087356605 ], [ 938.384044870193748, 757.614091380377431 ], [ 951.435253881414951, 776.150591137013521 ], [ 966.756238373108317, 764.990861690291581 ], [ 966.756238373368205, 764.23426986459333 ], [ 973.943860727374158, 758.181535250690672 ], [ 974.322156639443392, 756.47920364182994 ], [ 979.240003512197404, 754.587724077584198 ], [ 990.399732953976127, 771.23274426581645 ], [ 971.295789334312758, 782.581621663765304 ], [ 973.943860726334606, 787.877764449890606 ], [ 947.463146791043187, 800.361529586386837 ], [ 935.357677568181543, 782.014177791372958 ], [ 918.901805333523271, 788.066912407354721 ], [ 914.551402334460704, 771.989336087356605 ] ] ] } },
{ "type": "Feature", "properties": { "feature_type": "building", "subtype": "no-damage", "uid": "afe4a271-39e2-42ed-9eac-ef514b635c95" }, "geometry": { "type": "Polygon", "coordinates": [ [ [ 898.090632903649293, 696.651577211320273 ], [ 920.111233866380189, 688.3938518538979 ], [ 937.806359638328104, 726.929903536421989 ], [ 878.036157027874197, 753.669204704481558 ], [ 870.171656683169203, 734.007953848427064 ], [ 909.100933385664462, 718.27895315693047 ], [ 902.022883078080781, 699.404152330460988 ], [ 898.090632903649293, 696.651577211320273 ] ] ] } },
{ "type": "Feature", "properties": { "feature_type": "building", "subtype": "no-damage", "uid": "4470b16d-ad5f-43c3-a075-19dc7614d302" }, "geometry": { "type": "Polygon", "coordinates": [ [ [ 715.936473728038436, 755.01095098618589 ], [ 725.109903617607984, 739.078151705388564 ], [ 732.593491158332881, 744.38908479760164 ], [ 738.62864240134752, 748.010175544087929 ], [ 741.766921043224443, 745.596115047816511 ], [ 749.733320684658793, 748.975799743428183 ], [ 747.319260185789631, 754.045326784766644 ], [ 784.254385787145452, 765.391411119737427 ], [ 776.770798247719995, 787.600767690008979 ], [ 735.248957703918336, 767.564065571371543 ], [ 735.973175851603969, 766.598441367873193 ], [ 723.902873369732674, 761.528914326534732 ], [ 722.695843118478933, 758.632041728514082 ], [ 715.936473728038436, 755.01095098618589 ] ] ] } },
{ "type": "Feature", "properties": { "feature_type": "building", "subtype": "no-damage", "uid": "3e035049-e811-44dc-94c9-81bf2542922f" }, "geometry": { "type": "Polygon", "coordinates": [ [ [ 575.66757822112686, 746.69646483184772 ], [ 627.359759672741689, 745.69273315283192 ], [ 626.857893833753792, 769.280427600346684 ], [ 575.667578223985515, 771.287890958378171 ], [ 575.66757822112686, 746.69646483184772 ] ] ] } },
{ "type": "Feature", "properties": { "feature_type": "building", "subtype": "no-damage", "uid": "d9d1d1b1-e0f1-4252-8144-151d4957f31a" }, "geometry": { "type": "Polygon", "coordinates": [ [ [ 572.656383184081051, 688.981893304034202 ], [ 608.790723618755464, 686.97442994392361 ], [ 615.81684536874377, 687.476295786550054 ], [ 615.314979533134419, 731.640489650769382 ], [ 583.697431651689726, 732.644221329785182 ], [ 585.203029169952856, 715.078916950127905 ], [ 589.217955886533673, 713.071453594175409 ], [ 589.217955885754009, 708.052795199096522 ], [ 570.147053986802689, 708.052795199096522 ], [ 572.656383184081051, 688.981893304034202 ] ] ] } },
{ "type": "Feature", "properties": { "feature_type": "building", "subtype": "no-damage", "uid": "89e9aca5-892c-4ba0-8a80-0925d4374db6" }, "geometry": { "type": "Polygon", "coordinates": [ [ [ 572.648898678456817, 624.167293210802313 ], [ 618.263000676342244, 627.313093345775201 ], [ 617.083325625208204, 672.927195340304252 ], [ 584.445649197593298, 670.961070254906645 ], [ 586.80499930064093, 655.62529458547931 ], [ 572.255673661845321, 652.086269428437276 ], [ 572.648898678456817, 624.167293210802313 ] ] ] } },
{ "type": "Feature", "properties": { "feature_type": "building", "subtype": "no-damage", "uid": "6037fb83-36dd-46ba-81de-8837546cfd03" }, "geometry": { "type": "Polygon", "coordinates": [ [ [ 810.721134652353953, 628.013547245375435 ], [ 856.346878043089646, 653.119776409509427 ], [ 832.689085172000091, 689.572089910693421 ], [ 792.374274877892844, 667.121327293705349 ], [ 801.064892667532604, 653.843994557975066 ], [ 807.341449955964208, 644.187752574968272 ], [ 803.720359212078506, 638.394007383085068 ], [ 810.721134652353953, 628.013547245375435 ] ] ] } },
{ "type": "Feature", "properties": { "feature_type": "building", "subtype": "no-damage", "uid": "9bdb6d0c-8d57-4acf-856d-7e63b4638c95" }, "geometry": { "type": "Polygon", "coordinates": [ [ [ 853.691411496464639, 666.397109141081614 ], [ 865.037495831949627, 672.915072485588553 ], [ 855.622659891245917, 685.950999166286124 ], [ 862.382029284025293, 691.020526211782794 ], [ 866.727338176895955, 690.779120162987283 ], [ 875.659362014551448, 678.226005577801629 ], [ 889.902318948835386, 686.916623369784475 ], [ 862.864841383954968, 732.059554654635122 ], [ 827.378152080569294, 704.780671040946004 ], [ 853.691411496464639, 666.397109141081614 ] ] ] } },
{ "type": "Feature", "properties": { "feature_type": "building", "subtype": "no-damage", "uid": "988cd8ea-1d1f-4762-8aeb-bb1809b849c8" }, "geometry": { "type": "Polygon", "coordinates": [ [ [ 958.78084232276035, 606.938321953940545 ], [ 980.0398865507766, 590.300809076872383 ], [ 989.591051347153439, 604.165403139363207 ], [ 994.212582704086913, 602.316790599083788 ], [ 1005.920462131308, 611.867955398843719 ], [ 1011.466299757601973, 614.332772121295307 ], [ 1009.925789304771001, 627.273059913646534 ], [ 1022.976536835546995, 649.271746812120909 ], [ 1022.976536605812043, 651.829510958602896 ], [ 1020.02837905141098, 654.22784392878134 ], [ 1006.844768403787043, 666.093923288621113 ], [ 984.969519994637949, 646.06728742104076 ], [ 973.569742653304729, 632.202693360628814 ], [ 967.715802939823902, 623.267732738883069 ], [ 969.256313391355434, 618.646201381947321 ], [ 960.629454862519083, 610.94364912870401 ], [ 958.78084232276035, 606.938321953940545 ] ] ] } },
{ "type": "Feature", "properties": { "feature_type": "building", "subtype": "no-damage", "uid": "4c1d6b99-9919-489b-9740-26375bdcc395" }, "geometry": { "type": "Polygon", "coordinates": [ [ [ 1000.374624507614044, 474.146321044074114 ], [ 1022.976542638415026, 486.526033262691215 ], [ 1022.976542803958978, 501.43647232110601 ], [ 1008.713724635602944, 531.834488926253243 ], [ 991.966996983406261, 559.753465148046189 ], [ 982.504703272707275, 553.020456154209683 ], [ 966.175292484913939, 539.772066271811809 ], [ 983.120907453059999, 525.291268029227808 ], [ 975.418355194362903, 520.669736676450157 ], [ 1000.374624507614044, 474.146321044074114 ] ] ] } },
{ "type": "Feature", "properties": { "feature_type": "building", "subtype": "no-damage", "uid": "17ee0e08-b246-40be-8601-bca4340e8084" }, "geometry": { "type": "Polygon", "coordinates": [ [ [ 825.772202225945421, 497.758342595544491 ], [ 874.95505448132144, 526.364695438138028 ], [ 865.354407511505201, 543.496504207188991 ], [ 823.740281629135893, 520.291678583224098 ], [ 815.421525191385513, 516.286351410539623 ], [ 825.772202225945421, 497.758342595544491 ] ] ] } },
{ "type": "Feature", "properties": { "feature_type": "building", "subtype": "no-damage", "uid": "ff1d06ae-8407-4c4b-84c2-bfaeb0c339b3" }, "geometry": { "type": "Polygon", "coordinates": [ [ [ 971.46995673794288, 420.594524429342016 ], [ 990.540858633775542, 456.728864861435227 ], [ 925.298299517013902, 490.855741937575885 ], [ 905.72553178349267, 465.260584129950587 ], [ 923.63985612414308, 453.247870027193983 ], [ 923.792702000829877, 439.665426326483384 ], [ 928.309494555099263, 433.14117041392052 ], [ 957.417713239265481, 420.092658586715572 ], [ 971.46995673794288, 420.594524429342016 ] ] ] } },
{ "type": "Feature", "properties": { "feature_type": "building", "subtype": "no-damage", "uid": "f77140b3-2eae-4bd1-9c62-44653ae2fbb1" }, "geometry": { "type": "Polygon", "coordinates": [ [ [ 758.441420785513287, 485.958392344862602 ], [ 798.49469251935534, 485.65029025897411 ], [ 800.651407149940155, 512.763274201783815 ], [ 781.857179643074915, 519.541520184887418 ], [ 760.598135417657431, 520.157724367059586 ], [ 758.441420785513287, 485.958392344862602 ] ] ] } },
{ "type": "Feature", "properties": { "feature_type": "building", "subtype": "no-damage", "uid": "3387868f-51b5-48a3-88e4-d584942c72a0" }, "geometry": { "type": "Polygon", "coordinates": [ [ [ 246.417687359240603, 0.00546591986137 ], [ 215.038509003287402, 47.541657859405781 ], [ 207.554921459963708, 44.161973167952169 ], [ 203.209612570211505, 46.57603366214461 ], [ 195.001806876603297, 42.148659179827547 ], [ 197.883787569093187, 36.683530999231643 ], [ 191.139310082103009, 32.333076733311252 ], [ 212.138436296382196, 0.004926589140002 ], [ 246.417687359240603, 0.00546591986137 ] ] ] } },
{ "type": "Feature", "properties": { "feature_type": "building", "subtype": "no-damage", "uid": "0d612635-da37-4d6b-8008-6eb7d19485a4" }, "geometry": { "type": "Polygon", "coordinates": [ [ [ 253.663476950109299, 103.547861387873297 ], [ 281.907984761825503, 139.275956738512491 ], [ 265.641705278939014, 152.486593428833686 ], [ 233.976194842672186, 116.875950345625597 ], [ 253.663476950109299, 103.547861387873297 ] ] ] } },
{ "type": "Feature", "properties": { "feature_type": "building", "subtype": "no-damage", "uid": "6ef50fd2-2209-4167-9cd3-89f53cc1a579" }, "geometry": { "type": "Polygon", "coordinates": [ [ [ 129.389101274933296, 139.541138416853499 ], [ 149.595417032135487, 148.8627706787764 ], [ 134.052226179766905, 177.704705526871209 ], [ 117.077392742967206, 169.475488575609603 ], [ 112.183773335264604, 167.339362651752111 ], [ 120.041440207876605, 154.580105913729199 ], [ 129.389101274933296, 139.541138416853499 ] ] ] } },
{ "type": "Feature", "properties": { "feature_type": "building", "subtype": "no-damage", "uid": "b892f30b-5bd3-4770-b107-ed3986f50144" }, "geometry": { "type": "Polygon", "coordinates": [ [ [ 92.212569624262301, 212.687171468016913 ], [ 112.999518699612395, 222.386235977237789 ], [ 98.053754881529414, 249.173072404075299 ], [ 77.003988496615889, 240.448867181376102 ], [ 92.212569624262301, 212.687171468016913 ] ] ] } },
{ "type": "Feature", "properties": { "feature_type": "building", "subtype": "no-damage", "uid": "324a9775-7fa5-4e73-918b-3a8d60c98909" }, "geometry": { "type": "Polygon", "coordinates": [ [ [ 50.211366067002629, 279.964915228088728 ], [ 64.212916948852822, 255.824310263294791 ], [ 84.753842433375993, 268.224604930461624 ], [ 80.964814509141021, 274.077966359758875 ], [ 70.917287642611285, 292.28124130599042 ], [ 50.211366067002629, 279.964915228088728 ] ] ] } },
{ "type": "Feature", "properties": { "feature_type": "building", "subtype": "no-damage", "uid": "1f9986ff-71b9-48d3-baa6-0e2c92ea2b93" }, "geometry": { "type": "Polygon", "coordinates": [ [ [ 17.34067370021835, 274.989003688304308 ], [ 35.56956562647197, 285.955979319051323 ], [ 41.201255816270738, 290.253848144198514 ], [ 42.979684293293239, 292.180478999288084 ], [ 46.83294600061204, 285.955979319051323 ], [ 59.874754860870411, 290.994860014259416 ], [ 56.910707393622147, 297.367562071003192 ], [ 66.988468780135236, 302.406442762053189 ], [ 54.53946942044724, 320.635334687795989 ], [ 30.827089678822759, 307.297121084912419 ], [ 33.939339516340873, 304.036668870365986 ], [ 9.485947911672589, 285.659574570195275 ], [ 17.34067370021835, 274.989003688304308 ] ] ] } },
{ "type": "Feature", "properties": { "feature_type": "building", "subtype": "no-damage", "uid": "58552d03-ea2c-4fe9-a393-b14a32ddc59a" }, "geometry": { "type": "Polygon", "coordinates": [ [ [ 241.671991579606413, 266.880437988077915 ], [ 275.151179908321012, 257.990484026766978 ], [ 280.636470649308876, 272.176580772124112 ], [ 289.904720529701478, 269.906805297108178 ], [ 293.876827616434809, 288.821600962435411 ], [ 265.882930030787122, 292.604560095084878 ], [ 264.278119043565994, 283.968054626148216 ], [ 246.211542538471804, 287.686713223887921 ], [ 241.671991579606413, 266.880437988077915 ] ] ] } },
{ "type": "Feature", "properties": { "feature_type": "building", "subtype": "no-damage", "uid": "12453528-9e60-4827-8ff4-51b3eda7b3a5" }, "geometry": { "type": "Polygon", "coordinates": [ [ [ 273.791803914388822, 299.229393125694685 ], [ 288.167048622920277, 298.472801295838281 ], [ 287.788752711630707, 313.037193966518828 ], [ 272.846064131486798, 312.469750092047377 ], [ 273.791803914388822, 299.229393125694685 ] ] ] } },
{ "type": "Feature", "properties": { "feature_type": "building", "subtype": "no-damage", "uid": "dec447d3-4f64-4e0d-916f-9e101de4e737" }, "geometry": { "type": "Polygon", "coordinates": [ [ [ 264.334406085628075, 323.818627492075279 ], [ 303.109737198386426, 322.30544384067872 ], [ 303.109737198646314, 348.407861860534979 ], [ 288.923640448358412, 350.110193469395711 ], [ 288.356196578565175, 347.272974119908497 ], [ 263.766962215574893, 347.272974117829392 ], [ 264.334406085628075, 323.818627492075279 ] ] ] } },
{ "type": "Feature", "properties": { "feature_type": "building", "subtype": "no-damage", "uid": "e2199181-33a1-4318-bc02-185ba40ffe86" }, "geometry": { "type": "Polygon", "coordinates": [ [ [ 157.53222978840239, 293.935174724424314 ], [ 201.898930790690798, 302.870135344091011 ], [ 199.12601197611491, 322.588669119545784 ], [ 179.715580287857392, 319.199546126954488 ], [ 176.942661474840804, 333.064140191524473 ], [ 151.0620858935294, 328.442608836667773 ], [ 157.53222978840239, 293.935174724424314 ] ] ] } },
{ "type": "Feature", "properties": { "feature_type": "building", "subtype": "no-damage", "uid": "553d44e1-658c-4698-8049-98fbb8d30487" }, "geometry": { "type": "Polygon", "coordinates": [ [ [ 236.914672447235688, 336.293733866598473 ], [ 250.344177372865204, 334.780550215201913 ], [ 252.424804895353702, 352.560458141981599 ], [ 262.827942511174626, 353.695345882608081 ], [ 262.449646601444215, 371.096957894459592 ], [ 228.592162354683012, 370.907809939074525 ], [ 226.889830744003888, 356.721713185401427 ], [ 235.401488796099699, 355.397677489389821 ], [ 236.914672447235688, 336.293733866598473 ] ] ] } },
{ "type": "Feature", "properties": { "feature_type": "building", "subtype": "no-damage", "uid": "15497557-4e0e-4668-bd8c-26c438a6bc44" }, "geometry": { "type": "Polygon", "coordinates": [ [ [ 146.903398996265906, 350.641409370829081 ], [ 167.108355118751092, 350.873650244414307 ], [ 165.366548555688212, 370.614124617659911 ], [ 193.583814862077304, 372.820412927114319 ], [ 197.285697175671288, 345.688489784130525 ], [ 210.881102814819997, 346.809434933804198 ], [ 207.053785610833899, 385.245299738766789 ], [ 198.5769936711838, 387.799949364836209 ], [ 144.58099024508229, 383.967974927811213 ], [ 145.858315058896011, 352.731577247649 ], [ 146.903398996265906, 350.641409370829081 ] ] ] } },
{ "type": "Feature", "properties": { "feature_type": "building", "subtype": "no-damage", "uid": "b67941eb-aa50-4ef8-9ede-c5abebcfbc5b" }, "geometry": { "type": "Polygon", "coordinates": [ [ [ 311.011107195007526, 145.38719949745709 ], [ 337.199784871043221, 137.376545147929988 ], [ 354.453501927156594, 188.829594223130186 ], [ 347.983358029944611, 196.840248574736307 ], [ 323.335190808558991, 203.002290379825808 ], [ 311.011107195007526, 145.38719949745709 ] ] ] } },
{ "type": "Feature", "properties": { "feature_type": "building", "subtype": "no-damage", "uid": "22ebb773-7253-44db-a54c-c678506869e6" }, "geometry": { "type": "Polygon", "coordinates": [ [ [ 521.125483470454128, 268.563626644336125 ], [ 543.817652144282874, 251.182391066607607 ], [ 566.341612318003513, 282.590555634345378 ], [ 542.127809792059907, 301.153443350238319 ], [ 521.125483470454128, 268.563626644336125 ] ] ] } },
{ "type": "Feature", "properties": { "feature_type": "building", "subtype": "no-damage", "uid": "21f47e83-6c3d-467b-9483-a3059779f250" }, "geometry": { "type": "Polygon", "coordinates": [ [ [ 627.102739281201366, 336.157320550332827 ], [ 611.652752102420664, 346.537780683884421 ], [ 602.13999999959276, 334.490000002960414 ], [ 604.908612543301729, 330.332408361797093 ], [ 616.963685194891013, 321.431551519750315 ], [ 627.102739281201366, 336.157320550332827 ] ] ] } },
{ "type": "Feature", "properties": { "feature_type": "building", "subtype": "no-damage", "uid": "113c9485-afd6-44e1-bfb3-3dd5accbd19b" }, "geometry": { "type": "Polygon", "coordinates": [ [ [ 594.5129225750552, 300.187819152977113 ], [ 585.822304784895778, 307.188594586758882 ], [ 600.669999999201764, 330.219999999731215 ], [ 600.449999998754379, 332.959999999587978 ], [ 586.063710834210951, 340.744035494080322 ], [ 566.751226863008924, 314.430776079731402 ], [ 559.909221614687226, 318.652131193319008 ], [ 552.266863879149923, 307.912812741461607 ], [ 584.132462440209224, 288.358922716257098 ], [ 587.753553185134479, 288.117516667461587 ], [ 594.5129225750552, 300.187819152977113 ] ] ] } },
{ "type": "Feature", "properties": { "feature_type": "building", "subtype": "no-damage", "uid": "f56d83bc-3f8e-4714-8587-217e2827abec" }, "geometry": { "type": "Polygon", "coordinates": [ [ [ 378.869894232360991, 335.025038110174023 ], [ 399.766428879605883, 330.875371655296703 ], [ 401.396654986358612, 337.84088320559448 ], [ 409.251380775424025, 335.914252348425691 ], [ 415.031273338091523, 377.114512148342328 ], [ 387.465631889927806, 380.374964362888818 ], [ 381.982144073257587, 366.7403460111492 ], [ 387.317429515759784, 365.554727028199522 ], [ 378.869894232360991, 335.025038110174023 ] ] ] } },
{ "type": "Feature", "properties": { "feature_type": "building", "subtype": "no-damage", "uid": "3fc0480a-6234-4009-8772-6526df21cad4" }, "geometry": { "type": "Polygon", "coordinates": [ [ [ 414.838390000351126, 326.219392100279208 ], [ 430.062910942808628, 321.98209717577879 ], [ 438.254776815628418, 343.492613705477083 ], [ 421.597759389752127, 346.148080252623174 ], [ 414.838390000351126, 326.219392100279208 ] ] ] } },
{ "type": "Feature", "properties": { "feature_type": "building", "subtype": "no-damage", "uid": "ed42b1b4-3875-4d59-babb-34e787b08613" }, "geometry": { "type": "Polygon", "coordinates": [ [ [ 459.095619858659688, 431.072472304470978 ], [ 456.706937476778876, 441.294162247628094 ], [ 468.294427863138424, 445.42344320375588 ], [ 504.022523212980673, 460.606646224036979 ], [ 497.263153824099504, 477.746475750891022 ], [ 473.846767004144283, 468.331639810442482 ], [ 471.915518605464911, 473.401166853860104 ], [ 424.117120771412374, 453.364464731064515 ], [ 430.709999998388128, 439.229999998258108 ], [ 433.635448485437507, 440.919268484521183 ], [ 441.37000000135771, 425.189999999841973 ], [ 459.095619858659688, 431.072472304470978 ] ] ] } },
{ "type": "Feature", "properties": { "feature_type": "building", "subtype": "no-damage", "uid": "9f332ac1-b918-4c79-b5b1-475345e33f6e" }, "geometry": { "type": "Polygon", "coordinates": [ [ [ 119.253037110963007, 443.927364606450908 ], [ 161.409767616090789, 442.923632927435222 ], [ 161.524105961873602, 448.787172185856718 ], [ 182.989998712580189, 448.444157163061391 ], [ 183.456951617260103, 465.523309550241891 ], [ 120.912227287679599, 467.680024180567898 ], [ 119.253037110963007, 443.927364606450908 ] ] ] } },
{ "type": "Feature", "properties": { "feature_type": "building", "subtype": "no-damage", "uid": "4ebe5706-b4fa-4039-9d29-c205d1e4e73a" }, "geometry": { "type": "Polygon", "coordinates": [ [ [ 196.505486607853811, 446.834303879653305 ], [ 211.494241832534811, 445.496673682661424 ], [ 212.418548100854906, 443.33995904817732 ], [ 226.591244253125609, 444.572367410442723 ], [ 226.591244257543593, 480.620311974998117 ], [ 196.397239409604992, 482.777026607403172 ], [ 196.505486607853811, 446.834303879653305 ] ] ] } },
{ "type": "Feature", "properties": { "feature_type": "building", "subtype": "no-damage", "uid": "de455a7a-8f95-4bce-97c0-051b6cc6dbd9" }, "geometry": { "type": "Polygon", "coordinates": [ [ [ 238.977429731738596, 449.844884054355475 ], [ 275.940581346758222, 451.024559106009917 ], [ 277.513481416842581, 489.167385774780826 ], [ 257.459005538728604, 490.740285842267213 ], [ 255.886105470983097, 473.831610105353377 ], [ 249.45664896074581, 473.35326215957781 ], [ 249.201280177672004, 469.112909894578024 ], [ 238.190979697475996, 468.326459862913794 ], [ 238.977429731738596, 449.844884054355475 ] ] ] } },
{ "type": "Feature", "properties": { "feature_type": "building", "subtype": "no-damage", "uid": "2c2678c6-316d-4d77-b07c-48bb3a5afc76" }, "geometry": { "type": "Polygon", "coordinates": [ [ [ 314.208752949100585, 437.081514335631084 ], [ 337.990211145025626, 438.92052733253189 ], [ 337.840959873510826, 462.905348824426881 ], [ 354.983823817850123, 465.106575928801078 ], [ 355.441177183829325, 486.194540723194621 ], [ 302.462475355121683, 485.956264502803492 ], [ 302.005121990701923, 468.927738896442406 ], [ 313.54803629392012, 468.505298462691997 ], [ 314.208752949100585, 437.081514335631084 ] ] ] } },
{ "type": "Feature", "properties": { "feature_type": "building", "subtype": "no-damage", "uid": "5f08617b-0561-4bd9-b1fd-d1170541efb8" }, "geometry": { "type": "Polygon", "coordinates": [ [ [ 395.514537884889705, 512.764296722834615 ], [ 394.898333708695077, 520.158746890189491 ], [ 439.573136798431108, 537.720566037397361 ], [ 426.32474691707921, 575.61712314015324 ], [ 399.827967152556425, 566.682162524644582 ], [ 402.600885964793292, 558.979610263085078 ], [ 380.109433373992488, 549.428445465404252 ], [ 379.899999999259592, 549.360000001142453 ], [ 385.153976157399825, 531.305970998618818 ], [ 369.139999998425708, 525.330000001374515 ], [ 369.633962302538691, 525.396482425139311 ], [ 377.952718739769409, 507.526561187884909 ], [ 395.514537884889705, 512.764296722834615 ] ] ] } },
{ "type": "Feature", "properties": { "feature_type": "building", "subtype": "no-damage", "uid": "33797c4c-9897-41c7-9e4e-ece4d77b0d7d" }, "geometry": { "type": "Polygon", "coordinates": [ [ [ 378.883795818873125, 530.654306272149142 ], [ 373.129999997704772, 547.239999999948168 ], [ 353.612653611028975, 541.109689025830676 ], [ 358.542287052291613, 523.855971974906424 ], [ 378.883795818873125, 530.654306272149142 ] ] ] } },
{ "type": "Feature", "properties": { "feature_type": "building", "subtype": "no-damage", "uid": "0fe09422-690a-482e-8d17-1a9a60a5b967" }, "geometry": { "type": "Polygon", "coordinates": [ [ [ 121.025290843441198, 480.340266142970222 ], [ 154.916520773236186, 477.259245240425514 ], [ 157.073235408758791, 499.442595742490028 ], [ 136.738497450621793, 501.291208282769389 ], [ 136.122293267410413, 493.896758115414627 ], [ 132.768370372752912, 493.66667434017819 ], [ 130.693537143496087, 491.591841110660596 ], [ 122.944087449314694, 492.094934948213677 ], [ 121.025290843441198, 480.340266142970222 ] ] ] } },
{ "type": "Feature", "properties": { "feature_type": "building", "subtype": "no-damage", "uid": "b19834cd-9c6b-484c-813b-55a68b18434f" }, "geometry": { "type": "Polygon", "coordinates": [ [ [ 124.448677980354702, 513.502403519409427 ], [ 148.012855347551294, 512.90959402585554 ], [ 148.902069588921194, 529.656462217713511 ], [ 162.833092685871691, 529.063652724159624 ], [ 163.870509296471909, 550.552996866527792 ], [ 125.041487471569397, 550.997603985653654 ], [ 124.448677980354702, 513.502403519409427 ] ] ] } },
{ "type": "Feature", "properties": { "feature_type": "building", "subtype": "no-damage", "uid": "e040b2a1-0203-424f-8fbb-4984ae6f61ae" }, "geometry": { "type": "Polygon", "coordinates": [ [ [ 127.654818623411401, 594.497258867287883 ], [ 152.244236430740187, 592.922031459035566 ], [ 153.28165304731769, 615.152387465227548 ], [ 131.271291826045314, 617.189015714201105 ], [ 130.958093363910308, 607.775856232757405 ], [ 128.976463810580299, 608.186875914929828 ], [ 127.654818623411401, 594.497258867287883 ] ] ] } },
{ "type": "Feature", "properties": { "feature_type": "building", "subtype": "no-damage", "uid": "20487577-98ff-47db-8233-6c15ed683f43" }, "geometry": { "type": "Polygon", "coordinates": [ [ [ 152.300201880749597, 673.254232310274006 ], [ 159.542383369560611, 669.633141561708726 ], [ 164.611910415054695, 666.012050819380534 ], [ 168.233001161539192, 664.322208471574754 ], [ 184.927055778473289, 694.910043706355168 ], [ 170.547975996186409, 702.657031504906286 ], [ 152.300201880749597, 673.254232310274006 ] ] ] } },
{ "type": "Feature", "properties": { "feature_type": "building", "subtype": "no-damage", "uid": "292a0c69-5cb0-48a8-9135-edece71f41fe" }, "geometry": { "type": "Polygon", "coordinates": [ [ [ 265.3624112487866, 750.848455120145672 ], [ 266.844434983190411, 757.665764296015482 ], [ 239.278793534247086, 779.006906061876634 ], [ 228.904627395499688, 767.298918567305805 ], [ 241.057222012569014, 757.517561921587458 ], [ 227.989999999293701, 743.280000002703787 ], [ 245.880000002154901, 728.050000002126694 ], [ 265.3624112487866, 750.848455120145672 ] ] ] } },
{ "type": "Feature", "properties": { "feature_type": "building", "subtype": "no-damage", "uid": "bf9066f8-bd30-4fe1-8805-8536dfff99c7" }, "geometry": { "type": "Polygon", "coordinates": [ [ [ 242.537569291086612, 724.129857712781245 ], [ 243.499999998353786, 725.260000002947891 ], [ 225.819999999298091, 740.920000001021322 ], [ 212.750568700841796, 726.691468260943111 ], [ 200.894378827430813, 736.028217781298281 ], [ 190.393862562344196, 722.922827464645479 ], [ 200.774322696410508, 711.33533707880008 ], [ 205.843849740605208, 714.23220967682073 ], [ 211.879000984919287, 708.921276584607654 ], [ 215.741497778899799, 709.645494730994301 ], [ 222.983679266411286, 701.920501142509693 ], [ 242.537569291086612, 724.129857712781245 ] ] ] } },
{ "type": "Feature", "properties": { "feature_type": "building", "subtype": "no-damage", "uid": "e8c83a24-3245-415d-9a47-2862386dfc98" }, "geometry": { "type": "Polygon", "coordinates": [ [ [ 324.412236575964187, 664.014309050775182 ], [ 356.378241250684198, 652.854579610290443 ], [ 362.24182790686001, 668.175564096273888 ], [ 328.573491623020288, 676.687222148893625 ], [ 324.412236575964187, 664.014309050775182 ] ] ] } },
{ "type": "Feature", "properties": { "feature_type": "building", "subtype": "no-damage", "uid": "9dd238b2-35c3-45d0-9566-b22343b90380" }, "geometry": { "type": "Polygon", "coordinates": [ [ [ 511.688052306102293, 656.004541467043509 ], [ 482.195780002590084, 672.603207286552447 ], [ 470.440000000189684, 649.360000000830951 ], [ 479.788744216043199, 646.853474123226988 ], [ 466.974701884787521, 619.350163753537004 ], [ 459.996204181177291, 618.448102093374814 ], [ 461.151042982996387, 600.132246704786553 ], [ 487.086458325446927, 599.243032462376732 ], [ 511.688052306102293, 656.004541467043509 ] ] ] } },
{ "type": "Feature", "properties": { "feature_type": "building", "subtype": "no-damage", "uid": "564f7ecb-720c-4548-9ecc-dd317d685e89" }, "geometry": { "type": "Polygon", "coordinates": [ [ [ 258.630639209774586, 772.76694802505574 ], [ 263.737634036354223, 769.362284803176181 ], [ 263.737634035574615, 766.335917500382948 ], [ 272.627588000779326, 761.985514497420127 ], [ 294.75789892817221, 788.65537638343153 ], [ 267.898889085749204, 813.622906664740412 ], [ 255.225975985817712, 798.301922174598758 ], [ 267.520593172120584, 786.574748859642682 ], [ 259.576378991637114, 775.982463289471184 ], [ 258.630639209774586, 772.76694802505574 ] ] ] } },
{ "type": "Feature", "properties": { "feature_type": "building", "subtype": "no-damage", "uid": "8a6f3f59-7b68-4c6f-9209-045d59bc52f0" }, "geometry": { "type": "Polygon", "coordinates": [ [ [ 352.417667399019194, 748.407639407949773 ], [ 374.144211867790887, 735.371712721015001 ], [ 386.214514349402293, 756.132632994355276 ], [ 397.802004737581001, 775.927929070434402 ], [ 396.594974486327317, 779.307613766046074 ], [ 401.664501531821372, 786.30838920606493 ], [ 407.45824672422151, 781.721674262317492 ], [ 419.287143157817184, 796.447443288741965 ], [ 396.353568438311527, 810.931806274687005 ], [ 382.83482965639098, 787.27401340332608 ], [ 367.62624852666562, 790.895104149812369 ], [ 349.279388749865575, 752.7529483029017 ], [ 352.417667399019194, 748.407639407949773 ] ] ] } },
{ "type": "Feature", "properties": { "feature_type": "building", "subtype": "no-damage", "uid": "ed18fe3a-54c5-4e7e-b6a1-dd8da8d8c54b" }, "geometry": { "type": "Polygon", "coordinates": [ [ [ 483.795533637976973, 683.296439447698162 ], [ 512.140925944337596, 684.220745717837872 ], [ 513.373334306862262, 699.317748142594155 ], [ 512.67514973000084, 712.029774611175981 ], [ 482.789772580368208, 712.218922566560991 ], [ 483.795533637976973, 683.296439447698162 ] ] ] } },
{ "type": "Feature", "properties": { "feature_type": "building", "subtype": "no-damage", "uid": "f4a6c2d7-6f83-4d23-9e21-7a516b701fab" }, "geometry": { "type": "Polygon", "coordinates": [ [ [ 441.00419105923811, 699.403226320654426 ], [ 455.946879633664594, 695.431119228461625 ], [ 460.22708881408272, 694.690067632051523 ], [ 462.756206077420302, 698.268338580027944 ], [ 473.915935518939079, 743.285552265211322 ], [ 445.354594061159275, 745.555327746464286 ], [ 437.221231925810628, 712.832731240313137 ], [ 444.598002235461422, 710.941251678146386 ], [ 441.00419105923811, 699.403226320654426 ] ] ] } },
{ "type": "Feature", "properties": { "feature_type": "building", "subtype": "no-damage", "uid": "7b33455c-7e1b-49c9-b32a-6465e096b9af" }, "geometry": { "type": "Polygon", "coordinates": [ [ [ 510.741319957777307, 733.281573811497992 ], [ 510.548143836500287, 733.281573811497992 ], [ 509.22410813918998, 740.847492074718161 ], [ 491.633348172481703, 738.766864553008304 ], [ 492.957383868492627, 722.310992322240168 ], [ 510.099999999510089, 722.090000001436692 ], [ 510.741319957777307, 733.281573811497992 ] ] ] } },
{ "type": "Feature", "properties": { "feature_type": "building", "subtype": "no-damage", "uid": "0a66666c-cf64-47d9-99aa-39235660b9b5" }, "geometry": { "type": "Polygon", "coordinates": [ [ [ 513.873231144217812, 798.024685164693096 ], [ 497.98480278740891, 799.727016773553828 ], [ 494.958435477860291, 787.810695505291619 ], [ 485.04809621198018, 778.70666577226018 ], [ 481.910000000648722, 769.020000000493042 ], [ 503.830000000011694, 763.080000000363498 ], [ 513.873231144217812, 798.024685164693096 ] ] ] } },
{ "type": "Feature", "properties": { "feature_type": "building", "subtype": "no-damage", "uid": "e56c01c2-cd0a-45fc-9814-0fc172815e74" }, "geometry": { "type": "Polygon", "coordinates": [ [ [ 502.590000000868088, 758.770000000171535 ], [ 485.048096210940685, 762.191215047020364 ], [ 483.798706035301905, 753.007471477430613 ], [ 499.687134393150188, 748.657068474467792 ], [ 502.590000000868088, 758.770000000171535 ] ] ] } },
{ "type": "Feature", "properties": { "feature_type": "building", "subtype": "no-damage", "uid": "c3730edd-454f-46bd-a795-1815a9cdff6e" }, "geometry": { "type": "Polygon", "coordinates": [ [ [ 500.886861606468528, 890.759972195110549 ], [ 484.471250225229426, 907.416989626452505 ], [ 450.674403274326494, 871.688894271655158 ], [ 450.059999997461773, 870.900000002966522 ], [ 465.389999999534325, 856.570000000582013 ], [ 500.886861606468528, 890.759972195110549 ] ] ] } },
{ "type": "Feature", "properties": { "feature_type": "building", "subtype": "no-damage", "uid": "3ccf6758-7afd-438a-84f5-d838969a8aa7" }, "geometry": { "type": "Polygon", "coordinates": [ [ [ 457.192366612333217, 840.788919911479752 ], [ 455.261118214173507, 846.824071156316563 ], [ 465.020000001900428, 856.230000001449639 ], [ 449.750000000469697, 870.500000004231765 ], [ 442.225191531922917, 860.825622040512485 ], [ 424.843955958880713, 871.447488222859647 ], [ 411.083811123227122, 855.27328289326681 ], [ 412.290841375260413, 851.893598199734129 ], [ 444.531238062939281, 827.53696529611625 ], [ 457.192366612333217, 840.788919911479752 ] ] ] } },
{ "type": "Feature", "properties": { "feature_type": "building", "subtype": "no-damage", "uid": "01b61432-3678-46d6-b919-043841bcafc3" }, "geometry": { "type": "Polygon", "coordinates": [ [ [ 381.474600541032999, 825.17029453602413 ], [ 416.598238829974207, 799.905923133493843 ], [ 440.834012976924782, 825.072148571585558 ], [ 401.809338499169883, 856.596707745722938 ], [ 381.474600541032999, 825.17029453602413 ] ] ] } },
{ "type": "Feature", "properties": { "feature_type": "building", "subtype": "no-damage", "uid": "95ec63c7-e1aa-4ccf-a3b5-fc947c17214c" }, "geometry": { "type": "Polygon", "coordinates": [ [ [ 490.850842589115189, 904.660633832489907 ], [ 512.417988905878474, 901.271510835740401 ], [ 513.958499359229222, 940.708578390808157 ], [ 483.456392420204679, 943.173395115338849 ], [ 481.607779882264992, 929.308801052847912 ], [ 488.386025865365411, 929.308801052847912 ], [ 488.694127956711213, 916.368513258417693 ], [ 490.850842589115189, 904.660633832489907 ] ] ] } },
{ "type": "Feature", "properties": { "feature_type": "building", "subtype": "no-damage", "uid": "519a25eb-651d-47d7-bc6c-6967637f7371" }, "geometry": { "type": "Polygon", "coordinates": [ [ [ 484.690313466439477, 1003.97170336807801 ], [ 493.009069902630586, 996.885355290770008 ], [ 508.106072326859817, 1013.52286816575895 ], [ 494.857682447067191, 1021.533522513207004 ], [ 484.382211374054123, 1015.063378618071056 ], [ 484.690313466439477, 1003.97170336807801 ] ] ] } },
{ "type": "Feature", "properties": { "feature_type": "building", "subtype": "no-damage", "uid": "6416e4e8-d0ce-4f5b-b074-b5d9a2495eab" }, "geometry": { "type": "Polygon", "coordinates": [ [ [ 399.652623867025795, 963.816235160933388 ], [ 422.452178544754418, 948.411130648209564 ], [ 441.246406053438875, 972.443093688474505 ], [ 425.225097361409382, 985.999585662997902 ], [ 399.652623867025795, 963.816235160933388 ] ] ] } },
{ "type": "Feature", "properties": { "feature_type": "building", "subtype": "no-damage", "uid": "51eb6830-26e6-4b01-9bcd-56dc3af66cd8" }, "geometry": { "type": "Polygon", "coordinates": [ [ [ 376.544967095872323, 932.08171986326704 ], [ 396.037188917559376, 916.15001875780797 ], [ 417.046833908383803, 946.863002077991268 ], [ 396.095891766775708, 962.26810659695218 ], [ 376.544967095872323, 932.08171986326704 ] ] ] } },
{ "type": "Feature", "properties": { "feature_type": "building", "subtype": "no-damage", "uid": "87a9e9c9-4ab4-4361-97ab-c3a9e4d766f5" }, "geometry": { "type": "Polygon", "coordinates": [ [ [ 362.902846415141425, 897.225871065380829 ], [ 364.416030066017527, 895.901835367290232 ], [ 371.036208549710523, 901.197978155494525 ], [ 383.898269604247275, 891.929728279255528 ], [ 397.138626569034273, 906.872416854468952 ], [ 367.442397374526593, 933.163982831789326 ], [ 347.203566007740278, 910.087932118884282 ], [ 362.902846415141425, 897.225871065380829 ] ] ] } },
{ "type": "Feature", "properties": { "feature_type": "building", "subtype": "no-damage", "uid": "17b92c63-ab87-4d6a-95a6-90d6a7005deb" }, "geometry": { "type": "Polygon", "coordinates": [ [ [ 308.123866585388498, 838.32942027853403 ], [ 325.505102157910983, 825.293493597836459 ], [ 346.748834529871488, 852.089565113934441 ], [ 311.986363379628926, 874.057515633331377 ], [ 302.330121389609872, 865.849709947255747 ], [ 318.504326720494305, 851.606753014264314 ], [ 308.123866585388498, 838.32942027853403 ] ] ] } },
{ "type": "Feature", "properties": { "feature_type": "building", "subtype": "no-damage", "uid": "17d35f15-126f-46e7-9ab0-7d14e7cd6a67" }, "geometry": { "type": "Polygon", "coordinates": [ [ [ 333.489127778652517, 868.358059288820414 ], [ 347.324255412588684, 858.376084608770384 ], [ 370.022010208995198, 882.965318977230027 ], [ 348.459143150355999, 902.636706472413607 ], [ 334.651342312657221, 893.179308636631504 ], [ 345.103240241376625, 882.770277738110508 ], [ 333.489127778652517, 868.358059288820414 ] ] ] } },
{ "type": "Feature", "properties": { "feature_type": "building", "subtype": "no-damage", "uid": "61aff2ba-d820-4684-ac34-aafb7fbb3f9a" }, "geometry": { "type": "Polygon", "coordinates": [ [ [ 145.150211335467702, 902.614123367246066 ], [ 175.657818378754399, 901.479235628698575 ], [ 177.798162318632109, 942.564199143086853 ], [ 146.79775692202611, 944.95340745444048 ], [ 145.150211335467702, 902.614123367246066 ] ] ] } },
{ "type": "Feature", "properties": { "feature_type": "building", "subtype": "no-damage", "uid": "2bf42fdb-416c-4f45-ad81-41a1b899dfba" }, "geometry": { "type": "Polygon", "coordinates": [ [ [ 212.231033881965004, 859.976876338538659 ], [ 233.071959790963206, 858.010751255220157 ], [ 235.824534914520598, 870.987176821338835 ], [ 246.834835395236411, 871.380401839249998 ], [ 260.59771099847012, 872.16685187299322 ], [ 261.060689389295476, 882.102107368448515 ], [ 260.204485978740024, 890.25520266156127 ], [ 214.983609003183489, 889.861977647808317 ], [ 212.231033881965004, 859.976876338538659 ] ] ] } },
{ "type": "Feature", "properties": { "feature_type": "building", "subtype": "no-damage", "uid": "ee3e70c2-c455-4f12-bbb5-a714895c9d0f" }, "geometry": { "type": "Polygon", "coordinates": [ [ [ 268.311373959797777, 908.387278915012416 ], [ 275.975322832284576, 904.787545351572703 ], [ 282.371574499594487, 918.025275222852429 ], [ 274.58187758141861, 922.076332219812798 ], [ 268.311373959797777, 908.387278915012416 ] ] ] } },
{ "type": "Feature", "properties": { "feature_type": "building", "subtype": "no-damage", "uid": "e184def4-583c-4a01-b4a7-f49732896f91" }, "geometry": { "type": "Polygon", "coordinates": [ [ [ 142.827215460267695, 816.668873981056095 ], [ 141.137373111163299, 806.047007796629941 ], [ 145.965494108641593, 806.047007796629941 ], [ 145.241275958097305, 799.77045050507661 ], [ 148.138148553257793, 799.046232358690077 ], [ 146.931118306422093, 792.528269014183138 ], [ 152.724863497262902, 791.07983271517287 ], [ 151.759239300002207, 788.182960119231211 ], [ 159.967044986593606, 788.90717826769685 ], [ 159.967044987373299, 787.700148021640189 ], [ 164.553759932937595, 786.493117771425432 ], [ 165.091282424270901, 791.41082584780645 ], [ 170.347505126117397, 791.8040508657175 ], [ 172.520159570213792, 817.393092129521733 ], [ 142.827215460267695, 816.668873981056095 ] ] ] } },
{ "type": "Feature", "properties": { "feature_type": "building", "subtype": "no-damage", "uid": "9f047743-7843-4681-a9ca-d5116dee55cb" }, "geometry": { "type": "Polygon", "coordinates": [ [ [ 55.829260688996257, 954.001353104423515 ], [ 92.185307341761472, 952.768944742158283 ], [ 93.725817793552864, 975.568499422236869 ], [ 57.061669048402301, 976.492805692376578 ], [ 55.829260688996257, 954.001353104423515 ] ] ] } },
{ "type": "Feature", "properties": { "feature_type": "building", "subtype": "no-damage", "uid": "e51b0689-ab5e-4d16-8d07-4a21931579d7" }, "geometry": { "type": "Polygon", "coordinates": [ [ [ 46.960996111364501, 949.329065523386816 ], [ 47.367673869425289, 935.890025818373601 ], [ 58.294077411966427, 934.59092141277813 ], [ 57.319014914867417, 919.884656940627565 ], [ 75.855896554228053, 919.027046709659885 ], [ 76.780202825926594, 932.126104690326542 ], [ 89.720490619051176, 931.818002604438107 ], [ 90.028592709877231, 946.298800849101212 ], [ 46.960996111364501, 949.329065523386816 ] ] ] } },
{ "type": "Feature", "properties": { "feature_type": "building", "subtype": "no-damage", "uid": "d0b073c5-7965-4fcd-9bfa-c0383843dfd7" }, "geometry": { "type": "Polygon", "coordinates": [ [ [ 44.852343902681049, 891.564141997678348 ], [ 58.62486381498227, 890.157023627868512 ], [ 58.624863812383467, 884.611186004951264 ], [ 87.586460300136352, 883.378777640606813 ], [ 87.278358208010886, 910.491761587574615 ], [ 51.538515736637919, 910.183659495448978 ], [ 50.92231155524567, 898.783882157488733 ], [ 44.14406557188547, 898.475780065363097 ], [ 44.852343902681049, 891.564141997678348 ] ] ] } },
{ "type": "Feature", "properties": { "feature_type": "building", "subtype": "no-damage", "uid": "7f1b125c-6cc6-4439-9beb-1cd1749f8c95" }, "geometry": { "type": "Polygon", "coordinates": [ [ [ 60.04462009298615, 850.071627525967415 ], [ 80.353979940631802, 849.455423343795246 ], [ 83.743102930882557, 874.103590568311461 ], [ 61.601070359328681, 874.503766811659602 ], [ 60.04462009298615, 850.071627525967415 ] ] ] } },
{ "type": "Feature", "properties": { "feature_type": "building", "subtype": "no-damage", "uid": "3e2bd0a8-69fb-4711-8c03-f33d5ecb5b00" }, "geometry": { "type": "Polygon", "coordinates": [ [ [ 62.792160792392927, 816.18039759381702 ], [ 79.737775756640758, 815.564193415802947 ], [ 84.359307112274806, 840.828564818333234 ], [ 72.035223499762836, 841.752871088472943 ], [ 72.035223501322122, 846.374402443329586 ], [ 58.17062943935769, 846.682504531297127 ], [ 57.554425257185798, 834.974625103290236 ], [ 62.484058701566873, 834.358420921118068 ], [ 62.792160792392927, 816.18039759381702 ] ] ] } },
{ "type": "Feature", "properties": { "feature_type": "building", "subtype": "no-damage", "uid": "1f9a039e-4164-4112-8dfa-565c24f51b13" }, "geometry": { "type": "Polygon", "coordinates": [ [ [ 12.437500041083871, 797.081004779422756 ], [ 28.128893269179802, 796.115380580082501 ], [ 28.611705365471231, 815.910676654082636 ], [ 13.64453028506094, 815.427864554412508 ], [ 12.437500041083871, 797.081004779422756 ] ] ] } },
{ "type": "Feature", "properties": { "feature_type": "building", "subtype": "no-damage", "uid": "086b3039-f083-4f0c-b8c8-fb534347b454" }, "geometry": { "type": "Polygon", "coordinates": [ [ [ 49.372625639061283, 756.52478843208246 ], [ 79.065569751086443, 755.55916423482131 ], [ 80.755412095253135, 778.734145002354012 ], [ 51.06246798634654, 780.665393396876311 ], [ 49.372625639061283, 756.52478843208246 ] ] ] } },
{ "type": "Feature", "properties": { "feature_type": "building", "subtype": "no-damage", "uid": "1c0fb47e-75ad-44a1-a8a1-bff9a06e5f88" }, "geometry": { "type": "Polygon", "coordinates": [ [ [ 9.540627442285007, 754.352133986685544 ], [ 41.647632051100238, 752.903697687675276 ], [ 44.544504646780538, 790.804447485790433 ], [ 19.679681529115161, 791.287259585460561 ], [ 18.714057331334701, 783.079453895226834 ], [ 10.747657692759081, 779.699769199615162 ], [ 9.540627442285007, 754.352133986685544 ] ] ] } },
{ "type": "Feature", "properties": { "feature_type": "building", "subtype": "no-damage", "uid": "db83e805-10a1-4177-b39b-eeadebe9c248" }, "geometry": { "type": "Polygon", "coordinates": [ [ [ 43.075867208918567, 676.684146887045586 ], [ 54.787460562514241, 669.40304477998086 ], [ 49.007568001406113, 655.027414556101348 ], [ 47.970151388466931, 650.136736237400214 ], [ 46.93273477292896, 647.469093514328733 ], [ 61.60476974019987, 639.910772470477013 ], [ 80.871078277833377, 680.814627529853851 ], [ 64.4206148319807, 688.521150939817289 ], [ 64.420614832500462, 692.819019769122519 ], [ 53.453639203058152, 697.561495717553726 ], [ 43.075867208918567, 676.684146887045586 ] ] ] } },
{ "type": "Feature", "properties": { "feature_type": "building", "subtype": "no-damage", "uid": "b4aa5786-aa22-41f7-b2ab-1385dedb34ba" }, "geometry": { "type": "Polygon", "coordinates": [ [ [ 43.898262487193172, 576.505939958984868 ], [ 76.005267091850314, 574.816097615337071 ], [ 76.48807918892139, 599.198108631005539 ], [ 36.173268895853688, 601.612169125197966 ], [ 34.966238645639493, 594.852799733974621 ], [ 40.626322411389019, 594.260561066560967 ], [ 41.109134508200214, 590.639470320074679 ], [ 43.174044337948253, 590.507490841101685 ], [ 43.898262487193172, 576.505939958984868 ] ] ] } },
{ "type": "Feature", "properties": { "feature_type": "building", "subtype": "no-damage", "uid": "8cb24cb9-cfa1-43a5-88ee-82b1015c6e42" }, "geometry": { "type": "Polygon", "coordinates": [ [ [ 33.704092307412623, 541.609222779157562 ], [ 58.870493407713731, 540.429547729582282 ], [ 58.815783018129402, 560.635842570584487 ], [ 35.090296721664437, 562.119155558390958 ], [ 33.704092307412623, 541.609222779157562 ] ] ] } },
{ "type": "Feature", "properties": { "feature_type": "building", "subtype": "no-damage", "uid": "f0f19e16-6267-4b1b-ba8a-d59e14e3ac64" }, "geometry": { "type": "Polygon", "coordinates": [ [ [ 36.120681609410283, 503.958753153614111 ], [ 65.615273589037344, 501.753725026826487 ], [ 65.993569498247993, 522.515137320190888 ], [ 58.805947145021747, 522.704285279733995 ], [ 59.7516869294831, 537.836121808253438 ], [ 36.864784172234202, 538.592713636030794 ], [ 37.053932130217973, 525.352356671757093 ], [ 33.081825038287008, 520.056213881473809 ], [ 32.148376349619767, 510.468515618289814 ], [ 36.120681609410283, 503.958753153614111 ] ] ] } },
{ "type": "Feature", "properties": { "feature_type": "building", "subtype": "no-damage", "uid": "753147b6-b82c-4d27-84fc-be2f5a78e788" }, "geometry": { "type": "Polygon", "coordinates": [ [ [ 38.094340004660623, 489.639356325476513 ], [ 65.215374336297373, 487.860927848972892 ], [ 65.363576708906137, 490.23216582110939 ], [ 64.05116660917858, 499.750705154925186 ], [ 36.607698730044547, 501.177730188749479 ], [ 38.094340004660623, 489.639356325476513 ] ] ] } },
{ "type": "Feature", "properties": { "feature_type": "building", "subtype": "no-damage", "uid": "ee079ace-f0f5-4c53-b6cb-cd968f77fb95" }, "geometry": { "type": "Polygon", "coordinates": [ [ [ 7.704755327800076, 458.074874492688309 ], [ 12.89183839691389, 456.889255503501374 ], [ 13.04004077342085, 451.55397005943729 ], [ 17.337909601944379, 452.015370900158473 ], [ 18.375326215923071, 448.441720219318881 ], [ 18.078921466027701, 449.923743957361808 ], [ 27.800661867310431, 449.775541582933784 ], [ 27.712075735754041, 458.964088733019082 ], [ 37.048825257404168, 460.890719581871679 ], [ 36.15961101967256, 476.748373537556915 ], [ 29.638706590582899, 477.489385405538826 ], [ 15.41127874425683, 477.93399252674368 ], [ 13.92925501167222, 470.523873853161888 ], [ 8.297564823432724, 471.116683352952975 ], [ 7.704755327800076, 458.074874492688309 ] ] ] } },
{ "type": "Feature", "properties": { "feature_type": "building", "subtype": "no-damage", "uid": "ee1f0fb3-9764-4248-9f06-8b4fa940050d" }, "geometry": { "type": "Polygon", "coordinates": [ [ [ 66.839754529005575, 477.088325824736785 ], [ 43.906179811059189, 479.743792365645675 ], [ 42.457743512049582, 449.809442206889685 ], [ 51.599999999955543, 448.909999997160128 ], [ 52.472326301150297, 456.90911275074842 ], [ 56.355625842430626, 456.909112752827411 ], [ 55.419999999928478, 448.530000001064877 ], [ 64.425694033514901, 447.636787755255625 ], [ 66.839754529005575, 477.088325824736785 ] ] ] } },
{ "type": "Feature", "properties": { "feature_type": "building", "subtype": "no-damage", "uid": "5b7f0a8e-627e-4a6f-aa1b-faf1a3d4e217" }, "geometry": { "type": "Polygon", "coordinates": [ [ [ 69.712749733793359, 0.001984198915205 ], [ 79.945575424245021, 6.886651462256729 ], [ 66.297875634327397, 14.56348259673665 ], [ 49.238250893876781, 0.062801567944303 ], [ 69.068301800848218, 0.001968312949421 ], [ 69.712749733793359, 0.001984198915205 ] ] ] } },
{ "type": "Feature", "properties": { "feature_type": "building", "subtype": "no-damage", "uid": "d1faead9-b5a6-4f5c-82ef-f2092e65f978" }, "geometry": { "type": "Polygon", "coordinates": [ [ [ 470.097073736668108, 385.709772265382526 ], [ 473.76266914415811, 407.703344693701126 ], [ 448.10350131251829, 409.274314155836691 ], [ 445.485218880044727, 387.280741725439213 ], [ 470.097073736668108, 385.709772265382526 ] ] ] } },
{ "type": "Feature", "properties": { "feature_type": "building", "subtype": "no-damage", "uid": "680342c8-ebb9-4c93-8e35-ecc636c9b7d0" }, "geometry": { "type": "Polygon", "coordinates": [ [ [ 584.777844254736692, 368.429108213075779 ], [ 606.528915292646275, 354.932363584561415 ], [ 611.484325058534296, 361.097917406408328 ], [ 620.386485328372601, 375.236642538601814 ], [ 561.213302366892663, 411.368940099113786 ], [ 549.169203182400111, 388.328054698117228 ], [ 584.777844254736692, 368.429108213075779 ] ] ] } },
{ "type": "Feature", "properties": { "feature_type": "building", "subtype": "no-damage", "uid": "111fa1c4-aeb0-42ec-baf6-7d39ff89831e" }, "geometry": { "type": "Polygon", "coordinates": [ [ [ 36.719818059686688, 797.033533842070028 ], [ 46.180550353912992, 796.212936724246106 ], [ 46.300794751351702, 810.57338630383731 ], [ 37.226495588996279, 810.57338630383731 ], [ 36.719818059686688, 797.033533842070028 ] ] ] } },
{ "type": "Feature", "properties": { "feature_type": "building", "subtype": "no-damage", "uid": "6c5edeff-4f3f-44be-9a27-a68c169716e4" }, "geometry": { "type": "Polygon", "coordinates": [ [ [ 60.891606021434448, 818.930798774362529 ], [ 61.618579834536717, 829.714243638658559 ], [ 53.254706797609337, 830.198892840810004 ], [ 52.410244899067287, 819.294285682213285 ], [ 60.891606021434448, 818.930798774362529 ] ] ] } },
{ "type": "Feature", "properties": { "feature_type": "building", "subtype": "no-damage", "uid": "dfe886ef-05e5-4395-b115-3b2e58219603" }, "geometry": { "type": "Polygon", "coordinates": [ [ [ 54.356881616057777, 873.056874162402096 ], [ 54.762367021001751, 882.438531555396253 ], [ 29.449831149107091, 884.303827777695346 ], [ 29.956508681275359, 873.780175064226455 ], [ 54.356881616057777, 873.056874162402096 ] ] ] } },
{ "type": "Feature", "properties": { "feature_type": "building", "subtype": "no-damage", "uid": "9bf34baf-1b52-465d-8ef5-f8ec0ed88e2f" }, "geometry": { "type": "Polygon", "coordinates": [ [ [ 166.899848520731695, 867.481586848790357 ], [ 166.89984852177119, 880.200842186496516 ], [ 143.512830641449909, 880.200842186496516 ], [ 142.692233521027504, 869.122781084438202 ], [ 166.899848520731695, 867.481586848790357 ] ] ] } },
{ "type": "Feature", "properties": { "feature_type": "building", "subtype": "no-damage", "uid": "ccab5d68-2e08-4150-87a1-2b5872250054" }, "geometry": { "type": "Polygon", "coordinates": [ [ [ 191.107463523554401, 858.455018538173363 ], [ 191.928060639039103, 870.763975322165265 ], [ 175.926416826146607, 871.584572439989188 ], [ 176.747013944229991, 858.865317102283029 ], [ 191.107463523554401, 858.455018538173363 ] ] ] } },
{ "type": "Feature", "properties": { "feature_type": "building", "subtype": "no-damage", "uid": "338c314a-1dd4-49fe-b312-dcee8b8c0eaa" }, "geometry": { "type": "Polygon", "coordinates": [ [ [ 201.5655211341533, 807.450710080873705 ], [ 202.851926316423999, 819.134651015440909 ], [ 177.15731250314181, 820.707551085006344 ], [ 176.7470139437103, 807.988295747300185 ], [ 201.5655211341533, 807.450710080873705 ] ] ] } },
{ "type": "Feature", "properties": { "feature_type": "building", "subtype": "no-damage", "uid": "7f6383f4-c271-4250-a666-3a8b6c23f824" }, "geometry": { "type": "Polygon", "coordinates": [ [ [ 0.000445609032705, 990.160901663951563 ], [ 4.011320474226838, 990.571154645048523 ], [ 4.011320473707078, 1009.03458981168103 ], [ 0.318633437263902, 1009.444888371632032 ], [ 0.000439507042183, 1010.264353610755961 ], [ 0.000445609032705, 990.160901663951563 ] ] ] } },
{ "type": "Feature", "properties": { "feature_type": "building", "subtype": "no-damage", "uid": "5bb8d398-8c2e-4479-97b7-b13c178e5b28" }, "geometry": { "type": "Polygon", "coordinates": [ [ [ 471.341379539413708, 956.106075661098316 ], [ 486.932724791575197, 967.594435323108087 ], [ 466.417796823636422, 985.647571929788569 ], [ 477.085559367297208, 997.546230151749796 ], [ 469.700185299348618, 1004.931604218402981 ], [ 460.67361699289421, 1012.316978285055029 ], [ 450.005854451052528, 1020.522949473690005 ], [ 445.902868857776525, 1019.292053795914967 ], [ 430.311523607174308, 1003.700708542706025 ], [ 427.439433688814574, 995.084438796198924 ], [ 440.158689026774425, 980.313690662893237 ], [ 459.032422759325982, 965.542942525429567 ], [ 471.341379539413708, 956.106075661098316 ] ] ] } },
{ "type": "Feature", "properties": { "feature_type": "building", "subtype": "no-damage", "uid": "ea18faca-dd06-4ca6-98f3-0ee44a2bc3be" }, "geometry": { "type": "Polygon", "coordinates": [ [ [ 465.385177533274089, 1022.983364193152056 ], [ 477.495857925169389, 1014.368471084812995 ], [ 489.239610005845122, 1022.983409641027038 ], [ 465.385177533274089, 1022.983364193152056 ] ] ] } },
{ "type": "Feature", "properties": { "feature_type": "building", "subtype": "no-damage", "uid": "ef736da5-a025-4d48-ba55-4ecff1cc8659" }, "geometry": { "type": "Polygon", "coordinates": [ [ [ 269.653257765502701, 815.988178453586784 ], [ 281.235185496219913, 805.450522896426605 ], [ 283.513597509020315, 808.203604081604453 ], [ 285.222406519854985, 809.912413089581378 ], [ 286.83628169252421, 809.058008582474372 ], [ 287.690686196512218, 810.671883759562206 ], [ 287.121083196885422, 812.570560435554057 ], [ 300.981422934425723, 801.748103377410985 ], [ 303.54463644716941, 805.165721397522702 ], [ 308.196394308856611, 804.785986059413631 ], [ 309.145732647631689, 810.956685260545214 ], [ 318.164446858848407, 820.639936312677492 ], [ 310.630164309617498, 828.946921644544091 ], [ 309.248639953953273, 834.473019068243161 ], [ 304.117263773135903, 837.433428408679106 ], [ 297.999084480832778, 839.604395251402025 ], [ 299.183248214927517, 835.262461561798204 ], [ 294.051872034369978, 826.97331542105178 ], [ 289.512577719560511, 822.828742350678681 ], [ 286.749529003294299, 823.618184840075514 ], [ 282.012874067175176, 829.14428226585369 ], [ 278.855104108809485, 827.36803666575031 ], [ 269.653257765502701, 815.988178453586784 ] ] ] } },
{ "type": "Feature", "properties": { "feature_type": "building", "subtype": "no-damage", "uid": "209860ba-70e4-4a47-ac42-98e6652e80ef" }, "geometry": { "type": "Polygon", "coordinates": [ [ [ 180.888845309436988, 561.525642310939475 ], [ 196.480190565756601, 559.884448077370507 ], [ 197.300787683060406, 573.424300534979693 ], [ 182.940338109453393, 574.655196212755186 ], [ 180.888845309436988, 561.525642310939475 ] ] ] } },
{ "type": "Feature", "properties": { "feature_type": "building", "subtype": "no-damage", "uid": "ad19fe50-3ecd-47d0-b6c6-7b4c8885919a" }, "geometry": { "type": "Polygon", "coordinates": [ [ [ 165.668627245628301, 583.119980439500182 ], [ 162.298969108770507, 585.843908018780212 ], [ 148.697032041641592, 585.59202029291805 ], [ 132.3243300152389, 585.59202029291805 ], [ 132.76054682567019, 575.581155654541703 ], [ 129.997498112002802, 574.002270677826914 ], [ 129.512848906213208, 568.979697734204478 ], [ 126.241466755569206, 568.010399319506405 ], [ 126.362629057146506, 553.107436201579276 ], [ 145.340483147046797, 552.134362731711917 ], [ 146.327286257493114, 556.871017668093259 ], [ 158.366284221049597, 558.055181402188623 ], [ 157.774202353222591, 570.488900609150051 ], [ 164.879184758050997, 570.883621853848467 ], [ 165.668627245628301, 583.119980439500182 ] ] ] } },
{ "type": "Feature", "properties": { "feature_type": "building", "subtype": "no-damage", "uid": "2a29cb68-f6f7-4aed-8841-f5907874a40a" }, "geometry": { "type": "Polygon", "coordinates": [ [ [ 630.573608030312698, 567.745348604227274 ], [ 621.240338966070453, 591.432897193061876 ], [ 586.032347675975075, 571.779964111017989 ], [ 582.397211280647753, 569.839974549583417 ], [ 571.400425067793208, 563.556096713514989 ], [ 555.16707398999165, 552.035654011977158 ], [ 556.214386964228424, 552.035654014056263 ], [ 557.785356422205268, 547.846402123343978 ], [ 552.548791560116911, 545.751776177987836 ], [ 552.02513507065953, 541.562524285196446 ], [ 560.927295340237947, 523.234547262290675 ], [ 579.25527236313485, 534.231333472291908 ], [ 632.341379586714197, 565.225467222004454 ], [ 630.573608030312698, 567.745348604227274 ] ] ] } },
{ "type": "Feature", "properties": { "feature_type": "building", "subtype": "no-damage", "uid": "9ffdc69b-bf44-450f-bc6d-3ca964a91e20" }, "geometry": { "type": "Polygon", "coordinates": [ [ [ 724.831775576231053, 580.313104278443234 ], [ 735.304905302486986, 601.259363734083763 ], [ 775.102798271511006, 629.536813996391629 ], [ 787.670553944421385, 629.536813996391629 ], [ 789.241523402398229, 654.672325342744443 ], [ 781.386676105497372, 655.195981828043955 ], [ 763.058699081560917, 651.530386426789278 ], [ 763.058699084419573, 654.148668855365827 ], [ 761.487729624103849, 656.243294800721969 ], [ 758.345790702952627, 654.672325340665338 ], [ 755.727508272298223, 652.054042912088789 ], [ 756.251164761755604, 647.341134531918897 ], [ 752.585569354005656, 646.293821559240769 ], [ 746.30169152001929, 658.861577235535719 ], [ 726.926401522105948, 644.199195615963731 ], [ 732.686622872352359, 640.533600212629949 ], [ 714.358645850495009, 626.394875080436464 ], [ 699.172607744071456, 589.215264545167315 ], [ 724.831775576231053, 580.313104278443234 ] ] ] } },
{ "type": "Feature", "properties": { "feature_type": "building", "subtype": "no-damage", "uid": "f54293b5-a6e5-4c37-924e-68f4816b5ddd" }, "geometry": { "type": "Polygon", "coordinates": [ [ [ 41.359999999399477, 192.439999999589986 ], [ 44.186545701325748, 193.631983988603793 ], [ 45.0835033642498, 196.920828752573698 ], [ 45.930000001417568, 197.109999999474809 ], [ 48.312874072640611, 203.585022965149392 ], [ 42.568694244497209, 211.380695593832797 ], [ 42.15839568428602, 228.613235082689414 ], [ 19.591974920488848, 227.382339404913893 ], [ 7.283018143779667, 223.279353813715005 ], [ 0.000490975565047, 223.279353809556909 ], [ 0.000485571613135, 194.558454664927808 ], [ 27.38764754838877, 194.558454662848703 ], [ 27.38764754734925, 192.096663303139707 ], [ 41.359999999399477, 192.439999999589986 ] ] ] } },
{ "type": "Feature", "properties": { "feature_type": "building", "subtype": "no-damage", "uid": "cd362bef-548b-4b5d-be26-c12fddea0311" }, "geometry": { "type": "Polygon", "coordinates": [ [ [ 64.314517885792966, 168.378932115296408 ], [ 70.468996276486479, 171.581735338829191 ], [ 56.484536701837229, 201.202816863598713 ], [ 50.078930252435761, 199.1170155005087 ], [ 49.498493062606506, 194.85485940962559 ], [ 43.017976268523327, 190.564381016016313 ], [ 56.507877130297963, 165.085575510428214 ], [ 64.314517885792966, 168.378932115296408 ] ] ] } },
{ "type": "Feature", "properties": { "feature_type": "building", "subtype": "no-damage", "uid": "775cbc2b-fe46-4074-8f7f-dc6b2de1fd1b" }, "geometry": { "type": "Polygon", "coordinates": [ [ [ 200.435104135388514, 48.958447697078697 ], [ 208.038590647873008, 53.326408037412932 ], [ 199.626222593519913, 66.025848280464288 ], [ 190.971190072811908, 60.929894549381352 ], [ 200.382658954896698, 48.877559546478153 ], [ 200.435104135388514, 48.958447697078697 ] ] ] } },
{ "type": "Feature", "properties": { "feature_type": "building", "subtype": "no-damage", "uid": "92f7d8ad-a4cf-425f-8c91-ea53a389a809" }, "geometry": { "type": "Polygon", "coordinates": [ [ [ 145.842277578452212, 75.933742117773292 ], [ 158.562431694396707, 83.146517530052463 ], [ 163.570051791325994, 86.193047903125574 ], [ 159.665634767376304, 91.604407759091629 ], [ 149.001338390822895, 108.887922578208403 ], [ 131.429300883560501, 97.525122928582192 ], [ 144.404658921504193, 75.056361653735593 ], [ 147.659971654229111, 76.777803811238172 ], [ 145.842277578452212, 75.933742117773292 ] ] ] } },
{ "type": "Feature", "properties": { "feature_type": "building", "subtype": "no-damage", "uid": "050c4a2a-44b1-4e58-9075-678817168366" }, "geometry": { "type": "Polygon", "coordinates": [ [ [ 48.275501512753337, 218.811521063512203 ], [ 48.275501513273099, 218.379326823489009 ], [ 60.953199145770277, 225.582564117708102 ], [ 54.038091345423098, 238.260261746053402 ], [ 41.936652692866417, 231.345153951420201 ], [ 48.275501512753337, 218.811521063512203 ] ] ] } },
{ "type": "Feature", "properties": { "feature_type": "building", "subtype": "no-damage", "uid": "dbc9d189-21bf-4d73-878f-fdf3313b8c2b" }, "geometry": { "type": "Polygon", "coordinates": [ [ [ 41.360393712406143, 232.785801407769213 ], [ 53.173702868495567, 239.70090920656051 ], [ 48.851760493213597, 246.183822769486511 ], [ 44.962012356655293, 250.793894638119411 ], [ 33.44924557275732, 244.022851581844492 ], [ 40.915786588602607, 232.63346140558761 ], [ 41.360393712406143, 232.785801407769213 ] ] ] } },
{ "type": "Feature", "properties": { "feature_type": "building", "subtype": "no-damage", "uid": "49455dba-f364-4233-a7a7-c49247ce9e08" }, "geometry": { "type": "Polygon", "coordinates": [ [ [ 18.611326087970191, 575.206558957539755 ], [ 32.177906988104233, 574.607558442615641 ], [ 31.442438273564189, 588.02986249993512 ], [ 18.549234614484259, 588.018611936719026 ], [ 18.387868573131399, 574.975292795337964 ], [ 18.611326087970191, 575.206558957539755 ] ] ] } },
{ "type": "Feature", "properties": { "feature_type": "building", "subtype": "no-damage", "uid": "7b9ee4d4-0d5a-4e4b-bd24-2a76e02455f9" }, "geometry": { "type": "Polygon", "coordinates": [ [ [ 39.294734487014821, 607.691031786825761 ], [ 70.505351106736796, 606.752366622367731 ], [ 70.270684819520596, 617.547015982450148 ], [ 66.985356754833816, 618.016348562600228 ], [ 67.689355621939924, 622.005675499072822 ], [ 72.382681434092802, 622.240341786029262 ], [ 72.382681432533531, 635.850986633249022 ], [ 47.549718488288207, 634.871882912309616 ], [ 46.878193131969397, 625.672719273787493 ], [ 42.345396262406346, 625.525669851237467 ], [ 39.060068193821373, 624.821670982051955 ], [ 39.529400776050188, 607.721699201975639 ], [ 39.294734487014821, 607.691031786825761 ] ] ] } },
{ "type": "Feature", "properties": { "feature_type": "building", "subtype": "no-damage", "uid": "2f132f9d-5d5e-4d81-badf-93f2b3d93eb0" }, "geometry": { "type": "Polygon", "coordinates": [ [ [ 10.521140786185329, 649.575310017080824 ], [ 20.084210409881951, 649.506012413481017 ], [ 20.361400834936092, 654.148952014753604 ], [ 19.876317592585661, 661.355903034459402 ], [ 9.273783879808757, 661.494498249975209 ], [ 10.38254557352832, 649.575310019159815 ], [ 10.521140786185329, 649.575310017080824 ] ] ] } },
{ "type": "Feature", "properties": { "feature_type": "building", "subtype": "no-damage", "uid": "67d7c63f-b398-4294-b4dd-7613c30f344c" }, "geometry": { "type": "Polygon", "coordinates": [ [ [ 27.14064122783029, 649.667811877297595 ], [ 41.283348878965683, 649.450611362510926 ], [ 41.283348875587237, 664.52772003410837 ], [ 30.251318141633881, 664.711587212548579 ], [ 29.883583784493801, 667.285727719027363 ], [ 23.264365340899271, 667.469594897467573 ], [ 23.632099701677681, 653.67955648118857 ], [ 26.757841743995321, 653.31182212222916 ], [ 27.12557609801684, 649.649543675702375 ], [ 27.14064122783029, 649.667811877297595 ] ] ] } },
{ "type": "Feature", "properties": { "feature_type": "building", "subtype": "no-damage", "uid": "1a961e56-16b6-49fc-a970-41712c6b31c6" }, "geometry": { "type": "Polygon", "coordinates": [ [ [ 29.365643871050729, 669.348532586323131 ], [ 32.39100353276055, 668.772273605862551 ], [ 32.535068279434903, 666.899431907411326 ], [ 41.755212010459097, 667.043496652006638 ], [ 41.708488567984851, 673.943026773791416 ], [ 29.120343398845598, 674.624415903192585 ], [ 29.509708614086751, 669.348532586323131 ], [ 29.365643871050729, 669.348532586323131 ] ] ] } },
{ "type": "Feature", "properties": { "feature_type": "building", "subtype": "no-damage", "uid": "30892052-431c-401c-8541-7c2482996303" }, "geometry": { "type": "Polygon", "coordinates": [ [ [ 9.168894716613625, 676.253171392287754 ], [ 34.012854077729067, 675.951838436796493 ], [ 35.186185533301128, 698.479802313103391 ], [ 8.903561004891944, 698.714468604217927 ], [ 9.372893589199808, 695.429140539009722 ], [ 10.546225039834139, 694.959807956780764 ], [ 9.271560631256778, 676.318505101263781 ], [ 9.168894716613625, 676.253171392287754 ] ] ] } },
{ "type": "Feature", "properties": { "feature_type": "building", "subtype": "no-damage", "uid": "0145e1a0-03cb-4645-859c-85418174955c" }, "geometry": { "type": "Polygon", "coordinates": [ [ [ 2.041765471652589, 795.145308900770942 ], [ 10.846288318189959, 795.145308902849933 ], [ 10.7334098216634, 806.54603720120906 ], [ 1.703129980253755, 807.33618668988936 ], [ 1.477372985641359, 795.032430402685009 ], [ 2.267522472502113, 795.078642236394217 ], [ 2.041765471652589, 795.145308900770942 ] ] ] } },
{ "type": "Feature", "properties": { "feature_type": "building", "subtype": "no-damage", "uid": "b9243d3a-ac94-4d0b-9316-f8693e37933d" }, "geometry": { "type": "Polygon", "coordinates": [ [ [ 2.643591516665885, 809.654024444392235 ], [ 10.848825130570891, 808.562071939046177 ], [ 10.48109077317093, 817.019962168085385 ], [ 2.20706772179633, 817.571563705485005 ], [ 2.643591516665885, 809.654024444392235 ] ] ] } },
{ "type": "Feature", "properties": { "feature_type": "building", "subtype": "no-damage", "uid": "5c5f43d1-1340-4a68-ab5d-accf5bd9d3b9" }, "geometry": { "type": "Polygon", "coordinates": [ [ [ 266.31981415677302, 931.118971321036952 ], [ 284.706532049900488, 919.535339046040235 ], [ 290.774148952197379, 929.648033887278302 ], [ 287.648406912478606, 932.222174395836191 ], [ 299.048172006950495, 946.012212812115081 ], [ 284.7065320496406, 956.860376369192863 ], [ 266.552079797994622, 931.267369784541643 ], [ 266.31981415677302, 931.118971321036952 ] ] ] } },
{ "type": "Feature", "properties": { "feature_type": "building", "subtype": "no-damage", "uid": "4395aa81-2fa6-45eb-9006-0e1d344c7bef" }, "geometry": { "type": "Polygon", "coordinates": [ [ [ 207.263251383550113, 933.441787875680802 ], [ 237.80497750049409, 934.882435338266873 ], [ 237.084653775958287, 952.890528564459032 ], [ 234.923682585198691, 953.61085229367302 ], [ 234.923682584419112, 963.26319026472504 ], [ 207.119186640254213, 963.263190262645935 ], [ 207.263251384589609, 933.153658382331969 ], [ 207.263251383550113, 933.441787875680802 ] ] ] } },
{ "type": "Feature", "properties": { "feature_type": "building", "subtype": "no-damage", "uid": "fed0138b-019c-4a45-8a62-a33b7d4137e3" }, "geometry": { "type": "Polygon", "coordinates": [ [ [ 218.986546247596692, 892.712548092264797 ], [ 241.460646598335302, 892.136289109725226 ], [ 240.164063888661303, 907.551216912410155 ], [ 227.198236760476505, 908.271540643703247 ], [ 226.621977780795902, 911.873159287694307 ], [ 211.78330895805891, 912.449418270233878 ], [ 212.07143844932861, 902.364886063316703 ], [ 218.842481504560709, 902.508950807912129 ], [ 218.698416757886292, 892.280353852241547 ], [ 218.986546247596692, 892.712548092264797 ] ] ] } },
{ "type": "Feature", "properties": { "feature_type": "building", "subtype": "no-damage", "uid": "29d12d40-2e55-4d40-a720-7c1c9fc61252" }, "geometry": { "type": "Polygon", "coordinates": [ [ [ 320.924020539850176, 1005.461363060135 ], [ 329.841339573351092, 999.594705800983661 ], [ 325.617346350443825, 995.136046282281995 ], [ 337.819993446812305, 986.218727249036647 ], [ 369.103754796620194, 1022.982858378678998 ], [ 332.222271978715924, 1022.982527742271031 ], [ 320.689354249775306, 1005.461363060135 ], [ 320.924020539850176, 1005.461363060135 ] ] ] } },
{ "type": "Feature", "properties": { "feature_type": "building", "subtype": "no-damage", "uid": "4dfcb675-ffd7-426d-afa4-8e1ea4f8e7bd" }, "geometry": { "type": "Polygon", "coordinates": [ [ [ 1022.976471740718011, 985.469786681186406 ], [ 1005.42666081813195, 982.428078491883639 ], [ 1013.213667570614007, 960.265059267133097 ], [ 1022.976478330244049, 962.975864564653648 ], [ 1022.976471740718011, 985.469786681186406 ] ] ] } },
{ "type": "Feature", "properties": { "feature_type": "building", "subtype": "no-damage", "uid": "4609e849-3f85-48c7-9207-d36b96cd3904" }, "geometry": { "type": "Polygon", "coordinates": [ [ [ 913.802322859786386, 932.745147674417694 ], [ 928.496926932990277, 937.067090047622742 ], [ 924.319049304382702, 945.710974798190819 ], [ 948.233797113808464, 954.787053788782146 ], [ 935.700164228245512, 986.625362618794043 ], [ 916.683617774821869, 980.142449053788937 ], [ 921.437754387528003, 969.625722606848512 ], [ 901.55681946315417, 961.990291078843256 ], [ 913.658258111552755, 932.601082927743278 ], [ 913.802322859786386, 932.745147674417694 ] ] ] } },
{ "type": "Feature", "properties": { "feature_type": "building", "subtype": "no-damage", "uid": "12fb9ef6-a9f9-430d-9046-8badfaede431" }, "geometry": { "type": "Polygon", "coordinates": [ [ [ 749.05307996728618, 903.575923608173071 ], [ 757.227146705902783, 905.67373677806745 ], [ 758.514216956282894, 902.731861914708247 ], [ 793.632848131899095, 914.499361363986964 ], [ 784.255622007025181, 940.24076641422198 ], [ 739.759764704196186, 926.450727997942977 ], [ 748.769256474788676, 903.467330630547963 ], [ 749.05307996728618, 903.575923608173071 ] ] ] } },
{ "type": "Feature", "properties": { "feature_type": "building", "subtype": "no-damage", "uid": "7cd60d3c-7340-41fb-9b1a-2403fee7dab6" }, "geometry": { "type": "Polygon", "coordinates": [ [ [ 607.023178755719755, 993.325180349750781 ], [ 610.530755092504819, 993.825180347129617 ], [ 614.586038123832736, 994.341086832523729 ], [ 612.892860655143863, 1003.822880665501998 ], [ 604.426973303383875, 1002.016824696126946 ], [ 607.023178755719755, 993.325180349750781 ] ] ] } },
{ "type": "Feature", "properties": { "feature_type": "building", "subtype": "no-damage", "uid": "71e3d0c0-40bb-4aed-b5bc-e1eadcaa8c52" }, "geometry": { "type": "Polygon", "coordinates": [ [ [ 309.475494313077093, 62.250543160394471 ], [ 324.026033639866625, 49.572845525812077 ], [ 328.203911269253922, 55.047305866175321 ], [ 345.059486536595784, 54.759176374905529 ], [ 345.059486534776624, 80.114571641991262 ], [ 319.127832284124395, 78.817988930237661 ], [ 307.602652615406384, 63.835255367575947 ], [ 309.763623804606709, 62.106478415799103 ], [ 309.475494313077093, 62.250543160394471 ] ] ] } },
{ "type": "Feature", "properties": { "feature_type": "building", "subtype": "no-damage", "uid": "255bf21d-e3ea-41ff-8f27-8668667457ed" }, "geometry": { "type": "Polygon", "coordinates": [ [ [ 429.256378985904121, 148.062132855934493 ], [ 443.78188611853551, 141.075180056495896 ], [ 452.791377885749625, 160.381233844691906 ], [ 440.288409722456322, 167.919788177372112 ], [ 428.520910271364073, 147.694398496975111 ], [ 429.256378985904121, 148.062132855934493 ] ] ] } },
{ "type": "Feature", "properties": { "feature_type": "building", "subtype": "no-damage", "uid": "ba91d5e2-27b8-4fd6-a399-d69fff831daf" }, "geometry": { "type": "Polygon", "coordinates": [ [ [ 914.242370065607133, 546.753428899477171 ], [ 929.965011525313344, 557.548078261638693 ], [ 908.375712807757736, 578.433378106381042 ], [ 914.946368936871409, 582.18803875589731 ], [ 907.671713935194134, 591.574690369292625 ], [ 914.242370067686238, 595.329351016729788 ], [ 928.557013783824573, 585.708033108061841 ], [ 936.770333944501999, 598.380012790823457 ], [ 917.99703071538147, 616.449317152586673 ], [ 909.079711675903354, 622.550640702853002 ], [ 872.002437793654053, 588.054696012969998 ], [ 914.242370066126909, 546.988095190591707 ], [ 914.242370065607133, 546.753428899477171 ] ] ] } },
{ "type": "Feature", "properties": { "feature_type": "building", "subtype": "no-damage", "uid": "4ecbd7e8-0e4c-4802-bd7d-646b9b7c9a31" }, "geometry": { "type": "Polygon", "coordinates": [ [ [ 246.665160478435695, 527.975879498109975 ], [ 280.356828634955377, 516.197491442802857 ], [ 286.109064664422874, 536.193359533602006 ], [ 282.274240647983106, 539.754267555496199 ], [ 287.204728669899623, 558.380555643152093 ], [ 288.163221027481711, 565.810473764512722 ], [ 289.122140680328528, 570.432859699503638 ], [ 273.782844604174215, 576.185095725595488 ], [ 265.291448567122018, 553.176151617070104 ], [ 254.882640516002709, 556.189227630638243 ], [ 246.391244478430906, 527.428047496021009 ], [ 246.665160478435695, 527.975879498109975 ] ] ] } },
{ "type": "Feature", "properties": { "feature_type": "building", "subtype": "no-damage", "uid": "62d69efa-ae2e-46fb-8bc5-6e62ce1e5f0c" }, "geometry": { "type": "Polygon", "coordinates": [ [ [ 150.875959670358611, 35.874516484386007 ], [ 166.084540803722405, 11.975317568387689 ], [ 188.293897371904109, 26.459680552253701 ], [ 171.878285994303297, 49.876067370660969 ], [ 150.875959670358611, 35.874516484386007 ] ] ] } },
{ "type": "Feature", "properties": { "feature_type": "building", "subtype": "no-damage", "uid": "6b0f2fdc-996c-4bbd-82e3-4898797d3396" }, "geometry": { "type": "Polygon", "coordinates": [ [ [ 168.981413395764292, 10.04406917178631 ], [ 174.050940442557902, 4.008917933186648 ], [ 182.500152180803411, 9.802663120911737 ], [ 178.396249336468088, 16.079220412465009 ], [ 168.981413395764292, 10.04406917178631 ] ] ] } },
{ "type": "Feature", "properties": { "feature_type": "building", "subtype": "no-damage", "uid": "2a459f06-b730-4bf9-a557-96e5f5612dc9" }, "geometry": { "type": "Polygon", "coordinates": [ [ [ 0.000516659539633, 489.73174155763121 ], [ 17.692747692663001, 489.731741555552219 ], [ 18.416965836970199, 504.457510586134617 ], [ 0.000516797276216, 505.90590623985878 ], [ 0.000516659539633, 489.73174155763121 ] ] ] } },
{ "type": "Feature", "properties": { "feature_type": "building", "subtype": "no-damage", "uid": "45ff57bb-7cbd-4d88-8b8b-eb889881b35d" }, "geometry": { "type": "Polygon", "coordinates": [ [ [ 142.982487472533307, 626.608971725746642 ], [ 162.053565399097891, 622.987880979260353 ], [ 169.537152938783294, 657.750352130559349 ], [ 150.707481060234386, 661.85425497463666 ], [ 149.017638711909598, 653.887855337356655 ], [ 145.637954020977389, 654.612073483743188 ], [ 142.982487472533307, 626.608971725746642 ] ] ] } },
{ "type": "Feature", "properties": { "feature_type": "building", "subtype": "no-damage", "uid": "7652d335-c85a-41cb-be51-396aadcda3ad" }, "geometry": { "type": "Polygon", "coordinates": [ [ [ 32.418516719859902, 906.639989347293636 ], [ 47.868503898640661, 906.157177249702499 ], [ 48.351316000129692, 915.330607137197376 ], [ 32.901328822128583, 917.020449482924164 ], [ 32.418516719859902, 906.639989347293636 ] ] ] } },
{ "type": "Feature", "properties": { "feature_type": "building", "subtype": "no-damage", "uid": "9a74b398-654d-471b-ac24-c611516fcc1a" }, "geometry": { "type": "Polygon", "coordinates": [ [ [ 48.83412809694088, 1000.546942669717964 ], [ 66.215363676999928, 999.339912419503435 ], [ 65.732551574731247, 990.407888584962166 ], [ 70.802078619185849, 985.579767592419216 ], [ 92.770029138052365, 984.614143390999971 ], [ 94.21846543628233, 1009.961778610167016 ], [ 48.834128096161237, 1013.341463303699015 ], [ 48.83412809694088, 1000.546942669717964 ] ] ] } },
{ "type": "Feature", "properties": { "feature_type": "building", "subtype": "no-damage", "uid": "4ac0b810-f5bc-429a-8c30-06c6ad38e4da" }, "geometry": { "type": "Polygon", "coordinates": [ [ [ 242.355898709169594, 894.842062658043574 ], [ 253.704776106852989, 892.761435136333716 ], [ 258.05517910851438, 906.001792102686409 ], [ 246.51715375310701, 909.406455320407872 ], [ 242.355898709169594, 894.842062658043574 ] ] ] } },
{ "type": "Feature", "properties": { "feature_type": "building", "subtype": "no-damage", "uid": "85f38a6a-3fed-43fb-a961-246acae0fabb" }, "geometry": { "type": "Polygon", "coordinates": [ [ [ 141.729185762442995, 842.826374577874162 ], [ 146.457884678252697, 842.25893070548193 ], [ 147.02532854700641, 833.179828782548952 ], [ 157.428466164126689, 833.368976742092059 ], [ 157.6176141195117, 837.341083832205754 ], [ 169.912231306334292, 836.584492004428398 ], [ 169.723083346271608, 838.475971572832236 ], [ 180.126220964171495, 839.232563400609592 ], [ 182.017700529975599, 855.120991758985497 ], [ 144.755553066534105, 857.769063151008595 ], [ 141.729185762442995, 842.826374577874162 ] ] ] } },
{ "type": "Feature", "properties": { "feature_type": "building", "subtype": "no-damage", "uid": "cda5c1f0-36ce-4667-8d4a-bfcbebdf25c0" }, "geometry": { "type": "Polygon", "coordinates": [ [ [ 177.478149570330487, 824.479022782860284 ], [ 211.903077685325712, 822.776691167762465 ], [ 213.416261338021002, 836.773639963971618 ], [ 178.423889355051699, 837.341083830126763 ], [ 177.478149570330487, 824.479022782860284 ] ] ] } },
{ "type": "Feature", "properties": { "feature_type": "building", "subtype": "no-damage", "uid": "192b069c-4301-4748-8d06-6630b02ac8ff" }, "geometry": { "type": "Polygon", "coordinates": [ [ [ 193.517649869420893, 238.145795285497087 ], [ 197.831079134228901, 231.367549300314494 ], [ 182.425974619953308, 219.967771960275087 ], [ 194.750058228307211, 201.789748635053201 ], [ 223.403552627572992, 225.205507495224907 ], [ 225.560267257897891, 222.124486590601208 ], [ 239.73296341276739, 234.448570204938193 ], [ 214.46859200661109, 266.79928968269769 ], [ 200.603997945166498, 258.480533243124114 ], [ 207.382243930865599, 248.929368447522307 ], [ 193.517649869420893, 238.145795285497087 ] ] ] } },
{ "type": "Feature", "properties": { "feature_type": "building", "subtype": "no-damage", "uid": "60ae610e-e7f4-4710-a9b9-4b6c4eb7f411" }, "geometry": { "type": "Polygon", "coordinates": [ [ [ 343.871469922783774, 232.9080597526264 ], [ 370.676351776573426, 225.205507493145888 ], [ 361.741391161069089, 202.097850725099704 ], [ 381.459924937293977, 196.552013100103409 ], [ 391.935396008487885, 227.670324217676608 ], [ 372.524964320230424, 234.44857020078021 ], [ 387.313864653373628, 281.896292103295877 ], [ 359.892778617931924, 290.523150634995091 ], [ 343.871469922783774, 232.9080597526264 ] ] ] } },
{ "type": "Feature", "properties": { "feature_type": "building", "subtype": "no-damage", "uid": "ca05ef79-a09c-4db6-864d-9165e7e2d702" }, "geometry": { "type": "Polygon", "coordinates": [ [ [ 436.91830118879011, 206.103177897784207 ], [ 465.879897673684184, 190.698073382981391 ], [ 462.182672592607389, 183.303623217705592 ], [ 503.16025059918752, 160.195966443422293 ], [ 518.257253018998767, 187.000848298264401 ], [ 451.707201520633873, 228.594630489895309 ], [ 436.91830118879011, 206.103177897784207 ] ] ] } },
{ "type": "Feature", "properties": { "feature_type": "building", "subtype": "no-damage", "uid": "796bba9f-12bb-42ed-a398-8ef19c61e5cf" }, "geometry": { "type": "Polygon", "coordinates": [ [ [ 441.847934630832185, 252.010389347988109 ], [ 480.052593827774217, 230.135140938049091 ], [ 505.933169408565789, 262.177758329920096 ], [ 504.700761050978883, 290.215048542869511 ], [ 482.825512640011084, 290.523150634995091 ], [ 482.209308459658416, 277.890964932690508 ], [ 472.658143659903089, 263.718268778073877 ], [ 456.328732877047628, 275.73425030028551 ], [ 441.847934630832185, 252.010389347988109 ] ] ] } },
{ "type": "Feature", "properties": { "feature_type": "building", "subtype": "no-damage", "uid": "c574d23d-f13d-45f9-a798-9e91f64d21f7" }, "geometry": { "type": "Polygon", "coordinates": [ [ [ 615.309411458207251, 963.110013709788973 ], [ 629.790209702083644, 941.850969482022265 ], [ 648.892539300034855, 953.866951000075687 ], [ 635.027945234951858, 976.666505680154387 ], [ 615.309411458207251, 963.110013709788973 ] ] ] } },
{ "type": "Feature", "properties": { "feature_type": "building", "subtype": "no-damage", "uid": "2c717233-de63-4bba-9c4c-3b75644e4d43" }, "geometry": { "type": "Polygon", "coordinates": [ [ [ 603.293429940679403, 993.304018557222548 ], [ 579.569568988653486, 988.682487204444897 ], [ 592.817958868445999, 936.613233944993453 ], [ 616.233717731205161, 940.002356939663855 ], [ 603.293429940679403, 993.304018557222548 ] ] ] } }
]
}
