{
"type": "FeatureCollection",
"name": "santa-rosa-wildfire_00000263_post_disaster",
"features": [
{ "type": "Feature", "properties": { "feature_type": "building", "subtype": "destroyed", "uid": "413c143b-632f-42dd-b2e8-ce1a11fead15" }, "geometry": { "type": "Polygon", "coordinates": [ [ [ 124.429468427608697, 681.517354232041043 ], [ 132.425964881803395, 686.136217363527294 ], [ 140.7388975426461, 690.963081484770214 ], [ 129.208055466690695, 714.024765628379896 ], [ 110.168758092705701, 704.102878266082712 ], [ 124.429468427608697, 681.517354232041043 ] ] ] } },
{ "type": "Feature", "properties": { "feature_type": "building", "subtype": "destroyed", "uid": "a6a3481f-4b2c-4542-90dc-440853b45b96" }, "geometry": { "type": "Polygon", "coordinates": [ [ [ 129.832331538072594, 540.899777456419542 ], [ 139.787994038701413, 542.783646309714413 ], [ 151.050676995365791, 522.135394227766255 ], [ 170.053578333270991, 526.52324718610862 ], [ 164.726792010049707, 539.565736894859128 ], [ 178.71497382456829, 543.323342062884876 ], [ 172.292665048534786, 563.167116787479245 ], [ 155.073063762371589, 559.409511621533511 ], [ 142.469585221731904, 572.817467522657239 ], [ 126.416434180688299, 564.175464719034153 ], [ 117.640728269470699, 558.909589424490719 ], [ 129.832331538072594, 540.899777456419542 ] ] ] } },
{ "type": "Feature", "properties": { "feature_type": "building", "subtype": "destroyed", "uid": "86aa91cf-685d-4a26-a1cd-a8166f1c141a" }, "geometry": { "type": "Polygon", "coordinates": [ [ [ 711.252280124932099, 228.907752811454912 ], [ 727.890596604962298, 261.4079975343912 ], [ 711.857714868601306, 270.977724211420195 ], [ 699.826380480216017, 249.429368704253392 ], [ 690.243477415385541, 252.167341007155699 ], [ 684.083039728920198, 242.584437941797489 ], [ 695.719422024825803, 236.424000261827103 ], [ 711.252280124932099, 228.907752811454912 ] ] ] } },
{ "type": "Feature", "properties": { "feature_type": "building", "subtype": "un-classified", "uid": "aa6d2f6c-a36d-4095-a568-90fa43c3eff5" }, "geometry": { "type": "Polygon", "coordinates": [ [ [ 174.8141270270512, 645.310314843354035 ], [ 180.737389712669113, 634.780070068682562 ], [ 189.951353889199197, 640.703332752485267 ], [ 184.686231504467713, 649.588226782349352 ], [ 174.8141270270512, 645.310314843354035 ] ] ] } },
{ "type": "Feature", "properties": { "feature_type": "building", "subtype": "destroyed", "uid": "e93454c8-11d8-452a-9157-9d70e9803d5a" }, "geometry": { "type": "Polygon", "coordinates": [ [ [ 747.706866176337144, 371.082133339160691 ], [ 760.256771446362904, 355.002567212593476 ], [ 781.826921123125885, 369.121210638718878 ], [ 798.690856323824278, 353.041644516311578 ], [ 808.495469815625597, 357.747858994459989 ], [ 814.770422447518513, 348.727614577835482 ], [ 832.418726730680987, 362.454073468448485 ], [ 823.398482320563744, 373.827425114787388 ], [ 816.731345147178786, 368.729026101126522 ], [ 808.495469814845592, 376.572716896654015 ], [ 805.750178035841259, 374.611794194132074 ], [ 791.631534613367307, 386.37733038430332 ], [ 785.356581980694386, 384.416407685941522 ], [ 777.512891184913315, 380.494562289217811 ], [ 767.316093159419893, 388.730437618177575 ], [ 747.706866176337144, 371.082133339160691 ] ] ] } }
]
}
