{
"type": "FeatureCollection",
"name": "santa-rosa-wildfire_00000062_post_disaster",
"features": [
{ "type": "Feature", "properties": { "feature_type": "building", "subtype": "no-damage", "uid": "cfea9b19-d9df-48bf-b382-9fedb4c527e9" }, "geometry": { "type": "Polygon", "coordinates": [ [ [ 155.980690978789909, 669.363136007578873 ], [ 163.489061902004494, 681.338632745906921 ], [ 158.213331825007486, 686.614362821087184 ], [ 163.332355286304789, 694.759794516711509 ], [ 141.945695488120492, 705.453124414965259 ], [ 129.247366232911986, 686.071463974770381 ], [ 155.980690978789909, 669.363136007578873 ] ] ] } },
{ "type": "Feature", "properties": { "feature_type": "building", "subtype": "no-damage", "uid": "766830ae-0ba0-4313-a142-386f075b4327" }, "geometry": { "type": "Polygon", "coordinates": [ [ [ 120.559035687986196, 693.423128281249774 ], [ 134.594031180865613, 706.789790654587023 ], [ 113.875704504701702, 728.844783569865399 ], [ 98.504042774021414, 712.804788721444766 ], [ 107.192373316477202, 705.453124414965259 ], [ 102.514041485344094, 701.443125706500155 ], [ 104.519040840745404, 694.759794516711509 ], [ 106.524040199136806, 692.754795164558914 ], [ 115.880703857633094, 690.749795808246404 ], [ 120.559035687986196, 693.423128281249774 ] ] ] } },
{ "type": "Feature", "properties": { "feature_type": "building", "subtype": "no-damage", "uid": "6302279f-1b7a-40a7-8aea-4880271d9971" }, "geometry": { "type": "Polygon", "coordinates": [ [ [ 432.493688725418679, 891.647566888802089 ], [ 434.422566666656792, 892.612005860591808 ], [ 436.660376187683084, 895.429432845105794 ], [ 443.44909322653109, 893.733596544219949 ], [ 446.960273302384621, 891.969046546065329 ], [ 453.112347576371178, 904.160109725904135 ], [ 456.604663020015209, 912.221663493882147 ], [ 463.399954827483498, 914.497718711520292 ], [ 469.621602485260325, 920.007091893319853 ], [ 476.857881429535382, 927.974768163705676 ], [ 479.108239030896584, 923.474052962020664 ], [ 487.466710122335087, 932.475483361230772 ], [ 484.89487286033102, 935.368800280759729 ], [ 489.717067720836212, 939.869515478284825 ], [ 475.893442459176413, 949.513905202421256 ], [ 468.177930681873875, 951.442783146000579 ], [ 462.069817192576522, 946.942067944315568 ], [ 454.032825764121014, 943.405791710260246 ], [ 440.852159810617309, 924.438491931730368 ], [ 432.815168381641683, 911.579305641201586 ], [ 427.350014204920512, 913.186703925437769 ], [ 419.955982086570998, 898.077160031986523 ], [ 432.493688725418679, 891.647566888802089 ] ] ] } },
{ "type": "Feature", "properties": { "feature_type": "building", "subtype": "no-damage", "uid": "8c71c88d-1089-479a-b0cc-83063b0dd6e3" }, "geometry": { "type": "Polygon", "coordinates": [ [ [ 208.619981377458089, 320.008154874103582 ], [ 220.6499775133762, 325.354819820110492 ], [ 210.656750268796486, 338.880329871442825 ], [ 199.503231838325689, 332.877850427348108 ], [ 208.619981377458089, 320.008154874103582 ] ] ] } },
{ "type": "Feature", "properties": { "feature_type": "building", "subtype": "no-damage", "uid": "715f10a3-2e9d-4b37-a044-ffff2ded2a9b" }, "geometry": { "type": "Polygon", "coordinates": [ [ [ 497.225203080975916, 1008.528071042984948 ], [ 497.225203079675907, 1012.193666453552964 ], [ 494.606920646807509, 1015.859261857881052 ], [ 493.035951189686386, 1017.953887802617032 ], [ 491.207028283229874, 1022.983426017706961 ], [ 463.084430673726615, 1022.983372073215037 ], [ 462.339999997996813, 1015.149999999518968 ], [ 465.282157409471722, 1010.099040506736969 ], [ 466.329470381578972, 1011.146353477024945 ], [ 470.518722271048375, 1011.146353477024945 ], [ 470.51872227416851, 1007.480758072696972 ], [ 473.137004704046774, 1005.386132130041005 ], [ 476.278943622448878, 1005.386132127960991 ], [ 497.225203080975916, 1008.528071042984948 ] ] ] } },
{ "type": "Feature", "properties": { "feature_type": "building", "subtype": "destroyed", "uid": "9bd1b4fb-ec2b-4aa7-94b9-60450d4af27d" }, "geometry": { "type": "Polygon", "coordinates": [ [ [ 903.758865136773807, 78.493102599585157 ], [ 902.898732117624036, 43.872748552298859 ], [ 910.424896039506848, 43.657715299103778 ], [ 910.424896040416797, 39.572083453037457 ], [ 940.744584989203076, 39.357050199842377 ], [ 942.894917540912388, 71.612038441182904 ], [ 949.345915191230574, 71.181971932712756 ], [ 951.066181228749997, 75.267603774619104 ], [ 956.442012601913461, 74.837537270308928 ], [ 957.517178876078219, 89.029732097663569 ], [ 948.915848679900705, 89.889865110443878 ], [ 948.915848680550653, 98.061128800496533 ], [ 932.143254791725553, 99.136295078951875 ], [ 931.928221538790581, 94.835629975530495 ], [ 915.585694160125286, 94.835629975530495 ], [ 916.875893688525025, 85.80423326853753 ], [ 912.575228589006201, 85.374166760067382 ], [ 913.005295100986132, 78.493102601665143 ], [ 903.758865136773807, 78.493102599585157 ] ] ] } },
{ "type": "Feature", "properties": { "feature_type": "building", "subtype": "destroyed", "uid": "035abe6d-d676-4c52-adba-80dfa5295ef3" }, "geometry": { "type": "Polygon", "coordinates": [ [ [ 959.882544682282514, 70.1068056584174 ], [ 958.592345150892811, 51.828978984996454 ], [ 974.719839275453182, 50.968845968056158 ], [ 975.57997229564296, 67.956473109826703 ], [ 959.882544682282514, 70.1068056584174 ] ] ] } },
{ "type": "Feature", "properties": { "feature_type": "building", "subtype": "destroyed", "uid": "0a789417-25bc-44c9-a39f-68039f3c179d" }, "geometry": { "type": "Polygon", "coordinates": [ [ [ 1022.976391720839956, 96.745382241110747 ], [ 1012.053654408859984, 91.260205968835251 ], [ 1017.328822699393982, 82.881997510765089 ], [ 1022.976389009446052, 85.771605809388959 ], [ 1022.976391720839956, 96.745382241110747 ] ] ] } },
{ "type": "Feature", "properties": { "feature_type": "building", "subtype": "no-damage", "uid": "97b6fbfb-c618-4482-8aa2-c5c73ac161a0" }, "geometry": { "type": "Polygon", "coordinates": [ [ [ 190.566426268045888, 1006.66874026663595 ], [ 179.292046985548495, 998.187097142021798 ], [ 188.808036838127691, 985.361197775036317 ], [ 183.739737896540987, 981.016941540985044 ], [ 198.427461358810888, 958.778486994328659 ], [ 216.838833031945086, 970.570039637633386 ], [ 207.426277850979886, 990.94667007833641 ], [ 202.668282923065391, 988.774541962350781 ], [ 190.566426268045888, 1006.66874026663595 ] ] ] } },
{ "type": "Feature", "properties": { "feature_type": "building", "subtype": "no-damage", "uid": "46f1fce5-8752-4de8-92b2-f57406677825" }, "geometry": { "type": "Polygon", "coordinates": [ [ [ 198.542902277103394, 956.783366350252095 ], [ 174.992794981471491, 944.165739282904497 ], [ 197.363513003735704, 904.553269956776262 ], [ 218.761004111277003, 918.032004511340347 ], [ 198.542902277103394, 956.783366350252095 ] ] ] } },
{ "type": "Feature", "properties": { "feature_type": "building", "subtype": "no-damage", "uid": "61a05738-1289-4add-b256-b7c952572bbe" }, "geometry": { "type": "Polygon", "coordinates": [ [ [ 91.723030449412263, 743.442404301419401 ], [ 117.649686052950301, 736.082926754590858 ], [ 117.986654414188195, 737.767768575211335 ], [ 124.833718080907104, 760.574673929651794 ], [ 106.866698409617598, 764.55675349832552 ], [ 104.1709514961845, 754.447702580842474 ], [ 95.68591113451248, 757.985870406017511 ], [ 91.723030449412263, 743.442404301419401 ] ] ] } },
{ "type": "Feature", "properties": { "feature_type": "building", "subtype": "no-damage", "uid": "6d1edad5-b977-4f02-8d76-c54a4f0c039c" }, "geometry": { "type": "Polygon", "coordinates": [ [ [ 130.806837439503994, 802.26643985444116 ], [ 121.203239069019006, 789.293157843359268 ], [ 125.752311981285601, 786.765895119708489 ], [ 127.437153801385094, 785.249537476782052 ], [ 127.942606347726894, 784.238632389817667 ], [ 121.708691617700893, 781.205917114364752 ], [ 122.382628342906699, 775.140486563458921 ], [ 125.920796162879597, 773.118676381210321 ], [ 127.268669622001099, 768.232635107442775 ], [ 140.915888357240789, 760.313878554062399 ], [ 152.035844361161395, 776.488360020371374 ], [ 148.666160722002388, 779.184106930036137 ], [ 154.731591273424499, 787.608316026898706 ], [ 130.806837439503994, 802.26643985444116 ] ] ] } },
{ "type": "Feature", "properties": { "feature_type": "building", "subtype": "no-damage", "uid": "ef49f969-a6d5-4052-881d-7e5363020641" }, "geometry": { "type": "Polygon", "coordinates": [ [ [ 150.875294879745098, 851.3015152580532 ], [ 149.370062093990612, 825.71255791983981 ], [ 153.885760448004191, 824.637391643464525 ], [ 151.520394644269913, 808.724930778069279 ], [ 170.013254567364612, 807.004664733788786 ], [ 171.948553863278988, 851.731581770683306 ], [ 150.875294879745098, 851.3015152580532 ] ] ] } },
{ "type": "Feature", "properties": { "feature_type": "building", "subtype": "no-damage", "uid": "bd92566d-2bd4-46df-bc18-cfc9621e8c20" }, "geometry": { "type": "Polygon", "coordinates": [ [ [ 237.116007573644112, 596.989942267367383 ], [ 237.116007573254109, 591.094165947795091 ], [ 239.184701020094394, 591.094165945715076 ], [ 239.184701016714399, 589.542645860193943 ], [ 249.21786422918359, 589.749515205762123 ], [ 249.217864229703594, 596.472768905527005 ], [ 237.116007573644112, 596.989942267367383 ] ] ] } },
{ "type": "Feature", "properties": { "feature_type": "building", "subtype": "no-damage", "uid": "7ccd7292-0a28-42f0-a8d9-64be47818918" }, "geometry": { "type": "Polygon", "coordinates": [ [ [ 362.587521011551701, 737.575481134065626 ], [ 354.96753106827282, 734.273485491789756 ], [ 354.967531065802802, 730.463490518652861 ], [ 361.254022768692721, 718.97000568964495 ], [ 368.810512799644016, 722.081501580247959 ], [ 368.683512966018782, 726.335995968408042 ], [ 362.587521011551701, 737.575481134065626 ] ] ] } },
{ "type": "Feature", "properties": { "feature_type": "building", "subtype": "no-damage", "uid": "b7194d99-be49-4f89-b051-34f0aee06b03" }, "geometry": { "type": "Polygon", "coordinates": [ [ [ 343.867897940225703, 898.826732989946208 ], [ 344.76618481203019, 899.291807377093505 ], [ 333.071762559232127, 872.436179836245515 ], [ 338.829701429944691, 870.15699570287245 ], [ 335.590860815347583, 860.560430921032207 ], [ 331.032492544444324, 862.239829758010274 ], [ 325.994296033123192, 852.40335085719596 ], [ 330.672621365463499, 849.524381421187968 ], [ 328.993222526406498, 847.365154346261875 ], [ 340.509100267051679, 841.367301357351721 ], [ 342.66832734028651, 845.685755509283808 ], [ 356.583346277300222, 841.247344298904636 ], [ 365.100297517772219, 861.879958578509218 ], [ 359.222401591862592, 865.118799191938365 ], [ 363.300941623258211, 875.075235155359564 ], [ 357.303088633701805, 878.194118708261612 ], [ 368.219181075482311, 900.386174764317275 ], [ 357.662959814242583, 906.144113636333373 ], [ 359.582272771103419, 911.782095447822485 ], [ 346.027125017880508, 917.180163134097711 ], [ 338.829701429034685, 901.8256594885612 ], [ 343.867897940225703, 898.826732989946208 ] ] ] } },
{ "type": "Feature", "properties": { "feature_type": "building", "subtype": "no-damage", "uid": "fe4d3e26-4406-46eb-a340-8f4b644660da" }, "geometry": { "type": "Polygon", "coordinates": [ [ [ 355.086710556309413, 1022.982754391622052 ], [ 353.05869348501119, 1007.496077819626976 ], [ 355.794257229554091, 1006.519090766203021 ], [ 353.644885716987517, 997.335412493964213 ], [ 347.978360824652896, 998.898591769875452 ], [ 345.828989311176372, 985.611567886150283 ], [ 340.553259238209307, 958.255930471384318 ], [ 341.139451467195727, 958.255930471384318 ], [ 360.288397660926023, 955.911161548157565 ], [ 361.265384711229899, 968.61199320523599 ], [ 364.391743270070378, 969.198185440202678 ], [ 365.564127735582986, 971.152159534571751 ], [ 369.081281116650985, 978.186466302172107 ], [ 363.610153632505273, 978.968055941167677 ], [ 364.977935500876811, 982.680606730036743 ], [ 367.713499246069603, 982.876004142385682 ], [ 368.690486294813525, 986.979349755952512 ], [ 372.793831907597905, 987.565541986759285 ], [ 372.793831906687899, 992.4504772414017 ], [ 376.115587881127112, 991.668887598246101 ], [ 381.000523130826593, 1013.162602709105045 ], [ 369.27667852613979, 1016.679756093945002 ], [ 371.035255217908912, 1022.541678397852024 ], [ 365.93033574112269, 1022.982845829979965 ], [ 355.086710556309413, 1022.982754391622052 ] ] ] } }
]
}
