{
"type": "FeatureCollection",
"name": "santa-rosa-wildfire_00000127_post_disaster",
"features": [
{ "type": "Feature", "properties": { "feature_type": "building", "subtype": "destroyed", "uid": "d985e47f-a7d3-459b-a388-9dbd7908ca98" }, "geometry": { "type": "Polygon", "coordinates": [ [ [ 596.544654374184574, 1022.983229323628962 ], [ 592.942113216650569, 1018.085319668825036 ], [ 594.45529686789871, 1003.89922292153301 ], [ 570.055210460388707, 981.768911988934178 ], [ 573.270725723775854, 978.175100818583246 ], [ 603.156102876485079, 949.613759358687162 ], [ 617.90964349357364, 963.610708153148494 ], [ 612.4243527521445, 968.339407069605954 ], [ 613.748388449521485, 970.420034594428103 ], [ 615.450720061010543, 968.528555022437104 ], [ 634.176367770880347, 985.741019083667197 ], [ 641.742286036610608, 978.364248771414282 ], [ 655.739234829635279, 993.874381219724455 ], [ 644.012061513742765, 1004.088370880603975 ], [ 652.33457160704711, 1013.356620754448045 ], [ 643.096603518899315, 1022.982947915794966 ], [ 596.544654374184574, 1022.983229323628962 ] ] ] } },
{ "type": "Feature", "properties": { "feature_type": "building", "subtype": "destroyed", "uid": "237c00ca-68dd-42eb-bde6-f74fbcfee930" }, "geometry": { "type": "Polygon", "coordinates": [ [ [ 583.967731607785709, 830.685939706601857 ], [ 575.035707772252636, 811.856267835544713 ], [ 571.414617025440407, 811.856267833464699 ], [ 567.069308130851596, 801.475807697953655 ], [ 570.207586779882945, 800.268777450315611 ], [ 568.276338381999039, 794.716438307436761 ], [ 618.488796715540389, 777.576608779328808 ], [ 619.695826961357852, 782.163323721185293 ], [ 624.765354004633082, 781.197699524322843 ], [ 632.7317536429141, 799.061747200597665 ], [ 606.659900280971556, 817.408606974263648 ], [ 606.659900277461475, 824.650788464251718 ], [ 589.037258654440961, 830.685939708681872 ], [ 583.967731607785709, 830.685939706601857 ] ] ] } },
{ "type": "Feature", "properties": { "feature_type": "building", "subtype": "destroyed", "uid": "edc69b09-efa5-4ac7-afaf-338ac69511aa" }, "geometry": { "type": "Polygon", "coordinates": [ [ [ 660.6936591188271, 807.049665811406726 ], [ 633.276220041340594, 793.711452207317052 ], [ 650.171290608488562, 767.331429746449885 ], [ 671.957039492115882, 777.260988764769081 ], [ 660.6936591188271, 807.049665811406726 ] ] ] } },
{ "type": "Feature", "properties": { "feature_type": "building", "subtype": "destroyed", "uid": "b2a8bb36-2d04-499e-9d44-b82305f91ad7" }, "geometry": { "type": "Polygon", "coordinates": [ [ [ 879.863814516690695, 949.054881099287172 ], [ 858.86148819360335, 946.882226654786677 ], [ 858.378676098292317, 941.812699609298988 ], [ 854.274773252789032, 943.019729861097062 ], [ 853.791961153318084, 945.675196407148633 ], [ 843.652907066247622, 944.468166155350673 ], [ 842.928688918341095, 939.881451211414173 ], [ 837.376349773904963, 938.915827018711752 ], [ 836.893537677553923, 943.261135909792642 ], [ 822.891986792375747, 939.157233065327318 ], [ 826.513077541527991, 908.740070806961171 ], [ 834.962289276290107, 910.188507103294796 ], [ 837.134943724689492, 899.325234866232563 ], [ 884.450529459845029, 905.601792159358297 ], [ 890.968492802183164, 892.807271528571277 ], [ 895.555207746377391, 894.255707822824888 ], [ 899.900516642656157, 884.11665373808944 ], [ 920.661436913148009, 895.462738072542834 ], [ 899.176298492929732, 931.190833427172379 ], [ 894.589583547695383, 927.81114872879391 ], [ 883.484905261163021, 936.018954419804459 ], [ 882.760687111696598, 945.916602453764312 ], [ 879.863814516690695, 949.054881099287172 ] ] ] } },
{ "type": "Feature", "properties": { "feature_type": "building", "subtype": "destroyed", "uid": "c502d91c-4ca0-41ed-8dc8-a1c240c27d93" }, "geometry": { "type": "Polygon", "coordinates": [ [ [ 1022.97642212831704, 983.318273136222047 ], [ 1017.332011043120019, 989.577628546924529 ], [ 1011.478071326478016, 988.345220183226729 ], [ 1012.09427550650696, 996.972078710391656 ], [ 999.462089803049821, 996.355874532702728 ], [ 997.305375171779588, 991.118138997386836 ], [ 964.6465536011425, 992.658649447849143 ], [ 961.565532702559381, 965.237563411732026 ], [ 999.153987716025426, 959.383623696647305 ], [ 1003.159314889721031, 953.529683981562471 ], [ 993.300048001463551, 946.751437993704371 ], [ 1007.472744151741949, 933.194946026308003 ], [ 1014.559092230260944, 941.82180455347293 ], [ 1022.97643654575495, 930.25386962794903 ], [ 1022.97642212831704, 983.318273136222047 ] ] ] } },
{ "type": "Feature", "properties": { "feature_type": "building", "subtype": "destroyed", "uid": "6bf80a1d-1201-4e65-a62a-48f932df2f3a" }, "geometry": { "type": "Polygon", "coordinates": [ [ [ 136.401980720140187, 533.264834757917129 ], [ 84.948931645110164, 461.477047722277575 ], [ 88.954258819586215, 455.006903827423912 ], [ 111.753813498065298, 441.450411855867628 ], [ 124.385999199052094, 445.147636942801114 ], [ 138.250593261916094, 436.828880500320622 ], [ 138.558695351800395, 429.434430334773481 ], [ 143.796430889063714, 426.661511522693388 ], [ 154.888106134908895, 430.05063451454248 ], [ 167.520291840185706, 451.00157665372592 ], [ 158.585331218330708, 479.346968960536287 ], [ 138.866797444544687, 488.590031669550228 ], [ 154.888106139068896, 521.248853238903166 ], [ 136.401980720140187, 533.264834757917129 ] ] ] } },
{ "type": "Feature", "properties": { "feature_type": "building", "subtype": "destroyed", "uid": "ce314c40-d3e5-400b-887a-c6fb00399ec5" }, "geometry": { "type": "Polygon", "coordinates": [ [ [ 181.38488590057969, 430.974940785235788 ], [ 162.898760484511001, 415.569836274372676 ], [ 179.844375448688197, 396.775608767500614 ], [ 196.481888323111008, 413.10501954905709 ], [ 181.38488590057969, 430.974940785235788 ] ] ] } },
{ "type": "Feature", "properties": { "feature_type": "building", "subtype": "destroyed", "uid": "4164b101-7602-47f8-b7fd-39848ca72f0b" }, "geometry": { "type": "Polygon", "coordinates": [ [ [ 321.846935583299512, 499.546880300963778 ], [ 284.911809982739896, 490.614856463866374 ], [ 289.498524926154175, 467.922687794959472 ], [ 305.189918153890915, 471.54377853787372 ], [ 307.74604220268219, 462.939861075403201 ], [ 324.743808180255314, 465.025815198132307 ], [ 331.744583616214527, 460.439100252115793 ], [ 367.231272920311085, 471.543778539953621 ], [ 357.575030935181587, 498.822662150717008 ], [ 327.399274722795724, 493.753135107309276 ], [ 321.846935583299512, 499.546880300963778 ] ] ] } }
]
}
