{
"type": "FeatureCollection",
"name": "santa-rosa-wildfire_00000167_post_disaster",
"features": [
{ "type": "Feature", "properties": { "feature_type": "building", "subtype": "no-damage", "uid": "90093cea-f392-4baa-a980-d245f478de75" }, "geometry": { "type": "Polygon", "coordinates": [ [ [ 411.792827955404618, 892.970644935484643 ], [ 412.202047434726182, 900.336595572112401 ], [ 392.968731884390081, 900.541205312422903 ], [ 393.582561104282092, 893.175254673716154 ], [ 396.242487722861313, 893.175254673716154 ], [ 396.856316944052821, 890.924547534457815 ], [ 403.199218881724221, 890.719937798305295 ], [ 403.813048102265782, 892.561425454863411 ], [ 411.792827955404618, 892.970644935484643 ] ] ] } },
{ "type": "Feature", "properties": { "feature_type": "building", "subtype": "no-damage", "uid": "185514c5-9791-4e1d-9747-3ce09a4d60b6" }, "geometry": { "type": "Polygon", "coordinates": [ [ [ 426.872101575940917, 836.166446155642689 ], [ 430.412314290266522, 887.650791695725502 ], [ 404.365030188043193, 889.036674527281093 ], [ 400.61660117789711, 886.643204779098141 ], [ 396.79086325455819, 851.230257993207829 ], [ 399.720853302812486, 850.616428772276095 ], [ 397.956674558148507, 836.780275376574423 ], [ 426.872101575940917, 836.166446155642689 ] ] ] } },
{ "type": "Feature", "properties": { "feature_type": "building", "subtype": "no-damage", "uid": "39561ee6-ac20-4160-984d-e861dc65aab4" }, "geometry": { "type": "Polygon", "coordinates": [ [ [ 651.69226737403585, 993.327366683598143 ], [ 651.896877112137417, 1013.379121192455045 ], [ 637.164975840836291, 1013.174511454222966 ], [ 636.551146622373608, 1000.284097837526019 ], [ 634.095829743195281, 999.465658878362319 ], [ 633.891220001325564, 995.782683563167097 ], [ 636.96036609896646, 993.531976419750663 ], [ 651.69226737403585, 993.327366683598143 ] ] ] } },
{ "type": "Feature", "properties": { "feature_type": "building", "subtype": "no-damage", "uid": "ddc373fa-f8c3-4a4e-a436-619668e03842" }, "geometry": { "type": "Polygon", "coordinates": [ [ [ 125.993657782104293, 896.01413801626768 ], [ 142.706594652804, 895.491858740873226 ], [ 145.317991036921995, 924.739498258598474 ], [ 125.090159662177101, 925.854587031704909 ], [ 122.521170327196998, 909.289852535297314 ], [ 125.4713785055405, 908.287701030657672 ], [ 125.993657782104293, 896.01413801626768 ] ] ] } },
{ "type": "Feature", "properties": { "feature_type": "building", "subtype": "no-damage", "uid": "71b3fe24-e3f1-4029-84dc-76b72a6f585b" }, "geometry": { "type": "Polygon", "coordinates": [ [ [ 119.675538011608296, 851.038295577336612 ], [ 138.061108035080309, 849.958471916428493 ], [ 139.889085503118309, 864.321152036554281 ], [ 134.66629273085411, 865.887989868974842 ], [ 134.144013457019099, 870.588503364157191 ], [ 121.609310803766903, 871.894201553682819 ], [ 119.675538011608296, 851.038295577336612 ] ] ] } },
{ "type": "Feature", "properties": { "feature_type": "building", "subtype": "no-damage", "uid": "0c489de6-3258-4a9f-9b45-28616e49ad0b" }, "geometry": { "type": "Polygon", "coordinates": [ [ [ 139.889085502728392, 811.832084689970088 ], [ 162.608234057614311, 810.265246855470537 ], [ 164.436211528900799, 824.10564769812288 ], [ 209.685360678479611, 819.647936341428476 ], [ 211.963625747526095, 844.996818782509308 ], [ 145.373017914508893, 850.74189083263866 ], [ 145.373017912819705, 847.347075531140035 ], [ 141.194783698100906, 846.563656619087851 ], [ 139.105666588467614, 812.876643240758995 ], [ 139.889085502728392, 811.832084689970088 ] ] ] } },
{ "type": "Feature", "properties": { "feature_type": "building", "subtype": "no-damage", "uid": "03a2c257-d36c-4496-9159-d982c2b4ba7e" }, "geometry": { "type": "Polygon", "coordinates": [ [ [ 135.77840223320581, 808.47726771180487 ], [ 137.006060672340112, 829.961290402835402 ], [ 113.564429885238496, 831.769551028661908 ], [ 112.049268301681806, 810.285528339710368 ], [ 135.77840223320581, 808.47726771180487 ] ] ] } },
{ "type": "Feature", "properties": { "feature_type": "building", "subtype": "no-damage", "uid": "2ece6b49-979c-407b-8663-cccba9418c8d" }, "geometry": { "type": "Polygon", "coordinates": [ [ [ 46.780268380416082, 754.822795416126155 ], [ 47.421536719819649, 785.603675763642627 ], [ 19.686680994973852, 786.565578272683297 ], [ 19.686680991205581, 784.160821995923357 ], [ 12.472412164566791, 783.519553655869913 ], [ 11.67082673534212, 764.441820523165802 ], [ 17.368417329199879, 763.960869272803507 ], [ 17.28192471808487, 755.143429589271477 ], [ 46.780268380416082, 754.822795416126155 ] ] ] } },
{ "type": "Feature", "properties": { "feature_type": "building", "subtype": "no-damage", "uid": "9df21b87-4c58-41af-9e27-ecbf7eac4506" }, "geometry": { "type": "Polygon", "coordinates": [ [ [ 145.1094646536921, 748.316315346250349 ], [ 183.593808372321206, 746.007264811536061 ], [ 184.821466811715396, 759.102288162306991 ], [ 178.88778435258601, 760.329946606249564 ], [ 178.683174614874304, 764.217531661755402 ], [ 176.023247996425113, 765.035970625076857 ], [ 176.691930425354514, 772.524195201461566 ], [ 152.003099314202387, 774.127366052634784 ], [ 147.834855102167012, 772.36387811384941 ], [ 145.1094646536921, 748.316315346250349 ] ] ] } },
{ "type": "Feature", "properties": { "feature_type": "building", "subtype": "no-damage", "uid": "ccd02f67-ff7b-4a7b-9f77-512d8997ced4" }, "geometry": { "type": "Polygon", "coordinates": [ [ [ 33.657614210830538, 704.748151223638502 ], [ 45.841712681328268, 703.946565795972901 ], [ 46.963932276681383, 704.908468307092676 ], [ 57.224225722861227, 706.351322072732728 ], [ 57.865494063174367, 718.375103460690298 ], [ 31.89412627373494, 719.01637179866475 ], [ 31.573492105527471, 712.603688393971765 ], [ 33.497297125687282, 712.443371310517591 ], [ 33.657614210830538, 704.748151223638502 ] ] ] } },
{ "type": "Feature", "properties": { "feature_type": "building", "subtype": "no-damage", "uid": "3e651142-86ce-4ff5-938b-6088f686ab16" }, "geometry": { "type": "Polygon", "coordinates": [ [ [ 185.379484156978805, 694.396714793234651 ], [ 185.058849985262896, 707.061764517087568 ], [ 164.377946004121611, 708.664935368260899 ], [ 164.377946003471891, 717.322057968338754 ], [ 152.193847532064609, 717.001423797272537 ], [ 151.873213361258394, 702.572886132555027 ], [ 159.40811636182201, 702.252251965646792 ], [ 159.568433451383214, 694.877666049834033 ], [ 184.257264560326291, 694.076080620089328 ], [ 185.379484156978805, 694.396714793234651 ] ] ] } },
{ "type": "Feature", "properties": { "feature_type": "building", "subtype": "no-damage", "uid": "80f352db-b4b6-46a9-a4b9-53ce30c9da25" }, "geometry": { "type": "Polygon", "coordinates": [ [ [ 240.441645769172311, 678.086008592648 ], [ 259.879571061248214, 677.062959891095034 ], [ 260.69801001950168, 696.910104661720084 ], [ 240.850865246544913, 697.72854362296232 ], [ 239.623206807670414, 678.904447549732254 ], [ 240.441645769172311, 678.086008592648 ] ] ] } },
{ "type": "Feature", "properties": { "feature_type": "building", "subtype": "no-damage", "uid": "75ce0e45-7fdd-4123-9089-aa457bebfc9e" }, "geometry": { "type": "Polygon", "coordinates": [ [ [ 262.539497677098723, 676.244520934010779 ], [ 288.320324904766892, 674.607643013605184 ], [ 289.752593083691977, 696.091665702556725 ], [ 265.404034037157828, 698.956202060667806 ], [ 263.562546375792522, 691.999470906740271 ], [ 262.130278199466318, 677.881398852337384 ], [ 262.539497677098723, 676.244520934010779 ] ] ] } },
{ "type": "Feature", "properties": { "feature_type": "building", "subtype": "no-damage", "uid": "799beffd-f277-4aa4-b9fc-cc35b5858d65" }, "geometry": { "type": "Polygon", "coordinates": [ [ [ 322.318577846824724, 671.315412187526022 ], [ 339.488942466196306, 670.994778018538796 ], [ 339.898161944478375, 688.591215651984385 ], [ 344.604185962654299, 689.000435132605617 ], [ 344.604185965383124, 699.230922125265351 ], [ 318.004919775433279, 700.253970826818318 ], [ 317.800310034473114, 693.092629930501062 ], [ 310.843578879898189, 693.092629932580166 ], [ 310.638969139068024, 682.452923453061999 ], [ 315.549602894176019, 682.248313712751496 ], [ 316.163432117056573, 685.11285007502056 ], [ 322.301724311558814, 685.112850072941569 ], [ 322.318577846824724, 671.315412187526022 ] ] ] } },
{ "type": "Feature", "properties": { "feature_type": "building", "subtype": "no-damage", "uid": "4f2b1a53-28f6-4b12-8481-313c14c914a9" }, "geometry": { "type": "Polygon", "coordinates": [ [ [ 334.877032969345692, 610.951123339427681 ], [ 336.104691408739995, 647.167047301634739 ], [ 316.462156380121826, 647.576266780176866 ], [ 315.848327159190319, 612.178781775054063 ], [ 334.877032969345692, 610.951123339427681 ] ] ] } },
{ "type": "Feature", "properties": { "feature_type": "building", "subtype": "no-damage", "uid": "519ee8c6-3c69-46bf-a401-b0d3cd7d65af" }, "geometry": { "type": "Polygon", "coordinates": [ [ [ 268.869680357659888, 616.502606694457199 ], [ 285.5826172243315, 615.719187776167928 ], [ 288.716292889431202, 641.833151635289255 ], [ 285.321477587543882, 643.138849826893875 ], [ 285.843756864497493, 650.711899346101518 ], [ 269.130819993537898, 652.017597535627146 ], [ 267.302842524460402, 616.763746333193922 ], [ 268.869680357659888, 616.502606694457199 ] ] ] } },
{ "type": "Feature", "properties": { "feature_type": "building", "subtype": "no-damage", "uid": "ea8a7d33-40da-48c4-9664-a36653ab1a66" }, "geometry": { "type": "Polygon", "coordinates": [ [ [ 240.871006186973801, 629.176097165621627 ], [ 252.894787570509095, 629.336414251154679 ], [ 253.215421737547103, 644.887171508367032 ], [ 241.031323269778113, 645.047488591821093 ], [ 240.871006186973801, 629.176097165621627 ] ] ] } },
{ "type": "Feature", "properties": { "feature_type": "building", "subtype": "no-damage", "uid": "08d1000d-3be1-42a7-82a4-c9be13eb45f6" }, "geometry": { "type": "Polygon", "coordinates": [ [ [ 125.335335600630103, 630.507862871542216 ], [ 126.902173432140401, 649.048777209377022 ], [ 109.928096926992097, 652.704732151691474 ], [ 111.756074398668403, 671.245646489526166 ], [ 97.393394278157899, 672.5513446811309 ], [ 94.187726929056808, 657.11727891554608 ], [ 97.078600458657277, 655.71276195423593 ], [ 93.998578976270636, 634.686097091330225 ], [ 124.290777047632602, 629.463304320753309 ], [ 125.335335600630103, 630.507862871542216 ] ] ] } },
{ "type": "Feature", "properties": { "feature_type": "building", "subtype": "no-damage", "uid": "6eaffc3a-a05b-48e1-a2b7-e948807ef95b" }, "geometry": { "type": "Polygon", "coordinates": [ [ [ 0.735730515011973, 578.29829008216393 ], [ 34.161604249264641, 575.164614417322923 ], [ 35.206162805120833, 582.737663936530453 ], [ 42.256933043733817, 582.215384659057008 ], [ 43.040351961503063, 591.355272006527002 ], [ 36.250721357468642, 592.138690924816274 ], [ 35.989581720421207, 597.622623334129798 ], [ 24.238297983768831, 599.450600805287081 ], [ 23.977158345681879, 604.412253935048057 ], [ 31.811347502843741, 604.673393575863884 ], [ 32.594766415545323, 607.023650324494611 ], [ 46.435167261831047, 606.50137104286307 ], [ 47.740865454084968, 617.730375504385051 ], [ 11.70359533142625, 621.908609720014852 ], [ 9.614478224521649, 610.157325985177522 ], [ 0.000356080383482, 608.851676150028538 ], [ 0.000356080513422, 608.836840616444306 ], [ 0.735730515011973, 578.29829008216393 ] ] ] } },
{ "type": "Feature", "properties": { "feature_type": "building", "subtype": "no-damage", "uid": "b2d60be7-67d2-4a71-8806-fe375c756c67" }, "geometry": { "type": "Polygon", "coordinates": [ [ [ 69.487204730214941, 573.742650499179945 ], [ 103.657031296970501, 571.491943359921606 ], [ 111.636811154007404, 571.491943359921606 ], [ 111.841420893018494, 589.497600473988427 ], [ 111.841420891199306, 595.022063447820869 ], [ 104.884689734805406, 595.84050240906322 ], [ 104.066250775122597, 593.794405010115497 ], [ 70.101033951146476, 596.045112149373836 ], [ 69.487204730214941, 573.742650499179945 ] ] ] } },
{ "type": "Feature", "properties": { "feature_type": "building", "subtype": "no-damage", "uid": "c1bf1ea9-5084-4c58-9540-c342f8fd1e35" }, "geometry": { "type": "Polygon", "coordinates": [ [ [ 114.705957248399798, 582.540869315902796 ], [ 123.094956587617006, 582.33625957559218 ], [ 123.913395546130303, 587.656112813272216 ], [ 125.959492946116896, 588.26994203420395 ], [ 126.777931906969101, 593.589795269804881 ], [ 111.841420891199306, 595.022063447820869 ], [ 112.0460306321595, 583.154698534755539 ], [ 114.705957248399798, 582.540869315902796 ] ] ] } },
{ "type": "Feature", "properties": { "feature_type": "building", "subtype": "no-damage", "uid": "b4cf8ba6-549a-44da-9516-eae8a64116f7" }, "geometry": { "type": "Polygon", "coordinates": [ [ [ 193.56738864224161, 555.876374607695539 ], [ 196.613413259833607, 598.520719251399328 ], [ 182.184875599279394, 598.841353420386554 ], [ 182.184875601358414, 596.436597145705605 ], [ 183.627729364918991, 592.909621272292839 ], [ 182.986461023176503, 585.054084099880583 ], [ 168.076972105503188, 585.054084099880583 ], [ 165.672215829004102, 581.687425314079974 ], [ 165.19126457695279, 562.609692185533959 ], [ 170.000777127742111, 561.808106757868245 ], [ 175.291240935780394, 561.327155499189757 ], [ 176.894411790591391, 560.204935906695027 ], [ 182.184875597850009, 559.884301735628696 ], [ 182.345192684422614, 556.197008776682765 ], [ 192.92612030322789, 555.23510626556299 ], [ 193.56738864224161, 555.876374607695539 ] ] ] } },
{ "type": "Feature", "properties": { "feature_type": "building", "subtype": "no-damage", "uid": "34c215b7-b477-4340-a630-41ece6bd44a9" }, "geometry": { "type": "Polygon", "coordinates": [ [ [ 163.7484108059856, 574.793790648629397 ], [ 162.14523995741169, 575.916010249440433 ], [ 141.143701804164692, 576.236644418427659 ], [ 141.30401889216671, 562.93032635244208 ], [ 163.588093723311204, 563.411277609041576 ], [ 163.7484108059856, 574.793790648629397 ] ] ] } },
{ "type": "Feature", "properties": { "feature_type": "building", "subtype": "no-damage", "uid": "2ed08eb5-2054-4c23-aa15-5ce69d3208ec" }, "geometry": { "type": "Polygon", "coordinates": [ [ [ 161.834455812536788, 585.805270522494425 ], [ 154.139235723971296, 586.125904693560642 ], [ 154.139235722541912, 576.025928329921726 ], [ 162.14523995741169, 575.916010249440433 ], [ 162.475724151290706, 585.164002182440868 ], [ 161.834455812536788, 585.805270522494425 ] ] ] } },
{ "type": "Feature", "properties": { "feature_type": "building", "subtype": "no-damage", "uid": "59c487ed-fce1-4031-90a8-74d94aca7b68" }, "geometry": { "type": "Polygon", "coordinates": [ [ [ 130.376192741741193, 565.454598957818234 ], [ 138.712681171139707, 565.454598959897226 ], [ 139.353949511063007, 581.486307475787953 ], [ 130.857143997170994, 581.486307477867058 ], [ 130.376192741741193, 565.454598957818234 ] ] ] } },
{ "type": "Feature", "properties": { "feature_type": "building", "subtype": "no-damage", "uid": "f27c0771-17f2-4597-ba46-4196204e8362" }, "geometry": { "type": "Polygon", "coordinates": [ [ [ 119.119409906670995, 552.106831812456335 ], [ 126.530555141270895, 552.106831810377344 ], [ 126.530555141011007, 558.889913892284426 ], [ 118.742572012351104, 559.015526523161384 ], [ 119.119409906670995, 552.106831812456335 ] ] ] } },
{ "type": "Feature", "properties": { "feature_type": "building", "subtype": "no-damage", "uid": "41972e24-ea2b-4c4c-bdcd-34f8c5e34b00" }, "geometry": { "type": "Polygon", "coordinates": [ [ [ 0.000358594725829, 524.619587590870992 ], [ 20.801366091000869, 523.59655652791696 ], [ 22.642853748208051, 557.357163610555062 ], [ 9.957049875983847, 558.994041530960772 ], [ 9.957049876893429, 564.723114247182821 ], [ 0.000357846920134, 565.746126178785403 ], [ 0.000358594725829, 524.619587590870992 ] ] ] } },
{ "type": "Feature", "properties": { "feature_type": "building", "subtype": "no-damage", "uid": "2fbb31d3-1041-4875-984b-35ae2dea1109" }, "geometry": { "type": "Polygon", "coordinates": [ [ [ 27.575876182511131, 541.667508531073281 ], [ 42.32504801543093, 541.346874362086055 ], [ 42.645682184937797, 553.210338662431468 ], [ 49.058365593007032, 552.889704489286146 ], [ 49.539316849996077, 562.989680855004167 ], [ 29.01872994932021, 564.913485875164611 ], [ 28.858412867945219, 554.653192425992529 ], [ 27.896510352667701, 552.088119063699423 ], [ 27.575876182511131, 541.667508531073281 ] ] ] } },
{ "type": "Feature", "properties": { "feature_type": "building", "subtype": "no-damage", "uid": "9af89e30-f045-4717-a9d0-8c441ec192f0" }, "geometry": { "type": "Polygon", "coordinates": [ [ [ 142.015006864739206, 447.87676207956531 ], [ 158.727943730371209, 447.354482802091809 ], [ 160.294781561361788, 482.347194372025399 ], [ 145.148682528539496, 483.391752920735314 ], [ 142.015006864739206, 447.87676207956531 ] ] ] } },
{ "type": "Feature", "properties": { "feature_type": "building", "subtype": "no-damage", "uid": "4bb466ee-38c6-4d47-ace9-ebf97175aced" }, "geometry": { "type": "Polygon", "coordinates": [ [ [ 84.3031467442203, 456.494370151640794 ], [ 92.920754813693918, 454.144113405089115 ], [ 108.589133129836796, 455.188671960036118 ], [ 109.894831323779997, 478.168960154316494 ], [ 86.653403489341798, 479.213518707184392 ], [ 84.3031467442203, 456.494370151640794 ] ] ] } },
{ "type": "Feature", "properties": { "feature_type": "building", "subtype": "no-damage", "uid": "33319106-b73a-4479-925f-b8ed4b225540" }, "geometry": { "type": "Polygon", "coordinates": [ [ [ 3.898964686605164, 465.339270443280611 ], [ 24.56454841482676, 463.497782780485409 ], [ 26.40603607346328, 465.543880181512122 ], [ 29.679791912584172, 465.33927044120162 ], [ 30.293621131306718, 463.293173044332775 ], [ 42.365595786887411, 463.088563304022273 ], [ 43.59325422550198, 465.748489921822681 ], [ 51.573034082668833, 465.953099664212289 ], [ 52.596082782921997, 473.52366004115072 ], [ 46.457790586470708, 474.137489257924415 ], [ 45.639351625878362, 483.549537293499895 ], [ 8.604988704001432, 487.846341831706013 ], [ 8.60498870361161, 486.209463915458514 ], [ 5.126623123270631, 486.004854175147898 ], [ 4.922013382700237, 482.935708076726314 ], [ 4.10357442288753, 468.613026282012925 ], [ 3.898964686605164, 465.339270443280611 ] ] ] } },
{ "type": "Feature", "properties": { "feature_type": "building", "subtype": "no-damage", "uid": "4b09fcd9-00ae-4407-af32-40abf4f29853" }, "geometry": { "type": "Polygon", "coordinates": [ [ [ 65.494751468136428, 434.896382997404373 ], [ 65.815385637123541, 447.721749806790513 ], [ 49.142408785993041, 447.401115637803173 ], [ 49.302725869187199, 435.697968422990982 ], [ 44.493213313590083, 435.537651335378825 ], [ 44.813847487904738, 430.247187529417715 ], [ 62.76936102109088, 430.086870441805502 ], [ 62.92967810402515, 433.934480486284599 ], [ 65.494751468136428, 434.896382997404373 ] ] ] } },
{ "type": "Feature", "properties": { "feature_type": "building", "subtype": "no-damage", "uid": "7500033c-7165-486e-837b-71d41b609991" }, "geometry": { "type": "Polygon", "coordinates": [ [ [ 88.420094643232417, 423.513869951579295 ], [ 94.672460964988915, 423.834504120566521 ], [ 96.435948900005471, 425.597992059352009 ], [ 96.596265981900217, 431.209090036379393 ], [ 94.031192621817084, 433.293212144152108 ], [ 86.816923789980677, 432.812260887552611 ], [ 86.015338363874577, 429.605919185206119 ], [ 86.496289620213929, 424.155138295790891 ], [ 88.420094643232417, 423.513869951579295 ] ] ] } },
{ "type": "Feature", "properties": { "feature_type": "building", "subtype": "no-damage", "uid": "5bcfb91d-b69d-416e-b2f9-b145ec114775" }, "geometry": { "type": "Polygon", "coordinates": [ [ [ 0.000356461108189, 421.821447979483992 ], [ 11.87694665151751, 421.560316176659512 ], [ 11.87694665099775, 425.738550396447408 ], [ 25.14845269368908, 425.475090200861416 ], [ 25.148452697587281, 426.605603878753584 ], [ 31.429084253515651, 426.73121651170959 ], [ 31.680309513970009, 439.669317516981323 ], [ 25.902128480509631, 439.794930147858224 ], [ 25.65090321927563, 442.055957509879875 ], [ 11.707901166213951, 442.684020664264608 ], [ 11.582288531308921, 445.321885916838028 ], [ 0.000357462687042, 445.573103425841396 ], [ 0.000356461108189, 421.821447979483992 ] ] ] } },
{ "type": "Feature", "properties": { "feature_type": "building", "subtype": "no-damage", "uid": "b8c0282f-b93f-4399-98b3-004e407c0ad6" }, "geometry": { "type": "Polygon", "coordinates": [ [ [ 154.986802291381906, 366.919330958905618 ], [ 155.320089999456997, 384.250291664988708 ], [ 148.987623587351294, 384.583579370595089 ], [ 148.987623586831489, 386.58330560423309 ], [ 81.663506990053719, 392.58248431346351 ], [ 80.330356168018639, 386.916593313997623 ], [ 53.667339690933822, 388.916319547635624 ], [ 51.66761345482761, 364.586317015503084 ], [ 110.3262497019454, 358.253850600666283 ], [ 111.659400524630101, 364.586317015503084 ], [ 115.658852994243802, 364.586317013423979 ], [ 116.658716110802501, 367.91919407572459 ], [ 153.986939174823107, 365.586180134401104 ], [ 154.986802291381906, 366.919330958905618 ] ] ] } },
{ "type": "Feature", "properties": { "feature_type": "building", "subtype": "no-damage", "uid": "28820628-e65e-4b1d-97e7-6cf6a8302992" }, "geometry": { "type": "Polygon", "coordinates": [ [ [ 30.117371828954361, 352.965667837267688 ], [ 47.304589984371503, 352.556448354567522 ], [ 48.736858163426518, 376.700397663398576 ], [ 30.935810787467659, 377.314226888488406 ], [ 30.117371828954361, 352.965667837267688 ] ] ] } },
{ "type": "Feature", "properties": { "feature_type": "building", "subtype": "no-damage", "uid": "c29fb51f-b732-4706-81fe-0554d875b5e0" }, "geometry": { "type": "Polygon", "coordinates": [ [ [ 40.918529787434338, 297.112669483838999 ], [ 41.179669427730268, 313.825606348437475 ], [ 6.970376776228128, 314.609025264647698 ], [ 7.492656055390657, 309.908511771544283 ], [ 3.836701115156556, 309.647372132807618 ], [ 3.575561473561219, 303.641160443941487 ], [ 5.664678582674803, 303.118881170626082 ], [ 6.186957859238528, 297.896088397970175 ], [ 40.918529787434338, 297.112669483838999 ] ] ] } },
{ "type": "Feature", "properties": { "feature_type": "building", "subtype": "no-damage", "uid": "36d67528-f655-422a-b915-a46d2cd05d70" }, "geometry": { "type": "Polygon", "coordinates": [ [ [ 293.44770305437828, 545.992957821143705 ], [ 292.925423777164895, 556.699683001034145 ], [ 295.275680526184601, 558.527660474270419 ], [ 295.797959800279386, 567.145268544266855 ], [ 281.174140042851377, 567.928687462556127 ], [ 281.696419320454709, 579.157691919920126 ], [ 270.206275221889314, 580.463390109445754 ], [ 269.945135583542424, 577.590854085420574 ], [ 241.480914982297492, 579.418831558656848 ], [ 239.914077150527305, 550.693471316326054 ], [ 291.358585945654625, 545.47067854367026 ], [ 293.44770305437828, 545.992957821143705 ] ] ] } },
{ "type": "Feature", "properties": { "feature_type": "building", "subtype": "no-damage", "uid": "fda9e0c4-919a-4d29-88b1-41068976ecd7" }, "geometry": { "type": "Polygon", "coordinates": [ [ [ 197.432776918356609, 501.493756968190382 ], [ 209.913971052868987, 498.833830348310926 ], [ 225.464311286062014, 499.856879049863778 ], [ 226.691969729484299, 501.698366708500998 ], [ 230.374945047667012, 543.438753646619602 ], [ 216.666092471031504, 544.666412088483185 ], [ 201.320361978538898, 545.075631569104303 ], [ 197.432776918356609, 501.493756968190382 ] ] ] } },
{ "type": "Feature", "properties": { "feature_type": "building", "subtype": "no-damage", "uid": "464c0b99-e190-4e2e-a68e-0178946dfe44" }, "geometry": { "type": "Polygon", "coordinates": [ [ [ 381.59545118037471, 540.897024082135999 ], [ 382.595314296803622, 551.895518375461506 ], [ 382.928602005398375, 564.5604512009769 ], [ 382.595314297193283, 565.560314317795928 ], [ 347.600105175924796, 569.55976679130913 ], [ 347.600105176964291, 562.560724967338842 ], [ 330.935719881190209, 563.560588082078766 ], [ 328.602705935579479, 561.227574142834442 ], [ 302.939552580900795, 561.560861846361718 ], [ 299.273387814554496, 547.229490492814648 ], [ 361.931476529466693, 541.563599491269656 ], [ 379.929012647665672, 539.897160961158875 ], [ 381.59545118037471, 540.897024082135999 ] ] ] } },
{ "type": "Feature", "properties": { "feature_type": "building", "subtype": "no-damage", "uid": "1a2db5d9-7c6e-4cc2-9cb5-f1be9241a87d" }, "geometry": { "type": "Polygon", "coordinates": [ [ [ 367.597367531139582, 480.905237012701889 ], [ 369.26380606215929, 519.899898610225023 ], [ 343.267364996027084, 522.899487960682109 ], [ 341.600926465916928, 518.566747783641517 ], [ 331.935582997099289, 518.566747783641517 ], [ 329.269281348741117, 497.569622311730484 ], [ 338.268049407255887, 496.236471485146978 ], [ 337.934761703208892, 489.237429661176691 ], [ 346.600242057286891, 487.904278838751281 ], [ 345.933666646724191, 482.571675546970823 ], [ 367.597367531139582, 480.905237012701889 ] ] ] } },
{ "type": "Feature", "properties": { "feature_type": "building", "subtype": "no-damage", "uid": "9633da00-6d1a-468e-8b82-b7d6021d29f3" }, "geometry": { "type": "Polygon", "coordinates": [ [ [ 344.632590618213783, 409.724261882599876 ], [ 345.15486989815588, 422.781243811120987 ], [ 302.327969176140698, 423.82580236606799 ], [ 302.327969173411873, 411.552239355836207 ], [ 312.512415079333607, 411.029960078362706 ], [ 312.773554717940328, 403.97918983662862 ], [ 328.441933031094607, 403.456910557076128 ], [ 329.225351943276394, 409.463122245942202 ], [ 344.632590618213783, 409.724261882599876 ] ] ] } },
{ "type": "Feature", "properties": { "feature_type": "building", "subtype": "no-damage", "uid": "971f36b3-7ffa-45db-9a0b-581d25d0ed58" }, "geometry": { "type": "Polygon", "coordinates": [ [ [ 307.028482665733975, 389.877649355239498 ], [ 308.07304122029069, 399.80095562099882 ], [ 291.621243992096026, 401.106653810524392 ], [ 290.576685436759476, 391.705626822238685 ], [ 307.028482665733975, 389.877649355239498 ] ] ] } },
{ "type": "Feature", "properties": { "feature_type": "building", "subtype": "no-damage", "uid": "09430146-29ce-4a88-b736-1b7f7fa8d6c5" }, "geometry": { "type": "Polygon", "coordinates": [ [ [ 44.482771099873752, 0.001342450389039 ], [ 44.687326916701707, 5.094159238583104 ], [ 37.5259860194775, 5.912598197746401 ], [ 37.321376282025668, 13.073939096142629 ], [ 12.76820748842411, 13.48315857260571 ], [ 12.563597750322581, 8.36791507731534 ], [ 8.880622431360306, 8.572524819704967 ], [ 8.676021659130711, 0.000375739162188 ], [ 44.482771099873752, 0.001342450389039 ] ] ] } },
{ "type": "Feature", "properties": { "feature_type": "building", "subtype": "no-damage", "uid": "a1f9e610-67f5-461b-b055-70aeffd28699" }, "geometry": { "type": "Polygon", "coordinates": [ [ [ 12.54102341195866, 43.802377028553948 ], [ 11.927194193495991, 34.594938731209957 ], [ 9.47187731704649, 33.981109512357243 ], [ 9.267267577515618, 18.021549799317231 ], [ 49.77999607557544, 15.157013441206169 ], [ 50.393825298975841, 33.776499769967607 ], [ 40.163338301901739, 33.981109512357243 ], [ 40.163338300342453, 41.756279629606183 ], [ 12.54102341195866, 43.802377028553948 ] ] ] } },
{ "type": "Feature", "properties": { "feature_type": "building", "subtype": "no-damage", "uid": "d79eafa6-bd2e-428c-b0af-b750827e6390" }, "geometry": { "type": "Polygon", "coordinates": [ [ [ 14.79173055498447, 45.234645206569958 ], [ 36.684972721950572, 43.393157543774691 ], [ 37.094192202441661, 48.303791300833517 ], [ 51.62148373668083, 47.689962084059857 ], [ 53.258361658125402, 74.698447753081041 ], [ 17.247047431044152, 77.358374370881521 ], [ 15.610169513757659, 47.894571828528527 ], [ 14.79173055498447, 45.234645206569958 ] ] ] } },
{ "type": "Feature", "properties": { "feature_type": "building", "subtype": "no-damage", "uid": "667655b8-dd49-4af3-9c77-bb887114f4a6" }, "geometry": { "type": "Polygon", "coordinates": [ [ [ 119.895703718521304, 0.003144959677776 ], [ 120.30481984187, 12.45189305120069 ], [ 71.403092003423524, 15.725648889932931 ], [ 71.607675364449591, 0.002027247574743 ], [ 119.895703718521304, 0.003144959677776 ] ] ] } },
{ "type": "Feature", "properties": { "feature_type": "building", "subtype": "no-damage", "uid": "6208c853-cefe-4d0d-a55f-5a28762a9a0f" }, "geometry": { "type": "Polygon", "coordinates": [ [ [ 85.521164057041673, 16.339478108785642 ], [ 119.077161400266803, 15.11181966900117 ], [ 119.281771139278007, 20.43167290876022 ], [ 121.327868540303996, 20.840892389381391 ], [ 121.532478281654093, 38.846549501369161 ], [ 75.495286802746932, 41.915695599790823 ], [ 74.881457582465103, 25.751526142282131 ], [ 78.564432900777675, 25.137696925508461 ], [ 78.769042638359437, 24.52386770665575 ], [ 85.725773797222246, 23.910038485724002 ], [ 85.521164057041673, 16.339478108785642 ] ] ] } },
{ "type": "Feature", "properties": { "feature_type": "building", "subtype": "no-damage", "uid": "59c46e4d-0d26-4d02-a468-9130563d85c0" }, "geometry": { "type": "Polygon", "coordinates": [ [ [ 81.259911801806197, 45.638669244556652 ], [ 116.252623367959004, 42.766133218452438 ], [ 115.4692044555173, 49.294624182713008 ], [ 120.691997223103698, 49.816903460186502 ], [ 121.214276500057196, 69.141236714231468 ], [ 72.642303728694259, 73.058331293203622 ], [ 72.642303730643363, 52.428299845474918 ], [ 79.693073971725198, 52.428299845474918 ], [ 79.431934334417889, 46.422088158687842 ], [ 81.259911801806197, 45.638669244556652 ] ] ] } },
{ "type": "Feature", "properties": { "feature_type": "building", "subtype": "no-damage", "uid": "f7f613f1-3794-41a3-adbf-0a687ced5b32" }, "geometry": { "type": "Polygon", "coordinates": [ [ [ 165.547773148778589, 0.004082273239899 ], [ 140.419708533541097, 2.6388102128549 ], [ 140.419708533281209, 0.00358071040944 ], [ 165.547773148778589, 0.004082273239899 ] ] ] } },
{ "type": "Feature", "properties": { "feature_type": "building", "subtype": "no-damage", "uid": "62cf7164-3528-4dcf-9b49-e02c7cebb0c9" }, "geometry": { "type": "Polygon", "coordinates": [ [ [ 143.284244890741604, 6.526395272518891 ], [ 180.318607811968803, 5.094127090344794 ], [ 181.137046773990505, 21.667516024316559 ], [ 174.180315615257598, 22.690564723790441 ], [ 174.180315615387599, 27.80580821908082 ], [ 159.448414344995996, 29.238076405413 ], [ 158.220755901443709, 24.532052382427619 ], [ 143.693464367594288, 24.941271867206879 ], [ 142.67041567110951, 7.549443969913732 ], [ 143.284244890741604, 6.526395272518891 ] ] ] } },
{ "type": "Feature", "properties": { "feature_type": "building", "subtype": "no-damage", "uid": "ccaac8b8-4ffc-4be4-8ec4-2bed1b4289eb" }, "geometry": { "type": "Polygon", "coordinates": [ [ [ 158.061336437297797, 39.970777702820307 ], [ 157.580385184596793, 35.321582232754608 ], [ 162.710531908401407, 34.039045554726663 ], [ 176.177167059265514, 35.000948061688341 ], [ 176.337484143499211, 39.169192279312718 ], [ 193.972363508737686, 38.04697268058078 ], [ 194.773948933024712, 56.804071644297693 ], [ 190.766021806652191, 57.926291236792508 ], [ 190.445387633377095, 65.781828411283797 ], [ 155.977214329785795, 66.102462582350057 ], [ 156.137531415058987, 61.45326711020531 ], [ 154.213726393729701, 60.491364601164591 ], [ 153.412140968923012, 40.932680213940081 ], [ 158.061336437297797, 39.970777702820307 ] ] ] } },
{ "type": "Feature", "properties": { "feature_type": "building", "subtype": "no-damage", "uid": "b1a7509a-f78b-4699-b448-5d9848aba8a7" }, "geometry": { "type": "Polygon", "coordinates": [ [ [ 229.731348870086492, 6.793829294316011 ], [ 245.89551832265181, 5.3615611163 ], [ 253.670688435350002, 6.384609817852926 ], [ 254.693737137812093, 30.323949388452458 ], [ 213.157959936510508, 32.370046785321179 ], [ 212.339520977477491, 25.413315629314589 ], [ 211.521082018314502, 14.773609153954579 ], [ 217.659374212686714, 14.15977993302282 ], [ 218.068593693177803, 12.727511755006811 ], [ 226.457593027847111, 12.727511755006811 ], [ 226.457593027457307, 13.95517019687032 ], [ 230.140568347329207, 13.341340971780481 ], [ 229.731348870086492, 6.793829294316011 ] ] ] } },
{ "type": "Feature", "properties": { "feature_type": "building", "subtype": "no-damage", "uid": "42fde8b9-99a1-4f2e-a590-199a5c3342b3" }, "geometry": { "type": "Polygon", "coordinates": [ [ [ 219.259833150988186, 36.051844707411803 ], [ 249.951294138052504, 34.41496679116424 ], [ 250.360513616204599, 43.622405084350149 ], [ 251.997391535050411, 58.149696617295113 ], [ 211.484663035951087, 60.400403756553452 ], [ 211.484663032182794, 43.213185605808022 ], [ 218.44139419026601, 43.213185603728981 ], [ 219.259833150988186, 36.051844707411803 ] ] ] } },
{ "type": "Feature", "properties": { "feature_type": "building", "subtype": "no-damage", "uid": "af921528-848d-4a10-b12d-a310fe4e3159" }, "geometry": { "type": "Polygon", "coordinates": [ [ [ 329.854019447196208, 0.006495405705534 ], [ 331.420286361608191, 17.82611076654981 ], [ 283.892872145581578, 22.265484622995452 ], [ 282.326034314850915, 3.202291007687224 ], [ 278.931219012703821, 3.463430648503013 ], [ 277.8884382854298, 0.005894712036892 ], [ 329.854019447196208, 0.006495405705534 ] ] ] } },
{ "type": "Feature", "properties": { "feature_type": "building", "subtype": "no-damage", "uid": "317048a8-5d1d-4bbf-a1ce-2ef533d84836" }, "geometry": { "type": "Polygon", "coordinates": [ [ [ 290.160223469284119, 55.169079080956017 ], [ 289.637944192980228, 48.118308839221953 ], [ 283.109453226382982, 48.379448480037738 ], [ 283.370592867718528, 38.978421489672961 ], [ 287.809966720654188, 37.933862934725973 ], [ 286.504268528140415, 29.577394501387221 ], [ 330.898007084134917, 27.22713775483555 ], [ 332.725984555031573, 44.462353896907508 ], [ 325.152935035306882, 45.76805209059124 ], [ 325.675214310701222, 51.513124140720613 ], [ 290.160223469284119, 55.169079080956017 ] ] ] } },
{ "type": "Feature", "properties": { "feature_type": "building", "subtype": "no-damage", "uid": "68c67c45-b8b1-4f33-968f-606cd575a7f7" }, "geometry": { "type": "Polygon", "coordinates": [ [ [ 423.159041824391977, 0.007196629408142 ], [ 423.36356509718388, 17.03011071846386 ], [ 386.329202172838109, 19.485427593874711 ], [ 385.306519454019679, 0.006970585483278 ], [ 423.159041824391977, 0.007196629408142 ] ] ] } },
{ "type": "Feature", "properties": { "feature_type": "building", "subtype": "no-damage", "uid": "3f845240-d938-4234-bbb8-01e7edab73de" }, "geometry": { "type": "Polygon", "coordinates": [ [ [ 392.868341342240114, 22.145354215833279 ], [ 423.559802331643198, 20.303866557196098 ], [ 423.969021809665378, 25.828329533107642 ], [ 425.196680248929681, 27.055987972892112 ], [ 425.81050946908158, 41.992498984379189 ], [ 385.29778096621402, 44.857035346648352 ], [ 383.660903049447313, 41.378669767605523 ], [ 383.251683569865691, 29.920524331003179 ], [ 393.482170562262013, 29.102085369760839 ], [ 393.072951084889496, 24.805280833633759 ], [ 392.868341342240114, 22.145354215833279 ] ] ] } },
{ "type": "Feature", "properties": { "feature_type": "building", "subtype": "no-damage", "uid": "f93b340b-d11d-4587-9e7e-8eb729967873" }, "geometry": { "type": "Polygon", "coordinates": [ [ [ 483.538183501609694, 0.007392082297729 ], [ 451.473357391197624, 4.289714222728921 ], [ 451.212662917098214, 0.00731268365445 ], [ 483.538183501609694, 0.007392082297729 ] ] ] } },
{ "type": "Feature", "properties": { "feature_type": "building", "subtype": "no-damage", "uid": "d175f0b6-96f7-4386-ac90-a8302d06bedf" }, "geometry": { "type": "Polygon", "coordinates": [ [ [ 455.129312332211327, 7.423389881332749 ], [ 504.22356438065782, 5.856552053070356 ], [ 504.484704017185379, 27.531142053667001 ], [ 493.255699560865082, 28.575700606534951 ], [ 493.255699557746482, 36.409889762400212 ], [ 457.479569076033385, 37.715587956083937 ], [ 454.868172693604606, 10.81820518491045 ], [ 455.129312332211327, 7.423389881332749 ] ] ] } },
{ "type": "Feature", "properties": { "feature_type": "building", "subtype": "no-damage", "uid": "c931a345-fa8c-4392-9be7-758015c438d8" }, "geometry": { "type": "Polygon", "coordinates": [ [ [ 515.665150338940407, 10.22155954351561 ], [ 515.926289977417241, 3.170789301781546 ], [ 553.791537566944498, 1.08167219604566 ], [ 554.836096123320431, 8.393582074437431 ], [ 559.27546997625609, 8.915861351910923 ], [ 560.320028531852472, 27.71791533056145 ], [ 509.397799013028987, 29.545892799639631 ], [ 508.092100818306278, 11.2661180984626 ], [ 515.665150338940407, 10.22155954351561 ] ] ] } },
{ "type": "Feature", "properties": { "feature_type": "building", "subtype": "no-damage", "uid": "ce83326b-0c44-4ed0-a343-19e483077e13" }, "geometry": { "type": "Polygon", "coordinates": [ [ [ 628.466752541903702, 0.007032906869267 ], [ 629.249925385730307, 22.390627577320831 ], [ 595.82405164679983, 24.479744689293849 ], [ 592.690375986118056, 12.72846095029835 ], [ 593.473350106460884, 0.007226723552197 ], [ 628.466752541903702, 0.007032906869267 ] ] ] } },
{ "type": "Feature", "properties": { "feature_type": "building", "subtype": "no-damage", "uid": "ab525c31-a7dd-4500-b5f3-dbd0c9a8860a" }, "geometry": { "type": "Polygon", "coordinates": [ [ [ 664.622006480468031, 0.006761042920857 ], [ 664.288889669448508, 13.185627938929571 ], [ 646.624641256335963, 13.8522033522213 ], [ 637.640403172800688, 13.95754799808317 ], [ 638.292448606694734, 5.186722996061151 ], [ 637.959608688308322, 0.006968572969879 ], [ 664.622006480468031, 0.006761042920857 ] ] ] } },
{ "type": "Feature", "properties": { "feature_type": "building", "subtype": "no-damage", "uid": "bd97eb2c-3fa7-4f4e-9039-5c723f376428" }, "geometry": { "type": "Polygon", "coordinates": [ [ [ 694.951849749849202, 0.006476846090751 ], [ 695.951221732575846, 13.18562793685053 ], [ 682.619713495462747, 13.51891564245688 ], [ 681.619850378254341, 10.852613995527079 ], [ 679.620124141888255, 10.18603858639344 ], [ 678.953982800111476, 0.006633131893648 ], [ 694.951849749849202, 0.006476846090751 ] ] ] } },
{ "type": "Feature", "properties": { "feature_type": "building", "subtype": "no-damage", "uid": "d4766011-14f0-4779-8dd9-7845c16037b0" }, "geometry": { "type": "Polygon", "coordinates": [ [ [ 724.56879407539725, 0.006149904141352 ], [ 725.182332154456276, 12.966330000558621 ], [ 707.381284783565093, 14.193988444501169 ], [ 706.563212226453288, 0.006354490265816 ], [ 724.56879407539725, 0.006149904141352 ] ] ] } },
{ "type": "Feature", "properties": { "feature_type": "building", "subtype": "no-damage", "uid": "65fd230a-2a1c-4dfe-b442-ac782fda7c1a" }, "geometry": { "type": "Polygon", "coordinates": [ [ [ 752.80583039669034, 0.005792722514904 ], [ 754.03230548119484, 6.009598848710108 ], [ 761.602865856441213, 7.237257284336491 ], [ 761.398256118209702, 13.580159223569421 ], [ 748.303232765494499, 14.807817663353889 ], [ 746.870964582021429, 6.009598846631064 ], [ 732.139063310330471, 6.214208589020693 ], [ 732.3434736513384, 0.006055989621472 ], [ 752.80583039669034, 0.005792722514904 ] ] ] } },
{ "type": "Feature", "properties": { "feature_type": "building", "subtype": "no-damage", "uid": "9eb04f1c-32f1-46c9-aa54-607dfed997cf" }, "geometry": { "type": "Polygon", "coordinates": [ [ [ 784.724086233222806, 0.005335520219969 ], [ 785.132985948620217, 6.828037805794363 ], [ 768.150377536372275, 7.441867026726118 ], [ 768.150377536242331, 0.005580003175135 ], [ 784.724086233222806, 0.005335520219969 ] ] ] } },
{ "type": "Feature", "properties": { "feature_type": "building", "subtype": "no-damage", "uid": "f6f48742-3df7-40c0-a55c-f0361e3246dd" }, "geometry": { "type": "Polygon", "coordinates": [ [ [ 244.520682312539492, 705.603156493022539 ], [ 260.071022543653385, 704.989327274169909 ], [ 260.684851763935228, 710.513790254239439 ], [ 253.318901126790308, 711.12761947101319 ], [ 253.318901128349609, 715.833643491919474 ], [ 244.316072570929606, 716.242862970461601 ], [ 244.520682312539492, 705.603156493022539 ] ] ] } },
{ "type": "Feature", "properties": { "feature_type": "building", "subtype": "no-damage", "uid": "3afcfc57-238d-4c71-b067-4472524f2b79" }, "geometry": { "type": "Polygon", "coordinates": [ [ [ 196.829721164375712, 706.728776181165472 ], [ 204.195671797752397, 706.933385927713175 ], [ 205.423330237536391, 718.186921621925876 ], [ 198.057379602730407, 718.391531360157501 ], [ 196.829721164375712, 706.728776181165472 ] ] ] } },
{ "type": "Feature", "properties": { "feature_type": "building", "subtype": "no-damage", "uid": "bca955c7-d0c4-4427-b371-5f65ba02ba43" }, "geometry": { "type": "Polygon", "coordinates": [ [ [ 217.223676448146307, 739.005563473978896 ], [ 304.444315725896217, 730.387955401903355 ], [ 319.851554399534109, 729.604536489851284 ], [ 323.246369701941092, 765.119527331021231 ], [ 255.611203317355802, 770.603459738255765 ], [ 266.341856640167691, 883.00922251628333 ], [ 286.449608807557013, 880.920105406389439 ], [ 289.061005193364281, 906.772929620536843 ], [ 243.622708086581298, 911.212303481140566 ], [ 244.667266637889611, 922.650718381915567 ], [ 231.610284710152712, 923.695276938941561 ], [ 228.737748687557911, 882.696353684299993 ], [ 220.792918538287807, 792.481636929005504 ], [ 219.274534102806513, 772.324407129318615 ], [ 216.000778263555702, 739.382239003764766 ], [ 217.223676448146307, 739.005563473978896 ] ] ] } },
{ "type": "Feature", "properties": { "feature_type": "building", "subtype": "no-damage", "uid": "817ed39f-4329-411e-82fb-e2dcf66aaac4" }, "geometry": { "type": "Polygon", "coordinates": [ [ [ 440.014769535338019, 718.661424415526426 ], [ 574.996290437098651, 706.329779295617413 ], [ 577.995879788724096, 746.657591711407804 ], [ 583.32848308310156, 746.990879419093176 ], [ 586.994647850877186, 787.651979540489947 ], [ 585.905787468806238, 795.063317560180394 ], [ 565.697835819528905, 793.670229421292106 ], [ 511.331073617033383, 798.763083468011587 ], [ 514.177187198927413, 811.708631679320888 ], [ 493.340802486778898, 814.1015829329491 ], [ 498.120511993934485, 867.650591570041797 ], [ 499.143560691978678, 871.538176629705731 ], [ 500.51398174185681, 883.942061847391415 ], [ 453.183678131721877, 887.547728250433352 ], [ 452.083320512688488, 883.200931804539664 ], [ 444.717369877882504, 801.970865059244602 ], [ 436.93221744469389, 720.498366841759321 ], [ 437.413168699603887, 718.895195988506998 ], [ 440.014769535338019, 718.661424415526426 ] ] ] } },
{ "type": "Feature", "properties": { "feature_type": "building", "subtype": "no-damage", "uid": "85a3b799-76b3-46cc-a2cc-6e6fb88f81aa" }, "geometry": { "type": "Polygon", "coordinates": [ [ [ 863.730581608341481, 665.369714088355067 ], [ 867.386536550654682, 701.406984206998459 ], [ 716.708965103947776, 715.508524688387524 ], [ 714.097568719959668, 679.732394208480855 ], [ 766.064356791130876, 674.77074107456167 ], [ 859.81348702950072, 665.891993361670416 ], [ 863.730581608341481, 665.369714088355067 ] ] ] } },
{ "type": "Feature", "properties": { "feature_type": "building", "subtype": "no-damage", "uid": "4f69f8e5-d4ca-48a3-9fea-d7db1bbe8ffb" }, "geometry": { "type": "Polygon", "coordinates": [ [ [ 699.457900066729735, 520.344304320003744 ], [ 720.610210790624933, 519.038606124241028 ], [ 734.450611632232835, 657.70375419573827 ], [ 733.667192716672616, 663.1876866071309 ], [ 711.209183801952804, 665.015664076209077 ], [ 698.152201875385344, 521.388862872871755 ], [ 699.457900066729735, 520.344304320003744 ] ] ] } },
{ "type": "Feature", "properties": { "feature_type": "building", "subtype": "no-damage", "uid": "6fa68dfd-2ef5-47f2-9ac7-193e3f3753f5" }, "geometry": { "type": "Polygon", "coordinates": [ [ [ 717.88585552249242, 483.526891567564178 ], [ 719.931952924298116, 509.307718794721893 ], [ 689.03588219809285, 511.149206455438218 ], [ 687.60361401890782, 486.596037668064923 ], [ 717.88585552249242, 483.526891567564178 ] ] ] } },
{ "type": "Feature", "properties": { "feature_type": "building", "subtype": "no-damage", "uid": "fd457f9b-4a42-4fb5-9d45-d5b42d23eb64" }, "geometry": { "type": "Polygon", "coordinates": [ [ [ 727.32906331315121, 466.657206637384604 ], [ 735.16325247005318, 464.829229166227378 ], [ 748.742513675263353, 464.568089529569704 ], [ 767.986009101931018, 660.455533596603686 ], [ 745.005720909867819, 662.022371429024133 ], [ 726.598858525174137, 468.278853087143375 ], [ 727.32906331315121, 466.657206637384604 ] ] ] } },
{ "type": "Feature", "properties": { "feature_type": "building", "subtype": "no-damage", "uid": "981b5653-3393-484b-b2b1-06a79315b860" }, "geometry": { "type": "Polygon", "coordinates": [ [ [ 760.636702263618872, 463.308976794370778 ], [ 795.965199090623628, 459.976099738307425 ], [ 807.395707351079523, 574.816726960293636 ], [ 814.756626216412656, 654.585126598786474 ], [ 800.655085733729265, 655.890824792470198 ], [ 799.610527177743052, 656.413104069943643 ], [ 779.502775008014851, 658.502221175679551 ], [ 778.197076819009339, 646.750937440842108 ], [ 760.458214153548283, 464.593192885723283 ], [ 760.636702263618872, 463.308976794370778 ] ] ] } },
{ "type": "Feature", "properties": { "feature_type": "building", "subtype": "no-damage", "uid": "46a4944d-88bf-467f-9257-406c718e7856" }, "geometry": { "type": "Polygon", "coordinates": [ [ [ 809.475510082738538, 457.929286254659303 ], [ 843.645336650013746, 455.678579117480012 ], [ 849.584757008989527, 513.149918847669142 ], [ 850.917907831414368, 528.481153320114231 ], [ 853.917497185508751, 562.143211617540601 ], [ 858.25023736254775, 602.471024031251886 ], [ 859.916675890059082, 621.801710977210291 ], [ 862.133761927073351, 650.53632496613136 ], [ 826.122447701811325, 653.81008080486356 ], [ 819.945380002865477, 578.662995870417717 ], [ 816.08950396579587, 547.995512852346906 ], [ 814.522666137923807, 525.537503939698126 ], [ 812.433549026731157, 501.773796829207527 ], [ 808.125296009015187, 459.034630722718305 ], [ 809.475510082738538, 457.929286254659303 ] ] ] } },
{ "type": "Feature", "properties": { "feature_type": "building", "subtype": "no-damage", "uid": "0e3a649a-7bce-42a0-88e1-8c193d1a426f" }, "geometry": { "type": "Polygon", "coordinates": [ [ [ 646.423424948991169, 262.781265207464628 ], [ 680.738740034438024, 260.25996873309839 ], [ 683.807886133768193, 287.063844661809014 ], [ 684.830934833241713, 303.432623851312087 ], [ 689.42213613960655, 350.051583363938107 ], [ 692.491282239846214, 377.673898253891025 ], [ 693.514330936850911, 390.359702128198819 ], [ 657.70762645371849, 392.815019007767717 ], [ 656.889187494945304, 378.901556695754607 ], [ 649.86546817619876, 309.672415957650628 ], [ 647.621028984063173, 288.029609464732516 ], [ 645.216272705225151, 263.501095440534073 ], [ 646.423424948991169, 262.781265207464628 ] ] ] } },
{ "type": "Feature", "properties": { "feature_type": "building", "subtype": "no-damage", "uid": "23ee1b36-d04c-4760-b4d8-12a0c36aba44" }, "geometry": { "type": "Polygon", "coordinates": [ [ [ 692.695192199959592, 258.38807068305249 ], [ 728.471322683751623, 254.470976104080393 ], [ 731.604998344693286, 287.63571020077768 ], [ 732.910696539026276, 298.081295739852408 ], [ 734.999813648789541, 321.061583932053679 ], [ 741.720613051153464, 388.573125502625714 ], [ 743.026311242497741, 409.725436225748922 ], [ 747.204545460854888, 450.46321983957472 ], [ 711.950694254795962, 453.858035145231383 ], [ 711.167275338715967, 448.635242370496485 ], [ 705.944482565152384, 395.362756105623021 ], [ 699.862815557973363, 335.535475673568726 ], [ 697.773698447690322, 313.860885670893026 ], [ 695.945720979522434, 290.880597480770689 ], [ 692.550905677245282, 260.849539046835275 ], [ 692.695192199959592, 258.38807068305249 ] ] ] } },
{ "type": "Feature", "properties": { "feature_type": "building", "subtype": "no-damage", "uid": "770a77e6-ce68-45de-a8e5-9511592980c3" }, "geometry": { "type": "Polygon", "coordinates": [ [ [ 739.594269659183738, 253.877303743327786 ], [ 776.255917314980479, 250.544426683106309 ], [ 786.921123904255069, 359.862794230097279 ], [ 791.253864080904236, 407.189648471937005 ], [ 792.587014903459135, 426.187047708130876 ], [ 794.253453432010019, 444.851159242876577 ], [ 758.258381192753291, 448.850611712231796 ], [ 743.927009839211337, 294.871691574488921 ], [ 740.260845071045878, 257.543468509155673 ], [ 739.594269659183738, 253.877303743327786 ] ] ] } },
{ "type": "Feature", "properties": { "feature_type": "building", "subtype": "no-damage", "uid": "755ade42-6ae6-4aac-8064-d8e9e41b4df9" }, "geometry": { "type": "Polygon", "coordinates": [ [ [ 788.373003889033157, 249.54948508048389 ], [ 822.035062185537981, 246.5498957279477 ], [ 839.366022897202356, 420.192790515176227 ], [ 842.032324541662319, 440.85662828148088 ], [ 805.703964597059326, 444.189505341702386 ], [ 795.372045711831561, 327.538808269292872 ], [ 787.03985306738798, 250.21606049169651 ], [ 788.373003889033157, 249.54948508048389 ] ] ] } },
{ "type": "Feature", "properties": { "feature_type": "building", "subtype": "no-damage", "uid": "a2c3ac7d-a210-46dc-9db4-e9637f56dc63" }, "geometry": { "type": "Polygon", "coordinates": [ [ [ 556.302623030403083, 278.553686881793794 ], [ 587.323565299047232, 275.3215522838114 ], [ 588.631530506821946, 285.860830793731679 ], [ 597.630298565856492, 285.860830791652575 ], [ 601.296463331553014, 310.190833325864276 ], [ 600.963175623607867, 324.855492389175708 ], [ 602.629614154497744, 339.853439156014474 ], [ 592.964270684380722, 340.853302270754511 ], [ 593.964133801849016, 350.851933451418972 ], [ 581.299200975038843, 352.518371979450819 ], [ 581.632488681554605, 364.183441688147127 ], [ 585.965228860152934, 404.177966402489176 ], [ 567.301117325024052, 405.51111722283548 ], [ 561.635226325300323, 340.853302270754511 ], [ 559.968787795060166, 315.856724329488316 ], [ 556.302623029753363, 281.528090618770193 ], [ 556.302623030403083, 278.553686881793794 ] ] ] } },
{ "type": "Feature", "properties": { "feature_type": "building", "subtype": "no-damage", "uid": "5430d23d-2b66-4b95-bf5f-ed76afda601d" }, "geometry": { "type": "Polygon", "coordinates": [ [ [ 494.026066702672608, 280.197502933825092 ], [ 540.686345533672807, 276.198050464469986 ], [ 546.685524240172185, 338.856139178754916 ], [ 554.017853767017527, 417.845325486461888 ], [ 507.357574937706488, 422.511353367029812 ], [ 503.691410175388398, 394.848473772596719 ], [ 493.026203586243696, 281.863941461856882 ], [ 494.026066702672608, 280.197502933825092 ] ] ] } },
{ "type": "Feature", "properties": { "feature_type": "building", "subtype": "no-damage", "uid": "67abf911-13ad-4200-8fc9-a4b6cedd573c" }, "geometry": { "type": "Polygon", "coordinates": [ [ [ 442.03318457625528, 287.196544759874484 ], [ 480.361270757874195, 283.863667701732027 ], [ 493.026203585334088, 421.178202540446421 ], [ 456.0312682247108, 424.17779189714048 ], [ 455.031405107372279, 417.845325482303792 ], [ 445.366061636085817, 417.178750071091088 ], [ 432.034553398972776, 296.195312821640982 ], [ 443.033047696322512, 294.528874293609306 ], [ 442.03318457625528, 287.196544759874484 ] ] ] } },
{ "type": "Feature", "properties": { "feature_type": "building", "subtype": "no-damage", "uid": "200c8287-0a4c-4724-9e67-3a629cd2cbf7" }, "geometry": { "type": "Polygon", "coordinates": [ [ [ 618.313413862493917, 342.966274976415889 ], [ 635.026350727866088, 342.182856060205722 ], [ 636.854328196683696, 368.296819913089791 ], [ 619.357972414191977, 369.08023883137912 ], [ 618.313413862493917, 342.966274976415889 ] ] ] } },
{ "type": "Feature", "properties": { "feature_type": "building", "subtype": "no-damage", "uid": "e6c3f29f-2de4-45cb-b842-1f48daaf85dd" }, "geometry": { "type": "Polygon", "coordinates": [ [ [ 566.388371140920299, 619.077751430568696 ], [ 568.388097374037898, 661.072002374390763 ], [ 431.073562533943289, 675.736661437702196 ], [ 428.740548591970992, 630.742821135106851 ], [ 563.722069490093304, 616.744737489245153 ], [ 566.388371140920299, 619.077751430568696 ] ] ] } },
{ "type": "Feature", "properties": { "feature_type": "building", "subtype": "no-damage", "uid": "340c26d9-1609-426f-954d-093fa8620d36" }, "geometry": { "type": "Polygon", "coordinates": [ [ [ 554.327850619847368, 532.533896896859574 ], [ 558.327303092579541, 588.526231488622443 ], [ 543.662644029923058, 591.859108550922997 ], [ 453.341675725785194, 600.52458890084597 ], [ 443.009756840947318, 498.871838599433318 ], [ 528.664697264389019, 491.5395090615404 ], [ 532.330862029435934, 533.200472303914239 ], [ 554.327850619847368, 532.533896896859574 ] ] ] } },
{ "type": "Feature", "properties": { "feature_type": "building", "subtype": "no-damage", "uid": "2b1527b9-c25f-44c8-87e4-057f36156d4d" }, "geometry": { "type": "Polygon", "coordinates": [ [ [ 993.606231532179436, 746.338597437300223 ], [ 993.614721116855208, 756.613372529554795 ], [ 989.824630731987781, 772.479388382775369 ], [ 915.786619242581992, 766.446349607555476 ], [ 916.831177797658597, 738.765547918092693 ], [ 921.009412011207928, 730.670219121411606 ], [ 921.792830927547811, 725.186286714177072 ], [ 979.243551410239547, 729.625660568543708 ], [ 980.81038924395898, 735.109592979936338 ], [ 991.517114425014938, 736.154151530725244 ], [ 991.517114423455723, 744.771759606958767 ], [ 993.606231532179436, 746.338597437300223 ] ] ] } },
{ "type": "Feature", "properties": { "feature_type": "building", "subtype": "no-damage", "uid": "bc480712-562d-4837-a315-265850021410" }, "geometry": { "type": "Polygon", "coordinates": [ [ [ 1022.976368674902005, 703.007908442478424 ], [ 1004.921169214577048, 730.763625645902948 ], [ 967.492203686368271, 711.847657957638603 ], [ 1004.002737644517993, 650.497534450219291 ], [ 1008.335477819738003, 650.830822159983768 ], [ 1022.976373044920024, 655.814957216216953 ], [ 1022.976368674902005, 703.007908442478424 ] ] ] } },
{ "type": "Feature", "properties": { "feature_type": "building", "subtype": "no-damage", "uid": "4ed91d0c-5822-455a-8a17-1173c7ada9e3" }, "geometry": { "type": "Polygon", "coordinates": [ [ [ 999.134129478769978, 636.405446095602315 ], [ 985.8026212423066, 673.067093747643867 ], [ 903.147270176077768, 646.070789568581517 ], [ 907.813298057813427, 619.74106079657372 ], [ 912.812613643985856, 610.075717327752614 ], [ 998.13426636493989, 634.072432152199781 ], [ 999.134129478769978, 636.405446095602315 ] ] ] } },
{ "type": "Feature", "properties": { "feature_type": "building", "subtype": "no-damage", "uid": "ceca1e76-1190-41a9-9ed9-c92d5f5532be" }, "geometry": { "type": "Polygon", "coordinates": [ [ [ 1022.976378150659002, 559.661118340759458 ], [ 1005.33588846876205, 560.921152807094927 ], [ 1004.336025349085048, 558.921426569298774 ], [ 997.003695820030771, 558.921426571377879 ], [ 993.337531054983856, 555.921837216762697 ], [ 991.616969189397878, 486.688010804836608 ], [ 1022.976378589727005, 484.699083926000014 ], [ 1022.976378150659002, 559.661118340759458 ] ] ] } },
{ "type": "Feature", "properties": { "feature_type": "building", "subtype": "no-damage", "uid": "f33973d0-a2f0-4000-a911-d2c4aa5d1a57" }, "geometry": { "type": "Polygon", "coordinates": [ [ [ 887.685328275287702, 472.933198445937478 ], [ 888.685191395224933, 468.600458266818009 ], [ 896.350808628196319, 466.934019738786219 ], [ 903.683138160888916, 463.267854970879284 ], [ 913.015193927218888, 463.267854972958389 ], [ 927.013277572815696, 461.934704148453875 ], [ 943.344375167921271, 549.589370810242144 ], [ 902.683275042900846, 558.254851164323327 ], [ 887.685328275287702, 472.933198445937478 ] ] ] } },
{ "type": "Feature", "properties": { "feature_type": "building", "subtype": "no-damage", "uid": "fe42177d-032b-49f7-af0c-fb89c26376b9" }, "geometry": { "type": "Polygon", "coordinates": [ [ [ 1022.976378379484004, 473.060342210729914 ], [ 953.468915837399891, 474.613883633242892 ], [ 947.343827636365518, 472.505910732291625 ], [ 944.731649323353167, 463.227978300654399 ], [ 943.821802620500307, 435.375950750836182 ], [ 1022.976377053704027, 432.21892707604519 ], [ 1022.976378379484004, 473.060342210729914 ] ] ] } },
{ "type": "Feature", "properties": { "feature_type": "building", "subtype": "no-damage", "uid": "46f89835-0bed-403b-88a9-439fd1a482eb" }, "geometry": { "type": "Polygon", "coordinates": [ [ [ 877.303971262830828, 374.548428030301125 ], [ 877.303971262311052, 367.882673911937104 ], [ 885.636163910133178, 366.882810797197124 ], [ 887.302602441542717, 363.549933736975618 ], [ 905.966713973942888, 362.883358321604817 ], [ 907.633152504572763, 367.549386208409828 ], [ 920.964660741555917, 366.216235381826323 ], [ 928.29699026983053, 452.537751219110078 ], [ 885.302876208035286, 457.203779099678002 ], [ 877.303971262830828, 374.548428030301125 ] ] ] } },
{ "type": "Feature", "properties": { "feature_type": "building", "subtype": "no-damage", "uid": "11c133c8-4277-4158-b5f3-33c2d9644172" }, "geometry": { "type": "Polygon", "coordinates": [ [ [ 932.55681326073784, 265.641881544991406 ], [ 937.222841142473499, 263.642155309274301 ], [ 965.219008442373024, 284.305993075579011 ], [ 968.218597793998583, 290.638459490415812 ], [ 917.892154198081357, 356.962712970528514 ], [ 888.896123783961912, 338.298601435782814 ], [ 884.230095900017318, 329.966408789387117 ], [ 932.55681326073784, 265.641881544991406 ] ] ] } },
{ "type": "Feature", "properties": { "feature_type": "building", "subtype": "no-damage", "uid": "9b7efd7d-0b29-4dc3-afee-25afbf225b12" }, "geometry": { "type": "Polygon", "coordinates": [ [ [ 1022.976371989026006, 354.552187849059919 ], [ 1004.910719106605029, 353.345076044234418 ], [ 997.003695819640939, 346.564036451364473 ], [ 1008.668765525604044, 276.953713546420374 ], [ 1022.976363599829028, 276.953713955991873 ], [ 1022.976371989026006, 354.552187849059919 ] ] ] } },
{ "type": "Feature", "properties": { "feature_type": "building", "subtype": "no-damage", "uid": "3c0f674d-dd5b-48ad-ae3c-bf4c1361f10c" }, "geometry": { "type": "Polygon", "coordinates": [ [ [ 1022.976362484681999, 268.511877174185088 ], [ 969.421815541325373, 272.61174524907068 ], [ 966.027000240607549, 229.262565247877404 ], [ 987.701590239897087, 226.912308503404802 ], [ 1022.976355905031028, 223.613230726278488 ], [ 1022.976362484681999, 268.511877174185088 ] ] ] } },
{ "type": "Feature", "properties": { "feature_type": "building", "subtype": "no-damage", "uid": "0866c0b2-58bf-4fb9-a961-a1d0dd7d6d7e" }, "geometry": { "type": "Polygon", "coordinates": [ [ [ 924.572649677965842, 231.265108447248195 ], [ 892.749958118392215, 270.61472794994512 ], [ 871.05201831467889, 247.549398401122204 ], [ 898.990542874596713, 212.244305393359213 ], [ 911.713118440089261, 219.668516579746694 ], [ 922.11351516079435, 227.633182603057293 ], [ 924.572649677965842, 231.265108447248195 ] ] ] } },
{ "type": "Feature", "properties": { "feature_type": "building", "subtype": "no-damage", "uid": "727f5015-fcd2-49da-b828-ef68b1b32bfe" }, "geometry": { "type": "Polygon", "coordinates": [ [ [ 583.240085693674473, 433.334636551527922 ], [ 583.998542760138434, 445.734759508473473 ], [ 408.355921737515416, 461.732569392131325 ], [ 408.022634033338477, 447.40119803650532 ], [ 578.860537877996762, 432.001485724944416 ], [ 583.240085693674473, 433.334636551527922 ] ] ] } },
{ "type": "Feature", "properties": { "feature_type": "building", "subtype": "no-damage", "uid": "6314d038-fa36-4a27-bf69-7535dcb2b9b9" }, "geometry": { "type": "Polygon", "coordinates": [ [ [ 409.68920944489571, 442.735170153858292 ], [ 409.355921736170899, 439.069005388030519 ], [ 393.691399560074217, 276.091317192679185 ], [ 414.021949619855718, 274.758166364016688 ], [ 432.019485740653522, 441.068731623747624 ], [ 409.68920944489571, 442.735170153858292 ] ] ] } },
{ "type": "Feature", "properties": { "feature_type": "building", "subtype": "no-damage", "uid": "a0d86bc0-39d0-4f5a-b42d-57ff5d17a642" }, "geometry": { "type": "Polygon", "coordinates": [ [ [ 393.433394302975614, 272.401834326010487 ], [ 391.76695577013669, 256.070736734667321 ], [ 606.070950681674049, 237.073337498473393 ], [ 607.070813803040664, 253.737722789185796 ], [ 393.433394302975614, 272.401834326010487 ] ] ] } },
{ "type": "Feature", "properties": { "feature_type": "building", "subtype": "no-damage", "uid": "2dc1244d-1307-4e69-bb22-9859f7d81fdc" }, "geometry": { "type": "Polygon", "coordinates": [ [ [ 609.917168531026164, 237.140900964184908 ], [ 624.248539887556717, 235.807750139680508 ], [ 633.247307946851151, 338.460363562070313 ], [ 619.582512002702515, 338.793651269755685 ], [ 609.917168531805828, 239.473914903429289 ], [ 609.917168531026164, 237.140900964184908 ] ] ] } },
{ "type": "Feature", "properties": { "feature_type": "building", "subtype": "no-damage", "uid": "a279ba38-2609-4fad-95da-649d8b307eb0" }, "geometry": { "type": "Polygon", "coordinates": [ [ [ 51.74762322779074, 771.999254048608577 ], [ 66.541390537032882, 771.432665972590598 ], [ 67.863714648871493, 793.930147495581537 ], [ 52.834582132030008, 795.017106404239144 ], [ 51.74762322779074, 771.999254048608577 ] ] ] } },
{ "type": "Feature", "properties": { "feature_type": "building", "subtype": "no-damage", "uid": "a5afe7ff-19ee-422e-b7be-0b4d23348f4e" }, "geometry": { "type": "Polygon", "coordinates": [ [ [ 1022.976375861112956, 408.511250263766726 ], [ 945.107399657797259, 409.444716939792613 ], [ 944.918251701762529, 397.528395673609623 ], [ 943.026772136477916, 394.880324275349324 ], [ 943.405068045688608, 384.855482573412019 ], [ 944.918251701632585, 384.288038705177826 ], [ 944.350807833268732, 376.154676565407328 ], [ 955.510537275178763, 374.830640871474714 ], [ 957.023720927874251, 369.345350125806306 ], [ 964.40049123726601, 368.21046238933792 ], [ 964.77878714959536, 375.77638065463708 ], [ 979.532327772277085, 376.343824527029426 ], [ 979.721475727402208, 369.345350129964402 ], [ 993.907572474703215, 368.021314431873805 ], [ 993.529276565622467, 374.452344958625588 ], [ 1007.526225359358023, 373.69575313292728 ], [ 1007.904521272207035, 368.210462387258872 ], [ 1017.74021501888501, 368.021314433952909 ], [ 1017.740215014467026, 373.128309260534991 ], [ 1022.976373523748975, 373.444744781863392 ], [ 1022.976375861112956, 408.511250263766726 ] ] ] } },
{ "type": "Feature", "properties": { "feature_type": "building", "subtype": "no-damage", "uid": "60d2db05-c8de-4bdc-916e-11f1bcb659cd" }, "geometry": { "type": "Polygon", "coordinates": [ [ [ 1022.976375721558043, 617.015595582211631 ], [ 940.408792558553841, 591.501454723965367 ], [ 942.111124165724732, 583.178944632967841 ], [ 940.030496644145501, 582.989796675503726 ], [ 942.300272121759349, 573.910694754649739 ], [ 944.002603731529007, 572.964954967329277 ], [ 945.704935344937098, 566.53392444473559 ], [ 948.353006735399958, 566.533924446814694 ], [ 951.946817911883613, 553.861011348696138 ], [ 978.238383890623936, 559.913745960519691 ], [ 975.779460453207093, 567.101368317127935 ], [ 984.6694144169835, 568.803699923909562 ], [ 986.182598072017981, 563.696705095248376 ], [ 989.965557205056029, 565.020740789180877 ], [ 988.452373548592277, 569.371143794222803 ], [ 992.991924509537398, 570.884327447698524 ], [ 995.450847945264968, 566.344776489350579 ], [ 999.990398904001154, 567.668812185362071 ], [ 998.477215254684097, 573.343250886415603 ], [ 1011.528424264217961, 577.88280184684254 ], [ 1013.609051786835948, 572.208363145789122 ], [ 1022.976377764867038, 572.549393034099921 ], [ 1022.976375721558043, 617.015595582211631 ] ] ] } },
{ "type": "Feature", "properties": { "feature_type": "building", "subtype": "no-damage", "uid": "2b2fab95-28f9-483e-ab9b-98ed80a9bc46" }, "geometry": { "type": "Polygon", "coordinates": [ [ [ 971.03323596533005, 795.649232694275042 ], [ 970.885033595190066, 807.357220190924863 ], [ 973.700878689570118, 808.839243926888685 ], [ 973.108069193937354, 815.360148355981437 ], [ 970.440426472685886, 816.990374462215186 ], [ 971.033235969098314, 822.770267027484238 ], [ 967.328176630099733, 824.400493131638882 ], [ 967.179974257231038, 837.590504362173419 ], [ 923.608476485973142, 834.922861645339026 ], [ 924.794095471781134, 818.175993453481055 ], [ 923.460274112714728, 816.545767341010219 ], [ 924.053083605878555, 808.987446299237604 ], [ 922.867464618901181, 807.209017816496839 ], [ 924.053083607437884, 802.170137123367795 ], [ 925.09050021738858, 801.28092288511607 ], [ 926.424321577364594, 793.72260184126435 ], [ 931.018595154484615, 791.499566241476828 ], [ 970.292224098907695, 794.46361370924626 ], [ 971.03323596533005, 795.649232694275042 ] ] ] } },
{ "type": "Feature", "properties": { "feature_type": "building", "subtype": "no-damage", "uid": "8b63a425-cfc0-4566-823d-23e32c0292a8" }, "geometry": { "type": "Polygon", "coordinates": [ [ [ 779.513175796284258, 773.167328546829367 ], [ 779.995987893875167, 781.133728188267469 ], [ 789.410823834580128, 781.616540287937596 ], [ 790.859260131250949, 793.445436722578506 ], [ 780.478799993675011, 795.135279068305294 ], [ 780.720206043899793, 817.827447740325965 ], [ 731.956184010501374, 821.689944535607765 ], [ 729.783529564195646, 819.517290088131858 ], [ 725.921032766576332, 776.064201146929008 ], [ 778.306145548798668, 771.47748620318157 ], [ 779.513175796284258, 773.167328546829367 ] ] ] } },
{ "type": "Feature", "properties": { "feature_type": "building", "subtype": "no-damage", "uid": "e4d1457a-a287-4162-aa7e-0d479b44facb" }, "geometry": { "type": "Polygon", "coordinates": [ [ [ 507.154862469454088, 1022.98341220864404 ], [ 507.333838866237727, 1005.095745054444023 ], [ 540.434731281717859, 1003.39341344350396 ], [ 544.40683837416907, 1005.095745056523015 ], [ 550.648720940855696, 1006.230632792990946 ], [ 551.40531277019204, 1018.903545891109957 ], [ 543.839394501517063, 1019.092693848573958 ], [ 543.989357824259287, 1022.983383332819017 ], [ 507.154862469454088, 1022.98341220864404 ] ] ] } },
{ "type": "Feature", "properties": { "feature_type": "building", "subtype": "no-damage", "uid": "97f3e75b-2ef1-43d6-9475-3342158ed034" }, "geometry": { "type": "Polygon", "coordinates": [ [ [ 553.130472062031231, 1022.983364469664025 ], [ 552.99614318572776, 1013.139881015567994 ], [ 560.850868974274476, 1013.436285762345051 ], [ 560.702666601275837, 1008.249202692708991 ], [ 562.184690334770266, 1002.617512506025946 ], [ 599.531688425533616, 1006.02616709708002 ], [ 597.853867247371909, 1022.983205123509947 ], [ 553.130472062031231, 1022.983364469664025 ] ] ] } },
{ "type": "Feature", "properties": { "feature_type": "building", "subtype": "no-damage", "uid": "3bbe3ae3-6036-4e88-a180-f69e2df7714d" }, "geometry": { "type": "Polygon", "coordinates": [ [ [ 101.236073070462595, 703.691260225674569 ], [ 101.680680188418805, 718.511497564521846 ], [ 99.457644592530244, 720.438128417532539 ], [ 96.493597120343878, 720.438128415453434 ], [ 96.197192373307146, 718.215092815665912 ], [ 92.7885377877124, 717.770485696539936 ], [ 92.195728293898839, 702.950248357692658 ], [ 101.236073070462595, 703.691260225674569 ] ] ] } },
{ "type": "Feature", "properties": { "feature_type": "building", "subtype": "no-damage", "uid": "6d760cbc-3cf5-47ff-a647-3e7aa01f73f8" }, "geometry": { "type": "Polygon", "coordinates": [ [ [ 692.302662729054873, 454.616489743352076 ], [ 692.29318900752537, 452.846285454828205 ], [ 689.773748661221589, 437.877845743632008 ], [ 680.288796764102813, 438.767059983962781 ], [ 678.362165910443196, 418.463334830781378 ], [ 656.872821768732365, 419.500751443461183 ], [ 656.131809903089675, 415.202882616235001 ], [ 639.829548829713758, 415.795692111867879 ], [ 633.247307946851151, 338.460363562070313 ], [ 624.468075879702951, 238.675207573669894 ], [ 649.813902072422479, 235.081396396405296 ], [ 650.94878981174918, 238.675207573669894 ], [ 657.00152442746878, 237.540319833043412 ], [ 657.75811625368658, 234.70310048563519 ], [ 697.10089124274009, 230.352697482672312 ], [ 697.100891240920987, 233.189916830080506 ], [ 704.288513591159472, 232.622472959767208 ], [ 704.28851359206908, 229.785253610280108 ], [ 744.387880408249998, 227.515478131106107 ], [ 746.279359971975396, 229.406957699509888 ], [ 754.412722108884395, 227.893774046034309 ], [ 754.85175358250865, 225.197168236386005 ], [ 793.171497951054789, 221.945795985403095 ], [ 793.75210014008519, 223.687602547687106 ], [ 798.86139938858355, 223.455361669943898 ], [ 799.558122013626871, 221.481314234074688 ], [ 816.627826319846349, 219.971748545375789 ], [ 821.272643820005214, 222.294157295780792 ], [ 822.229497001796631, 230.964490089941705 ], [ 632.89239237748518, 248.176954146408093 ], [ 647.693748341609194, 406.747123139914777 ], [ 674.073770805007825, 404.968694663411213 ], [ 676.000401658927444, 403.634873301875416 ], [ 693.784686463068965, 401.70824244886478 ], [ 699.860983771734368, 453.727275505100408 ], [ 692.302662729054873, 454.616489743352076 ] ] ] } },
{ "type": "Feature", "properties": { "feature_type": "building", "subtype": "no-damage", "uid": "5e31ed03-fe54-485f-ad38-3ca7b5150f17" }, "geometry": { "type": "Polygon", "coordinates": [ [ [ 687.35960838727226, 505.473565886788492 ], [ 688.770037822141148, 522.011401769454892 ], [ 709.266745585528497, 729.540567876198111 ], [ 870.037797104882884, 714.808559168407555 ], [ 873.24040769470696, 725.697435168823631 ], [ 696.456303230650178, 744.27257657983057 ], [ 674.497547334163073, 509.823968891830418 ], [ 679.60454216646076, 509.445672976902188 ], [ 678.847950337384304, 505.473565884709501 ], [ 687.35960838727226, 505.473565886788492 ] ] ] } },
{ "type": "Feature", "properties": { "feature_type": "building", "subtype": "no-damage", "uid": "d6543fa3-282f-470e-816c-067ed67bdbd6" }, "geometry": { "type": "Polygon", "coordinates": [ [ [ 93.179157153797519, 283.991078149498207 ], [ 120.699214960643204, 281.697739995050313 ], [ 124.827223629656004, 311.969803586359717 ], [ 96.389830565787292, 314.721809365875799 ], [ 93.179157153797519, 283.991078149498207 ] ] ] } },
{ "type": "Feature", "properties": { "feature_type": "building", "subtype": "no-damage", "uid": "7dc78c63-06b7-49fc-a19a-9dba2b56ede5" }, "geometry": { "type": "Polygon", "coordinates": [ [ [ 0.000349300884899, 325.683497945126874 ], [ 19.145338890816539, 324.331060957317106 ], [ 20.835915967657861, 332.445830939048392 ], [ 4.944491421232522, 335.488869682457505 ], [ 4.606376006410006, 333.460177183386293 ], [ 0.000350096508578, 333.798266906048184 ], [ 0.000349300884899, 325.683497945126874 ] ] ] } },
{ "type": "Feature", "properties": { "feature_type": "building", "subtype": "no-damage", "uid": "7f8afd23-48a2-4881-b32b-6cd0e3da93ad" }, "geometry": { "type": "Polygon", "coordinates": [ [ [ 161.3233637749249, 358.952529981130624 ], [ 170.510258467251589, 359.136267874296379 ], [ 170.510258470240188, 365.934569950534296 ], [ 161.323363773625488, 366.302045738944685 ], [ 161.3233637749249, 358.952529981130624 ] ] ] } },
{ "type": "Feature", "properties": { "feature_type": "building", "subtype": "no-damage", "uid": "b29133ed-6894-4772-8da6-4eb57c58919e" }, "geometry": { "type": "Polygon", "coordinates": [ [ [ 112.470294775457504, 854.107082762289224 ], [ 119.378031722353697, 853.565299473172104 ], [ 120.7324899421574, 881.331693078887724 ], [ 113.282969709782606, 881.467138902206557 ], [ 112.470294775457504, 854.107082762289224 ] ] ] } }
]
}
