{
"type": "FeatureCollection",
"name": "santa-rosa-wildfire_00000139_post_disaster",
"features": [
{ "type": "Feature", "properties": { "feature_type": "building", "subtype": "no-damage", "uid": "7906b339-c1d1-4e01-9946-42f57c36da91" }, "geometry": { "type": "Polygon", "coordinates": [ [ [ 425.861170887142919, 60.218169271188792 ], [ 426.477375067235812, 78.048361069789962 ], [ 405.984618270464523, 79.211026782323628 ], [ 405.270421686630584, 60.428278954895632 ], [ 425.861170887142919, 60.218169271188792 ] ] ] } },
{ "type": "Feature", "properties": { "feature_type": "building", "subtype": "no-damage", "uid": "7e5fd4f2-53c5-4093-90e3-7858bdd3b8c6" }, "geometry": { "type": "Polygon", "coordinates": [ [ [ 435.736326111539313, 23.238864591584662 ], [ 467.883108025723118, 22.818645217933849 ], [ 469.483002444140823, 50.730393913664152 ], [ 453.175430027343509, 49.082355930774092 ], [ 451.634919571653711, 53.859260923066081 ], [ 438.047532656092812, 54.335098073342138 ], [ 435.946435796805417, 41.098187872989563 ], [ 427.54204836823169, 41.938626614054037 ], [ 426.281390256115685, 32.903910131498179 ], [ 436.366655167597287, 31.223032645211109 ], [ 435.736326111539313, 23.238864591584662 ] ] ] } },
{ "type": "Feature", "properties": { "feature_type": "building", "subtype": "no-damage", "uid": "d85da32f-1fbd-4ea2-9aa4-29ef360b5193" }, "geometry": { "type": "Polygon", "coordinates": [ [ [ 460.444606877631884, 114.259418362948693 ], [ 460.712765997559188, 127.131056027989104 ], [ 459.908288641155593, 156.628559001190894 ], [ 425.852080661684113, 157.433036354476286 ], [ 424.779444189901028, 122.572351017029405 ], [ 435.842412281398708, 121.956146841094295 ], [ 436.350229232955598, 114.499076196657299 ], [ 460.444606877631884, 114.259418362948693 ] ] ] } },
{ "type": "Feature", "properties": { "feature_type": "building", "subtype": "no-damage", "uid": "b9ee8748-b867-40ad-bc90-51810364f1fe" }, "geometry": { "type": "Polygon", "coordinates": [ [ [ 415.159208748626895, 280.864614114358972 ], [ 414.500703000150622, 300.455160066922701 ], [ 382.727800740999214, 300.125907192879424 ], [ 382.552107098299985, 280.941393729251388 ], [ 415.159208748626895, 280.864614114358972 ] ] ] } },
{ "type": "Feature", "properties": { "feature_type": "building", "subtype": "no-damage", "uid": "02f657c1-6348-47f1-ba16-44fb7799525f" }, "geometry": { "type": "Polygon", "coordinates": [ [ [ 633.328143841750602, 223.613079080899212 ], [ 668.158910120676865, 212.792711774672512 ], [ 675.676411256376582, 233.287089488568597 ], [ 639.537545317979834, 243.792573771625598 ], [ 633.328143841750602, 223.613079080899212 ] ] ] } },
{ "type": "Feature", "properties": { "feature_type": "building", "subtype": "no-damage", "uid": "396d27fc-10f1-449b-b8e5-64937eee11f3" }, "geometry": { "type": "Polygon", "coordinates": [ [ [ 668.158910118727817, 211.792711775756686 ], [ 652.503572874984798, 216.782612456261489 ], [ 647.589853888369021, 207.488446305672596 ], [ 663.968917182978998, 202.384273089404786 ], [ 668.158910118727817, 211.792711775756686 ] ] ] } },
{ "type": "Feature", "properties": { "feature_type": "building", "subtype": "no-damage", "uid": "aefdca7e-d674-4444-8784-eef5b0ed2c4c" }, "geometry": { "type": "Polygon", "coordinates": [ [ [ 709.641009778880971, 195.743952712038606 ], [ 713.504050782187164, 210.578186692792599 ], [ 698.698102427251683, 213.306978178073194 ], [ 695.194287507894501, 198.91628294626409 ], [ 709.641009778880971, 195.743952712038606 ] ] ] } },
{ "type": "Feature", "properties": { "feature_type": "building", "subtype": "no-damage", "uid": "1b605117-1d36-4e78-ac6b-55d974fe0538" }, "geometry": { "type": "Polygon", "coordinates": [ [ [ 704.900051961513668, 172.963455718860502 ], [ 707.044964998867954, 182.772657759842787 ], [ 695.905146697281339, 184.990351523278491 ], [ 694.187018727171335, 173.873052875769588 ], [ 704.900051961513668, 172.963455718860502 ] ] ] } },
{ "type": "Feature", "properties": { "feature_type": "building", "subtype": "no-damage", "uid": "0b53817a-d00d-4aa9-ac5f-b59a1aff92d0" }, "geometry": { "type": "Polygon", "coordinates": [ [ [ 736.498635109804127, 155.942915299959594 ], [ 743.470772176589321, 174.445894437997708 ], [ 738.247476114329857, 176.899280475204989 ], [ 746.067014171610595, 200.962785644204104 ], [ 735.037601180414867, 205.355825396356408 ], [ 726.856412675730439, 178.902125158646498 ], [ 716.923019500119494, 181.418031504655488 ], [ 711.023518903428112, 163.183211481607088 ], [ 736.498635109804127, 155.942915299959594 ] ] ] } },
{ "type": "Feature", "properties": { "feature_type": "building", "subtype": "no-damage", "uid": "4d528741-fd51-4428-a944-b0f5000a5fe6" }, "geometry": { "type": "Polygon", "coordinates": [ [ [ 754.24397729422526, 169.553455192942295 ], [ 758.48876404491773, 183.399545319494706 ], [ 774.558313903253179, 178.043028699008204 ], [ 772.435920523748905, 171.1705168107693 ], [ 781.734024844572218, 168.13852627318559 ], [ 789.516133895954567, 193.607246797620292 ], [ 751.313053106197572, 204.421346384510088 ], [ 743.530944054945166, 176.324900726948414 ], [ 744.4405412166617, 172.181180323990191 ], [ 754.24397729422526, 169.553455192942295 ] ] ] } },
{ "type": "Feature", "properties": { "feature_type": "building", "subtype": "no-damage", "uid": "1a624a8b-a9c6-4961-9c62-8e21ddf3eefb" }, "geometry": { "type": "Polygon", "coordinates": [ [ [ 739.329088503331491, 151.67590434067489 ], [ 749.020615458589191, 149.500432183168897 ], [ 753.483747297923628, 165.624072275766395 ], [ 744.505996233755013, 168.074865569924413 ], [ 739.329088503331491, 151.67590434067489 ] ] ] } },
{ "type": "Feature", "properties": { "feature_type": "building", "subtype": "no-damage", "uid": "51877a69-d892-4ce3-9843-51d5fb076827" }, "geometry": { "type": "Polygon", "coordinates": [ [ [ 864.105897166864338, 145.01258152353131 ], [ 864.43515004181711, 148.140483817587409 ], [ 867.563052335612269, 157.524190703913888 ], [ 874.148109797245752, 174.151460796324614 ], [ 829.369719054057896, 185.675311356656209 ], [ 819.986012168384491, 154.890167717804189 ], [ 864.105897166864338, 145.01258152353131 ] ] ] } },
{ "type": "Feature", "properties": { "feature_type": "building", "subtype": "no-damage", "uid": "e0149b09-dbd7-4c44-b46b-342efd2350dc" }, "geometry": { "type": "Polygon", "coordinates": [ [ [ 985.072129242106826, 128.930540507008686 ], [ 985.810079400610675, 150.670125835738702 ], [ 975.319107915095628, 150.922910140477995 ], [ 973.914025097987178, 129.395540463905007 ], [ 985.072129242106826, 128.930540507008686 ] ] ] } },
{ "type": "Feature", "properties": { "feature_type": "building", "subtype": "no-damage", "uid": "ad73fc10-d4df-4ec4-a773-c01661e00505" }, "geometry": { "type": "Polygon", "coordinates": [ [ [ 959.089616962603145, 221.661039998824407 ], [ 987.10510678254866, 217.030498509213686 ], [ 995.479054808750902, 254.304615904437696 ], [ 1002.631010354937985, 270.372207386614377 ], [ 1011.874073061659033, 269.44790111439562 ], [ 1014.338889784889943, 278.999065912076503 ], [ 1001.398601993323041, 281.771984724574679 ], [ 998.31758109220857, 274.377534559298908 ], [ 994.620356008142721, 274.685636647266392 ], [ 990.306926741644929, 264.826369757459872 ], [ 981.063864037522308, 266.983084391943976 ], [ 976.7504347724539, 258.664327952370513 ], [ 969.180274423617334, 259.999428158060823 ], [ 966.786029187935128, 250.550388250921486 ], [ 961.69100594374936, 250.550388250921486 ], [ 960.618369473785378, 242.773773830978314 ], [ 963.863831423547822, 241.897459988646688 ], [ 959.089616962603145, 221.661039998824407 ] ] ] } },
{ "type": "Feature", "properties": { "feature_type": "building", "subtype": "no-damage", "uid": "af080432-0a94-4c25-b7e3-0665291f2d80" }, "geometry": { "type": "Polygon", "coordinates": [ [ [ 911.52851947211866, 240.296870992575805 ], [ 913.120742760417897, 244.209047624988813 ], [ 917.582514157717014, 257.395583764644584 ], [ 892.505953513283089, 265.030980622532581 ], [ 896.008753463842254, 276.992841609479115 ], [ 871.589542311238347, 284.070277996787411 ], [ 862.267443963923824, 249.906315288412202 ], [ 884.801175578100924, 243.918246788299712 ], [ 886.357480626165056, 248.485317499364101 ], [ 911.52851947211866, 240.296870992575805 ] ] ] } },
{ "type": "Feature", "properties": { "feature_type": "building", "subtype": "no-damage", "uid": "ee907777-fc1d-46a0-9706-4e1503334e04" }, "geometry": { "type": "Polygon", "coordinates": [ [ [ 932.129543145148659, 292.606121281563276 ], [ 959.951410922018454, 290.630604047698512 ], [ 961.433048854303479, 320.427989062341283 ], [ 937.891468422843559, 322.732759176486695 ], [ 935.422071875575625, 300.508190237813324 ], [ 931.800290270455662, 300.17893736376999 ], [ 932.129543145148659, 292.606121281563276 ] ] ] } },
{ "type": "Feature", "properties": { "feature_type": "building", "subtype": "no-damage", "uid": "5ace20df-a726-4b05-b010-95e9c352c64d" }, "geometry": { "type": "Polygon", "coordinates": [ [ [ 864.602802698666665, 524.791059248136776 ], [ 885.608191507185097, 524.674938813423182 ], [ 885.119250659583031, 517.035509313204216 ], [ 906.913023431714464, 517.249405863122206 ], [ 909.522645747718798, 547.947703399013903 ], [ 863.692183522795858, 547.782664767854612 ], [ 864.602802698666665, 524.791059248136776 ] ] ] } },
{ "type": "Feature", "properties": { "feature_type": "building", "subtype": "no-damage", "uid": "ba052cdf-652f-4bba-8cdc-ef6d8b01058c" }, "geometry": { "type": "Polygon", "coordinates": [ [ [ 771.175612583766565, 462.606080210791106 ], [ 786.072447093052119, 462.535750628574874 ], [ 786.222329852497182, 459.831007553645975 ], [ 794.13061842617833, 460.277550234560579 ], [ 795.817363325240763, 495.803994401750572 ], [ 773.571338347903975, 497.857473629157198 ], [ 771.175612583766565, 462.606080210791106 ] ] ] } },
{ "type": "Feature", "properties": { "feature_type": "building", "subtype": "no-damage", "uid": "686a3c43-d3fd-4f7a-bc46-92626df426e1" }, "geometry": { "type": "Polygon", "coordinates": [ [ [ 710.139557431568164, 487.988842818046976 ], [ 708.770571279704427, 465.742817848238815 ], [ 726.567391260430441, 466.427310921961919 ], [ 751.551388538116385, 467.454050533586212 ], [ 750.866895461274908, 490.042322045453602 ], [ 728.278623951884356, 489.700075509631574 ], [ 710.139557431568164, 487.988842818046976 ] ] ] } },
{ "type": "Feature", "properties": { "feature_type": "building", "subtype": "no-damage", "uid": "9426776d-58ba-4132-977d-8de5c4ece810" }, "geometry": { "type": "Polygon", "coordinates": [ [ [ 1015.392641404626033, 620.020296136648426 ], [ 1014.320004929074003, 623.506364671016854 ], [ 1012.711050225103008, 643.618298515625725 ], [ 946.207588971041105, 643.081980279409095 ], [ 946.207588971300993, 628.601387909876962 ], [ 967.392159290284553, 626.992433201227186 ], [ 968.19663664201039, 620.020296136648426 ], [ 1015.392641404626033, 620.020296136648426 ] ] ] } },
{ "type": "Feature", "properties": { "feature_type": "building", "subtype": "no-damage", "uid": "dd1f250b-10ca-4a9c-99a3-95359d72edf7" }, "geometry": { "type": "Polygon", "coordinates": [ [ [ 904.638357076678176, 727.357393669829321 ], [ 921.10100073582953, 726.863514357724853 ], [ 920.771747863605469, 742.50302583216353 ], [ 904.638357079276943, 741.844520086155853 ], [ 904.638357076678176, 727.357393669829321 ] ] ] } },
{ "type": "Feature", "properties": { "feature_type": "building", "subtype": "no-damage", "uid": "842600a5-4cef-4e91-8983-fb665934476f" }, "geometry": { "type": "Polygon", "coordinates": [ [ [ 948.017616014493001, 740.938881784270848 ], [ 955.755058535667672, 739.951123164219894 ], [ 956.248937843483986, 750.157962230457088 ], [ 963.65712748931594, 750.322588666439287 ], [ 964.315633236752774, 766.126726578939156 ], [ 949.663880381980448, 767.937617378900995 ], [ 948.017616014493001, 740.938881784270848 ] ] ] } },
{ "type": "Feature", "properties": { "feature_type": "building", "subtype": "no-damage", "uid": "a386d22a-0181-48ce-a6cf-6b13fb05e07b" }, "geometry": { "type": "Polygon", "coordinates": [ [ [ 955.728801147833224, 865.782007358238843 ], [ 958.94654536673238, 864.790432532525074 ], [ 959.28879190541295, 841.778907899484807 ], [ 975.921346895295414, 840.455763539004579 ], [ 976.948086510167741, 827.45039509252581 ], [ 992.006934185217119, 828.13488816624897 ], [ 992.691427260369323, 879.12962234053964 ], [ 976.263593432286825, 880.156361956321916 ], [ 974.210114202931891, 885.632306564818577 ], [ 956.755540763875047, 887.685785792225147 ], [ 955.728801147833224, 865.782007358238843 ] ] ] } },
{ "type": "Feature", "properties": { "feature_type": "building", "subtype": "no-damage", "uid": "c65cf7b8-4685-4cd9-92e2-823848b36507" }, "geometry": { "type": "Polygon", "coordinates": [ [ [ 679.873977579296707, 1022.982636902410036 ], [ 681.886880236345633, 972.513624858834987 ], [ 671.27723755452871, 973.540364476696368 ], [ 668.539265253010171, 942.738176051044547 ], [ 674.015209859295737, 941.369189897361025 ], [ 676.753182163673046, 944.107162202648851 ], [ 691.127536760971338, 945.133901816352136 ], [ 691.469783298612469, 941.369189897361025 ], [ 699.341453678131188, 941.369189897361025 ], [ 700.368193289884971, 965.326447562911994 ], [ 716.111534042295602, 964.29970794920871 ], [ 715.427040964154685, 985.17674677157072 ], [ 704.132905207445447, 986.545732921096032 ], [ 704.475151747815289, 1001.262334061237993 ], [ 713.373561738568014, 1000.920087521257983 ], [ 714.027871834506527, 1022.982283558696963 ], [ 679.873977579296707, 1022.982636902410036 ] ] ] } },
{ "type": "Feature", "properties": { "feature_type": "building", "subtype": "no-damage", "uid": "05a6bc9e-eb54-4d87-97f7-456135f71592" }, "geometry": { "type": "Polygon", "coordinates": [ [ [ 738.551119055257573, 967.938446458952399 ], [ 769.227133167771285, 966.677788344237115 ], [ 770.067571908315699, 975.082175769435366 ], [ 802.214353818341351, 975.29228545522119 ], [ 801.163805392011113, 993.151608738705136 ], [ 770.908010653148153, 993.361718426570064 ], [ 769.647352537523716, 997.774021823915518 ], [ 739.601667481717755, 998.194241193408288 ], [ 738.551119055257573, 967.938446458952399 ] ] ] } },
{ "type": "Feature", "properties": { "feature_type": "building", "subtype": "no-damage", "uid": "f246b9f4-1f8f-4147-8e76-0879c428b8c8" }, "geometry": { "type": "Polygon", "coordinates": [ [ [ 812.719838102953872, 950.499342544961223 ], [ 827.63762578620981, 951.54989097389057 ], [ 828.898283903133574, 954.911645942306677 ], [ 854.111446185476098, 952.390329719113197 ], [ 854.321555872951194, 948.188136003395471 ], [ 875.752743813228108, 947.767916631823709 ], [ 876.172963182071044, 968.148556142659231 ], [ 812.509728420676538, 968.778885195858834 ], [ 812.719838102953872, 950.499342544961223 ] ] ] } },
{ "type": "Feature", "properties": { "feature_type": "building", "subtype": "no-damage", "uid": "4e098a6c-762f-40fc-b448-9d07afe8b102" }, "geometry": { "type": "Polygon", "coordinates": [ [ [ 907.538554558244982, 967.365903908813152 ], [ 947.762422250696773, 968.974858615383937 ], [ 948.566899609309417, 997.936043354448202 ], [ 908.611191030418013, 998.740520709812586 ], [ 907.538554558244982, 967.365903908813152 ] ] ] } },
{ "type": "Feature", "properties": { "feature_type": "building", "subtype": "no-damage", "uid": "8bec8fe0-6bc7-4d84-8689-6c7a1cde7a6e" }, "geometry": { "type": "Polygon", "coordinates": [ [ [ 809.56865301514199, 1022.980949511799054 ], [ 809.124158270356929, 1018.04797720113595 ], [ 825.213705348792928, 1017.77981808406696 ], [ 833.957835396461746, 1022.980527378796978 ], [ 809.56865301514199, 1022.980949511799054 ] ] ] } },
{ "type": "Feature", "properties": { "feature_type": "building", "subtype": "no-damage", "uid": "c634a07a-46f0-4291-a814-2711296a9933" }, "geometry": { "type": "Polygon", "coordinates": [ [ [ 913.702026438746998, 623.057050580354598 ], [ 919.074302717580395, 657.065173760679841 ], [ 891.992520043543323, 660.559597333821557 ], [ 889.867012347632453, 650.152460110614697 ], [ 853.698128546429075, 653.908165533176543 ], [ 851.149444761518339, 633.657335359050876 ], [ 871.65192952478958, 632.666715398178326 ], [ 873.3406342750975, 625.867016215595982 ], [ 913.702026438746998, 623.057050580354598 ] ] ] } },
{ "type": "Feature", "properties": { "feature_type": "building", "subtype": "no-damage", "uid": "b8a834b4-4bd5-449f-aa1c-cc3838e1eb82" }, "geometry": { "type": "Polygon", "coordinates": [ [ [ 801.579675249275965, 634.201634888680587 ], [ 804.70757754463034, 635.024767072749455 ], [ 804.378324674485384, 642.268330280912778 ], [ 816.066801671574581, 641.609824536984092 ], [ 817.383813163849254, 657.41396244740497 ], [ 804.542951110077638, 660.047985433514668 ], [ 804.049071801351715, 679.309278507876911 ], [ 778.367347693678425, 678.980025635912625 ], [ 778.038094820414813, 665.974537147583533 ], [ 767.337376446234998, 665.974537149662638 ], [ 757.624416686908148, 665.809910713680438 ], [ 756.965910942330083, 647.04249694102748 ], [ 781.495249992281401, 644.243847523093791 ], [ 781.330623554739987, 635.024767072749455 ], [ 801.579675249275965, 634.201634888680587 ] ] ] } },
{ "type": "Feature", "properties": { "feature_type": "building", "subtype": "no-damage", "uid": "e82b6a65-351c-44e7-b2b3-550a21bce70e" }, "geometry": { "type": "Polygon", "coordinates": [ [ [ 590.518703491201791, 689.22843872368037 ], [ 602.155085786071936, 688.201699109977085 ], [ 617.556180000841437, 688.201699105818989 ], [ 630.903794983007515, 754.939774027718158 ], [ 603.524071937026179, 759.046732486689393 ], [ 600.101606559705601, 742.618898661199637 ], [ 596.679141176018106, 736.458460972742841 ], [ 590.518703491201791, 689.22843872368037 ] ] ] } },
{ "type": "Feature", "properties": { "feature_type": "building", "subtype": "no-damage", "uid": "cd10b569-c27c-4207-993d-283cb02488b2" }, "geometry": { "type": "Polygon", "coordinates": [ [ [ 615.955239964507086, 640.07017697889853 ], [ 633.405642239551071, 640.070176976819425 ], [ 635.908240420743823, 661.735154203009301 ], [ 635.031844765350911, 673.171157940172179 ], [ 616.613745710384592, 674.970981527699564 ], [ 615.955239963597478, 662.953251661500531 ], [ 615.955239964507086, 640.07017697889853 ] ] ] } },
{ "type": "Feature", "properties": { "feature_type": "building", "subtype": "no-damage", "uid": "b47ad72b-4a72-4b22-96c7-723dfa660a9d" }, "geometry": { "type": "Polygon", "coordinates": [ [ [ 540.471905505472478, 340.634482740914791 ], [ 554.593399028078011, 337.256179606644707 ], [ 553.780555968581098, 330.980270760214296 ], [ 570.977191159646964, 328.525525904314179 ], [ 570.569117181043907, 326.448372677209818 ], [ 583.311678276049633, 323.400010983473294 ], [ 588.674839293201444, 349.585914183965599 ], [ 544.95605540648171, 359.748502388343127 ], [ 540.471905505472478, 340.634482740914791 ] ] ] } },
{ "type": "Feature", "properties": { "feature_type": "building", "subtype": "no-damage", "uid": "f23d8271-67ca-46bf-a86b-c49945b38340" }, "geometry": { "type": "Polygon", "coordinates": [ [ [ 600.986627720963497, 326.013024489806924 ], [ 614.324687467530794, 324.273616876758695 ], [ 614.324687466231353, 322.52640509642498 ], [ 614.324687468310458, 320.779193307775074 ], [ 644.464090765856781, 315.100755002459209 ], [ 647.08490844077437, 339.561720001977221 ], [ 605.588628538187891, 348.297778928594425 ], [ 600.986627720963497, 326.013024489806924 ] ] ] } },
{ "type": "Feature", "properties": { "feature_type": "building", "subtype": "no-damage", "uid": "fe252aa3-e579-4a81-bca3-f0d20854ecb7" }, "geometry": { "type": "Polygon", "coordinates": [ [ [ 592.181499720559941, 69.066014235842331 ], [ 592.72168987519774, 82.417757614946808 ], [ 564.315871504759798, 83.057335377216077 ], [ 564.343125217186525, 69.210282015596277 ], [ 592.181499720559941, 69.066014235842331 ] ] ] } },
{ "type": "Feature", "properties": { "feature_type": "building", "subtype": "no-damage", "uid": "5362ac1e-6c68-4e45-8a07-3a7167cb85ab" }, "geometry": { "type": "Polygon", "coordinates": [ [ [ 589.719397643362299, 941.2854964818805 ], [ 615.568206879886361, 940.464899364056464 ], [ 616.388803995111175, 998.316996227819686 ], [ 587.257606285473344, 1001.599384705353032 ], [ 587.667904846334295, 988.880129363488322 ], [ 590.950293318278682, 988.0595322456644 ], [ 589.719397643362299, 941.2854964818805 ] ] ] } },
{ "type": "Feature", "properties": { "feature_type": "building", "subtype": "no-damage", "uid": "c22b8aaf-3d1c-429d-a33f-ced6a98e5521" }, "geometry": { "type": "Polygon", "coordinates": [ [ [ 327.178945907311686, 41.432312975441683 ], [ 269.563855024184022, 44.2052317900189 ], [ 268.763855025285523, 29.462607955564611 ], [ 326.898945906092479, 29.462607955564611 ], [ 327.178945907311686, 41.432312975441683 ] ] ] } },
{ "type": "Feature", "properties": { "feature_type": "building", "subtype": "no-damage", "uid": "9ddf612e-a2d1-49e4-8cdb-0897eb900400" }, "geometry": { "type": "Polygon", "coordinates": [ [ [ 326.562741724879913, 14.6274311185205 ], [ 326.888945903473314, 28.962607954027671 ], [ 268.733855023275396, 28.96260795818576 ], [ 267.958565336195988, 14.627431120599541 ], [ 325.946537543227578, 12.47071649027354 ], [ 326.562741724879913, 14.6274311185205 ] ] ] } },
{ "type": "Feature", "properties": { "feature_type": "building", "subtype": "no-damage", "uid": "d3159359-d348-4ed0-b805-457de5e163fe" }, "geometry": { "type": "Polygon", "coordinates": [ [ [ 258.744766563935002, 262.19666898483689 ], [ 288.196304625609173, 262.438075035711393 ], [ 288.651761526978589, 304.173966432627026 ], [ 257.234098380557214, 304.173966432627026 ], [ 258.261954464264988, 265.093541582857483 ], [ 258.744766563935002, 262.19666898483689 ] ] ] } },
{ "type": "Feature", "properties": { "feature_type": "building", "subtype": "no-damage", "uid": "8b9ebc87-d90b-45bc-a8bb-8485072cd02d" }, "geometry": { "type": "Polygon", "coordinates": [ [ [ 413.892519159713174, 245.02202304895269 ], [ 413.65111311403632, 261.920446527011222 ], [ 385.889417397048817, 263.127476775146874 ], [ 383.716762952952081, 267.955597767689881 ], [ 382.992544803057285, 267.955597767689881 ], [ 362.231624529204794, 267.714191716815321 ], [ 361.507406382428599, 239.95249600345619 ], [ 367.301151575869028, 238.986871806195012 ], [ 383.233950851203076, 239.469683907944102 ], [ 384.923793201866999, 243.814992800817009 ], [ 413.892519159713174, 245.02202304895269 ] ] ] } },
{ "type": "Feature", "properties": { "feature_type": "building", "subtype": "no-damage", "uid": "e7112489-d5eb-4f92-a6d9-e88436e84c73" }, "geometry": { "type": "Polygon", "coordinates": [ [ [ 460.791908824241773, 405.45529390580532 ], [ 460.981056781315885, 425.88327322460799 ], [ 422.962317490352575, 425.504977311758921 ], [ 422.584021578543116, 406.022737774039513 ], [ 454.360878296582712, 405.076997988797984 ], [ 454.17173034210731, 404.509554124721888 ], [ 460.413612911262817, 404.509554122642783 ], [ 460.791908824241773, 405.45529390580532 ] ] ] } },
{ "type": "Feature", "properties": { "feature_type": "building", "subtype": "no-damage", "uid": "23a40f48-b6ef-45ff-aefc-a19718140a57" }, "geometry": { "type": "Polygon", "coordinates": [ [ [ 398.940526993124422, 384.64901867415341 ], [ 415.585547178231991, 385.027314584923374 ], [ 415.585547178491879, 402.050630683925817 ], [ 397.99478721243122, 400.915742947457318 ], [ 398.940526993124422, 384.64901867415341 ] ] ] } },
{ "type": "Feature", "properties": { "feature_type": "building", "subtype": "no-damage", "uid": "7c261ae3-74c9-4f1e-994d-37b86e843879" }, "geometry": { "type": "Polygon", "coordinates": [ [ [ 420.69254201026979, 417.749911084837493 ], [ 420.50339405488478, 425.126681400988787 ], [ 407.073889132502188, 424.748385486060613 ], [ 407.073889130423083, 417.749911084837493 ], [ 420.69254201026979, 417.749911084837493 ] ] ] } },
{ "type": "Feature", "properties": { "feature_type": "building", "subtype": "no-damage", "uid": "5408167a-db32-47da-8044-57181937839a" }, "geometry": { "type": "Polygon", "coordinates": [ [ [ 666.027952538742397, 48.08616528291703 ], [ 666.217100492178247, 68.135848693028748 ], [ 659.975217925881452, 68.324996646334753 ], [ 659.786069968807169, 76.269210824483139 ], [ 637.466611080439066, 76.836654696875428 ], [ 636.520871295847769, 39.196211319527187 ], [ 650.139524177643466, 38.250471532206703 ], [ 660.353513837690912, 39.385359274912247 ], [ 660.731809753268635, 47.329573455139681 ], [ 666.027952538742397, 48.08616528291703 ] ] ] } },
{ "type": "Feature", "properties": { "feature_type": "building", "subtype": "no-damage", "uid": "c93362ec-88c6-4d8e-8982-c04a156ab70b" }, "geometry": { "type": "Polygon", "coordinates": [ [ [ 718.611084491155225, 51.869124417645693 ], [ 719.556824272498147, 74.188583302773282 ], [ 707.829650959105493, 73.621139430380978 ], [ 707.262207090351808, 67.946700731406551 ], [ 699.696288822846213, 66.433517080009949 ], [ 700.452880651273063, 50.545088717476041 ], [ 718.421936534600832, 50.355940762090988 ], [ 718.611084491155225, 51.869124417645693 ] ] ] } },
{ "type": "Feature", "properties": { "feature_type": "building", "subtype": "no-damage", "uid": "545a2b62-7bb9-4f7f-b6fa-bba588246571" }, "geometry": { "type": "Polygon", "coordinates": [ [ [ 568.283218820197476, 29.424132953103879 ], [ 600.44313384418524, 28.979525833977981 ], [ 600.591336218223319, 35.796835007768713 ], [ 607.408645391881691, 36.537846877829637 ], [ 607.853252512436825, 52.543703201705732 ], [ 596.145265017090537, 52.247298452849741 ], [ 595.552455521847605, 50.617072346616062 ], [ 563.096135753811723, 50.617072346616062 ], [ 563.392540500068776, 30.757954314639662 ], [ 567.54220695481456, 30.757954312560621 ], [ 568.283218820197476, 29.424132953103879 ] ] ] } },
{ "type": "Feature", "properties": { "feature_type": "building", "subtype": "no-damage", "uid": "5aff9994-4ec4-40bb-a822-d22218c02c4b" }, "geometry": { "type": "Polygon", "coordinates": [ [ [ 598.344367116908529, 227.134432214333714 ], [ 603.262213989922998, 254.371737972737407 ], [ 588.508673369060375, 256.830661409375523 ], [ 586.806341762149373, 249.83218701438949 ], [ 562.973699222775053, 254.182590017352311 ], [ 565.24347470259795, 263.450839895670413 ], [ 553.516301385826864, 266.666355153848713 ], [ 550.489934082255104, 254.560885928122389 ], [ 547.841862688673586, 254.371737974816511 ], [ 546.139531079553649, 248.319003360913797 ], [ 548.97675042605124, 246.9949676628232 ], [ 545.950383121829759, 235.07864639664021 ], [ 596.074591639294681, 225.242952648008895 ], [ 598.344367116908529, 227.134432214333714 ] ] ] } },
{ "type": "Feature", "properties": { "feature_type": "building", "subtype": "no-damage", "uid": "6bcccd02-a371-485a-9342-496674c8ab3a" }, "geometry": { "type": "Polygon", "coordinates": [ [ [ 601.8840797155475, 183.625292194886413 ], [ 604.343003151015182, 197.243945069930106 ], [ 582.780136094712134, 203.296679683832707 ], [ 579.564620830687772, 186.840807448906503 ], [ 600.93833993030637, 181.733812622324393 ], [ 601.8840797155475, 183.625292194886413 ] ] ] } },
{ "type": "Feature", "properties": { "feature_type": "building", "subtype": "no-damage", "uid": "28bb88c8-627f-4886-9640-9cd8759533dc" }, "geometry": { "type": "Polygon", "coordinates": [ [ [ 609.639145938308047, 179.08574122822219 ], [ 627.608201821635816, 175.1136341401876 ], [ 632.904344610357953, 188.353991104461187 ], [ 638.578783308810557, 205.944751075855891 ], [ 617.205064207112969, 212.375781600528597 ], [ 612.476365289483397, 198.946276680869886 ], [ 613.043809158756972, 190.623766585714208 ], [ 609.449997980714102, 180.220628970927805 ], [ 609.639145938308047, 179.08574122822219 ] ] ] } },
{ "type": "Feature", "properties": { "feature_type": "building", "subtype": "no-damage", "uid": "3bb5796c-f886-40bf-a3b9-322461773e09" }, "geometry": { "type": "Polygon", "coordinates": [ [ [ 990.709959625748525, 109.699958846578298 ], [ 1006.976683901516026, 109.699958842420202 ], [ 1007.544127768319981, 116.130989371251005 ], [ 1008.67901550920601, 116.320137328715106 ], [ 1009.813903250741987, 135.045785038657186 ], [ 1012.840270557302006, 135.23493299404231 ], [ 1013.029418515546013, 142.80085126142049 ], [ 1012.466906158196025, 155.19548079276899 ], [ 1010.84122003231505, 155.776082980890095 ], [ 1010.028376967751001, 157.285648671668014 ], [ 1007.00924559334203, 157.401769106381494 ], [ 1006.968986372751033, 166.815183160374886 ], [ 992.381183241319832, 166.952556821838613 ], [ 992.997387418943845, 157.550264457437208 ], [ 989.267067968255105, 157.459281057291093 ], [ 989.176084570187982, 149.270774948504794 ], [ 987.083466342009501, 149.179791546279688 ], [ 986.810516135074295, 139.535551014365097 ], [ 988.903134363512663, 139.535551016444089 ], [ 988.903134366501263, 135.350314561904895 ], [ 986.992482939394563, 135.441297959971905 ], [ 986.719532734798236, 127.343775253410797 ], [ 986.240167873331075, 125.796203619248004 ], [ 985.812440621457426, 116.671355545316302 ], [ 986.026304248953466, 114.675295029988305 ], [ 988.450092014075381, 112.821810261300101 ], [ 989.162970770533207, 110.184158867381797 ], [ 990.709959625748525, 109.699958846578298 ] ] ] } },
{ "type": "Feature", "properties": { "feature_type": "building", "subtype": "no-damage", "uid": "91c3f7c9-8638-46a1-ae74-f5ac7a7c4be3" }, "geometry": { "type": "Polygon", "coordinates": [ [ [ 984.028836871893532, 120.767534639482193 ], [ 984.392770475726365, 126.681455719667198 ], [ 979.934583817891621, 126.681455719667198 ], [ 979.843600414756907, 128.865057348122406 ], [ 970.836243696472593, 129.774891359978795 ], [ 970.836243697382201, 127.136372720397702 ], [ 970.108376486987709, 127.136372722476807 ], [ 970.199359885444665, 128.228173538783494 ], [ 966.832974042097021, 128.228173540862514 ], [ 966.4690404350157, 128.046206738491207 ], [ 966.378057037338522, 121.859335451630798 ], [ 970.199359886094271, 121.677368651338597 ], [ 971.018210500013311, 120.403601034739694 ], [ 974.657546547177503, 120.312617632514502 ], [ 975.203446954810943, 120.676551235177996 ], [ 984.028836871893532, 120.767534639482193 ] ] ] } },
{ "type": "Feature", "properties": { "feature_type": "building", "subtype": "no-damage", "uid": "303b680f-ac00-40b4-9a69-7884d86ff47c" }, "geometry": { "type": "Polygon", "coordinates": [ [ [ 709.063729124319821, 297.636805059595815 ], [ 712.315101373482435, 304.720151745524618 ], [ 712.779583127669298, 313.777545865243496 ], [ 700.122455442046316, 317.028918116226407 ], [ 703.02546637784269, 331.660093237333399 ], [ 676.666127071175652, 338.859560360054672 ], [ 671.789068697301786, 322.834939991199576 ], [ 670.163382570121712, 322.718819554406991 ], [ 668.537696445150573, 315.983834178856 ], [ 667.840973820237195, 315.054870680357226 ], [ 666.679769446594378, 308.552126180470395 ], [ 675.156561383256985, 305.881356121766601 ], [ 675.737163571637666, 303.791188244946682 ], [ 682.472148942378453, 301.468779492462602 ], [ 683.168871570020656, 299.843093371129214 ], [ 692.690747439895176, 298.681888994887117 ], [ 694.200313128983339, 301.004297743213215 ], [ 697.567805816367809, 300.772056869627988 ], [ 697.683926254849553, 299.262491180929089 ], [ 707.902524753795547, 297.288443745059908 ], [ 709.063729124319821, 297.636805059595815 ] ] ] } },
{ "type": "Feature", "properties": { "feature_type": "building", "subtype": "no-damage", "uid": "e6a746bb-9dd4-4678-b588-1f21e2749d6d" }, "geometry": { "type": "Polygon", "coordinates": [ [ [ 700.435539912865238, 346.252545662982413 ], [ 705.893200472910735, 365.296297411314413 ], [ 708.912331848748181, 378.766268154100203 ], [ 686.036605664568924, 385.269012651907985 ], [ 678.024295478714862, 351.710206221340684 ], [ 684.527039975350817, 350.316760973592523 ], [ 698.345372034486786, 346.83314784694528 ], [ 700.435539912865238, 346.252545662982413 ] ] ] } },
{ "type": "Feature", "properties": { "feature_type": "building", "subtype": "no-damage", "uid": "b70754f4-d82b-4fc5-b998-f5d48b1c8562" }, "geometry": { "type": "Polygon", "coordinates": [ [ [ 554.129084685431394, 434.985495284008607 ], [ 579.027083413126775, 435.281900030785607 ], [ 579.175285789243958, 463.292148600167479 ], [ 542.272894816047028, 463.143946227818617 ], [ 541.828287694452456, 451.287756356740715 ], [ 548.645596871489261, 451.139553984391682 ], [ 548.942001620345081, 444.470447180870906 ], [ 553.091668071972435, 443.433030570270091 ], [ 553.239870446270402, 434.985495284008607 ], [ 554.129084685431394, 434.985495284008607 ] ] ] } },
{ "type": "Feature", "properties": { "feature_type": "building", "subtype": "no-damage", "uid": "e91a7ebc-9279-4367-9681-76c09c0246c9" }, "geometry": { "type": "Polygon", "coordinates": [ [ [ 694.076989232347501, 447.009611381219372 ], [ 697.096120608704609, 461.408545628741081 ], [ 674.917117047359739, 467.562928816171109 ], [ 671.549624359975269, 452.002790190328312 ], [ 694.076989232347501, 447.009611381219372 ] ] ] } },
{ "type": "Feature", "properties": { "feature_type": "building", "subtype": "no-damage", "uid": "bc3dd3fc-31c7-488c-9071-d50de0b522a5" }, "geometry": { "type": "Polygon", "coordinates": [ [ [ 710.362786611896695, 431.057216964333975 ], [ 710.955596105320524, 441.431383097369007 ], [ 697.617382499842847, 444.099025820440488 ], [ 695.838954018532149, 432.835645442916586 ], [ 710.362786611896695, 431.057216964333975 ] ] ] } },
{ "type": "Feature", "properties": { "feature_type": "building", "subtype": "no-damage", "uid": "856cb78f-1e7b-4a3a-a222-04f6afb99e2e" }, "geometry": { "type": "Polygon", "coordinates": [ [ [ 773.861498231040628, 503.792704438237479 ], [ 785.036710868378464, 503.698910074555101 ], [ 784.592103744574842, 518.815552158100331 ], [ 784.147496628177919, 518.963754530449251 ], [ 773.625128117210238, 518.667349783672307 ], [ 773.893399750903995, 506.306518163250928 ], [ 773.861498231040628, 503.792704438237479 ] ] ] } },
{ "type": "Feature", "properties": { "feature_type": "building", "subtype": "no-damage", "uid": "2f6f192a-1fd3-4b32-9159-b1826f9781e6" }, "geometry": { "type": "Polygon", "coordinates": [ [ [ 865.773807973578982, 479.48422225450679 ], [ 873.776736132655401, 479.039615135380984 ], [ 875.406962239018526, 487.04254329835851 ], [ 866.811224586778167, 487.635352789833405 ], [ 865.032796104557747, 481.114448360740482 ], [ 865.773807973578982, 479.48422225450679 ] ] ] } },
{ "type": "Feature", "properties": { "feature_type": "building", "subtype": "no-damage", "uid": "a6f32b1e-e26f-4029-9691-cf410b16a618" }, "geometry": { "type": "Polygon", "coordinates": [ [ [ 927.087460533718513, 442.054500144560109 ], [ 928.978940101861781, 459.645260113875679 ], [ 925.952572794781645, 460.780147858660314 ], [ 926.330868708020489, 477.236020083191192 ], [ 905.902889387925597, 477.992611910968606 ], [ 904.768001651067834, 471.183285471367697 ], [ 901.363338427630197, 470.237545692363426 ], [ 901.174190473804515, 460.401851941652978 ], [ 897.769527254265086, 458.888668288177428 ], [ 898.904414993851674, 442.054500144560109 ], [ 927.087460533718513, 442.054500144560109 ] ] ] } },
{ "type": "Feature", "properties": { "feature_type": "building", "subtype": "no-damage", "uid": "f290526c-2d6b-494b-a9b7-823f16273001" }, "geometry": { "type": "Polygon", "coordinates": [ [ [ 612.913752049656637, 617.964318076554378 ], [ 613.879376243928846, 674.211927647580183 ], [ 600.742289947302652, 674.680873991481121 ], [ 652.644590630894527, 673.715249794219972 ], [ 653.127402728355491, 684.578522029520627 ], [ 590.361829812455426, 686.02695833061 ], [ 589.154799564580003, 676.853528441036133 ], [ 584.186432138136979, 674.211927649659287 ], [ 582.979401888182565, 619.654160422281166 ], [ 589.255959177394629, 616.998693875135132 ], [ 608.809849204671195, 618.205724119112801 ], [ 612.913752049656637, 617.964318076554378 ] ] ] } },
{ "type": "Feature", "properties": { "feature_type": "building", "subtype": "no-damage", "uid": "edffaeb5-4d7a-45bf-9a5a-3197c64620b4" }, "geometry": { "type": "Polygon", "coordinates": [ [ [ 967.021976288289466, 705.978807268865808 ], [ 967.203943094169063, 712.893545761053133 ], [ 959.561337390160361, 712.893545761053133 ], [ 959.379370587009475, 705.705857066348358 ], [ 967.021976288289466, 705.978807268865808 ] ] ] } },
{ "type": "Feature", "properties": { "feature_type": "building", "subtype": "no-damage", "uid": "17661b7e-8a1d-449b-8dd7-77701dfa04ff" }, "geometry": { "type": "Polygon", "coordinates": [ [ [ 425.235855201418985, 97.525804567701869 ], [ 424.449405166766496, 117.973505459578703 ], [ 404.788154308250228, 116.793830410003395 ], [ 405.967829358864492, 97.525804567701869 ], [ 425.235855201418985, 97.525804567701869 ] ] ] } },
{ "type": "Feature", "properties": { "feature_type": "building", "subtype": "no-damage", "uid": "764bddd1-8a06-4525-a8e5-050dacfb677d" }, "geometry": { "type": "Polygon", "coordinates": [ [ [ 317.098975471847609, 286.667037833674897 ], [ 319.065100560882684, 301.609588487270173 ], [ 304.122549905083815, 300.823138453527008 ], [ 304.515774924164191, 286.273812817842781 ], [ 317.098975471847609, 286.667037833674897 ] ] ] } },
{ "type": "Feature", "properties": { "feature_type": "building", "subtype": "no-damage", "uid": "5d06e3f2-5661-47fd-bf14-7e0131cdafd9" }, "geometry": { "type": "Polygon", "coordinates": [ [ [ 59.929814233773463, 686.970105331221248 ], [ 90.208140553276877, 685.397205265813909 ], [ 93.74716571200689, 711.74328141804142 ], [ 65.434964474002115, 712.922956469695805 ], [ 63.862064403137808, 694.834605676969545 ], [ 60.716264265957108, 694.834605676969545 ], [ 59.929814233773463, 686.970105331221248 ] ] ] } },
{ "type": "Feature", "properties": { "feature_type": "building", "subtype": "no-damage", "uid": "580abf46-3c77-4c2e-8418-9a657f4e42ee" }, "geometry": { "type": "Polygon", "coordinates": [ [ [ 737.379520886725459, 633.989270797028212 ], [ 736.593070852982464, 649.718271488524806 ], [ 730.694695593413485, 650.111496500198768 ], [ 729.908245560840101, 672.132097463720129 ], [ 674.856743154525361, 675.277897602850999 ], [ 673.283843081062287, 662.694697050485388 ], [ 681.148343427457462, 662.30147203465333 ], [ 681.148343426937686, 646.179246329403668 ], [ 723.223420268437735, 643.426671208183848 ], [ 722.436970230016982, 635.168945850761588 ], [ 737.379520886725459, 633.989270797028212 ] ] ] } },
{ "type": "Feature", "properties": { "feature_type": "building", "subtype": "no-damage", "uid": "999bade0-de12-469c-972b-dc565ff7b9eb" }, "geometry": { "type": "Polygon", "coordinates": [ [ [ 752.715296557836496, 660.728571965087781 ], [ 751.928846519805575, 674.491447564949681 ], [ 736.593070850253753, 675.277897600772008 ], [ 735.806620817160592, 661.515022000910108 ], [ 752.715296557836496, 660.728571965087781 ] ] ] } },
{ "type": "Feature", "properties": { "feature_type": "building", "subtype": "no-damage", "uid": "c22b2edd-73a0-4a96-90fd-9ae445f8cfc8" }, "geometry": { "type": "Polygon", "coordinates": [ [ [ 684.288020085260314, 421.058469577652886 ], [ 687.499180876201081, 432.832725818210122 ], [ 673.584150775324133, 435.401654457616587 ], [ 671.015222137737737, 423.841475595880183 ], [ 684.288020085260314, 421.058469577652886 ] ] ] } },
{ "type": "Feature", "properties": { "feature_type": "building", "subtype": "no-damage", "uid": "036c6817-015c-4fec-b68e-ee69949cd3c9" }, "geometry": { "type": "Polygon", "coordinates": [ [ [ 686.642871332071536, 434.973499681263604 ], [ 687.285103489324115, 446.319601149625782 ], [ 682.147246220518355, 447.818142855426515 ], [ 674.868615089699347, 447.389988083231572 ], [ 673.584150774804357, 437.756505705727989 ], [ 686.642871332071536, 434.973499681263604 ] ] ] } },
{ "type": "Feature", "properties": { "feature_type": "building", "subtype": "no-damage", "uid": "ff923cc3-e0ed-4ff9-9dbd-ed44f06ececf" }, "geometry": { "type": "Polygon", "coordinates": [ [ [ 919.493341910259915, 360.40532525942001 ], [ 913.297753203965726, 359.661854611509511 ], [ 914.041223850316669, 331.657793666341774 ], [ 920.484636103532011, 331.657793666341774 ], [ 919.493341910259915, 360.40532525942001 ] ] ] } },
{ "type": "Feature", "properties": { "feature_type": "building", "subtype": "no-damage", "uid": "53f22d38-11d7-4692-a883-97a76552b40f" }, "geometry": { "type": "Polygon", "coordinates": [ [ [ 914.536870945978194, 316.540557228129273 ], [ 904.871752565765291, 319.762263351749482 ], [ 902.145693534949032, 312.823204007288098 ], [ 912.306459012252844, 309.601497877430688 ], [ 914.536870945978194, 316.540557228129273 ] ] ] } },
{ "type": "Feature", "properties": { "feature_type": "building", "subtype": "no-damage", "uid": "acdfa56c-a5ca-448a-b1d3-69654b3928ea" }, "geometry": { "type": "Polygon", "coordinates": [ [ [ 914.536870944938642, 303.158085623953127 ], [ 919.741165459260174, 303.405909174642716 ], [ 919.988989007090936, 319.762263355907578 ], [ 916.023812236990921, 320.010086900360022 ], [ 914.536870944938642, 303.158085623953127 ] ] ] } },
{ "type": "Feature", "properties": { "feature_type": "building", "subtype": "no-damage", "uid": "37af9caa-028b-4a3d-97ce-6de1c6b97008" }, "geometry": { "type": "Polygon", "coordinates": [ [ [ 853.482056102835941, 135.456490851901208 ], [ 855.333735221450866, 141.242988089047401 ], [ 828.484388043051013, 148.186784771543813 ], [ 826.864168818210032, 142.631747423883496 ], [ 853.482056102835941, 135.456490851901208 ] ] ] } },
{ "type": "Feature", "properties": { "feature_type": "building", "subtype": "no-damage", "uid": "c597bbf7-d357-4b84-834f-c08cb02b60c2" }, "geometry": { "type": "Polygon", "coordinates": [ [ [ 561.449835230731082, 564.584780997293024 ], [ 574.621941483640057, 564.926913630678087 ], [ 578.556466727544716, 571.256367281771304 ], [ 578.043267785393709, 574.84875989697025 ], [ 561.62090154677378, 574.164494636437325 ], [ 561.449835230731082, 564.584780997293024 ] ] ] } },
{ "type": "Feature", "properties": { "feature_type": "building", "subtype": "no-damage", "uid": "2957a412-de63-47fa-9a00-2f8cab740feb" }, "geometry": { "type": "Polygon", "coordinates": [ [ [ 593.097103501908919, 519.423273845782319 ], [ 606.611342384564523, 518.910074895704838 ], [ 606.611342386643514, 531.226849576980612 ], [ 594.636700339016897, 531.055783264446177 ], [ 593.097103501908919, 519.423273845782319 ] ] ] } }
]
}
