{
"type": "FeatureCollection",
"name": "santa-rosa-wildfire_00000064_post_disaster",
"features": [
{ "type": "Feature", "properties": { "feature_type": "building", "subtype": "no-damage", "uid": "7e4e586d-f99f-420c-b056-41b5f397fd40" }, "geometry": { "type": "Polygon", "coordinates": [ [ [ 636.100914484508166, 140.77205462517631 ], [ 636.827625340801092, 161.588093819225008 ], [ 574.01107399634725, 161.568173171568787 ], [ 575.683524632943545, 141.498765485627501 ], [ 636.100914484508166, 140.77205462517631 ] ] ] } },
{ "type": "Feature", "properties": { "feature_type": "building", "subtype": "no-damage", "uid": "59c50f6d-64b1-413c-a59f-90829b6744cd" }, "geometry": { "type": "Polygon", "coordinates": [ [ [ 585.361129801319976, 224.521729840908307 ], [ 587.506402745795754, 244.097345449300605 ], [ 528.511396798503711, 244.901822802585912 ], [ 529.315874147500722, 223.717252485543895 ], [ 585.361129801319976, 224.521729840908307 ] ] ] } },
{ "type": "Feature", "properties": { "feature_type": "building", "subtype": "no-damage", "uid": "eec06d36-c60b-4309-b94f-0d04b40cbe47" }, "geometry": { "type": "Polygon", "coordinates": [ [ [ 714.4981755300754, 218.153340394552487 ], [ 716.283623934763341, 234.062759571216503 ], [ 702.455003259901446, 235.3797710632318 ], [ 703.022447130344517, 242.893070993143198 ], [ 685.169227420059997, 242.294081397351704 ], [ 684.346095236251358, 237.355288303333907 ], [ 664.782081548140354, 237.021850443021691 ], [ 666.025117409972268, 218.207191930790088 ], [ 714.4981755300754, 218.153340394552487 ] ] ] } },
{ "type": "Feature", "properties": { "feature_type": "building", "subtype": "no-damage", "uid": "46c30c7d-6e06-481c-b0f5-de3b9a9c00bd" }, "geometry": { "type": "Polygon", "coordinates": [ [ [ 749.664754332081543, 199.485245455445693 ], [ 754.768173865068434, 199.649871897665008 ], [ 756.561567355080456, 215.411990967039202 ], [ 729.531286031993204, 215.954913322107586 ], [ 729.29309503494369, 199.222532941851995 ], [ 749.664754332081543, 199.485245455445693 ] ] ] } },
{ "type": "Feature", "properties": { "feature_type": "building", "subtype": "no-damage", "uid": "d3840a75-987b-4685-928c-28a9add853d6" }, "geometry": { "type": "Polygon", "coordinates": [ [ [ 793.126133588712037, 217.429527046108888 ], [ 795.595530134420756, 240.147975292728688 ], [ 736.988518719879494, 239.324843108659792 ], [ 737.153145154951972, 216.771021298022191 ], [ 764.418290644258036, 217.495910233004309 ], [ 764.229142689522746, 211.254027659558488 ], [ 776.14546395505181, 211.254027657479497 ], [ 776.523759870369645, 217.306762275540194 ], [ 793.126133588712037, 217.429527046108888 ] ] ] } },
{ "type": "Feature", "properties": { "feature_type": "building", "subtype": "no-damage", "uid": "cfb76df2-5f6e-4115-8a0a-e830f80beee9" }, "geometry": { "type": "Polygon", "coordinates": [ [ [ 823.978734968222398, 218.922500243761903 ], [ 843.729045421823116, 220.18315835639811 ], [ 844.359374478920699, 216.401184014331307 ], [ 855.705297508625563, 215.980964640680497 ], [ 856.12551688253609, 219.132609927468707 ], [ 861.924741161246288, 219.46898238159531 ], [ 862.597486075606298, 240.206956081116203 ], [ 839.968032809638657, 239.450364251259799 ], [ 840.577400139064139, 236.781823527245791 ], [ 823.978734970171558, 236.9919332130317 ], [ 823.978734968222398, 218.922500243761903 ] ] ] } },
{ "type": "Feature", "properties": { "feature_type": "building", "subtype": "no-damage", "uid": "470032e2-1269-484c-88c7-0f8f9d038f21" }, "geometry": { "type": "Polygon", "coordinates": [ [ [ 529.388387807024174, 289.073765758168804 ], [ 584.629166108337927, 285.855856340869195 ], [ 586.238120816727246, 309.99017696022122 ], [ 530.461024279586923, 312.671768137146103 ], [ 529.388387810532549, 298.191175769693018 ], [ 529.388387807024174, 289.073765758168804 ] ] ] } },
{ "type": "Feature", "properties": { "feature_type": "building", "subtype": "no-damage", "uid": "3742c6bc-800b-4ead-b4b7-1308278a28e2" }, "geometry": { "type": "Polygon", "coordinates": [ [ [ 696.407792518529845, 291.411347088255297 ], [ 697.232851157140317, 314.583271188898379 ], [ 643.500144680829521, 314.583271188898379 ], [ 643.157898143318334, 294.390725442338578 ], [ 656.847759669362631, 294.390725442338578 ], [ 656.163266592910986, 289.941520447545372 ], [ 672.591100419044551, 289.599273907565191 ], [ 672.591100419434383, 287.203548146415585 ], [ 677.382551951217465, 286.861301606435518 ], [ 679.13350971416537, 291.029375477690792 ], [ 696.407792518529845, 291.411347088255297 ] ] ] } },
{ "type": "Feature", "properties": { "feature_type": "building", "subtype": "no-damage", "uid": "ddef0ea7-f5d5-4c61-9dd1-f9efbb7f6031" }, "geometry": { "type": "Polygon", "coordinates": [ [ [ 808.391720753522804, 289.5701952033412 ], [ 810.650868725462487, 314.178603558274688 ], [ 727.757313501193835, 312.945393136653479 ], [ 727.415066963162985, 288.303642395300415 ], [ 808.391720753522804, 289.5701952033412 ] ] ] } },
{ "type": "Feature", "properties": { "feature_type": "building", "subtype": "no-damage", "uid": "2bbc94ef-6004-4e5c-8dc5-c6aebf091f5d" }, "geometry": { "type": "Polygon", "coordinates": [ [ [ 822.731128844000523, 293.814533513086417 ], [ 836.933268164490642, 294.370037469894214 ], [ 836.417311680976695, 290.242385603860725 ], [ 842.608789474697232, 290.62935296708099 ], [ 843.124745958600897, 294.499026590967617 ], [ 848.929256395598145, 294.241048346741707 ], [ 848.671278151892125, 292.693178900097678 ], [ 853.830842979494378, 292.435200653792776 ], [ 854.475788587070269, 295.143972192176591 ], [ 861.918758480491874, 294.190924494683884 ], [ 862.773973796605901, 309.181483279097279 ], [ 825.811347683550025, 309.900120804833023 ], [ 822.731128844000523, 293.814533513086417 ] ] ] } },
{ "type": "Feature", "properties": { "feature_type": "building", "subtype": "no-damage", "uid": "3528d6c8-a748-402e-8754-035693ed8cac" }, "geometry": { "type": "Polygon", "coordinates": [ [ [ 905.46872488091276, 292.0649353035123 ], [ 906.939492682582909, 309.293929527559612 ], [ 890.971156570917742, 309.293929527559612 ], [ 890.550937195187998, 291.434606241996619 ], [ 905.46872488091276, 292.0649353035123 ] ] ] } },
{ "type": "Feature", "properties": { "feature_type": "building", "subtype": "no-damage", "uid": "74e7afab-86c7-46e7-afb0-3d620f4e4c47" }, "geometry": { "type": "Polygon", "coordinates": [ [ [ 934.016372813818521, 143.103812481626193 ], [ 940.739882758184763, 138.481399396415895 ], [ 952.295915472246065, 152.768858023618805 ], [ 944.942076470392522, 158.862038907251389 ], [ 934.016372813818521, 143.103812481626193 ] ] ] } },
{ "type": "Feature", "properties": { "feature_type": "building", "subtype": "no-damage", "uid": "e8bc3f3d-79fc-48f6-b9ad-d6468a2098f0" }, "geometry": { "type": "Polygon", "coordinates": [ [ [ 794.102878873422242, 522.278505462542171 ], [ 761.347943766620119, 521.905086742855929 ], [ 760.03093227382567, 510.875115494628915 ], [ 761.51257020338187, 502.808420100317676 ], [ 760.195558712926299, 492.272328162116082 ], [ 761.347943766880007, 480.419224727741209 ], [ 760.524811588139073, 470.870891407511579 ], [ 761.512570207410022, 458.52390866519022 ], [ 760.360185147349171, 446.835431664718328 ], [ 761.677196642352669, 438.76873627664429 ], [ 759.866305837323807, 426.915632842269417 ], [ 761.51257020766991, 417.696552394004073 ], [ 760.19555871422574, 407.489713325687774 ], [ 760.074803330955092, 396.872481926354112 ], [ 792.399245019481782, 396.828903994503889 ], [ 794.102878873422242, 522.278505462542171 ] ] ] } },
{ "type": "Feature", "properties": { "feature_type": "building", "subtype": "no-damage", "uid": "395b50ac-3239-47a2-b0a7-a12872741dac" }, "geometry": { "type": "Polygon", "coordinates": [ [ [ 801.832462738069239, 535.261123719502393 ], [ 803.54369542445545, 571.197010215749629 ], [ 768.976795081774071, 572.565996367354046 ], [ 767.265562390969762, 534.234384101641012 ], [ 777.875205073566462, 532.523151414214567 ], [ 784.37788929316514, 535.945616795304545 ], [ 789.853833905557963, 532.523151416293558 ], [ 798.067750816220723, 533.89213756373988 ], [ 801.832462738069239, 535.261123719502393 ] ] ] } },
{ "type": "Feature", "properties": { "feature_type": "building", "subtype": "no-damage", "uid": "d794beaa-ee7e-4dce-b011-94420a7e4e19" }, "geometry": { "type": "Polygon", "coordinates": [ [ [ 685.984634024139837, 584.438083963281997 ], [ 704.05406699418279, 584.648193649067821 ], [ 703.423737939294256, 595.784006989482577 ], [ 700.902421707265717, 601.667078187329253 ], [ 686.404853398959972, 601.456968501543315 ], [ 685.984634024139837, 584.438083963281997 ] ] ] } },
{ "type": "Feature", "properties": { "feature_type": "building", "subtype": "no-damage", "uid": "0fde393c-5fe5-401c-b91f-6668019b6daa" }, "geometry": { "type": "Polygon", "coordinates": [ [ [ 720.314843936430975, 753.748760230248877 ], [ 731.951226228832297, 753.064267154446611 ], [ 731.266733152900429, 748.957308699633472 ], [ 743.245361986061312, 749.299555239613596 ], [ 744.272101600413976, 760.935937530329966 ], [ 749.063553130377841, 760.251444450369604 ], [ 762.068921578151389, 760.935937530329966 ], [ 762.068921580360325, 764.700649447241972 ], [ 767.544866187425555, 764.358402911419944 ], [ 770.625085031003209, 792.08037249596191 ], [ 753.512758125559344, 793.449358645487223 ], [ 753.170511590127262, 789.684646726496112 ], [ 749.748046207089374, 789.342400190674084 ], [ 748.721306594815815, 781.128483274810719 ], [ 708.336215102750202, 782.155222890592995 ], [ 706.624982411166343, 761.620430606132118 ], [ 720.657090470953449, 760.935937528250861 ], [ 720.314843936430975, 753.748760230248877 ] ] ] } },
{ "type": "Feature", "properties": { "feature_type": "building", "subtype": "no-damage", "uid": "83b82b2b-84fe-458e-b780-85d64e074dc7" }, "geometry": { "type": "Polygon", "coordinates": [ [ [ 815.759259293755463, 794.541673108020973 ], [ 830.979975541822, 793.251781905602797 ], [ 832.398855871810042, 802.410009474788581 ], [ 816.662183143867878, 803.054955082234756 ], [ 815.759259293755463, 794.541673108020973 ] ] ] } },
{ "type": "Feature", "properties": { "feature_type": "building", "subtype": "no-damage", "uid": "ccbd5629-13db-43e1-9106-4b35aa5680fe" }, "geometry": { "type": "Polygon", "coordinates": [ [ [ 907.194403580006451, 845.266902608763871 ], [ 928.415481834367597, 843.16580574882596 ], [ 930.096359318445138, 866.698090546449748 ], [ 910.135939179708316, 868.589077720601722 ], [ 907.194403580006451, 845.266902608763871 ] ] ] } },
{ "type": "Feature", "properties": { "feature_type": "building", "subtype": "no-damage", "uid": "459c4c04-0ba3-42de-84ea-904b709e302e" }, "geometry": { "type": "Polygon", "coordinates": [ [ [ 910.766268238625003, 877.41368451945084 ], [ 914.758352266606266, 895.483117486641618 ], [ 871.895976386182269, 899.054982140843549 ], [ 870.635318267569119, 872.791271432161352 ], [ 890.17551904019183, 872.160942378961749 ], [ 891.436177152177947, 878.044013576808425 ], [ 910.766268238625003, 877.41368451945084 ] ] ] } },
{ "type": "Feature", "properties": { "feature_type": "building", "subtype": "no-damage", "uid": "95d71470-52f2-400a-b0d0-01e039eccf4f" }, "geometry": { "type": "Polygon", "coordinates": [ [ [ 868.114002041258004, 909.770576115923518 ], [ 872.90415018123872, 947.081823986255586 ], [ 851.164860153514041, 946.7181041195837 ], [ 847.523252841525505, 905.568382400205905 ], [ 861.600601782417698, 904.307724285490622 ], [ 868.114002041258004, 909.770576115923518 ] ] ] } },
{ "type": "Feature", "properties": { "feature_type": "building", "subtype": "no-damage", "uid": "c75fad6a-3cbd-480b-953d-a5492f80dbf5" }, "geometry": { "type": "Polygon", "coordinates": [ [ [ 976.006342545590996, 888.31177237790348 ], [ 985.67138808719028, 887.891553004252728 ], [ 986.091607461750527, 883.479249608986265 ], [ 998.277969229401037, 883.269139921121337 ], [ 1000.589175771746, 885.370236778980143 ], [ 1010.67444068621603, 884.52979803583662 ], [ 1011.724989112806043, 900.498134149326688 ], [ 1001.219504831311951, 901.548682576177043 ], [ 1001.429614514888954, 910.793508748676913 ], [ 991.554459288153453, 911.633947489741331 ], [ 990.503910860003998, 907.431753778181815 ], [ 977.267000659526275, 908.272192517167241 ], [ 976.006342545590996, 888.31177237790348 ] ] ] } },
{ "type": "Feature", "properties": { "feature_type": "building", "subtype": "no-damage", "uid": "2fa9fa8d-5ab2-4b11-8782-df8eac19bbe2" }, "geometry": { "type": "Polygon", "coordinates": [ [ [ 274.933192374138798, 932.548360051847453 ], [ 278.697904296117201, 933.575099665550738 ], [ 277.671164680724985, 954.452138492070844 ], [ 262.61231700437628, 955.821124639517166 ], [ 263.296810081607475, 960.270329634310428 ], [ 254.398400092933798, 961.297069248013713 ], [ 252.002674323858713, 934.944085821313251 ], [ 274.933192374138798, 932.548360051847453 ] ] ] } },
{ "type": "Feature", "properties": { "feature_type": "building", "subtype": "no-damage", "uid": "d41754ac-b9a3-4797-922b-0ff92bb21401" }, "geometry": { "type": "Polygon", "coordinates": [ [ [ 255.987887828736007, 1022.032896377749012 ], [ 255.4719313434029, 997.91193079523191 ], [ 256.632833430204585, 997.782941676237556 ], [ 256.374855190656717, 993.268322451141898 ], [ 262.179365623106094, 993.139333330068439 ], [ 262.179365625185085, 999.588789365028447 ], [ 276.239179784111116, 999.588789367107438 ], [ 277.013114507562818, 1021.25896165130905 ], [ 255.987887828736007, 1022.032896377749012 ] ] ] } },
{ "type": "Feature", "properties": { "feature_type": "building", "subtype": "no-damage", "uid": "7782e1a3-2610-462d-8166-dc1eb511aaab" }, "geometry": { "type": "Polygon", "coordinates": [ [ [ 310.545580221469891, 1020.557023809985026 ], [ 310.416591102735424, 1011.140817998653006 ], [ 321.122688124408626, 1011.527785359794052 ], [ 321.638644604933916, 1020.686012935217036 ], [ 310.545580221469891, 1020.557023809985026 ] ] ] } },
{ "type": "Feature", "properties": { "feature_type": "building", "subtype": "no-damage", "uid": "517b8df3-008e-4dc8-8ea8-98395831aec8" }, "geometry": { "type": "Polygon", "coordinates": [ [ [ 355.691772482675617, 1001.337644822021048 ], [ 360.980326436029088, 1000.04775361544398 ], [ 360.722348190893683, 995.146167027128513 ], [ 373.234292903176311, 995.146167025049408 ], [ 373.750249387729696, 1001.079666581953006 ], [ 375.298118839310916, 1002.111579542224035 ], [ 374.911151476090708, 1020.428034695148995 ], [ 355.949750724692478, 1019.654099966629019 ], [ 355.691772482675617, 1001.337644822021048 ] ] ] } },
{ "type": "Feature", "properties": { "feature_type": "building", "subtype": "no-damage", "uid": "fd00a4fe-4a4d-4612-8c58-ef051506405a" }, "geometry": { "type": "Polygon", "coordinates": [ [ [ 392.899176462334822, 988.506065022019357 ], [ 407.216968861588327, 988.119097658799092 ], [ 408.506860072841903, 1010.950172026423957 ], [ 393.157154701752688, 1010.821182909509048 ], [ 392.899176462334822, 988.506065022019357 ] ] ] } },
{ "type": "Feature", "properties": { "feature_type": "building", "subtype": "no-damage", "uid": "fed72899-2189-44e6-a327-19d5ad4d721a" }, "geometry": { "type": "Polygon", "coordinates": [ [ [ 372.179612216661212, 943.622505000340993 ], [ 371.911453096733794, 948.181210002984471 ], [ 379.419908402204328, 947.376732651778184 ], [ 380.224385754189882, 960.516529429729303 ], [ 374.593044276516423, 963.734438847028855 ], [ 374.861203395924122, 969.097621209194926 ], [ 392.827864299298426, 967.756825613455817 ], [ 393.900500770561678, 985.723486517356378 ], [ 390.95075047306068, 986.52796387064177 ], [ 390.682591355862087, 994.304578290584914 ], [ 357.967178964202901, 994.036419171437046 ], [ 356.090065137445379, 945.231459711069874 ], [ 372.179612216661212, 943.622505000340993 ] ] ] } },
{ "type": "Feature", "properties": { "feature_type": "building", "subtype": "no-damage", "uid": "d4f1cc6b-dd42-4838-b180-f73bde2f3422" }, "geometry": { "type": "Polygon", "coordinates": [ [ [ 313.899676008284928, 673.377401882943445 ], [ 406.89227799509581, 673.572590559459854 ], [ 408.267749729057982, 698.795672970985834 ], [ 313.332747278770682, 700.756710738526181 ], [ 313.899676008284928, 673.377401882943445 ] ] ] } },
{ "type": "Feature", "properties": { "feature_type": "building", "subtype": "no-damage", "uid": "927ad14f-1173-4f7d-a279-b148dcc358ca" }, "geometry": { "type": "Polygon", "coordinates": [ [ [ 424.652435702964112, 673.814204826467517 ], [ 454.791839004148812, 672.066993046133803 ], [ 459.04837998643842, 697.2900754535018 ], [ 423.583641133942308, 698.098618453921972 ], [ 424.652435702964112, 673.814204826467517 ] ] ] } },
{ "type": "Feature", "properties": { "feature_type": "building", "subtype": "no-damage", "uid": "4f383772-fcd6-4098-a979-8d801cf31960" }, "geometry": { "type": "Polygon", "coordinates": [ [ [ 250.381793540722299, 675.528047394492887 ], [ 280.415614751429416, 674.187251804990865 ], [ 282.292728580005928, 698.857890658480414 ], [ 249.351069520039914, 699.532018477373754 ], [ 250.381793540722299, 675.528047394492887 ] ] ] } },
{ "type": "Feature", "properties": { "feature_type": "building", "subtype": "no-damage", "uid": "384ef05f-d7ed-45f5-8fb5-adfd38f79a1b" }, "geometry": { "type": "Polygon", "coordinates": [ [ [ 458.348028988020587, 583.045008591795408 ], [ 461.109009229554204, 609.990453357626961 ], [ 424.465621723610013, 610.355707832294684 ], [ 424.465621721401021, 584.071748207577684 ], [ 458.348028988020587, 583.045008591795408 ] ] ] } },
{ "type": "Feature", "properties": { "feature_type": "building", "subtype": "no-damage", "uid": "c05f0e3c-1783-4c07-a8c6-c2f66b6ee372" }, "geometry": { "type": "Polygon", "coordinates": [ [ [ 413.652063334035972, 626.107996378717871 ], [ 423.317108874465873, 625.057447953946507 ], [ 424.577766987101711, 638.084248466434246 ], [ 414.702611759976492, 639.555016269014459 ], [ 413.862173018782414, 629.469751355450057 ], [ 413.652063334035972, 626.107996378717871 ] ] ] } },
{ "type": "Feature", "properties": { "feature_type": "building", "subtype": "no-damage", "uid": "37737758-19cd-4692-93e1-9012a056793f" }, "geometry": { "type": "Polygon", "coordinates": [ [ [ 199.547712698038509, 644.04000000144265 ], [ 187.069699355895807, 644.071552080475499 ], [ 185.322487570365013, 621.35779886960745 ], [ 199.547712696479294, 621.320000000961159 ], [ 199.547712698038509, 644.04000000144265 ] ] ] } },
{ "type": "Feature", "properties": { "feature_type": "building", "subtype": "no-damage", "uid": "4484d9c5-bffd-442d-9dcc-2723a8458ae4" }, "geometry": { "type": "Polygon", "coordinates": [ [ [ 212.779999998141989, 643.990000004199601 ], [ 200.047712695287288, 644.029999999083316 ], [ 200.047712698925608, 621.310000002760034 ], [ 214.369999998647188, 621.270000001639119 ], [ 212.779999998141989, 643.990000004199601 ] ] ] } },
{ "type": "Feature", "properties": { "feature_type": "building", "subtype": "no-damage", "uid": "f0f128b9-942a-402b-a44c-daed6cebbb50" }, "geometry": { "type": "Polygon", "coordinates": [ [ [ 227.169999998564293, 643.95000000099958 ], [ 213.28000000084819, 643.990000002120496 ], [ 214.870000002003195, 621.270000001639119 ], [ 226.630000002273704, 621.240000000798432 ], [ 227.169999998564293, 643.95000000099958 ] ] ] } },
{ "type": "Feature", "properties": { "feature_type": "building", "subtype": "no-damage", "uid": "68e500b6-eabb-402c-a3de-1a916e2ecff8" }, "geometry": { "type": "Polygon", "coordinates": [ [ [ 240.300000001491497, 643.910000001957769 ], [ 227.680000001420808, 643.950000003078685 ], [ 227.129999999002706, 621.229999998439212 ], [ 241.79999999986461, 621.190000001476392 ], [ 240.300000001491497, 643.910000001957769 ] ] ] } },
{ "type": "Feature", "properties": { "feature_type": "building", "subtype": "no-damage", "uid": "faa750ad-ef2f-40a2-8a01-a274652a5ca0" }, "geometry": { "type": "Polygon", "coordinates": [ [ [ 254.619999999172705, 643.870000000836853 ], [ 240.799999998870192, 643.91000000403676 ], [ 242.299999997892996, 621.190000001476392 ], [ 254.040000000591789, 621.160000000635705 ], [ 254.619999999172705, 643.870000000836853 ] ] ] } },
{ "type": "Feature", "properties": { "feature_type": "building", "subtype": "no-damage", "uid": "60cb6691-5c73-4e23-8610-da78fba28644" }, "geometry": { "type": "Polygon", "coordinates": [ [ [ 268.700000001953072, 643.829999999715938 ], [ 255.119999999020195, 643.870000000836853 ], [ 254.540000001478802, 621.150000002434581 ], [ 268.240000001407282, 621.10999999923456 ], [ 268.700000001953072, 643.829999999715938 ] ] ] } },
{ "type": "Feature", "properties": { "feature_type": "building", "subtype": "no-damage", "uid": "39535f07-0e2f-4663-bd49-dcd7135f231b" }, "geometry": { "type": "Polygon", "coordinates": [ [ [ 282.619999999470394, 643.790000004832223 ], [ 269.199999999201907, 643.829999999715938 ], [ 268.739999998786004, 621.110000001313665 ], [ 282.389999998093003, 621.069999998113644 ], [ 282.619999999470394, 643.790000004832223 ] ] ] } },
{ "type": "Feature", "properties": { "feature_type": "building", "subtype": "no-damage", "uid": "69bcf244-4570-45cc-8720-606c97e0bb5a" }, "geometry": { "type": "Polygon", "coordinates": [ [ [ 296.409999998542389, 643.750000001632316 ], [ 283.119999999187996, 643.790000002753118 ], [ 282.889999997940492, 621.070000000192749 ], [ 295.659999998965986, 621.029999999071833 ], [ 296.409999998542389, 643.750000001632316 ] ] ] } },
{ "type": "Feature", "properties": { "feature_type": "building", "subtype": "no-damage", "uid": "601e3162-42c4-48d2-9fbe-e082d1737690" }, "geometry": { "type": "Polygon", "coordinates": [ [ [ 337.76671584908479, 643.634749130714226 ], [ 296.910000000468983, 643.750000001632316 ], [ 296.160000001022581, 621.030000001150938 ], [ 335.582701114702616, 620.920995921925169 ], [ 337.76671584908479, 643.634749130714226 ] ] ] } },
{ "type": "Feature", "properties": { "feature_type": "building", "subtype": "no-damage", "uid": "5d8c340e-18b8-430e-b2f7-9683665c261e" }, "geometry": { "type": "Polygon", "coordinates": [ [ [ 253.399999999809808, 583.870000001439621 ], [ 183.138472840010905, 584.229548430964428 ], [ 184.448881676690092, 559.768583433525464 ], [ 253.650000002007488, 559.409999997938257 ], [ 253.399999999809808, 583.870000001439621 ] ] ] } },
{ "type": "Feature", "properties": { "feature_type": "building", "subtype": "no-damage", "uid": "f46c5aff-430c-4cfb-909b-e38e8ec58322" }, "geometry": { "type": "Polygon", "coordinates": [ [ [ 268.3150473769673, 583.792745483282147 ], [ 253.899999999917213, 583.870000001439621 ], [ 254.149999998476602, 559.409999997938257 ], [ 269.625456217284807, 559.331780487922288 ], [ 268.3150473769673, 583.792745483282147 ] ] ] } },
{ "type": "Feature", "properties": { "feature_type": "building", "subtype": "no-damage", "uid": "ba3ab044-8963-46f8-9211-809c8263c654" }, "geometry": { "type": "Polygon", "coordinates": [ [ [ 295.19613094063169, 584.229548428885323 ], [ 280.982332819466308, 584.229548428885323 ], [ 279.671923983696615, 560.205386379128754 ], [ 294.530000001475514, 560.090000000361101 ], [ 295.19613094063169, 584.229548428885323 ] ] ] } },
{ "type": "Feature", "properties": { "feature_type": "building", "subtype": "no-damage", "uid": "98e19d41-47ad-43b0-bb20-d8bbe4f62b40" }, "geometry": { "type": "Polygon", "coordinates": [ [ [ 309.606922978944681, 584.229548428885323 ], [ 295.69593814954402, 584.229548428885323 ], [ 295.029999999763675, 560.079999998001881 ], [ 308.590000000576879, 559.970000003235555 ], [ 309.606922978944681, 584.229548428885323 ] ] ] } },
{ "type": "Feature", "properties": { "feature_type": "building", "subtype": "no-damage", "uid": "eaeca31f-a4a4-4a38-8dd7-b6ec18946460" }, "geometry": { "type": "Polygon", "coordinates": [ [ [ 337.329912900753072, 584.229548428885323 ], [ 310.116480357624198, 584.229548428885323 ], [ 309.090000001593921, 559.970000001156563 ], [ 334.709095223886322, 559.768583433525464 ], [ 337.329912900753072, 584.229548428885323 ] ] ] } },
{ "type": "Feature", "properties": { "feature_type": "building", "subtype": "no-damage", "uid": "cada1e47-fbb3-4353-b5c0-ac33e90cf6a9" }, "geometry": { "type": "Polygon", "coordinates": [ [ [ 331.856107494467096, 534.124401406589527 ], [ 334.587533408123306, 535.595169207090748 ], [ 336.688630267930478, 550.512956891651356 ], [ 320.930403837633207, 552.193834377938401 ], [ 321.350623208555078, 534.124401408668632 ], [ 331.856107494467096, 534.124401406589527 ] ] ] } },
{ "type": "Feature", "properties": { "feature_type": "building", "subtype": "no-damage", "uid": "99215d88-d3e4-4146-b76a-af719acbd5ea" }, "geometry": { "type": "Polygon", "coordinates": [ [ [ 336.478520580975214, 520.047052467251547 ], [ 185.199546883411813, 520.677381522530141 ], [ 184.569217824495098, 498.825974211193511 ], [ 334.16731403681149, 498.615864525407574 ], [ 336.478520580975214, 520.047052467251547 ] ] ] } },
{ "type": "Feature", "properties": { "feature_type": "building", "subtype": "no-damage", "uid": "3485781e-385c-4912-9313-8423a65b543a" }, "geometry": { "type": "Polygon", "coordinates": [ [ [ 392.039564211027482, 419.628288507011121 ], [ 390.698768623864908, 474.600907689066787 ], [ 372.46394860017341, 475.405385044431284 ], [ 372.195789481545376, 418.555652036656909 ], [ 392.039564211027482, 419.628288507011121 ] ] ] } },
{ "type": "Feature", "properties": { "feature_type": "building", "subtype": "no-damage", "uid": "8c0bfb9a-c3c5-4d56-800c-6d3a162dbd2a" }, "geometry": { "type": "Polygon", "coordinates": [ [ [ 605.933572228795924, 500.300723187321921 ], [ 612.789999998461667, 500.469999997059119 ], [ 612.147912079868775, 505.922201458974428 ], [ 613.099391529933541, 510.757773888406973 ], [ 612.79128944105662, 517.200744601018869 ], [ 615.684188306941792, 517.816948779032941 ], [ 616.327147621876406, 533.247972331233541 ], [ 601.217603731047006, 534.212411305714909 ], [ 598.645766471698153, 533.890931648247488 ], [ 596.395408872155485, 526.175419871107692 ], [ 569.049999998634007, 525.68000000078689 ], [ 557.748182668904292, 526.093255294279174 ], [ 558.837539517032269, 516.319999998377739 ], [ 558.460809311020626, 504.314803175795191 ], [ 557.496370339398254, 501.742965913976491 ], [ 564.247443143613509, 502.38592522891139 ], [ 589.322856412162082, 503.671843858781301 ], [ 591.251734356056545, 501.100006599041592 ], [ 605.939999999082147, 500.199999997809186 ], [ 605.933572228795924, 500.300723187321921 ] ] ] } },
{ "type": "Feature", "properties": { "feature_type": "building", "subtype": "no-damage", "uid": "7c4c7241-e2c0-47b7-b078-91d073f77247" }, "geometry": { "type": "Polygon", "coordinates": [ [ [ 626.935976311931427, 499.171128658394991 ], [ 616.409999998807962, 500.130000000005793 ], [ 616.412309622880912, 500.05307774614721 ], [ 606.980000000287987, 499.829999999915174 ], [ 606.039798590848022, 488.883779623594705 ], [ 606.039798590977966, 488.562299964048179 ], [ 625.65005768323158, 488.240820310738798 ], [ 626.935976311931427, 499.171128658394991 ] ] ] } },
{ "type": "Feature", "properties": { "feature_type": "building", "subtype": "no-damage", "uid": "7e00d5be-e9ca-4be7-961f-5db081ed6817" }, "geometry": { "type": "Polygon", "coordinates": [ [ [ 684.802314624216592, 575.683287096146614 ], [ 686.134853396461608, 597.084605453423706 ], [ 685.318145802653476, 600.976892642533471 ], [ 683.519999997572199, 602.289999999930274 ], [ 677.729762163443638, 603.973496936650008 ], [ 653.940267524244632, 602.044618991845368 ], [ 653.940267523594912, 575.361807434521097 ], [ 684.802314624216592, 575.683287096146614 ] ] ] } },
{ "type": "Feature", "properties": { "feature_type": "building", "subtype": "no-damage", "uid": "6fd21dc0-e910-4dc3-a0e5-5c59e4678563" }, "geometry": { "type": "Polygon", "coordinates": [ [ [ 402.310152813861578, 627.07687721351806 ], [ 402.310152810223315, 635.756827963060232 ], [ 375.627341258756019, 634.470909331111443 ], [ 376.591780230378276, 626.112438247352884 ], [ 402.310152813861578, 627.07687721351806 ] ] ] } },
{ "type": "Feature", "properties": { "feature_type": "building", "subtype": "no-damage", "uid": "73abc978-3de5-428f-a864-80627a578a7c" }, "geometry": { "type": "Polygon", "coordinates": [ [ [ 437.519754855859105, 768.24176085509248 ], [ 458.415932581360607, 768.563240512559901 ], [ 460.023330865968489, 773.063955715025259 ], [ 467.41736298277948, 774.02839468534853 ], [ 467.738842642845611, 774.671354000283486 ], [ 469.346240929532598, 787.530540294823368 ], [ 465.809964695572717, 788.173499607679219 ], [ 460.666290179863609, 788.173499605600227 ], [ 460.987769839540022, 795.567531727351593 ], [ 435.912356569302119, 795.889011380660918 ], [ 432.376080340539772, 795.889011380660918 ], [ 427.553885479439373, 795.246052067805067 ], [ 428.518324452491072, 785.601662350018728 ], [ 437.198275197352189, 785.601662350018728 ], [ 437.519754855859105, 768.24176085509248 ] ] ] } },
{ "type": "Feature", "properties": { "feature_type": "building", "subtype": "no-damage", "uid": "e15eae0a-b8f3-4445-ab5d-8dae5908e82d" }, "geometry": { "type": "Polygon", "coordinates": [ [ [ 360.043157448721615, 800.711206238514706 ], [ 376.438619971239518, 800.068246925658741 ], [ 376.760099628446994, 835.431009228367088 ], [ 359.721677793983019, 836.39544819869036 ], [ 360.043157448721615, 800.711206238514706 ] ] ] } },
{ "type": "Feature", "properties": { "feature_type": "building", "subtype": "no-damage", "uid": "0ce0cc94-ed5d-4317-a4d4-6904e7e6358b" }, "geometry": { "type": "Polygon", "coordinates": [ [ [ 385.44005037304828, 823.857741567854987 ], [ 397.97775701141569, 822.57182294006418 ], [ 398.299236665894398, 846.039837918555804 ], [ 385.118570719609124, 845.075398946153427 ], [ 385.44005037304828, 823.857741567854987 ] ] ] } },
{ "type": "Feature", "properties": { "feature_type": "building", "subtype": "no-damage", "uid": "009af8a6-fca1-4544-ae23-27d7280aa3a0" }, "geometry": { "type": "Polygon", "coordinates": [ [ [ 414.694699187112974, 821.607383969740908 ], [ 437.198275199041518, 819.678506022857164 ], [ 437.519754853780114, 837.038407517783412 ], [ 413.730260218998978, 835.752488885834509 ], [ 414.694699187112974, 821.607383969740908 ] ] ] } },
{ "type": "Feature", "properties": { "feature_type": "building", "subtype": "no-damage", "uid": "83937204-d228-42a3-85ec-2f77a97f5938" }, "geometry": { "type": "Polygon", "coordinates": [ [ [ 616.418510966568419, 19.103181676486521 ], [ 624.300723574364838, 19.39333747560373 ], [ 626.676142872614491, 75.749805640679554 ], [ 599.730721746548397, 76.362201573685681 ], [ 598.505929874429285, 47.885790610936439 ], [ 596.209445121109297, 47.732691627165153 ], [ 596.974940039445642, 65.951470685553886 ], [ 569.264023992834154, 65.95147068139579 ], [ 567.426836189788219, 34.719278010763261 ], [ 596.362544104880499, 33.80068411021454 ], [ 594.984653252498674, 19.86867659534299 ], [ 616.418510966568419, 19.103181676486521 ] ] ] } },
{ "type": "Feature", "properties": { "feature_type": "building", "subtype": "no-damage", "uid": "dcb9f50d-0657-46cd-a3c4-72d855c614b9" }, "geometry": { "type": "Polygon", "coordinates": [ [ [ 605.534007047302794, 222.4137571062804 ], [ 624.25965475567898, 222.224609144658189 ], [ 623.313914972256953, 254.758057695424412 ], [ 605.344859088409521, 255.325501563658491 ], [ 605.534007047302794, 222.4137571062804 ] ] ] } },
{ "type": "Feature", "properties": { "feature_type": "building", "subtype": "no-damage", "uid": "87427894-5c63-4f09-81b2-14c6dceb99fd" }, "geometry": { "type": "Polygon", "coordinates": [ [ [ 603.453379523254853, 192.717527907080608 ], [ 620.854991534320447, 192.150084036767311 ], [ 621.611583359628639, 221.089721408189803 ], [ 602.507639737234058, 220.900573454883812 ], [ 603.453379523254853, 192.717527907080608 ] ] ] } },
{ "type": "Feature", "properties": { "feature_type": "building", "subtype": "no-damage", "uid": "f4d8565d-df1e-4a2b-9336-74674019ec56" }, "geometry": { "type": "Polygon", "coordinates": [ [ [ 592.293650079135773, 202.931517568560992 ], [ 600.048716303715423, 202.931517568560992 ], [ 600.61616017272911, 211.443175619101709 ], [ 592.482798033611175, 211.064879704173507 ], [ 592.293650079135773, 202.931517568560992 ] ] ] } },
{ "type": "Feature", "properties": { "feature_type": "building", "subtype": "no-damage", "uid": "7713d529-62a1-462d-896f-bb71fcc1a6da" }, "geometry": { "type": "Polygon", "coordinates": [ [ [ 584.727731813969172, 194.041563607250197 ], [ 593.428537817163033, 193.852415645628014 ], [ 593.995981688385655, 201.607481870470394 ], [ 584.727731812929619, 202.174925740783607 ], [ 584.727731813969172, 194.041563607250197 ] ] ] } },
{ "type": "Feature", "properties": { "feature_type": "building", "subtype": "no-damage", "uid": "90aceffb-c8f6-4787-9982-c5911bdee396" }, "geometry": { "type": "Polygon", "coordinates": [ [ [ 984.999189163895153, 210.357333376788603 ], [ 1002.252906220919954, 237.778419411723803 ], [ 993.93414978057001, 242.708052854547986 ], [ 976.98853481670983, 221.14090653673469 ], [ 976.988534815150615, 215.28696681753371 ], [ 984.999189163895153, 210.357333376788603 ] ] ] } },
{ "type": "Feature", "properties": { "feature_type": "building", "subtype": "no-damage", "uid": "31240116-d308-4801-8abf-c7a635a63e8d" }, "geometry": { "type": "Polygon", "coordinates": [ [ [ 409.59964819992058, 758.461192012733818 ], [ 409.992873217701572, 773.010517648417931 ], [ 397.016447651327724, 773.403742668408086 ], [ 391.90452243004961, 772.617292632585873 ], [ 382.467122016818223, 772.617292630506881 ], [ 382.860347033299888, 758.067966994822655 ], [ 409.59964819992058, 758.461192012733818 ] ] ] } },
{ "type": "Feature", "properties": { "feature_type": "building", "subtype": "no-damage", "uid": "0e847a28-aa8f-4026-8267-3c3c1d17cce5" }, "geometry": { "type": "Polygon", "coordinates": [ [ [ 792.815679569970598, 603.604778768416054 ], [ 798.361517193795521, 606.993901761007351 ], [ 803.907354818010162, 602.98857458416478 ], [ 819.620561424543212, 619.317985369107419 ], [ 807.604579901036573, 629.177252263071864 ], [ 805.755967362966771, 629.485354351039405 ], [ 803.514129801008835, 625.098848086419025 ], [ 796.51290465273712, 626.096231360527099 ], [ 782.956412678738275, 612.23163729387818 ], [ 792.815679569970598, 603.604778768416054 ] ] ] } },
{ "type": "Feature", "properties": { "feature_type": "building", "subtype": "no-damage", "uid": "23c0f8d6-27d8-439e-9ae1-006d6491e42d" }, "geometry": { "type": "Polygon", "coordinates": [ [ [ 917.597026131954294, 628.252945988774059 ], [ 919.445638674182192, 638.420314968627167 ], [ 900.343309078697416, 639.036519150799336 ], [ 899.419002808168216, 627.944843898727527 ], [ 917.597026131954294, 628.252945988774059 ] ] ] } },
{ "type": "Feature", "properties": { "feature_type": "building", "subtype": "no-damage", "uid": "caec9c84-9c91-4998-ba10-06e4044e4a0c" }, "geometry": { "type": "Polygon", "coordinates": [ [ [ 826.706909502628605, 639.960825420939045 ], [ 832.56084921533045, 643.966152595702511 ], [ 834.101359668291593, 647.047173498247275 ], [ 834.717563850203646, 651.052500670931749 ], [ 830.096032494828819, 654.749725755648683 ], [ 826.090705320196776, 656.290236207960561 ], [ 823.009684417263202, 656.29023620588157 ], [ 821.161071874515642, 655.982134115835038 ], [ 817.155744700403261, 653.517317393383337 ], [ 814.999030071507377, 648.895786040605799 ], [ 814.999030071247489, 644.274254685749156 ], [ 819.312459331897912, 640.885131691078755 ], [ 826.706909502628605, 639.960825420939045 ] ] ] } },
{ "type": "Feature", "properties": { "feature_type": "building", "subtype": "no-damage", "uid": "19156124-fb2c-4c5a-8b93-7767fe003f68" }, "geometry": { "type": "Polygon", "coordinates": [ [ [ 853.203689265465528, 662.452278010971099 ], [ 859.98193525246495, 667.381911455874274 ], [ 861.522445699448667, 670.462932358419039 ], [ 860.906241519225887, 679.089790888039261 ], [ 855.360403895141076, 681.246505518365211 ], [ 845.809239097593604, 680.630301336193043 ], [ 841.187707745077546, 675.392565801243222 ], [ 841.187707741439226, 666.149503093608928 ], [ 847.965953730647584, 662.144175918845463 ], [ 853.203689265465528, 662.452278010971099 ] ] ] } },
{ "type": "Feature", "properties": { "feature_type": "building", "subtype": "no-damage", "uid": "3790f36b-9742-422e-aa5e-696ce776c4d0" }, "geometry": { "type": "Polygon", "coordinates": [ [ [ 1022.976299179387979, 624.09114750228639 ], [ 1017.105506406351992, 628.288824042281931 ], [ 1007.862443694172953, 615.656638344135445 ], [ 1022.976300218649953, 604.114344530965695 ], [ 1022.976299179387979, 624.09114750228639 ] ] ] } },
{ "type": "Feature", "properties": { "feature_type": "building", "subtype": "no-damage", "uid": "f8605e9a-57ec-487a-8592-7cd6fe1ed3f0" }, "geometry": { "type": "Polygon", "coordinates": [ [ [ 919.129041693872864, 673.579831314471676 ], [ 920.361450056657418, 684.055302386450307 ], [ 892.016057751592598, 684.055302386450307 ], [ 893.248466112298274, 677.277056399188609 ], [ 899.718610007302004, 676.968954307062972 ], [ 900.334814188694395, 673.887933406597313 ], [ 919.129041693872864, 673.579831314471676 ] ] ] } },
{ "type": "Feature", "properties": { "feature_type": "building", "subtype": "no-damage", "uid": "4ddecd0b-2723-4849-904d-443fb69c6f7c" }, "geometry": { "type": "Polygon", "coordinates": [ [ [ 929.909350216899156, 870.897618760937462 ], [ 930.633568364195071, 878.864018402375564 ], [ 917.839047734506494, 879.588236548762211 ], [ 917.597641682332664, 869.931994561597207 ], [ 929.909350216899156, 870.897618760937462 ] ] ] } },
{ "type": "Feature", "properties": { "feature_type": "building", "subtype": "no-damage", "uid": "08a3e6fc-1143-474b-b751-aaa40f458034" }, "geometry": { "type": "Polygon", "coordinates": [ [ [ 945.600743447465902, 843.618735149327449 ], [ 946.083555545186755, 854.723413433423616 ], [ 933.289034910560531, 855.689037634842862 ], [ 932.082004662035388, 844.101547246918472 ], [ 945.600743447465902, 843.618735149327449 ] ] ] } },
{ "type": "Feature", "properties": { "feature_type": "building", "subtype": "no-damage", "uid": "cfe0d142-b6ae-4a72-a67b-20d4b5f458eb" }, "geometry": { "type": "Polygon", "coordinates": [ [ [ 311.544891891815496, 934.677726408904505 ], [ 321.755469150490683, 934.677726408904505 ], [ 321.987527727108898, 944.888303664724617 ], [ 312.473126189192726, 944.888303666803608 ], [ 311.544891891815496, 934.677726408904505 ] ] ] } },
{ "type": "Feature", "properties": { "feature_type": "building", "subtype": "no-damage", "uid": "dc905f3d-0577-4f6b-92f3-37e2cbd1eccb" }, "geometry": { "type": "Polygon", "coordinates": [ [ [ 374.450068499048882, 637.673934662941178 ], [ 403.068659454710485, 637.510903725959338 ], [ 402.65304673254559, 644.443107169094674 ], [ 374.963267441719609, 644.687653576646312 ], [ 374.450068499048882, 637.673934662941178 ] ] ] } },
{ "type": "Feature", "properties": { "feature_type": "building", "subtype": "no-damage", "uid": "8108832c-0a19-477c-9371-9849cefc6eac" }, "geometry": { "type": "Polygon", "coordinates": [ [ [ 402.812267503613725, 635.226620166595239 ], [ 408.167001345315327, 635.075071094653595 ], [ 407.914419556103894, 664.223009062402866 ], [ 401.700907654056778, 664.22300905824477 ], [ 402.812267503613725, 635.226620166595239 ] ] ] } },
{ "type": "Feature", "properties": { "feature_type": "building", "subtype": "no-damage", "uid": "e01279a9-9e8e-47ce-a384-1023c026bf26" }, "geometry": { "type": "Polygon", "coordinates": [ [ [ 331.758216156373578, 586.579230933429585 ], [ 339.195052915602616, 586.486270471722037 ], [ 339.195052918591216, 600.895141697500662 ], [ 333.059662591821223, 600.988102155050115 ], [ 331.293413860960186, 599.779616181959113 ], [ 331.758216156373578, 586.579230933429585 ] ] ] } }
]
}
