{
"type": "FeatureCollection",
"name": "santa-rosa-wildfire_00000349_post_disaster",
"features": [
{ "type": "Feature", "properties": { "feature_type": "building", "subtype": "destroyed", "uid": "81a566af-d11e-4f0b-b71f-b25a9088eeb2" }, "geometry": { "type": "Polygon", "coordinates": [ [ [ 0.00065336077499, 120.334340208958494 ], [ 36.779548889774901, 115.724881869278903 ], [ 37.438054633903207, 95.640456607699875 ], [ 60.48575575561312, 96.298962353128701 ], [ 59.662623573567757, 117.206519799093698 ], [ 51.595928178551311, 118.194278418276895 ], [ 52.419060363716639, 141.571232413240011 ], [ 18.67064086449713, 145.357640453095712 ], [ 23.774060399106311, 160.667899051475814 ], [ 0.000664580174701, 163.795713911960092 ], [ 0.00065336077499, 120.334340208958494 ] ] ] } },
{ "type": "Feature", "properties": { "feature_type": "building", "subtype": "destroyed", "uid": "c1a68325-3b1a-4298-8be5-f17dfc127b68" }, "geometry": { "type": "Polygon", "coordinates": [ [ [ 563.408934546911155, 805.904772777589073 ], [ 555.424766488177625, 787.415120435247786 ], [ 553.873315557924229, 781.055205747090668 ], [ 551.852901834257295, 774.388319921325547 ], [ 548.701256547593516, 766.404151866485449 ], [ 572.863870403522469, 760.100861295232676 ], [ 595.555716457673839, 754.427899781105225 ], [ 609.843175082974994, 787.835339808744607 ], [ 607.86266735775564, 794.264868340776616 ], [ 603.749994198995637, 796.239727237081524 ], [ 569.712225117378694, 801.702579061340543 ], [ 569.081896058694042, 803.803675918424801 ], [ 565.510031404513711, 805.694663091880557 ], [ 563.408934546911155, 805.904772777589073 ] ] ] } }
]
}
