{
"type": "FeatureCollection",
"name": "santa-rosa-wildfire_00000288_post_disaster",
"features": [
{ "type": "Feature", "properties": { "feature_type": "building", "subtype": "minor-damage", "uid": "abe1011d-8f1d-4716-bb6e-569e823b2956" }, "geometry": { "type": "Polygon", "coordinates": [ [ [ 406.957724236582578, 850.024205958484117 ], [ 390.989388125875394, 840.569270101605071 ], [ 400.234214295478523, 824.600933987764847 ], [ 417.042989151618713, 834.265979530352411 ], [ 406.957724236582578, 850.024205958484117 ] ] ] } },
{ "type": "Feature", "properties": { "feature_type": "building", "subtype": "destroyed", "uid": "c8028fc7-a686-4bdf-a601-2692dca2a258" }, "geometry": { "type": "Polygon", "coordinates": [ [ [ 571.114271113757582, 687.722350962271435 ], [ 592.030682317319929, 687.186032728888904 ], [ 592.280000000999507, 709.759999999156321 ], [ 580.374776738693299, 711.437307115743465 ], [ 579.909955315037905, 716.317932077389401 ], [ 573.712923056801401, 719.760727782565823 ], [ 573.07855945289316, 731.96860542329182 ], [ 572.991384942294985, 731.968605425371834 ], [ 572.759999999809452, 737.700000002609045 ], [ 548.769011107982692, 736.868184529080963 ], [ 551.56000000016536, 691.519999998246817 ], [ 552.343132860623541, 691.208419494858049 ], [ 553.952087567529929, 685.308918904769939 ], [ 546.711791382551382, 685.308918900610024 ], [ 531.426721660961107, 687.454191846620233 ], [ 518.018765759328289, 686.113396253803899 ], [ 519.359561351883599, 662.247234761160371 ], [ 571.114271117917497, 661.174598286075252 ], [ 571.114271113757582, 687.722350962271435 ] ] ] } },
{ "type": "Feature", "properties": { "feature_type": "building", "subtype": "destroyed", "uid": "6c137a38-300c-4cd4-ae03-6dd08dc100ec" }, "geometry": { "type": "Polygon", "coordinates": [ [ [ 84.240752081934957, 248.569238800058514 ], [ 61.310234030066347, 231.799158436201509 ], [ 84.240752080634977, 194.494285789136796 ], [ 95.19264129821552, 202.023709627838286 ], [ 99.984092829330777, 204.077188852415105 ], [ 87.320970922177636, 224.269734603740005 ], [ 89.087327198682488, 227.887437399569393 ], [ 90.401189766320272, 229.40343266934201 ], [ 93.139162066880445, 230.430172281630405 ], [ 100.326339370053304, 234.537130741183887 ], [ 96.219380912063073, 238.986335734700191 ], [ 84.240752081934957, 248.569238800058514 ] ] ] } },
{ "type": "Feature", "properties": { "feature_type": "building", "subtype": "destroyed", "uid": "1c98c19f-c1ce-40b9-b7fd-a4babbfe692b" }, "geometry": { "type": "Polygon", "coordinates": [ [ [ 210.968312345483895, 288.163085981876407 ], [ 190.588219380763604, 265.905879193540613 ], [ 207.482243812120089, 252.497923296576801 ], [ 226.789700303836213, 273.682493611907489 ], [ 210.968312345483895, 288.163085981876407 ] ] ] } },
{ "type": "Feature", "properties": { "feature_type": "building", "subtype": "destroyed", "uid": "4d6cece7-b402-4a6f-a559-0a2e3f16e821" }, "geometry": { "type": "Polygon", "coordinates": [ [ [ 82.148587317806971, 383.590637584397882 ], [ 98.310296332385903, 375.72818454554988 ], [ 101.367916957735403, 375.728184547629894 ], [ 106.609552312023197, 385.774652315677884 ], [ 114.035202400969197, 382.717031687725921 ], [ 119.276837757077004, 392.326696509517888 ], [ 124.081670164589099, 389.269075885726011 ], [ 128.88650257574119, 398.87874070543802 ], [ 127.139290789418595, 404.120376060510011 ], [ 121.460852487835197, 405.867587843453975 ], [ 126.265684895867295, 415.477252667326127 ], [ 130.6337143602438, 412.419632043534023 ], [ 132.817729094382003, 412.856434989789989 ], [ 136.748955608602898, 415.040449718990089 ], [ 138.496167398305403, 418.971676239453984 ], [ 139.369773287436686, 424.213311592446075 ], [ 149.85304400017219, 414.166843828558115 ], [ 189.602112117756093, 393.637105348286013 ], [ 197.0277622098221, 402.373164275485976 ], [ 198.338171047288995, 410.235617312254021 ], [ 200.085382832051607, 415.477252665246112 ], [ 168.635570692545087, 431.202158736702074 ], [ 172.566797209885891, 439.064611771390219 ], [ 148.4053664117327, 450.546285413634507 ], [ 141.480322088120204, 442.282787648028602 ], [ 130.897251024974508, 436.691731237835427 ], [ 125.3061946134858, 436.292370067907314 ], [ 119.515457619113207, 434.49524478971091 ], [ 118.117693516826094, 431.500035999650208 ], [ 112.724793562202294, 429.891749895854218 ], [ 82.148587317806971, 383.590637584397882 ] ] ] } }
]
}
