{
"type": "FeatureCollection",
"name": "santa-rosa-wildfire_00000265_post_disaster",
"features": [
{ "type": "Feature", "properties": { "feature_type": "building", "subtype": "no-damage", "uid": "f26cfc4c-35d7-4ceb-8ead-812bb404a263" }, "geometry": { "type": "Polygon", "coordinates": [ [ [ 984.125242627722287, 862.337551982610421 ], [ 960.093279586069002, 873.121125144166626 ], [ 953.623135694079338, 859.872735263534651 ], [ 977.346996640778229, 849.089162101978559 ], [ 984.125242627722287, 862.337551982610421 ] ] ] } },
{ "type": "Feature", "properties": { "feature_type": "building", "subtype": "no-damage", "uid": "7f77388e-7bfc-4530-a5ff-48a5828cc79b" }, "geometry": { "type": "Polygon", "coordinates": [ [ [ 1022.976257317077057, 928.218007559693547 ], [ 1004.225071429954028, 888.759722272428235 ], [ 1022.976266962112049, 879.791927523410322 ], [ 1022.976257317077057, 928.218007559693547 ] ] ] } },
{ "type": "Feature", "properties": { "feature_type": "building", "subtype": "no-damage", "uid": "504ab38e-1b8f-4d5c-9b69-097142a3146e" }, "geometry": { "type": "Polygon", "coordinates": [ [ [ 977.782663863980019, 167.869681429994813 ], [ 957.780921297010195, 189.497057378496891 ], [ 936.15354535281142, 171.408706586754789 ], [ 953.337933562214175, 148.261163879794907 ], [ 977.782663863980019, 167.869681429994813 ] ] ] } }
]
}
