{
"type": "FeatureCollection",
"name": "santa-rosa-wildfire_00000322_post_disaster",
"features": [
{ "type": "Feature", "properties": { "feature_type": "building", "subtype": "no-damage", "uid": "ab0760eb-c421-4bd6-ab18-e28768941579" }, "geometry": { "type": "Polygon", "coordinates": [ [ [ 713.746746994056821, 635.812158886499446 ], [ 724.178142215375601, 631.992320105551471 ], [ 748.062391911406962, 646.152228619013158 ], [ 735.057801925345075, 667.057991499738591 ], [ 711.995705731411931, 652.930155535211043 ], [ 658.078253260671659, 663.249285192073899 ], [ 650.536643380448936, 622.236428652008726 ], [ 706.319999999751303, 611.980000001936901 ], [ 713.746746994056821, 635.812158886499446 ] ] ] } },
{ "type": "Feature", "properties": { "feature_type": "building", "subtype": "no-damage", "uid": "cff28caf-7214-44cd-b9df-5bbbcf3c7c5c" }, "geometry": { "type": "Polygon", "coordinates": [ [ [ 782.621503022973457, 639.90793819391024 ], [ 760.460000000607465, 645.340000000124633 ], [ 746.929999999050892, 604.360000000427931 ], [ 771.012482156152259, 601.082212848991958 ], [ 782.621503022973457, 639.90793819391024 ] ] ] } },
{ "type": "Feature", "properties": { "feature_type": "building", "subtype": "destroyed", "uid": "caf1f828-e408-49c4-b4f6-064335b02f03" }, "geometry": { "type": "Polygon", "coordinates": [ [ [ 338.93159052603869, 1022.98260483317199 ], [ 338.701365214540317, 1014.311388239405005 ], [ 349.255793670737773, 1013.828246711727957 ], [ 349.063042629498682, 1005.471879795098971 ], [ 367.118420637298811, 1005.458653541384024 ], [ 368.104543074263574, 1013.283059210076999 ], [ 385.421982538654277, 1012.718032327854985 ], [ 385.478435404754691, 1022.982992761493051 ], [ 338.93159052603869, 1022.98260483317199 ] ] ] } },
{ "type": "Feature", "properties": { "feature_type": "building", "subtype": "destroyed", "uid": "86c88129-7ead-4e9c-b206-12599a359fe5" }, "geometry": { "type": "Polygon", "coordinates": [ [ [ 0.000675493817691, 809.890275115974646 ], [ 31.25164684585646, 822.618101089273296 ], [ 4.35765031377656, 861.300823878113874 ], [ 0.000662692334942, 865.997994149389797 ], [ 0.000675493817691, 809.890275115974646 ] ] ] } },
{ "type": "Feature", "properties": { "feature_type": "building", "subtype": "destroyed", "uid": "363fb521-4e6e-41ce-a8f9-235d85c1df4d" }, "geometry": { "type": "Polygon", "coordinates": [ [ [ 879.859527313687863, 91.605757900453227 ], [ 887.944835413588066, 82.812985334108632 ], [ 903.711186216921533, 96.456942759981345 ], [ 895.322679060311089, 105.6539807279933 ], [ 879.859527313687863, 91.605757900453227 ] ] ] } },
{ "type": "Feature", "properties": { "feature_type": "building", "subtype": "destroyed", "uid": "af5b0dfa-d9bd-4414-a3be-7dae5c3be03d" }, "geometry": { "type": "Polygon", "coordinates": [ [ [ 0.000694711771645, 695.966350559326997 ], [ 10.56185198370614, 697.848044635778706 ], [ 11.56721481888491, 727.673808657967243 ], [ 0.000690404397827, 726.810051555541463 ], [ 0.000694711771645, 695.966350559326997 ] ] ] } }
]
}
