{
"type": "FeatureCollection",
"name": "santa-rosa-wildfire_00000201_post_disaster",
"features": [
{ "type": "Feature", "properties": { "feature_type": "building", "subtype": "destroyed", "uid": "744a0354-7af5-4ecc-8343-d422b3779176" }, "geometry": { "type": "Polygon", "coordinates": [ [ [ 450.570676971153716, 365.517321644544722 ], [ 453.052515872389108, 361.298195509997186 ], [ 464.841250655986926, 359.3747703625653 ], [ 470.859709991573595, 376.685596699852908 ], [ 468.005595254294917, 378.546975877470913 ], [ 455.534354770764423, 379.043343654702312 ], [ 450.570676971153716, 365.517321644544722 ] ] ] } },
{ "type": "Feature", "properties": { "feature_type": "building", "subtype": "destroyed", "uid": "628c3fa9-0d1a-49cb-8140-16da0139ceb9" }, "geometry": { "type": "Polygon", "coordinates": [ [ [ 560.871723920004001, 403.141776635606391 ], [ 564.831130461412613, 402.270707201019775 ], [ 592.388599974224576, 418.504274007028414 ], [ 585.830836261611694, 437.511744732778425 ], [ 571.312718847319502, 430.403224494957783 ], [ 571.233530713215373, 426.285441696257521 ], [ 555.15834016580834, 414.882350863647389 ], [ 560.871723920004001, 403.141776635606391 ] ] ] } },
{ "type": "Feature", "properties": { "feature_type": "building", "subtype": "minor-damage", "uid": "95c84ef7-9a6f-4440-8abf-043786850ef3" }, "geometry": { "type": "Polygon", "coordinates": [ [ [ 662.665572362953412, 516.780340053674422 ], [ 665.387992372037615, 516.731725410896388 ], [ 665.387992370737607, 514.835754334235503 ], [ 724.401766052311814, 500.213351713805707 ], [ 728.043510634894233, 511.733237793235219 ], [ 730.290978474699727, 521.007333999227058 ], [ 668.015407370418302, 538.589673449485986 ], [ 667.67258976271853, 534.209226289182425 ], [ 664.701503865026552, 534.628225585200312 ], [ 662.665572362953412, 516.780340053674422 ] ] ] } },
{ "type": "Feature", "properties": { "feature_type": "building", "subtype": "destroyed", "uid": "7c8f628b-eb33-4d39-a80d-2bef8fcf753a" }, "geometry": { "type": "Polygon", "coordinates": [ [ [ 859.986626797621852, 848.234963192575378 ], [ 874.072409454772696, 837.430415256126025 ], [ 900.430186230014669, 867.732395586800067 ], [ 882.780151824781683, 878.536943521169405 ], [ 859.986626797621852, 848.234963192575378 ] ] ] } },
{ "type": "Feature", "properties": { "feature_type": "building", "subtype": "destroyed", "uid": "e8687b59-42cb-4c73-9c90-83d4642460ab" }, "geometry": { "type": "Polygon", "coordinates": [ [ [ 965.762318112988737, 911.919547404529567 ], [ 1002.461476549770055, 899.400511968042679 ], [ 1005.805722380367001, 910.072333080963062 ], [ 968.038506376908117, 923.580634958227051 ], [ 965.762318112988737, 911.919547404529567 ] ] ] } }
]
}
