{
"type": "FeatureCollection",
"name": "santa-rosa-wildfire_00000104_post_disaster",
"features": [
{ "type": "Feature", "properties": { "feature_type": "building", "subtype": "destroyed", "uid": "f7ae5f5d-9735-4d78-a2aa-ee3ba2745472" }, "geometry": { "type": "Polygon", "coordinates": [ [ [ 7.342779140087043, 210.594380171177505 ], [ 17.964645322988481, 210.835786219873114 ], [ 18.688863472194939, 204.800634979602989 ], [ 45.484934990233967, 205.283447076994207 ], [ 44.519310790512023, 246.805287621118197 ], [ 21.344330019805291, 247.046693671893792 ], [ 21.585736069280781, 238.356075885572011 ], [ 18.206051373503971, 238.597481934267591 ], [ 18.206051374803959, 234.010766992411106 ], [ 7.825591236438035, 234.252173039026786 ], [ 7.342779140087043, 210.594380171177505 ] ] ] } },
{ "type": "Feature", "properties": { "feature_type": "building", "subtype": "destroyed", "uid": "e7672ecc-8b7e-4cfb-af54-d810fa51e98e" }, "geometry": { "type": "Polygon", "coordinates": [ [ [ 67.452885509403288, 279.877916429695972 ], [ 74.695067000427883, 266.359177646582225 ], [ 71.315382302051091, 264.910741348168585 ], [ 77.833345642829244, 253.564657013715106 ], [ 77.109127496222769, 250.426378366112289 ], [ 81.454436387821545, 242.701384778732887 ], [ 122.734870884269796, 265.876365547110993 ], [ 111.404659312554003, 284.340417480130611 ], [ 103.525062146210999, 284.363902343160191 ], [ 96.180205419866226, 281.084946675254116 ], [ 94.235123963984279, 284.391586225894912 ], [ 79.025676147957086, 284.436899771810317 ], [ 67.452885509403288, 279.877916429695972 ] ] ] } },
{ "type": "Feature", "properties": { "feature_type": "building", "subtype": "destroyed", "uid": "7dfa8f78-5671-4427-ae6c-238bf90b25b1" }, "geometry": { "type": "Polygon", "coordinates": [ [ [ 85.075527136453829, 198.524077686477312 ], [ 95.455987271179765, 184.522526805972092 ], [ 104.629417159568305, 191.281896198569086 ], [ 111.388786551381898, 182.349872361471711 ], [ 134.563767317928694, 199.006889788028388 ], [ 126.355961631862101, 212.284222518286697 ], [ 113.561440997181293, 205.283447076994207 ], [ 103.663792958546296, 221.940464505630899 ], [ 91.352084425676495, 214.456876966947192 ], [ 95.938799369610749, 207.938913623045806 ], [ 85.075527136453829, 198.524077686477312 ] ] ] } },
{ "type": "Feature", "properties": { "feature_type": "building", "subtype": "destroyed", "uid": "27bb0848-ccf8-4d71-abf5-f231e14534ef" }, "geometry": { "type": "Polygon", "coordinates": [ [ [ 139.633294359513911, 247.046693671893792 ], [ 147.358287950529501, 243.4256029268997 ], [ 150.737972646306304, 249.70216022002549 ], [ 142.530166958159697, 253.564657013715106 ], [ 139.633294359513911, 247.046693671893792 ] ] ] } },
{ "type": "Feature", "properties": { "feature_type": "building", "subtype": "destroyed", "uid": "f8601a72-c2f6-4f4f-b6bd-2df8878abc83" }, "geometry": { "type": "Polygon", "coordinates": [ [ [ 140.357512510800291, 262.496680852892496 ], [ 153.8762512918276, 257.185747758709226 ], [ 151.945002893423691, 251.874814666605886 ], [ 155.083281540504998, 250.909190467663507 ], [ 152.910627091585695, 245.598257373480209 ], [ 167.877802171545909, 238.356075883491997 ], [ 161.118432783112212, 221.216246355384101 ], [ 179.706698610144713, 212.767034617757901 ], [ 194.673873685684896, 247.77091182214059 ], [ 184.293413552778986, 251.8748146645259 ], [ 187.914504294651294, 260.806838503703318 ], [ 178.982480456518289, 264.427929250777424 ], [ 180.18951070857571, 267.807613942915907 ], [ 161.45304251074711, 278.01846044846161 ], [ 159.669996482879299, 276.015419633926399 ], [ 148.082506101295905, 280.843540626558479 ], [ 140.357512510800291, 262.496680852892496 ] ] ] } },
{ "type": "Feature", "properties": { "feature_type": "building", "subtype": "destroyed", "uid": "7aa9263c-ceef-4fe5-8176-1139e2f7a72e" }, "geometry": { "type": "Polygon", "coordinates": [ [ [ 200.682293055341802, 171.731455257252009 ], [ 213.718219736378103, 167.627552414866699 ], [ 219.029152830038811, 182.594727492234313 ], [ 230.133831116571201, 178.732230700624598 ], [ 231.582267415764107, 184.04316379688791 ], [ 245.342412244966908, 178.490824649848889 ], [ 247.032254594155205, 182.594727492234313 ], [ 258.861151026514108, 179.45644884463141 ], [ 255.481466331517311, 170.765831060389587 ], [ 272.37988981040138, 167.144740313315509 ], [ 284.208786243800205, 203.597053816111895 ], [ 221.684619378689092, 220.495477293444196 ], [ 216.615092334243911, 201.665805418226995 ], [ 208.165880596101914, 204.079865913503113 ], [ 200.682293055341802, 171.731455257252009 ] ] ] } },
{ "type": "Feature", "properties": { "feature_type": "building", "subtype": "destroyed", "uid": "47a0b8b4-372b-4c9c-adc7-e3fe7f70b5ba" }, "geometry": { "type": "Polygon", "coordinates": [ [ [ 290.181584818699378, 172.912126597470206 ], [ 316.494844231807519, 172.187908453463393 ], [ 316.494844229727505, 169.773847956107289 ], [ 324.219837819703116, 169.532441905331808 ], [ 324.461243868918586, 166.6355693085045 ], [ 343.773727845677513, 167.359787458751299 ], [ 344.497945993583983, 206.226161456823689 ], [ 290.181584817399425, 206.708973556294893 ], [ 290.181584818699378, 172.912126597470206 ] ] ] } },
{ "type": "Feature", "properties": { "feature_type": "building", "subtype": "destroyed", "uid": "ee9568a5-39eb-412d-981d-43ce195b02db" }, "geometry": { "type": "Polygon", "coordinates": [ [ [ 359.465121073024193, 212.019906648398205 ], [ 368.155738862981707, 211.054282451535812 ], [ 366.224490466657812, 174.360562897963888 ], [ 368.397144910637223, 174.601968952899398 ], [ 368.397144913757188, 167.359787456671313 ], [ 375.880732449317293, 167.601193507446908 ], [ 376.604950601383678, 174.119156851348208 ], [ 388.192440986867098, 174.119156853428194 ], [ 389.640877285280112, 195.604295270537108 ], [ 398.331495069257585, 195.604295270537108 ], [ 398.090089023162079, 201.398040466271596 ], [ 403.883834216033677, 201.639446510807204 ], [ 405.332270511066724, 202.122258610278408 ], [ 407.022112860515108, 228.918330125730506 ], [ 398.331495073417614, 228.918330125730506 ], [ 398.572901123152974, 235.6776995141675 ], [ 389.882283332935515, 236.643323717269908 ], [ 390.123689381890983, 240.264414462263886 ], [ 374.432296151424396, 240.988632608350798 ], [ 373.949484054553409, 226.262863581758893 ], [ 360.672151323261573, 226.262863579678907 ], [ 359.465121073024193, 212.019906648398205 ] ] ] } },
{ "type": "Feature", "properties": { "feature_type": "building", "subtype": "destroyed", "uid": "489577d0-14d1-4003-8aae-ca3f0a8a2f99" }, "geometry": { "type": "Polygon", "coordinates": [ [ [ 421.023663740233417, 235.194887416776311 ], [ 420.299445593106896, 207.191785651606097 ], [ 428.990063379684386, 206.467567507599313 ], [ 427.541627081791489, 188.603519829244505 ], [ 430.4384996799173, 188.60351982716449 ], [ 430.43849967705728, 184.016804887387991 ], [ 449.02676550538979, 182.568368588974408 ], [ 449.268171555125321, 189.327737979491303 ], [ 473.891588618785022, 188.603519829244505 ], [ 474.374400719555922, 233.987857169138209 ], [ 421.023663740233417, 235.194887416776311 ] ] ] } },
{ "type": "Feature", "properties": { "feature_type": "building", "subtype": "destroyed", "uid": "20b10a6a-e462-4f31-aebe-838bc2ab9513" }, "geometry": { "type": "Polygon", "coordinates": [ [ [ 485.572789319175115, 202.084840898960493 ], [ 540.106859302538169, 200.852432539422608 ], [ 539.490655121469558, 238.748989639931409 ], [ 534.252919583556263, 238.748989639931409 ], [ 534.561021676560472, 245.527235629869608 ], [ 501.902200104363487, 245.219133534785186 ], [ 500.977893837570605, 233.819356195540109 ], [ 485.880891411139373, 235.051764557157895 ], [ 485.572789319175115, 202.084840898960493 ] ] ] } },
{ "type": "Feature", "properties": { "feature_type": "building", "subtype": "destroyed", "uid": "9ee32510-a5c3-407f-bee0-2519ada20c7e" }, "geometry": { "type": "Polygon", "coordinates": [ [ [ 548.117513648110275, 187.295940563706409 ], [ 560.133495168678337, 187.29594056578631 ], [ 559.825393079834043, 182.36630712139501 ], [ 569.68465996835198, 182.058205028390489 ], [ 573.689987140228027, 186.371634295092889 ], [ 577.695314313144081, 186.06353220208851 ], [ 581.392539398775853, 180.517694580008197 ], [ 586.938377024493434, 179.901490396079311 ], [ 586.938377024753436, 169.734121420532006 ], [ 608.197421252250933, 168.809815151918599 ], [ 610.354135884041057, 212.868414060516614 ], [ 605.424502440432093, 212.868414058436713 ], [ 606.656910801269305, 250.456869070100993 ], [ 585.705968662356213, 251.381175338714399 ], [ 584.781662391923192, 218.722353773521405 ], [ 549.966126189236093, 219.338557953290291 ], [ 548.117513648110275, 187.295940563706409 ] ] ] } },
{ "type": "Feature", "properties": { "feature_type": "building", "subtype": "destroyed", "uid": "cc952129-f38b-4618-9e9a-b60540b37d10" }, "geometry": { "type": "Polygon", "coordinates": [ [ [ 618.268523384923355, 188.452214587544688 ], [ 632.270074265941616, 188.693620636240297 ], [ 635.408352909382984, 184.831123840470696 ], [ 639.753661801761723, 183.382687544137013 ], [ 645.06459489490237, 186.762372240435496 ], [ 645.547406995153437, 190.142056934653993 ], [ 658.824739730345186, 189.65924483726269 ], [ 657.859115530883173, 175.657693952597697 ], [ 663.170048622983927, 175.657693952597697 ], [ 663.17004862194392, 165.760045916557914 ], [ 674.033320857960803, 166.001451969413495 ], [ 675.240351106118283, 222.731873641680608 ], [ 620.030508239803112, 223.782129607965089 ], [ 618.268523384923355, 188.452214587544688 ] ] ] } },
{ "type": "Feature", "properties": { "feature_type": "building", "subtype": "destroyed", "uid": "8be22fc6-9679-405d-bc87-fe9d1d63287b" }, "geometry": { "type": "Polygon", "coordinates": [ [ [ 685.036907310012452, 182.046898749585409 ], [ 699.825807645259374, 181.738796658660988 ], [ 700.133909734363669, 184.819817559585601 ], [ 724.782076956048513, 185.127919650510108 ], [ 724.473974866164212, 167.257998416411311 ], [ 741.419589830601353, 167.566100507335705 ], [ 741.419589832161364, 219.943455854254211 ], [ 685.961213580705362, 221.483966304716489 ], [ 685.036907310012452, 182.046898749585409 ] ] ] } },
{ "type": "Feature", "properties": { "feature_type": "building", "subtype": "destroyed", "uid": "7619408a-c7a1-4eb6-ab3e-82bc1de017b4" }, "geometry": { "type": "Polygon", "coordinates": [ [ [ 752.203162990852206, 190.673757274670407 ], [ 767.300165417023436, 187.592736375825694 ], [ 766.992063322719218, 177.733469484962995 ], [ 807.969641329592605, 171.879529767798203 ], [ 813.5154789592101, 207.927474331080191 ], [ 756.208490164288264, 215.630026587551811 ], [ 752.203162990852206, 190.673757274670407 ] ] ] } },
{ "type": "Feature", "properties": { "feature_type": "building", "subtype": "destroyed", "uid": "dd055031-131d-486f-af39-85565e00693b" }, "geometry": { "type": "Polygon", "coordinates": [ [ [ 897.589505661742805, 281.979808819183177 ], [ 892.960783716793912, 268.093639913487323 ], [ 905.150759249776797, 262.588489675416213 ], [ 901.218509078836519, 255.117214347713912 ], [ 928.744260281658512, 245.67981393454059 ], [ 933.8561855076249, 261.015589604127285 ], [ 938.574885712909236, 259.442689536998387 ], [ 947.103377521529751, 281.829983705352277 ], [ 897.589505661742805, 281.979808819183177 ] ] ] } },
{ "type": "Feature", "properties": { "feature_type": "building", "subtype": "minor-damage", "uid": "6f2050a7-3ab7-475d-9e3c-af2b1dd4203a" }, "geometry": { "type": "Polygon", "coordinates": [ [ [ 887.455633477945526, 197.313136821967504 ], [ 913.408484611819404, 187.089286372109711 ], [ 921.272984955519973, 203.997962115065206 ], [ 942.113910868627499, 196.133461766940798 ], [ 950.764861245632119, 211.862462452789714 ], [ 908.296559389493041, 233.489838403371806 ], [ 887.455633477945526, 197.313136821967504 ] ] ] } },
{ "type": "Feature", "properties": { "feature_type": "building", "subtype": "destroyed", "uid": "9bf8b3d7-61a9-46b3-9a84-10a19e851ba1" }, "geometry": { "type": "Polygon", "coordinates": [ [ [ 318.550526954094721, 151.524534496205888 ], [ 304.790382120211973, 151.765940546981511 ], [ 304.790382119172023, 144.523759054913398 ], [ 318.550526953054714, 144.282353006217789 ], [ 318.550526954094721, 151.524534496205888 ] ] ] } },
{ "type": "Feature", "properties": { "feature_type": "building", "subtype": "destroyed", "uid": "27c87ec3-ddb0-4d85-85f0-f98d010aa1c5" }, "geometry": { "type": "Polygon", "coordinates": [ [ [ 862.457916893545871, 197.272622740488714 ], [ 826.000133039421144, 196.531610874288191 ], [ 824.962716426168868, 158.591803286964591 ], [ 873.424892523292442, 159.036410410012905 ], [ 873.128487773640359, 196.679813243784309 ], [ 862.457916893545871, 197.272622740488714 ] ] ] } },
{ "type": "Feature", "properties": { "feature_type": "building", "subtype": "destroyed", "uid": "7a4e0ee8-6f42-4aa3-bb7b-b37c4da9845b" }, "geometry": { "type": "Polygon", "coordinates": [ [ [ 85.966592636719994, 44.762218892773177 ], [ 67.619732864102971, 44.520812846157561 ], [ 66.895514713076523, 29.795043811245691 ], [ 86.932216836181937, 30.277855914876881 ], [ 85.966592636719994, 44.762218892773177 ] ] ] } }
]
}
