{
"type": "FeatureCollection",
"name": "santa-rosa-wildfire_00000131_post_disaster",
"features": [
{ "type": "Feature", "properties": { "feature_type": "building", "subtype": "destroyed", "uid": "bc26c916-e8eb-451b-afc4-e0988dfe00fc" }, "geometry": { "type": "Polygon", "coordinates": [ [ [ 685.898596842948677, 147.337252301408199 ], [ 713.011580788124661, 156.272212921577591 ], [ 699.455088813196653, 189.239136579775106 ], [ 679.428452948098879, 181.844686414227994 ], [ 685.898596842948677, 147.337252301408199 ] ] ] } },
{ "type": "Feature", "properties": { "feature_type": "building", "subtype": "destroyed", "uid": "2a029ff0-d099-43a1-b773-4e32014cf6f0" }, "geometry": { "type": "Polygon", "coordinates": [ [ [ 754.2762928274974, 176.669855054951199 ], [ 747.827116990547324, 199.098403468557905 ], [ 732.113910383049529, 192.936361664628691 ], [ 738.584054279069278, 172.293521614289688 ], [ 754.2762928274974, 176.669855054951199 ] ] ] } },
{ "type": "Feature", "properties": { "feature_type": "building", "subtype": "destroyed", "uid": "5d3eef00-5113-40c0-bd1a-a29a287295d6" }, "geometry": { "type": "Polygon", "coordinates": [ [ [ 904.67909986451366, 320.87602076897241 ], [ 886.501076539241581, 319.643612411514482 ], [ 865.550134397861143, 323.032735405443589 ], [ 854.150357058493, 316.254489421745404 ], [ 850.761234067036071, 311.632958064118498 ], [ 841.210069266323558, 308.551937163193884 ], [ 837.82094627317656, 302.081793264180192 ], [ 835.048027463828134, 287.292892933086023 ], [ 830.42649610724402, 284.828076211930181 ], [ 830.118394017229775, 275.585013502916411 ], [ 839.053354637783627, 270.963482149449419 ], [ 842.442477628850725, 265.417644521129091 ], [ 859.388092596015667, 265.41764452528912 ], [ 864.317726038714, 283.903769939156916 ], [ 870.479767842379488, 290.990118011699508 ], [ 899.441364328681061, 292.838730557246322 ], [ 908.684427038859212, 294.687343098633107 ], [ 904.67909986451366, 320.87602076897241 ] ] ] } },
{ "type": "Feature", "properties": { "feature_type": "building", "subtype": "minor-damage", "uid": "1fc66f1a-cde5-4f87-8fe9-0213015bfb3b" }, "geometry": { "type": "Polygon", "coordinates": [ [ [ 0.000371799567154, 653.017914643496397 ], [ 5.520401996945488, 646.776452461669805 ], [ 2.11573877877777, 642.615197412025623 ], [ 15.7343916591186, 632.779503665128459 ], [ 20.46309057830317, 637.508202579505905 ], [ 29.353044536729438, 631.455467968270682 ], [ 40.134478068575497, 641.480309674239038 ], [ 5.520402000975464, 682.525416270587925 ], [ 0.000369777688698, 676.85135766204462 ], [ 0.000371799567154, 653.017914643496397 ] ] ] } },
{ "type": "Feature", "properties": { "feature_type": "building", "subtype": "minor-damage", "uid": "4c5485b1-9694-44c2-b201-0599367675b8" }, "geometry": { "type": "Polygon", "coordinates": [ [ [ 73.991962313151575, 668.717615435197558 ], [ 72.289630701402743, 653.774926855780564 ], [ 76.450885750264362, 653.018335029896207 ], [ 75.694293920090445, 642.993493328087879 ], [ 114.469625040452101, 637.31905462875477 ], [ 116.739400518753897, 659.449365555113559 ], [ 87.043171320049481, 665.123804256526682 ], [ 86.854023364878486, 669.095911347099786 ], [ 73.991962313151575, 668.717615435197558 ] ] ] } },
{ "type": "Feature", "properties": { "feature_type": "building", "subtype": "destroyed", "uid": "f109a60c-bed2-4b59-bf04-3b56ea44db77" }, "geometry": { "type": "Polygon", "coordinates": [ [ [ 185.913639947686789, 712.189025956756723 ], [ 169.229844263544805, 730.792956839436329 ], [ 148.617776920177107, 716.039416221170427 ], [ 157.886026795835306, 708.095202037944318 ], [ 139.727822954860898, 689.369554331185327 ], [ 149.37436874827111, 681.992784021012312 ], [ 152.779031964878811, 684.26255949866561 ], [ 159.399210449033205, 679.912156498270292 ], [ 185.913639947686789, 712.189025956756723 ] ] ] } },
{ "type": "Feature", "properties": { "feature_type": "building", "subtype": "destroyed", "uid": "40028a11-9f96-4637-bac3-33fb2d6baab1" }, "geometry": { "type": "Polygon", "coordinates": [ [ [ 239.73228387005679, 780.956057925294999 ], [ 213.648666156257889, 808.077092254442846 ], [ 199.273035936324192, 795.331688147057434 ], [ 207.424166475705107, 787.625164729419907 ], [ 186.972238946014812, 770.878296535399613 ], [ 206.534952232729097, 750.72277375976887 ], [ 239.73228387005679, 780.956057925294999 ] ] ] } },
{ "type": "Feature", "properties": { "feature_type": "building", "subtype": "destroyed", "uid": "dd6c369b-9361-4cf8-a30c-ebb1771ec514" }, "geometry": { "type": "Polygon", "coordinates": [ [ [ 310.110213769365885, 859.540783044947602 ], [ 289.368301382078187, 882.574275468694964 ], [ 273.415510176945077, 872.02454818556032 ], [ 279.468244788566608, 861.621410567689736 ], [ 273.793806085987114, 858.216747350169953 ], [ 276.631025437211804, 851.974864777783637 ], [ 267.551923515424619, 845.354686295575107 ], [ 277.198469306624816, 834.573252767882309 ], [ 310.110213769365885, 859.540783044947602 ] ] ] } },
{ "type": "Feature", "properties": { "feature_type": "building", "subtype": "no-damage", "uid": "f3e1ecb9-a667-4c5f-9e0c-9787ced61051" }, "geometry": { "type": "Polygon", "coordinates": [ [ [ 177.288389774074005, 988.033329460497498 ], [ 158.373594103445697, 980.656559150324597 ], [ 149.294492185298395, 988.979069243373033 ], [ 99.737727536990704, 987.276737636693156 ], [ 102.385798933564502, 976.306156145769364 ], [ 145.133237136696806, 944.340151472513298 ], [ 151.5642676649002, 945.096743296317754 ], [ 183.341124385825509, 969.875125620551898 ], [ 177.288389774074005, 988.033329460497498 ] ] ] } },
{ "type": "Feature", "properties": { "feature_type": "building", "subtype": "no-damage", "uid": "e5ac15f3-1259-4ac0-83a1-c9e92d0b482e" }, "geometry": { "type": "Polygon", "coordinates": [ [ [ 393.541220926105893, 980.441536848266992 ], [ 319.440034234597476, 976.736477506864389 ], [ 320.329248476143619, 956.580954731233533 ], [ 334.112069200283088, 957.173764225858008 ], [ 334.408473946035201, 952.283085901446498 ], [ 357.676246566349789, 952.727693024494783 ], [ 361.084901157578201, 945.613979103561519 ], [ 375.905138494059884, 952.431288275102588 ], [ 375.460531371661773, 957.321966599514099 ], [ 395.467851781944091, 963.398263902774602 ], [ 393.541220926105893, 980.441536848266992 ] ] ] } },
{ "type": "Feature", "properties": { "feature_type": "building", "subtype": "destroyed", "uid": "c3fe0240-71b5-4c6f-85d0-12d7fc675c87" }, "geometry": { "type": "Polygon", "coordinates": [ [ [ 522.004451478839769, 1012.391764406004995 ], [ 442.69122348350362, 1002.831904960350016 ], [ 445.966972900024302, 978.345132203766752 ], [ 524.334461113525435, 991.421677690050274 ], [ 522.004451478839769, 1012.391764406004995 ] ] ] } },
{ "type": "Feature", "properties": { "feature_type": "building", "subtype": "destroyed", "uid": "b3c4c165-2e5f-49e9-8d91-16bc240163c9" }, "geometry": { "type": "Polygon", "coordinates": [ [ [ 692.004921790107915, 912.444402732840331 ], [ 694.842141140812714, 952.543769546313683 ], [ 670.252906776444775, 978.078743692272269 ], [ 649.446631539546615, 960.109687809317734 ], [ 657.390845722767949, 952.922065456135897 ], [ 654.553626373103157, 948.004218584767273 ], [ 660.795508938855619, 939.303412581896623 ], [ 661.362952813208608, 927.765387222079539 ], [ 665.335059898709233, 926.81964743712399 ], [ 665.524207857520196, 909.607183380053925 ], [ 692.004921790107915, 912.444402732840331 ] ] ] } },
{ "type": "Feature", "properties": { "feature_type": "building", "subtype": "destroyed", "uid": "11360722-664c-4b37-955d-e77fb7145885" }, "geometry": { "type": "Polygon", "coordinates": [ [ [ 778.250268174170174, 1022.981446861169047 ], [ 761.834478860355148, 995.459392822664313 ], [ 769.778693038636447, 991.108989816029066 ], [ 770.535284868290319, 985.245403161784907 ], [ 774.507391955871071, 981.084148118380654 ], [ 806.268365298974913, 1022.981007763196999 ], [ 778.250268174170174, 1022.981446861169047 ] ] ] } },
{ "type": "Feature", "properties": { "feature_type": "building", "subtype": "destroyed", "uid": "740e4ca9-384b-45dd-81ed-eaccc192ece0" }, "geometry": { "type": "Polygon", "coordinates": [ [ [ 726.685942656506541, 772.545474140076635 ], [ 733.495269098041945, 824.182866309207157 ], [ 721.200651912608009, 823.993718350136078 ], [ 719.8766162179611, 829.28986113964686 ], [ 707.581999036167076, 827.965825440709182 ], [ 702.475004203520598, 801.674259464706211 ], [ 694.152494112037289, 801.863407421697275 ], [ 693.585050238854365, 789.947086152057864 ], [ 700.205228726648784, 789.001346369182443 ], [ 698.881193025891889, 779.733096489098443 ], [ 704.555631725351418, 778.598208751311859 ], [ 705.50137151147635, 771.5997343551212 ], [ 726.685942656506541, 772.545474140076635 ] ] ] } },
{ "type": "Feature", "properties": { "feature_type": "building", "subtype": "destroyed", "uid": "ce3b8629-d2d0-4964-a55c-5912d276a2b5" }, "geometry": { "type": "Polygon", "coordinates": [ [ [ 0.000360084814041, 761.285100179926872 ], [ 5.912499442025511, 761.663373053880605 ], [ 14.23500953077882, 764.122296492684882 ], [ 17.072228882133569, 771.499066802857783 ], [ 4.966759657720598, 788.522382902936897 ], [ 0.00035646485471, 786.25277031955352 ], [ 0.000360084814041, 761.285100179926872 ] ] ] } },
{ "type": "Feature", "properties": { "feature_type": "building", "subtype": "minor-damage", "uid": "9df7169d-1d4a-4b41-aed4-05df9713c619" }, "geometry": { "type": "Polygon", "coordinates": [ [ [ 109.072549977682698, 111.802467999999806 ], [ 113.112960500604501, 113.418632206985606 ], [ 114.931145232162393, 109.580242211494493 ], [ 121.597822587144407, 111.196406420560194 ], [ 124.224089427134601, 104.529729067524002 ], [ 131.2585590727507, 104.853757612953999 ], [ 133.921074672423089, 109.176201161308001 ], [ 133.921074670603105, 112.206509052266298 ], [ 145.032203596223212, 119.479247986822102 ], [ 163.214050930261493, 122.105514823433893 ], [ 163.214050930911498, 132.408561644787994 ], [ 157.355455680721803, 135.236849010653003 ], [ 157.153435151988703, 138.469177426704505 ], [ 151.092819372935907, 137.863115845184893 ], [ 150.052214738486299, 154.857595274871301 ], [ 143.011998335152214, 149.580306352591407 ], [ 131.900869408492213, 148.772224248058592 ], [ 129.678643625318102, 145.53989583200709 ], [ 130.082684674984307, 137.055033742732007 ], [ 127.052376789877897, 133.822705328760492 ], [ 122.607925215209903, 134.226746378947013 ], [ 119.779637852726594, 144.933834250487507 ], [ 115.335186285728597, 144.933834254647508 ], [ 98.971523684158086, 137.055033742732007 ], [ 106.648303669285596, 122.5095558736204 ], [ 104.830118934087807, 120.691371141541396 ], [ 103.820016305112304, 117.459042727569894 ], [ 109.072549977682698, 111.802467999999806 ] ] ] } },
{ "type": "Feature", "properties": { "feature_type": "building", "subtype": "destroyed", "uid": "8bf1fc4d-d203-497e-9d65-3b3f0b7ebe8a" }, "geometry": { "type": "Polygon", "coordinates": [ [ [ 252.852168262012214, 220.822736328750011 ], [ 257.90268141195952, 227.691434211039393 ], [ 251.640045108593597, 233.348008934449496 ], [ 245.105180597856105, 226.075269999893607 ], [ 252.852168262012214, 220.822736328750011 ] ] ] } },
{ "type": "Feature", "properties": { "feature_type": "building", "subtype": "destroyed", "uid": "4469e536-a179-43d0-bd1f-3471b1ca0de8" }, "geometry": { "type": "Polygon", "coordinates": [ [ [ 499.979912039286319, 145.2460224864015 ], [ 502.832442844137915, 146.362230191964613 ], [ 506.553135195839275, 159.012584183492891 ], [ 479.144034877064826, 167.818222746366189 ], [ 484.104958011279791, 185.677546033295613 ], [ 480.880357973364028, 186.545707581835813 ], [ 478.647942564059178, 191.134561479479686 ], [ 480.880357975053982, 197.955830788249699 ], [ 476.16748099487171, 199.320084654995611 ], [ 477.903804091561028, 206.141353961685695 ], [ 483.236796459880225, 208.249746293260387 ], [ 484.228981089791318, 212.466530958489813 ], [ 484.288099201767409, 220.338552260792198 ], [ 470.692351545455722, 222.991910990558807 ], [ 470.911012331608674, 227.56755903944341 ], [ 461.820088663289482, 229.183723246429111 ], [ 461.012006563307182, 226.759476932830609 ], [ 438.991769234950084, 232.416051662480612 ], [ 435.961461346983697, 230.597866926241693 ], [ 433.941256087602824, 221.30492273243371 ], [ 435.759440816950587, 218.274614845635398 ], [ 431.35999999977679, 203.859999999261504 ], [ 448.139473211683423, 201.567373688878604 ], [ 443.599999998925909, 172.049999999273211 ], [ 443.840261857984274, 172.011914403768714 ], [ 444.850364487219792, 168.375544939610791 ], [ 452.52714447117728, 166.961401255638293 ], [ 451.71906236729501, 162.314929161854309 ], [ 465.456458133165199, 158.072498116176689 ], [ 463.638273400567414, 149.385615499728289 ], [ 473.133238117772692, 147.365410240476194 ], [ 472.123135485937325, 144.335102351597897 ], [ 495.961557545852088, 136.860342891948903 ], [ 499.979912039286319, 145.2460224864015 ] ] ] } },
{ "type": "Feature", "properties": { "feature_type": "building", "subtype": "destroyed", "uid": "c0cdeab8-67e9-4738-910f-57d54040f7a4" }, "geometry": { "type": "Polygon", "coordinates": [ [ [ 1.37704955874618, 804.616172737966849 ], [ 14.01096811070737, 804.100502593943588 ], [ 13.237462895323, 813.640400275013349 ], [ 0.0003520529399, 813.898228491384089 ], [ 0.000353730970319, 803.672023994167034 ], [ 1.37704955874618, 804.616172737966849 ] ] ] } }
]
}
