{
"type": "FeatureCollection",
"name": "socal-fire_00000487_post_disaster",
"features": [
{ "type": "Feature", "properties": { "feature_type": "building", "subtype": "no-damage", "uid": "ac3a3ac7-5d26-4a83-b988-d73c6c2aabe8" }, "geometry": { "type": "Polygon", "coordinates": [ [ [ 331.332503678609214, 0.008546342702849 ], [ 326.029778041327177, 11.82331985753839 ], [ 300.777866022726926, 2.491091500335669 ], [ 302.419259788885483, 0.008274604111711 ], [ 331.332503678609214, 0.008546342702849 ] ] ] } },
{ "type": "Feature", "properties": { "feature_type": "building", "subtype": "no-damage", "uid": "3d0ded30-e771-4143-8cc3-6f1fe7761ce5" }, "geometry": { "type": "Polygon", "coordinates": [ [ [ 305.951624203063091, 5.367663330611217 ], [ 311.667331467481915, 7.526930519523582 ], [ 304.004049881250978, 24.970422307827612 ], [ 298.542374052040714, 22.726477973295019 ], [ 305.951624203063091, 5.367663330611217 ] ] ] } },
{ "type": "Feature", "properties": { "feature_type": "building", "subtype": "no-damage", "uid": "ede99c84-e971-4620-af7f-423d71560303" }, "geometry": { "type": "Polygon", "coordinates": [ [ [ 400.644169026261693, 0.009032828662451 ], [ 392.898308891148986, 18.519309875360811 ], [ 384.254479831075514, 18.519309874344 ], [ 381.273849122230388, 28.057328147525141 ], [ 362.793938714884689, 24.182508227985441 ], [ 362.495875643212116, 26.567012791196671 ], [ 365.476506355615982, 28.355391220214361 ], [ 363.986190999414077, 32.230211142804492 ], [ 332.39150546809168, 24.480571298641049 ], [ 337.456797973440814, 0.008598706420047 ], [ 400.644169026261693, 0.009032828662451 ] ] ] } },
{ "type": "Feature", "properties": { "feature_type": "building", "subtype": "no-damage", "uid": "f1c12e3d-6b90-4373-9a11-3c8675303caa" }, "geometry": { "type": "Polygon", "coordinates": [ [ [ 444.76128325527668, 13.750300739787059 ], [ 450.722544676271411, 14.94255302240949 ], [ 451.616733893068385, 11.06773310185298 ], [ 467.414076659174384, 15.836742234376301 ], [ 446.549661683913826, 69.786158096251427 ], [ 426.281372851235574, 61.142329037070731 ], [ 444.76128325527668, 13.750300739787059 ] ] ] } },
{ "type": "Feature", "properties": { "feature_type": "building", "subtype": "no-damage", "uid": "a0849d85-3317-4246-8396-0ce550a6b17a" }, "geometry": { "type": "Polygon", "coordinates": [ [ [ 473.94301006729512, 0.009294047330133 ], [ 468.707602801036728, 8.202890763549288 ], [ 451.949090083550004, 3.099475366775064 ], [ 452.017849500044292, 0.009243199677681 ], [ 473.94301006729512, 0.009294047330133 ] ] ] } },
{ "type": "Feature", "properties": { "feature_type": "building", "subtype": "no-damage", "uid": "c961ae0f-7024-49ad-b99b-e514994497bd" }, "geometry": { "type": "Polygon", "coordinates": [ [ [ 493.695138909624404, 0.009319910926984 ], [ 502.362558389134279, 3.651195951309369 ], [ 496.017771678553572, 18.13386126788102 ], [ 474.293773708136598, 8.68564627552521 ], [ 477.807226369437728, 0.00930059355739 ], [ 493.695138909624404, 0.009319910926984 ] ] ] } },
{ "type": "Feature", "properties": { "feature_type": "building", "subtype": "no-damage", "uid": "9bb99808-7a5a-49be-a5e0-ccc4c4c9b13b" }, "geometry": { "type": "Polygon", "coordinates": [ [ [ 503.662931172813728, 11.584328086994709 ], [ 507.363600545735892, 3.546673971648007 ], [ 526.786157801418312, 12.12393632389321 ], [ 519.249037655663528, 26.894574271216509 ], [ 516.559399810887612, 26.687679052524551 ], [ 498.490550706021111, 18.963590885313241 ], [ 501.800874205348009, 10.963642426851591 ], [ 503.662931172813728, 11.584328086994709 ] ] ] } },
{ "type": "Feature", "properties": { "feature_type": "building", "subtype": "no-damage", "uid": "82213fe7-cbfa-41a3-a122-69a4b7870c8e" }, "geometry": { "type": "Polygon", "coordinates": [ [ [ 553.384422047433191, 0.009283189825526 ], [ 553.607977428985919, 1.864980824668415 ], [ 549.78852498127219, 14.10969602675809 ], [ 532.376315291393894, 8.717527863427796 ], [ 535.855037534364214, 0.009311877105679 ], [ 553.384422047433191, 0.009283189825526 ] ] ] } },
{ "type": "Feature", "properties": { "feature_type": "building", "subtype": "no-damage", "uid": "c73cb5a2-20e4-4e26-af3d-c96500e09127" }, "geometry": { "type": "Polygon", "coordinates": [ [ [ 517.863279734168032, 46.028485682301749 ], [ 520.425067909113295, 47.492364635708711 ], [ 527.927447566425712, 50.054152813830612 ], [ 537.442660789376077, 52.981910726745397 ], [ 540.919373314903851, 56.458623251000859 ], [ 527.744462694072126, 93.604551803264002 ], [ 503.224490153955117, 84.821278056385125 ], [ 503.773444763389421, 81.344565530096048 ], [ 517.863279734168032, 46.028485682301749 ] ] ] } },
{ "type": "Feature", "properties": { "feature_type": "building", "subtype": "no-damage", "uid": "008157a7-582f-4836-8e3c-88804d0cce79" }, "geometry": { "type": "Polygon", "coordinates": [ [ [ 556.65607210877431, 19.12970982930764 ], [ 571.843816295879492, 24.619255922377949 ], [ 575.503513690837394, 17.116876263543212 ], [ 581.176044654356701, 18.580755221017419 ], [ 573.307695256913121, 44.564606716693049 ], [ 568.184118902701016, 55.726683771246947 ], [ 560.681739245134509, 76.769943789260154 ], [ 542.017282531993033, 69.4505490008723 ], [ 542.932206882194237, 64.143987778248871 ], [ 556.65607210877431, 19.12970982930764 ] ] ] } },
{ "type": "Feature", "properties": { "feature_type": "building", "subtype": "no-damage", "uid": "c692506d-47ce-425f-90e6-8a4fd4e982e2" }, "geometry": { "type": "Polygon", "coordinates": [ [ [ 531.404160089919742, 11.26136043262956 ], [ 534.148933134295248, 11.444345302059631 ], [ 552.447420110101575, 18.763740087397061 ], [ 542.200267404473607, 48.407288984892702 ], [ 531.038190352711808, 42.185803415118897 ], [ 529.574311391169886, 47.126394895831758 ], [ 524.816704780393707, 46.028485680268133 ], [ 520.608052779178934, 43.283712630682537 ], [ 531.404160089919742, 11.26136043262956 ] ] ] } },
{ "type": "Feature", "properties": { "feature_type": "building", "subtype": "no-damage", "uid": "32f96562-e122-4fa8-9d7b-69611be05309" }, "geometry": { "type": "Polygon", "coordinates": [ [ [ 583.920817697842494, 31.389696099425159 ], [ 601.487365189319007, 37.794166536595412 ], [ 595.265879623101682, 55.909668642710628 ], [ 576.967392650091597, 49.871167939316479 ], [ 583.920817697842494, 31.389696099425159 ] ] ] } },
{ "type": "Feature", "properties": { "feature_type": "building", "subtype": "no-damage", "uid": "d5d0da6c-cba1-4d00-9b0b-fc2a2075400e" }, "geometry": { "type": "Polygon", "coordinates": [ [ [ 604.04915336489978, 39.075060626673171 ], [ 604.964077716498991, 38.709090888829827 ], [ 626.739277211859303, 47.858334374568862 ], [ 622.164655466954514, 61.94816934305436 ], [ 599.108561885710287, 52.066986375527797 ], [ 604.04915336489978, 39.075060626673171 ] ] ] } },
{ "type": "Feature", "properties": { "feature_type": "building", "subtype": "no-damage", "uid": "54659743-2f85-4e92-ad21-8b3aa8a37c60" }, "geometry": { "type": "Polygon", "coordinates": [ [ [ 632.228823305694277, 44.015652110436449 ], [ 647.233582617522757, 49.871167939316479 ], [ 641.561051658324914, 66.705775955353957 ], [ 625.458383122416649, 60.850260121389873 ], [ 632.228823305694277, 44.015652110436449 ] ] ] } },
{ "type": "Feature", "properties": { "feature_type": "building", "subtype": "no-damage", "uid": "f19615bb-da3c-4189-bd99-4e6d3033f878" }, "geometry": { "type": "Polygon", "coordinates": [ [ [ 573.61589434537666, 59.049296750444498 ], [ 573.98186408576214, 58.866311882031233 ], [ 591.914381315590504, 64.904812581358144 ], [ 574.776343959223595, 112.509897463776994 ], [ 553.704198612763093, 105.219387997727694 ], [ 565.930529818252921, 65.636752060095247 ], [ 570.505151559980163, 67.649585628910117 ], [ 573.61589434537666, 59.049296750444498 ] ] ] } },
{ "type": "Feature", "properties": { "feature_type": "building", "subtype": "no-damage", "uid": "94c10563-b2ea-49b6-97cc-a119d82dac9c" }, "geometry": { "type": "Polygon", "coordinates": [ [ [ 594.716925009981423, 65.973836477633654 ], [ 618.687942945748205, 74.940095090892186 ], [ 614.479290942499915, 84.455308315491351 ], [ 613.381381724139601, 85.553217534105414 ], [ 611.7345178974889, 85.553217534105414 ], [ 609.538699458226347, 85.736202403535486 ], [ 608.989744847648126, 86.46814188430622 ], [ 608.806759981268328, 88.480975450070645 ], [ 612.283472507050305, 89.944854409578483 ], [ 601.85333492919608, 118.124524343499004 ], [ 577.882316998767465, 109.707220335480301 ], [ 594.716925009981423, 65.973836477633654 ] ] ] } },
{ "type": "Feature", "properties": { "feature_type": "building", "subtype": "no-damage", "uid": "a46669bb-df05-4af6-9b98-59436e97d7c4" }, "geometry": { "type": "Polygon", "coordinates": [ [ [ 619.419882422833211, 78.416807618198064 ], [ 619.602867291373741, 78.416807615147633 ], [ 625.82435286420025, 78.782777358075023 ], [ 640.097172701104341, 85.553217533088613 ], [ 623.262564689890382, 141.546587667153688 ], [ 609.538699458988958, 138.435844881758413 ], [ 600.938410582299525, 132.397344184465112 ], [ 601.304380322176598, 126.724813220947894 ], [ 619.419882422833211, 78.416807618198064 ] ] ] } },
{ "type": "Feature", "properties": { "feature_type": "building", "subtype": "no-damage", "uid": "bd0b4c24-77b1-4199-85f5-7aea55370808" }, "geometry": { "type": "Polygon", "coordinates": [ [ [ 668.014209655742434, 104.306702618921904 ], [ 694.170713783243514, 115.516632956715199 ], [ 690.200530125880391, 129.529045881498689 ], [ 685.763266030657974, 141.673137085350305 ], [ 679.691220428729935, 155.45200979794069 ], [ 653.301176085476868, 145.176240320105109 ], [ 668.014209655742434, 104.306702618921904 ] ] ] } },
{ "type": "Feature", "properties": { "feature_type": "building", "subtype": "no-damage", "uid": "ebde29b8-45b6-4ad8-86f9-747ebbb5e8c7" }, "geometry": { "type": "Polygon", "coordinates": [ [ [ 700.805802491839927, 61.10775522423743 ], [ 715.285295850166449, 65.778559529109245 ], [ 708.979710034647042, 85.162397409579427 ], [ 694.733756893343525, 79.790972455926408 ], [ 700.805802491839927, 61.10775522423743 ] ] ] } },
{ "type": "Feature", "properties": { "feature_type": "building", "subtype": "no-damage", "uid": "e1a82297-165b-4c33-a2bb-3dbc1f0e47f3" }, "geometry": { "type": "Polygon", "coordinates": [ [ [ 723.413390390726931, 84.438273349344783 ], [ 749.031272152636006, 94.685426053697881 ], [ 722.681450910083072, 161.840873236215998 ], [ 698.161478370855662, 152.325660011616804 ], [ 723.413390390726931, 84.438273349344783 ] ] ] } },
{ "type": "Feature", "properties": { "feature_type": "building", "subtype": "no-damage", "uid": "86a8788b-a87d-4b3e-ba9e-de6587424e73" }, "geometry": { "type": "Polygon", "coordinates": [ [ [ 753.239924156647021, 95.600350400848257 ], [ 757.448576159259801, 86.085137175232262 ], [ 803.560763326323922, 106.3964577134916 ], [ 801.913899499800323, 111.5200340666849 ], [ 791.117792183212828, 145.189250090625393 ], [ 795.326444187096627, 152.142675140153102 ], [ 795.692413930659654, 165.317585759454602 ], [ 788.190034269788498, 167.879373939610105 ], [ 787.458094792067982, 176.296677944578391 ], [ 768.766891570095936, 198.218167544697394 ], [ 722.619647326257791, 179.199545443040705 ], [ 726.341148305295178, 161.657888366785897 ], [ 753.239924156647021, 95.600350400848257 ] ] ] } },
{ "type": "Feature", "properties": { "feature_type": "building", "subtype": "no-damage", "uid": "a80e938d-4db1-46c1-bdc3-620cf987f71c" }, "geometry": { "type": "Polygon", "coordinates": [ [ [ 810.324128948141833, 151.180019321651088 ], [ 812.336962517211646, 150.814049583807787 ], [ 825.694858002897831, 158.499414110038998 ], [ 822.584115219026557, 165.81880890046051 ], [ 828.256646180258031, 169.661491162559201 ], [ 811.788007909429666, 206.807419714822402 ], [ 808.31129538237667, 206.258465105515313 ], [ 806.115476948579499, 207.356374325146191 ], [ 787.451020236073646, 200.402949272568094 ], [ 810.324128948141833, 151.180019321651088 ] ] ] } },
{ "type": "Feature", "properties": { "feature_type": "building", "subtype": "no-damage", "uid": "4bb0bd9c-ed14-4b6f-8fcc-789535143332" }, "geometry": { "type": "Polygon", "coordinates": [ [ [ 824.413963919047546, 126.294077040522296 ], [ 838.869768624746257, 133.064517220619905 ], [ 832.099328444646176, 147.703306797395612 ], [ 817.826508609013104, 140.566896878437888 ], [ 824.413963919047546, 126.294077040522296 ] ] ] } },
{ "type": "Feature", "properties": { "feature_type": "building", "subtype": "no-damage", "uid": "242eb818-4dcd-4066-b844-aa62901d2e6e" }, "geometry": { "type": "Polygon", "coordinates": [ [ [ 843.64979888680125, 145.690107099452803 ], [ 861.148769379928467, 155.200417154079389 ], [ 839.465262460928557, 198.187018584153094 ], [ 851.638459329111356, 201.610730202720589 ], [ 862.670418987164339, 173.46021245005511 ], [ 881.3106266864811, 180.68804809230349 ], [ 856.58382055262814, 229.761247955386011 ], [ 812.788007906708344, 206.807419713805587 ], [ 843.64979888680125, 145.690107099452803 ] ] ] } },
{ "type": "Feature", "properties": { "feature_type": "building", "subtype": "no-damage", "uid": "ec1298c0-b8bd-4e65-a1ca-8a430b9aa3e2" }, "geometry": { "type": "Polygon", "coordinates": [ [ [ 928.24258934865577, 182.970522500614493 ], [ 949.165271462131159, 194.00248216044281 ], [ 915.688980079426642, 260.574652522492727 ], [ 883.473289611563246, 244.742024479081891 ], [ 894.090484157409264, 224.466819177661705 ], [ 912.265268460095399, 233.945784375029007 ], [ 924.818877727672202, 203.893204612048407 ], [ 918.732279293390206, 201.230317798623901 ], [ 928.24258934865577, 182.970522500614493 ] ] ] } },
{ "type": "Feature", "properties": { "feature_type": "building", "subtype": "no-damage", "uid": "77897ae9-50ab-4a3c-938e-d8e4abebd91e" }, "geometry": { "type": "Polygon", "coordinates": [ [ [ 974.77123959883636, 226.085206055772602 ], [ 998.19330292135578, 237.430267976706091 ], [ 973.490345512952445, 291.410804541956281 ], [ 918.411899729321817, 265.975907651520515 ], [ 931.403825477545865, 237.430267975689304 ], [ 962.511253330112368, 252.800997034252589 ], [ 974.77123959883636, 226.085206055772602 ] ] ] } },
{ "type": "Feature", "properties": { "feature_type": "building", "subtype": "no-damage", "uid": "c5be4a52-3c49-49a6-82ab-4df80aac2eec" }, "geometry": { "type": "Polygon", "coordinates": [ [ [ 964.15811715955931, 197.356581509494589 ], [ 1008.257470756282032, 219.680735613518294 ], [ 1000.023151623155968, 236.332358758092113 ], [ 955.191858539433952, 214.191189522481608 ], [ 964.15811715955931, 197.356581509494589 ] ] ] } },
{ "type": "Feature", "properties": { "feature_type": "building", "subtype": "no-damage", "uid": "80a71d57-969d-46d3-8717-4923dc5b2f2e" }, "geometry": { "type": "Polygon", "coordinates": [ [ [ 1022.820725047192013, 248.579730282543608 ], [ 1006.610606932808992, 238.34519232589011 ], [ 1013.198062242590026, 222.242523791640195 ], [ 1022.820746521216961, 227.621798876696005 ], [ 1022.820725047192013, 248.579730282543608 ] ] ] } },
{ "type": "Feature", "properties": { "feature_type": "building", "subtype": "no-damage", "uid": "467f294b-ddf6-444e-97c3-d01ff5cc2746" }, "geometry": { "type": "Polygon", "coordinates": [ [ [ 1022.820663663093001, 320.540270465814217 ], [ 1002.681207617774021, 309.55886399616071 ], [ 1016.392108886494043, 280.348683030221991 ], [ 1022.820692122352966, 284.378443344390575 ], [ 1022.820663663093001, 320.540270465814217 ] ] ] } },
{ "type": "Feature", "properties": { "feature_type": "building", "subtype": "no-damage", "uid": "b8202246-85ec-4c45-8494-913d3095059b" }, "geometry": { "type": "Polygon", "coordinates": [ [ [ 455.607322873914711, 59.201937739534678 ], [ 471.254517309730602, 19.26656089830912 ], [ 491.105435621712218, 27.67400865317925 ], [ 477.793643342273128, 48.225547610884192 ], [ 483.16506829287772, 49.860329118606138 ], [ 477.326562910387679, 68.076465924891977 ], [ 455.607322873914711, 59.201937739534678 ] ] ] } },
{ "type": "Feature", "properties": { "feature_type": "building", "subtype": "no-damage", "uid": "98fcca58-5a8d-4830-8f76-1c96e6069dcf" }, "geometry": { "type": "Polygon", "coordinates": [ [ [ 480.129045491786599, 68.543546356395979 ], [ 485.967550881775708, 52.662811703562838 ], [ 491.80605626413859, 54.297593216368838 ], [ 493.907918204636303, 47.758467183447443 ], [ 492.273136697168013, 46.824306318405839 ], [ 498.5787225112893, 29.075249947691219 ], [ 517.729020180336079, 37.716237917804939 ], [ 502.315365961797397, 76.483913679762111 ], [ 480.129045491786599, 68.543546356395979 ] ] ] } }
]
}
