{
"type": "FeatureCollection",
"name": "socal-fire_00000111_post_disaster",
"features": [
{ "type": "Feature", "properties": { "feature_type": "building", "subtype": "un-classified", "uid": "67df6feb-7667-4573-a002-ac412b23765d" }, "geometry": { "type": "Polygon", "coordinates": [ [ [ 49.456318400239041, 361.422081667236284 ], [ 11.275538661396411, 359.100277496367823 ], [ 11.146549539817681, 356.262516838675992 ], [ -0.000000883466771, 355.465350218530716 ], [ -0.00000088435685, 339.75427716896678 ], [ 12.178462503800979, 339.622920260440083 ], [ 49.585307522072071, 340.654833226965877 ], [ 49.456318400239041, 361.422081667236284 ] ] ] } }
]
}
