{
"type": "FeatureCollection",
"name": "socal-fire_00000281_post_disaster",
"features": [
{ "type": "Feature", "properties": { "feature_type": "building", "subtype": "no-damage", "uid": "e2de9fed-379b-441d-9522-0b631a12f096" }, "geometry": { "type": "Polygon", "coordinates": [ [ [ -0.000000818913914, 422.571164634158322 ], [ 14.946674647410701, 426.014515612711875 ], [ 10.497469647987129, 448.945033667375412 ], [ 29.66327577934641, 456.132210964630474 ], [ 23.16059155972464, 475.640263634419284 ], [ -0.000000820184927, 470.1643190285846 ], [ -0.000000818913914, 422.571164634158322 ] ] ] } },
{ "type": "Feature", "properties": { "feature_type": "building", "subtype": "no-damage", "uid": "940003dc-6365-461b-8b57-2de53315d288" }, "geometry": { "type": "Polygon", "coordinates": [ [ [ -0.000000822091447, 345.260877385740628 ], [ 5.233697267113899, 349.283264157847611 ], [ 8.451606679259024, 345.529036505304589 ], [ 22.127721699241949, 350.624059747533124 ], [ 22.127721699369051, 357.059878578430073 ], [ 35.535677593432808, 362.691220051652124 ], [ 32.585927299707869, 372.613107418578579 ], [ -0.000000821964346, 358.278503650263417 ], [ -0.000000822091447, 345.260877385740628 ] ] ] } },
{ "type": "Feature", "properties": { "feature_type": "building", "subtype": "no-damage", "uid": "a568f556-b03b-44fa-b859-63d7f003334a" }, "geometry": { "type": "Polygon", "coordinates": [ [ [ 68.237995563107717, 371.092918357209385 ], [ 74.945429845048466, 374.704613735704811 ], [ 77.396223138725546, 370.189994512585599 ], [ 96.486613007624157, 379.606200325599104 ], [ 112.997220463764805, 371.221907478450987 ], [ 124.219273967555395, 387.216558447331408 ], [ 97.905493336960646, 399.857492282233125 ], [ 94.293797957447154, 409.918643701454528 ], [ 78.428136103701632, 415.852143255180579 ], [ 58.305833266268088, 398.180633713210227 ], [ 58.821789752886929, 395.213883936855609 ], [ 56.370996457938837, 392.763090641400026 ], [ 61.530561285742628, 385.410710759100482 ], [ 60.885615682839109, 381.928004498796327 ], [ 68.237995563107717, 371.092918357209385 ] ] ] } },
{ "type": "Feature", "properties": { "feature_type": "building", "subtype": "no-damage", "uid": "0e519d82-abec-4eef-badb-a7c572b46ff3" }, "geometry": { "type": "Polygon", "coordinates": [ [ [ 115.942106585766197, 545.420698302560368 ], [ 153.083872589467404, 569.561837518254947 ], [ 142.357507871343898, 592.891680781019545 ], [ 118.491346370586299, 587.796657540824754 ], [ 98.111253408147107, 563.394177804888159 ], [ 115.942106585766197, 545.420698302560368 ] ] ] } },
{ "type": "Feature", "properties": { "feature_type": "building", "subtype": "no-damage", "uid": "0b2b8a36-53c8-46bb-a3c5-a712d87373ec" }, "geometry": { "type": "Polygon", "coordinates": [ [ [ 149.878425854754397, 479.353751548306491 ], [ 169.871739571454697, 492.768620108624191 ], [ 160.3706989859337, 505.178695985417789 ], [ 172.717681726409211, 521.476713206220325 ], [ 145.225066819987688, 546.664557999602721 ], [ 128.597796726252312, 519.336569528892142 ], [ 141.830701460569003, 497.226710083790522 ], [ 137.208288377294991, 493.024516368166019 ], [ 149.878425854754397, 479.353751548306491 ] ] ] } },
{ "type": "Feature", "properties": { "feature_type": "building", "subtype": "no-damage", "uid": "d3b7a1e4-cb1d-4964-b92f-6852fa36b021" }, "geometry": { "type": "Polygon", "coordinates": [ [ [ 189.608529505417607, 494.044249024802411 ], [ 197.605854991131793, 497.397966165898481 ], [ 189.608529503129802, 515.198464828093734 ], [ 180.708280171774589, 510.167889118991525 ], [ 189.608529505417607, 494.044249024802411 ] ] ] } },
{ "type": "Feature", "properties": { "feature_type": "building", "subtype": "no-damage", "uid": "d7441582-7015-428f-b959-663359799e2c" }, "geometry": { "type": "Polygon", "coordinates": [ [ [ 161.465365266428989, 437.252144948620298 ], [ 195.131525781867992, 436.091242860496493 ], [ 195.389504024605401, 431.189656271619015 ], [ 216.543719827904795, 430.157743305753627 ], [ 217.059676310329309, 433.511460445832881 ], [ 217.962600154063693, 433.769438686282513 ], [ 217.962600156351613, 440.863840328132426 ], [ 212.932024447374488, 450.667013502837108 ], [ 204.289753354435305, 450.280046142162689 ], [ 202.483905666458014, 468.725490406498579 ], [ 199.001199404245995, 471.821229309178875 ], [ 196.937373471116302, 473.369098758993914 ], [ 191.648819522579288, 472.853142271993875 ], [ 191.519830399558202, 470.918305460487886 ], [ 160.304463181609293, 472.466174911319627 ], [ 161.465365266428989, 437.252144948620298 ] ] ] } },
{ "type": "Feature", "properties": { "feature_type": "building", "subtype": "no-damage", "uid": "79bb5ed7-11f8-4cbf-8fcd-7d2a85880770" }, "geometry": { "type": "Polygon", "coordinates": [ [ [ 175.106367816333204, 375.271030251666787 ], [ 199.306453993105208, 376.258788869938485 ], [ 202.928235600892691, 371.813875081614981 ], [ 231.079356254057586, 368.685972788048673 ], [ 233.548752799229391, 401.282007227620113 ], [ 172.472344834952196, 403.422150902914723 ], [ 175.106367816333204, 375.271030251666787 ] ] ] } },
{ "type": "Feature", "properties": { "feature_type": "building", "subtype": "no-damage", "uid": "4aa66511-ebb4-4c6c-b149-50179ed87c72" }, "geometry": { "type": "Polygon", "coordinates": [ [ [ 115.943733980734905, 192.187348342786407 ], [ 136.860145181285503, 198.891326290196986 ], [ 139.273577241856003, 190.042075398476101 ], [ 156.43576079240421, 198.891326290196986 ], [ 153.754169612778014, 205.595304239641308 ], [ 182.715354351698693, 240.455989574514689 ], [ 179.765604055431794, 264.590310189870479 ], [ 160.189988444058912, 276.121152264012778 ], [ 146.513873428397403, 254.9365819435248 ], [ 155.363124320502891, 249.841558703330008 ], [ 154.558646967021787, 245.819171933256712 ], [ 105.485528379633493, 217.126146313783693 ], [ 115.943733980734905, 192.187348342786407 ] ] ] } },
{ "type": "Feature", "properties": { "feature_type": "building", "subtype": "no-damage", "uid": "a8ca9631-2f39-4120-a5c3-0d7d7eeb7bcb" }, "geometry": { "type": "Polygon", "coordinates": [ [ [ 216.623826854557507, 133.724889960045004 ], [ 227.917962612929301, 120.035028433765007 ], [ 226.206729919982905, 114.559083824879906 ], [ 237.158619136994702, 112.163358062178602 ], [ 266.591821410907073, 155.970914932242692 ], [ 242.976810288767098, 170.003022993146288 ], [ 216.623826854557507, 133.724889960045004 ] ] ] } },
{ "type": "Feature", "properties": { "feature_type": "building", "subtype": "no-damage", "uid": "9b809d0d-db6b-41ca-84d3-7f20e4c05a04" }, "geometry": { "type": "Polygon", "coordinates": [ [ [ 262.080306445001213, 187.932876480684314 ], [ 280.219372963338117, 176.296494186549211 ], [ 292.198001798710493, 197.173533005000394 ], [ 276.454661043584224, 207.098682610765394 ], [ 262.080306445001213, 187.932876480684314 ] ] ] } },
{ "type": "Feature", "properties": { "feature_type": "building", "subtype": "no-damage", "uid": "b2a2c9f7-f6f1-4f2d-88fe-b24c67894604" }, "geometry": { "type": "Polygon", "coordinates": [ [ [ 226.558943451022998, 255.867940825022004 ], [ 269.33976070757268, 269.900048884908813 ], [ 259.414611102947902, 296.253032316312272 ], [ 246.751489197057111, 295.226292702273497 ], [ 242.986777278192903, 303.097963075893517 ], [ 226.558943451531405, 298.306511546423678 ], [ 232.719381136529506, 276.744979646523575 ], [ 220.056259228350797, 270.584541962290416 ], [ 226.558943451022998, 255.867940825022004 ] ] ] } },
{ "type": "Feature", "properties": { "feature_type": "building", "subtype": "destroyed", "uid": "39843a79-d336-4f38-b274-6a467f68dd74" }, "geometry": { "type": "Polygon", "coordinates": [ [ [ 121.692894422785002, 964.335526234567283 ], [ 137.514282381105204, 968.626072124204597 ], [ 152.263033872099697, 959.508662112919637 ], [ 154.676465933432809, 950.391252101634677 ], [ 167.011785359662497, 954.413638871708031 ], [ 164.598353295278997, 961.922094174760218 ], [ 176.665513604232387, 965.676321822219165 ], [ 173.447604189036809, 975.598209192196009 ], [ 146.899851510686602, 993.028551856073932 ], [ 134.296372966036699, 989.274324204547725 ], [ 134.832691202241591, 983.106664492197865 ], [ 117.4023485372133, 978.011641250986258 ], [ 121.692894422785002, 964.335526234567283 ] ] ] } },
{ "type": "Feature", "properties": { "feature_type": "building", "subtype": "no-damage", "uid": "1f66cddb-7999-4da0-b4ef-f87448a848e5" }, "geometry": { "type": "Polygon", "coordinates": [ [ [ 474.173339480975415, 959.339860317972352 ], [ 475.269999182361119, 958.480000475513975 ], [ 502.229999184785811, 993.68000047508508 ], [ 500.18477392439172, 995.005023008487228 ], [ 491.871841266584624, 1010.826410966166009 ], [ 480.340999191166873, 997.418455071344738 ], [ 467.201202414506497, 1000.904523605340046 ], [ 457.547474169428313, 990.178158884806066 ], [ 468.005679768750213, 978.379157695166896 ], [ 459.156428873085872, 956.658269142668587 ], [ 468.541998001904687, 948.88165471903551 ], [ 474.173339480975415, 959.339860317972352 ] ] ] } },
{ "type": "Feature", "properties": { "feature_type": "building", "subtype": "no-damage", "uid": "7d4b64d1-8ecb-4844-89cd-b0f550cbd7ad" }, "geometry": { "type": "Polygon", "coordinates": [ [ [ 520.564866885814126, 981.865226226112213 ], [ 502.659999182828813, 993.410000475681386 ], [ 475.659999183222908, 958.170000475370102 ], [ 490.262886558986793, 946.736381777775705 ], [ 520.564866885814126, 981.865226226112213 ] ] ] } },
{ "type": "Feature", "properties": { "feature_type": "building", "subtype": "no-damage", "uid": "121a9434-2087-41e5-9e0d-9b5dd850835e" }, "geometry": { "type": "Polygon", "coordinates": [ [ [ 502.897890658197525, 1022.985474543802979 ], [ 503.615108993431818, 1020.29590565379101 ], [ 493.079017054180781, 1016.344871176636957 ], [ 499.993327390728325, 1000.211480392551948 ], [ 503.375828437974008, 1000.102485064051052 ], [ 505.609483452057418, 993.029244197392472 ], [ 517.398218234571686, 984.590991927617893 ], [ 535.38801125400289, 992.474037871911037 ], [ 532.424735394611048, 999.552974644665028 ], [ 539.503672166477941, 1001.528491885276026 ], [ 534.400252636239202, 1015.850991867500966 ], [ 540.1621779142381, 1017.661882666310021 ], [ 538.335838781453731, 1022.985457724736989 ], [ 502.897890658197525, 1022.985474543802979 ] ] ] } },
{ "type": "Feature", "properties": { "feature_type": "building", "subtype": "no-damage", "uid": "add57b47-1660-4cf8-9f3b-dac369cb1952" }, "geometry": { "type": "Polygon", "coordinates": [ [ [ 437.583701689904387, 795.219507056893121 ], [ 452.417450577402917, 792.510735522004779 ], [ 457.706004525812773, 809.150332098109743 ], [ 445.323048934914823, 813.14899484236355 ], [ 437.583701689904387, 795.219507056893121 ] ] ] } },
{ "type": "Feature", "properties": { "feature_type": "building", "subtype": "no-damage", "uid": "63825635-fea9-4ba4-9b01-e85f9adec548" }, "geometry": { "type": "Polygon", "coordinates": [ [ [ 992.871184915920367, 776.872824888394462 ], [ 1018.504566570333964, 784.016554201193912 ], [ 1005.477766058731959, 838.434962796212744 ], [ 1010.94061788619797, 842.847266195533962 ], [ 1005.267656374144963, 861.547028222487938 ], [ 1010.100179144292952, 871.212073763035278 ], [ 1008.839521031182016, 877.305254651250152 ], [ 1011.991166314087991, 885.499532393718368 ], [ 1008.839521031943946, 894.324139192360917 ], [ 1012.411385686438962, 902.518416935846062 ], [ 1009.679959774866006, 907.981268762802415 ], [ 1012.621495371788001, 913.654230276506041 ], [ 1010.310288831041021, 914.914888392921966 ], [ 1011.360837259565983, 919.747411160653655 ], [ 998.964365800832866, 926.681030788739577 ], [ 989.92964931569395, 915.335107761332324 ], [ 974.171422889722066, 911.132914046724636 ], [ 970.59955823421069, 902.518416934829247 ], [ 970.599558235100403, 900.207210390778187 ], [ 963.455828920518798, 896.635345734378348 ], [ 963.035609550074696, 892.43315202180429 ], [ 956.101989919698326, 879.826570881031557 ], [ 957.362648032810057, 876.464815905278101 ], [ 951.899796206741371, 865.118892881938109 ], [ 952.527571546540003, 855.219705152862389 ], [ 949.378479977213146, 851.881982682957414 ], [ 934.670801981291788, 842.427046826106903 ], [ 930.888827636109795, 827.719368829047085 ], [ 933.200034181686988, 820.57563951421389 ], [ 936.771898836562855, 813.221800515683981 ], [ 946.276156702001913, 805.736359113113735 ], [ 955.398815356135742, 801.94872299617316 ], [ 959.601009066169468, 799.847626138869259 ], [ 973.468248324888577, 804.890258599448998 ], [ 981.032197010676896, 808.882342623242266 ], [ 992.871184915920367, 776.872824888394462 ] ] ] } }
]
}
