{
"type": "FeatureCollection",
"name": "socal-fire_00000809_post_disaster",
"features": [
{ "type": "Feature", "properties": { "feature_type": "building", "subtype": "no-damage", "uid": "b390d840-86b5-4f33-924d-4acaf3cb9600" }, "geometry": { "type": "Polygon", "coordinates": [ [ [ 1022.843923851288992, 53.03649629436763 ], [ 1006.96570971879396, 49.275916785811589 ], [ 1002.967046974579034, 52.113677440748269 ], [ 988.332426111943164, 48.756692283247389 ], [ 983.587602624046099, 38.844266130449498 ], [ 988.906848781435997, 7.519287500877065 ], [ 993.591746968738676, 3.855704649721916 ], [ 995.551237715678326, 1.432815791923875 ], [ 1011.263256514055001, 2.005502201277102 ], [ 1014.487984533653048, 3.913419139117212 ], [ 1020.124394609083993, 6.649310961035756 ], [ 1022.844003317656984, 6.473834655114519 ], [ 1022.843923851288992, 53.03649629436763 ] ] ] } },
{ "type": "Feature", "properties": { "feature_type": "building", "subtype": "no-damage", "uid": "08b7e613-b9f6-4a25-b75a-86df6229037d" }, "geometry": { "type": "Polygon", "coordinates": [ [ [ 928.763020150715647, 0.004666881949542 ], [ 926.787153526854695, 67.748819306198854 ], [ 921.901691172564483, 68.104886726117286 ], [ 921.481471799839369, 74.828396668355452 ], [ 926.524104255882889, 73.987957930026226 ], [ 926.660554002008439, 96.854587810671305 ], [ 874.242712800962977, 95.788039987426032 ], [ 874.482085672609401, 73.589136267894887 ], [ 874.878026328483202, 70.903894386268092 ], [ 876.145036421354007, 70.745518128648868 ], [ 876.84168207298012, 51.188146133774019 ], [ 877.183928607311941, 51.530392672174948 ], [ 880.150678386430627, 51.401403550663701 ], [ 880.453877441249233, 30.076403429107131 ], [ 881.464540951250228, 29.5710716708642 ], [ 881.363474599728761, 24.71988681004289 ], [ 880.556876960608975, 24.595794865523811 ], [ 880.230652310630944, 14.7962251256202 ], [ 878.613590688958197, 13.987694312431509 ], [ 878.641502229463072, 0.005624487405145 ], [ 928.763020150715647, 0.004666881949542 ] ] ] } },
{ "type": "Feature", "properties": { "feature_type": "building", "subtype": "no-damage", "uid": "d106c8a2-54b2-4929-834b-bc39a103085c" }, "geometry": { "type": "Polygon", "coordinates": [ [ [ 804.909202030940378, 9.793537459595937 ], [ 815.61529904860015, 9.535559216573439 ], [ 815.873277292004104, 7.858700646082601 ], [ 822.064755090466406, 7.471733286635188 ], [ 822.451722450804027, 6.955776803641991 ], [ 838.317384304245593, 6.955776801607457 ], [ 838.962329905952743, 11.85736339258599 ], [ 864.575616983170221, 12.45845935549916 ], [ 863.77375948932638, 22.334776114155819 ], [ 867.412148134307017, 22.637975168084299 ], [ 867.475708218320278, 32.735581078811883 ], [ 862.725589708765483, 33.443045542386507 ], [ 861.149183279908357, 46.203459622489461 ], [ 804.536049646502988, 47.000793767727806 ], [ 804.02009316325541, 36.661491658430648 ], [ 799.459750397942798, 33.350359672566817 ], [ 798.855031265241337, 24.87410804199348 ], [ 802.031683698163761, 21.632136348305671 ], [ 801.504286660852472, 16.910235641902851 ], [ 804.834051646814601, 16.747030486263039 ], [ 804.700676084835209, 9.630592663312312 ], [ 804.909202030940378, 9.793537459595937 ] ] ] } },
{ "type": "Feature", "properties": { "feature_type": "building", "subtype": "no-damage", "uid": "8b828635-dcea-4c5d-9054-dc77f5331a73" }, "geometry": { "type": "Polygon", "coordinates": [ [ [ 826.774657047081746, 108.893567207811699 ], [ 845.977263794320265, 107.175439234872002 ], [ 846.684728252427249, 109.499965315668604 ], [ 853.1529747373379, 109.601031666300003 ], [ 853.658306492274846, 111.622358694185394 ], [ 898.290523626594108, 107.829514220061995 ], [ 898.290523627611378, 104.701611925574795 ], [ 917.018890574594479, 103.594710117232793 ], [ 916.81010979492828, 118.441683613914805 ], [ 921.195739898082138, 118.6996618549028 ], [ 917.723544708709142, 154.751424508622506 ], [ 822.795216952970918, 160.114606871443101 ], [ 824.136012544057735, 109.164374458217296 ], [ 826.774657047081746, 108.893567207811699 ] ] ] } },
{ "type": "Feature", "properties": { "feature_type": "building", "subtype": "no-damage", "uid": "b55a4b81-dd41-462c-8457-dcab6e4907ea" }, "geometry": { "type": "Polygon", "coordinates": [ [ [ 1022.843755748908961, 171.740065262863794 ], [ 965.861982422526694, 173.299995041644593 ], [ 967.394983268014926, 117.222168219435304 ], [ 988.724156409808757, 116.641638376138005 ], [ 988.66974463642407, 122.366679677480207 ], [ 1008.82916120448499, 121.830618380095302 ], [ 1009.287601489010967, 124.572815813868502 ], [ 1015.14752316690101, 124.256063289474596 ], [ 1014.909958779328008, 122.355548153284104 ], [ 1022.843820187316055, 121.979689712322099 ], [ 1022.843755748908961, 171.740065262863794 ] ] ] } },
{ "type": "Feature", "properties": { "feature_type": "building", "subtype": "no-damage", "uid": "351a589e-b9fa-48f8-b1fd-f48b39abbcd4" }, "geometry": { "type": "Polygon", "coordinates": [ [ [ 1022.843683755894972, 237.699530889470992 ], [ 1002.00554948713102, 237.654178346537208 ], [ 1001.618582124885961, 239.58901515801611 ], [ 981.754257530662585, 238.944069552494312 ], [ 982.012235772413533, 241.523851968477601 ], [ 964.082747988651931, 241.652841088971599 ], [ 965.1590704096634, 189.769701552194192 ], [ 985.372340669827622, 189.845521714426013 ], [ 985.435113935842423, 192.302884837585907 ], [ 1002.974191885880032, 192.50515478446431 ], [ 1003.337220044442006, 196.026453039887514 ], [ 1022.843730647841994, 193.200521196954298 ], [ 1022.843683755894972, 237.699530889470992 ] ] ] } },
{ "type": "Feature", "properties": { "feature_type": "building", "subtype": "no-damage", "uid": "8f942063-efff-4e24-97b7-ca5397eb1c6f" }, "geometry": { "type": "Polygon", "coordinates": [ [ [ 692.915980321449752, 1022.984106756790993 ], [ 697.697994272115466, 927.529726262720146 ], [ 727.174547262291071, 929.913859227538182 ], [ 722.028983849931365, 1022.983828444704045 ], [ 692.915980321449752, 1022.984106756790993 ] ] ] } },
{ "type": "Feature", "properties": { "feature_type": "building", "subtype": "no-damage", "uid": "98b43336-b24d-4c15-8a20-cf0849f3551a" }, "geometry": { "type": "Polygon", "coordinates": [ [ [ 732.717876724884036, 1022.983715918679991 ], [ 736.086210345287782, 930.279799418497078 ], [ 766.791080225968699, 931.662901665564618 ], [ 761.550237552145404, 1022.983384678183029 ], [ 732.717876724884036, 1022.983715918679991 ] ] ] } },
{ "type": "Feature", "properties": { "feature_type": "building", "subtype": "no-damage", "uid": "854325da-5ec1-4a4b-a332-12eb459592c2" }, "geometry": { "type": "Polygon", "coordinates": [ [ [ 772.319494906354635, 1022.983250585078963 ], [ 775.924470198850713, 932.514098132255754 ], [ 805.799478727425367, 934.173820831381704 ], [ 802.24413316638163, 1022.982848367817041 ], [ 772.319494906354635, 1022.983250585078963 ] ] ] } },
{ "type": "Feature", "properties": { "feature_type": "building", "subtype": "no-damage", "uid": "1e4dabf3-d4f1-45fa-a309-cbf2943315a1" }, "geometry": { "type": "Polygon", "coordinates": [ [ [ 815.448677712115455, 1022.982657039192986 ], [ 819.658799577713467, 941.075403076151815 ], [ 821.619282429325722, 941.157089863855617 ], [ 821.864342784044652, 935.11226774365764 ], [ 832.483624886972848, 934.050339533008923 ], [ 831.585070246009536, 941.483837002463588 ], [ 838.77350736138203, 941.810584144123482 ], [ 835.313969052194125, 955.914855723460732 ], [ 831.544052188403953, 1022.98241235694104 ], [ 815.448677712115455, 1022.982657039192986 ] ] ] } },
{ "type": "Feature", "properties": { "feature_type": "building", "subtype": "no-damage", "uid": "4825d5cc-4785-4843-8c1d-1b93dd97b793" }, "geometry": { "type": "Polygon", "coordinates": [ [ [ 855.968032867050169, 946.301505241017594 ], [ 853.62168744474468, 1022.982056236123981 ], [ 845.474299595302455, 1022.982190416714047 ], [ 848.200642956545607, 944.07417487849375 ], [ 856.228303989681194, 944.38694089667888 ], [ 855.968032867050169, 946.301505241017594 ] ] ] } },
{ "type": "Feature", "properties": { "feature_type": "building", "subtype": "no-damage", "uid": "2b8249be-3bd0-41b7-8773-d4844a53acc8" }, "geometry": { "type": "Polygon", "coordinates": [ [ [ 864.903971249643405, 1022.981865094677005 ], [ 869.087758463190994, 938.238181580946502 ], [ 898.466784552962508, 939.766570221450252 ], [ 894.212684643388002, 1022.981339634481969 ], [ 864.903971249643405, 1022.981865094677005 ] ] ] } },
{ "type": "Feature", "properties": { "feature_type": "building", "subtype": "no-damage", "uid": "174dc0a6-2acb-43ee-8b95-d1200cedda36" }, "geometry": { "type": "Polygon", "coordinates": [ [ [ 908.653886310101825, 1022.981065361963033 ], [ 912.63577277010711, 939.92152127646375 ], [ 936.920170058580311, 941.789551836401188 ], [ 942.863903662532152, 942.468835676285948 ], [ 938.031080861474607, 1022.980476117082958 ], [ 908.653886310101825, 1022.981065361963033 ] ] ] } },
{ "type": "Feature", "properties": { "feature_type": "building", "subtype": "no-damage", "uid": "83b73f3e-3c7b-401e-bbd9-3dc25e693158" }, "geometry": { "type": "Polygon", "coordinates": [ [ [ 952.682622356495017, 1011.002496104354009 ], [ 956.002067748135005, 941.294142873311102 ], [ 985.047214932105817, 944.336967814418244 ], [ 981.571677921573837, 1012.664583765494967 ], [ 952.431720606564113, 1011.333992109523024 ], [ 952.682622356495017, 1011.002496104354009 ] ] ] } },
{ "type": "Feature", "properties": { "feature_type": "building", "subtype": "no-damage", "uid": "82c08a55-39da-4997-b51e-c67d70734565" }, "geometry": { "type": "Polygon", "coordinates": [ [ [ 871.151316680966374, 928.834453873755933 ], [ 876.920403469318217, 791.709082044732668 ], [ 905.963477744732927, 793.876475645875985 ], [ 904.274674975023459, 837.246929772804947 ], [ 898.963374713523194, 935.182864367213369 ], [ 870.263632463128033, 933.824296682357499 ], [ 871.151316680966374, 928.834453873755933 ] ] ] } },
{ "type": "Feature", "properties": { "feature_type": "building", "subtype": "no-damage", "uid": "f5cf1c52-5c21-42a4-aba7-b73a51636a11" }, "geometry": { "type": "Polygon", "coordinates": [ [ [ 922.007116479139881, 793.991923110445327 ], [ 950.775643211815122, 796.204886704532555 ], [ 942.425738515345756, 936.676432857280133 ], [ 912.712967155743968, 935.633879478249355 ], [ 915.090460596866933, 881.323716929275633 ], [ 921.883298997241695, 794.205564420562951 ], [ 922.007116479139881, 793.991923110445327 ] ] ] } },
{ "type": "Feature", "properties": { "feature_type": "building", "subtype": "no-damage", "uid": "aeb285a7-1778-452f-922e-6de787207b7a" }, "geometry": { "type": "Polygon", "coordinates": [ [ [ 963.492071164356958, 800.638505425267567 ], [ 992.537218343877157, 801.468366774321908 ], [ 986.667111876221043, 938.57195735811024 ], [ 958.137190588721751, 937.553031594722597 ], [ 958.307011549583081, 914.457381029484281 ], [ 963.281810806995281, 798.210400721367705 ], [ 963.492071164356958, 800.638505425267567 ] ] ] } },
{ "type": "Feature", "properties": { "feature_type": "building", "subtype": "no-damage", "uid": "973dbf98-20ed-47b6-a735-7d90c7a9183b" }, "geometry": { "type": "Polygon", "coordinates": [ [ [ 988.615976848845094, 751.635618585030102 ], [ 989.134189920186827, 751.964706377037032 ], [ 988.26723248112819, 782.958434889153523 ], [ 867.168297567987906, 777.407945877421184 ], [ 867.168297565699049, 746.692980475986133 ], [ 988.615976848845094, 751.635618585030102 ] ] ] } },
{ "type": "Feature", "properties": { "feature_type": "building", "subtype": "no-damage", "uid": "21163470-4e9a-4f54-af08-8d12a1ca2f19" }, "geometry": { "type": "Polygon", "coordinates": [ [ [ 851.522367206928038, 807.296131217779021 ], [ 867.145895533435692, 807.635773138229979 ], [ 863.327119374757217, 910.566146700742252 ], [ 846.453271963481598, 909.459664904715851 ], [ 851.540864184800967, 806.807576046382906 ], [ 851.522367206928038, 807.296131217779021 ] ] ] } },
{ "type": "Feature", "properties": { "feature_type": "building", "subtype": "no-damage", "uid": "14b70f94-e7cf-408f-be4c-6556c6d0aeed" }, "geometry": { "type": "Polygon", "coordinates": [ [ [ 773.520585383623597, 888.325441690456614 ], [ 810.409784606416338, 890.58871955820905 ], [ 810.479082214653886, 889.628219022330427 ], [ 828.221309378553656, 889.939444232747064 ], [ 829.01966437452711, 892.733686716492002 ], [ 844.04719793007655, 893.791276161660903 ], [ 843.421665903878761, 907.761491468342683 ], [ 803.804637422120891, 905.884895382628656 ], [ 771.936843834088904, 904.527722411735795 ], [ 773.520585383623597, 888.325441690456614 ] ] ] } },
{ "type": "Feature", "properties": { "feature_type": "building", "subtype": "no-damage", "uid": "fadc555b-68cc-4e99-9f03-430b3d28a93a" }, "geometry": { "type": "Polygon", "coordinates": [ [ [ 762.429365347349403, 868.311685560389947 ], [ 766.936587177674937, 811.518293342878223 ], [ 777.417016372555054, 812.253762061449265 ], [ 779.534956496115569, 785.621697736257488 ], [ 790.549478197118106, 785.508819241544984 ], [ 790.080145612374167, 776.59150020389211 ], [ 799.232130938331125, 777.295499076303031 ], [ 799.701463521421942, 768.612846331149285 ], [ 811.904110621129576, 770.724842947364778 ], [ 811.2001117511345, 775.652835039999445 ], [ 824.106757723380269, 776.122167622963048 ], [ 823.315700536123813, 787.622459433926338 ], [ 834.163864094104156, 787.806326613060492 ], [ 829.914083862135726, 847.506397557219429 ], [ 819.867897535048542, 845.9260985834336 ], [ 819.529262042264349, 853.48895795093199 ], [ 772.571806861955906, 851.682901984669456 ], [ 771.330143382479832, 868.050284198124814 ], [ 762.429365347349403, 868.311685560389947 ] ] ] } },
{ "type": "Feature", "properties": { "feature_type": "building", "subtype": "no-damage", "uid": "0055a55e-08b6-41c9-b478-6baca9482b32" }, "geometry": { "type": "Polygon", "coordinates": [ [ [ 678.269999432763143, 705.380000321466355 ], [ 668.87999943355544, 899.950000322301321 ], [ 640.078320938136358, 900.293659201870582 ], [ 640.255207450490843, 902.681627135695294 ], [ 627.124783365905159, 902.061872985530954 ], [ 638.67887220261423, 704.950046911069876 ], [ 678.269999432763143, 705.380000321466355 ] ] ] } },
{ "type": "Feature", "properties": { "feature_type": "building", "subtype": "no-damage", "uid": "9e224df1-1507-4523-bddc-cbb001597b66" }, "geometry": { "type": "Polygon", "coordinates": [ [ [ 725.740065944373441, 705.888712069876192 ], [ 725.681589196479081, 706.702501354695187 ], [ 723.213998805782467, 776.081454357417215 ], [ 717.577055945579446, 776.316120651950882 ], [ 717.393188769624203, 789.186823176082044 ], [ 712.061040579946848, 789.186823173030234 ], [ 711.877173401702748, 801.689791340927741 ], [ 691.232490590598104, 801.947621372194476 ], [ 685.952074136422766, 897.600098757432306 ], [ 669.539999433826324, 896.670000322743135 ], [ 678.7699994351957, 705.380000321466355 ], [ 725.740065944373441, 705.888712069876192 ] ] ] } },
{ "type": "Feature", "properties": { "feature_type": "building", "subtype": "no-damage", "uid": "8780ff34-8963-4afe-925b-59c7079db2f5" }, "geometry": { "type": "Polygon", "coordinates": [ [ [ 574.230059023362514, 726.208365703526511 ], [ 580.421087005107438, 726.20836570454378 ], [ 581.040189800509893, 724.174170794410884 ], [ 590.149845256830872, 724.43950056777453 ], [ 590.149845255813602, 727.446571299671859 ], [ 602.003997302817993, 727.436549252814302 ], [ 598.110493922805631, 784.955705493788287 ], [ 566.301471972267677, 784.771838314654133 ], [ 569.819605818306059, 754.149129484091304 ], [ 567.082375643348087, 753.572870504708362 ], [ 567.681434347832806, 741.663851669368114 ], [ 573.076473019659034, 742.194511208974745 ], [ 573.164916272911682, 726.458632143923296 ], [ 574.230059023362514, 726.208365703526511 ] ] ] } },
{ "type": "Feature", "properties": { "feature_type": "building", "subtype": "no-damage", "uid": "b5729a93-251c-4785-a8ca-bb397c8d0db6" }, "geometry": { "type": "Polygon", "coordinates": [ [ [ 503.629352293806789, 769.022005470269278 ], [ 525.959387896346357, 768.733875980069115 ], [ 526.791013794341097, 806.599573099194345 ], [ 502.300007002457278, 805.73518462655943 ], [ 503.30846022324431, 769.142739180914077 ], [ 503.629352293806789, 769.022005470269278 ] ] ] } },
{ "type": "Feature", "properties": { "feature_type": "building", "subtype": "no-damage", "uid": "d96aac47-a413-4345-a4f6-188846629826" }, "geometry": { "type": "Polygon", "coordinates": [ [ [ 457.652754358699326, 768.434729708321811 ], [ 480.88471710884329, 759.986743252615383 ], [ 492.852697919103605, 787.677365521328511 ], [ 468.212737425027626, 797.53334971982224 ], [ 457.183421776244188, 768.434729708321811 ], [ 457.652754358699326, 768.434729708321811 ] ] ] } },
{ "type": "Feature", "properties": { "feature_type": "building", "subtype": "no-damage", "uid": "41ea032e-8d2b-4e4a-9237-fc01e0b0330d" }, "geometry": { "type": "Polygon", "coordinates": [ [ [ 427.101295963786072, 796.015296097572332 ], [ 435.139818256758474, 796.292486523401635 ], [ 434.931925440946998, 803.776627966876163 ], [ 448.029172968173725, 803.776627966876163 ], [ 446.3198402847853, 836.183468742986634 ], [ 489.901194270900874, 837.90926203452932 ], [ 490.126951266938079, 856.647092707137631 ], [ 522.184444705741726, 857.662999191084964 ], [ 512.579011019369887, 1022.984912258427016 ], [ 414.408737302860686, 1022.984685920554057 ], [ 427.013732680830003, 795.996539483620154 ], [ 427.101295963786072, 796.015296097572332 ] ] ] } },
{ "type": "Feature", "properties": { "feature_type": "building", "subtype": "no-damage", "uid": "1f2a9f33-0220-4ff0-aa66-1e63c2ea2488" }, "geometry": { "type": "Polygon", "coordinates": [ [ [ 329.284622700496527, 1022.984110266363018 ], [ 324.415483424927515, 1018.382475699015004 ], [ 356.863627707499518, 990.432914540195156 ], [ 385.594616113873599, 1022.984530517735948 ], [ 329.284622700496527, 1022.984110266363018 ] ] ] } },
{ "type": "Feature", "properties": { "feature_type": "building", "subtype": "no-damage", "uid": "e2c0b355-dc03-4c15-af34-a927a037d388" }, "geometry": { "type": "Polygon", "coordinates": [ [ [ 297.766025904408991, 1022.983807721955031 ], [ 297.697769279386421, 1017.932817298875989 ], [ 315.198793399430883, 1017.891630653144944 ], [ 315.198793393708684, 1022.983981028673952 ], [ 297.766025904408991, 1022.983807721955031 ] ] ] } },
{ "type": "Feature", "properties": { "feature_type": "building", "subtype": "no-damage", "uid": "00403b85-b3ec-47ca-9e9d-dabfb8ab68c7" }, "geometry": { "type": "Polygon", "coordinates": [ [ [ 360.558528800219278, 969.005032867682189 ], [ 344.868417572838723, 969.343668360974902 ], [ 344.539056076456291, 952.966154623387752 ], [ 374.444946360909626, 952.111278608817997 ], [ 376.029658565657314, 974.873508452631199 ], [ 360.758795502903979, 975.737896926283383 ], [ 360.614730760092812, 968.966853873010564 ], [ 360.558528800219278, 969.005032867682189 ] ] ] } },
{ "type": "Feature", "properties": { "feature_type": "building", "subtype": "no-damage", "uid": "e06ad3d0-a4ad-446a-b071-32c5322b5694" }, "geometry": { "type": "Polygon", "coordinates": [ [ [ 367.381005941202716, 831.68682433728668 ], [ 367.248483787530006, 832.055036318761495 ], [ 362.674841792119082, 832.193631530658763 ], [ 364.700706908048289, 792.489766639446771 ], [ 376.481299923903123, 793.529230731728831 ], [ 376.550597528707328, 789.302076764790286 ], [ 388.349435927852483, 789.360274493724091 ], [ 388.165568746683789, 796.53109446978317 ], [ 406.184552282122922, 796.71496164993448 ], [ 404.298378902058175, 877.105537491564178 ], [ 365.075970010700303, 876.635025034340174 ], [ 367.381005941202716, 831.68682433728668 ] ] ] } },
{ "type": "Feature", "properties": { "feature_type": "building", "subtype": "no-damage", "uid": "0f817435-e0e0-4ef1-9f5b-4fd332e29706" }, "geometry": { "type": "Polygon", "coordinates": [ [ [ 145.316078061838908, 1022.981662412334003 ], [ 143.400654108187098, 1010.11594506490701 ], [ 175.918959248727191, 1005.279095547105953 ], [ 177.068721587678311, 1002.625797846020987 ], [ 196.349351580296513, 999.884056883418339 ], [ 199.458467898941308, 1022.982553741817014 ], [ 145.316078061838908, 1022.981662412334003 ] ] ] } },
{ "type": "Feature", "properties": { "feature_type": "building", "subtype": "no-damage", "uid": "82585cdf-f960-46be-8588-c437c3fb2889" }, "geometry": { "type": "Polygon", "coordinates": [ [ [ 190.779385284663903, 936.191645461343001 ], [ 191.067514775626989, 935.903515973177491 ], [ 192.36409748585109, 927.40369596954838 ], [ 204.753665630071993, 928.412149186266106 ], [ 217.431363264238911, 931.29344410454371 ], [ 220.45672292380209, 935.183192240556309 ], [ 212.100967663873291, 975.953515319535313 ], [ 160.813918148204607, 968.174019041406495 ], [ 168.881543913737005, 933.166285802034508 ], [ 190.779385284663903, 936.191645461343001 ] ] ] } },
{ "type": "Feature", "properties": { "feature_type": "building", "subtype": "no-damage", "uid": "9ff9fb01-771c-4ff2-aad4-03316c558946" }, "geometry": { "type": "Polygon", "coordinates": [ [ [ -0.000000627145202, 1022.978565334336054 ], [ -0.000000570051083, 991.208796646161431 ], [ 7.376085429480997, 990.903908116972957 ], [ 7.192218249965352, 983.733088139896722 ], [ 21.901592565694241, 984.836291212666993 ], [ 21.5338582059, 998.810196810585808 ], [ 20.72782272832076, 1006.465793947857037 ], [ 21.115924885903581, 1013.350864658807041 ], [ 21.035760130522739, 1017.840011467827026 ], [ 20.753099513064569, 1021.851652921730988 ], [ 20.744405001627229, 1022.979070290493951 ], [ -0.000000627145202, 1022.978565334336054 ] ] ] } },
{ "type": "Feature", "properties": { "feature_type": "building", "subtype": "no-damage", "uid": "e644a1d9-2a01-44f3-8e54-c7c676be67da" }, "geometry": { "type": "Polygon", "coordinates": [ [ [ -0.00000056954245, 668.581329295774822 ], [ 9.953512810451237, 669.443835742787655 ], [ 10.530365382259699, 666.698151975773499 ], [ 26.53060810730755, 667.128653113325299 ], [ 26.482634375141881, 670.947541139346754 ], [ 36.444872291213052, 670.914955080522077 ], [ 48.167232873301899, 671.013456673799737 ], [ 49.363522024050702, 682.569601603128717 ], [ 55.770543504231632, 683.152029362778308 ], [ 55.946506402985428, 704.461620030286667 ], [ 51.204603059555282, 704.74331306366139 ], [ 51.03578852572506, 714.897345754118874 ], [ 38.009895900495373, 715.240006955027525 ], [ 37.424316318997178, 721.397590547593268 ], [ 43.311159603694882, 723.543118327910065 ], [ 43.023030112604609, 740.830887827402876 ], [ 37.260440283678207, 741.119017320654734 ], [ 36.828246045834788, 747.457866138627423 ], [ 49.65000842281281, 754.949232920452459 ], [ 39.565476214180642, 768.779448522284611 ], [ 33.65882163672088, 765.610024112789688 ], [ 33.658821637229522, 776.703009543478856 ], [ 40.285799945021708, 776.991139032661749 ], [ 39.997670451261108, 792.838261076067511 ], [ 35.53166333255885, 792.982325823202132 ], [ 35.243533839306878, 797.880527180001422 ], [ 33.512187921891027, 814.945134906436124 ], [ 39.635581861118197, 815.159305300254005 ], [ 38.989217229075443, 833.752648892008438 ], [ 32.260327457650348, 832.438345910020189 ], [ 31.628365957911779, 850.291681142047196 ], [ 44.628831677740109, 851.828197206967275 ], [ 43.574731757487832, 866.57946708639372 ], [ 51.664179607462543, 867.716944681067844 ], [ 49.858557003875212, 884.648771446060323 ], [ 40.579466971208127, 883.763887078813241 ], [ 42.512194282650071, 900.13674661468599 ], [ -0.000000570051083, 898.637400313690932 ], [ -0.00000056954245, 668.581329295774822 ] ] ] } },
{ "type": "Feature", "properties": { "feature_type": "building", "subtype": "no-damage", "uid": "36cad665-c59d-40ba-af21-2cbaf998d764" }, "geometry": { "type": "Polygon", "coordinates": [ [ [ 160.687330656738709, 711.435176964998618 ], [ 160.125099074660113, 775.565243018483216 ], [ 111.980453412738598, 774.404069670594481 ], [ 113.911246936826601, 708.574257100167642 ], [ 160.687330656738709, 711.435176964998618 ] ] ] } },
{ "type": "Feature", "properties": { "feature_type": "building", "subtype": "no-damage", "uid": "dd179857-cfd3-4dde-9706-fd81300c2ef6" }, "geometry": { "type": "Polygon", "coordinates": [ [ [ 128.042389060358204, 775.527370879397722 ], [ 136.709055728072997, 775.527370879397722 ], [ 137.151272012519712, 783.487263991807481 ], [ 126.803410961833407, 783.664150509756951 ], [ 126.803410962469201, 775.792700646657863 ], [ 128.042389060358204, 775.527370879397722 ] ] ] } },
{ "type": "Feature", "properties": { "feature_type": "building", "subtype": "no-damage", "uid": "12d72a45-1e00-4da6-93cd-5de51db63449" }, "geometry": { "type": "Polygon", "coordinates": [ [ [ 164.157624366781192, 761.642326281720329 ], [ 183.346969034518196, 765.36731671607879 ], [ 172.339422273844093, 820.649854083759351 ], [ 154.504305914995996, 809.80169053010377 ], [ 163.89387309525759, 761.553059813031837 ], [ 164.157624366781192, 761.642326281720329 ] ] ] } },
{ "type": "Feature", "properties": { "feature_type": "building", "subtype": "no-damage", "uid": "a2772feb-db6c-4237-ae5f-83ca1c35d151" }, "geometry": { "type": "Polygon", "coordinates": [ [ [ 203.22313388983261, 758.967302090822614 ], [ 233.377351230578995, 765.034918990042229 ], [ 223.745943934639712, 817.779257333868941 ], [ 192.304656340589901, 811.89550760767986 ], [ 202.968952714476899, 758.7578928999651 ], [ 203.22313388983261, 758.967302090822614 ] ] ] } },
{ "type": "Feature", "properties": { "feature_type": "building", "subtype": "no-damage", "uid": "f868f0bd-027f-4212-8c4e-988d3ad08bd9" }, "geometry": { "type": "Polygon", "coordinates": [ [ [ -0.000000573611518, 85.425012761497797 ], [ 28.988896226661701, 85.077830641217716 ], [ 26.680671173031492, 177.578653947678703 ], [ 40.056649728113747, 176.874655071198703 ], [ 39.401928204667463, 212.564668602420795 ], [ 30.95394174552661, 213.268667475849014 ], [ 25.321950777047039, 230.633972966156506 ], [ 19.455293518738682, 236.500630225735705 ], [ 11.945972225143731, 241.897954905402997 ], [ -0.000000574120152, 250.271300354947414 ], [ -0.000000573611518, 85.425012761497797 ] ] ] } },
{ "type": "Feature", "properties": { "feature_type": "building", "subtype": "no-damage", "uid": "c210408e-1158-40aa-b1ce-cf7d5aaf2da8" }, "geometry": { "type": "Polygon", "coordinates": [ [ [ 153.960143667445209, 0.005814782485888 ], [ 154.679952937038507, 8.141150674743148 ], [ 126.460328425271797, 12.8820475910144 ], [ 122.961094990764707, 12.543412097721641 ], [ 121.042160521142705, 11.41462711499279 ], [ 120.139543871512203, 0.005199786505193 ], [ 153.960143667445209, 0.005814782485888 ] ] ] } },
{ "type": "Feature", "properties": { "feature_type": "building", "subtype": "no-damage", "uid": "55783a79-96bc-4003-b9a0-3bdcfbb0519b" }, "geometry": { "type": "Polygon", "coordinates": [ [ [ 359.199382630372384, 152.80016422915881 ], [ 374.922024086667193, 155.850826005197888 ], [ 369.994031988055383, 181.429451660747304 ], [ 353.098059081599388, 177.440124722849987 ], [ 358.730050047662985, 152.800164230176108 ], [ 359.199382630372384, 152.80016422915881 ] ] ] } },
{ "type": "Feature", "properties": { "feature_type": "building", "subtype": "no-damage", "uid": "41236c2f-2c43-47ca-a806-b13472f51d2a" }, "geometry": { "type": "Polygon", "coordinates": [ [ [ 481.93374615259188, 39.098305868031417 ], [ 508.888769535902384, 39.397806127386751 ], [ 507.091767973285016, 84.622345355147843 ], [ 477.441242258319392, 84.622345355147843 ], [ 481.634245893618015, 39.996806650166498 ], [ 481.93374615259188, 39.098305868031417 ] ] ] } },
{ "type": "Feature", "properties": { "feature_type": "building", "subtype": "no-damage", "uid": "c3310d7b-ec9f-4759-b418-3210bfa985c0" }, "geometry": { "type": "Polygon", "coordinates": [ [ [ 625.4685588940348, 0.00859411505276 ], [ 617.78645797285742, 127.418469583025399 ], [ 608.278184747677301, 127.274404837925402 ], [ 608.710378984376348, 131.020088228837892 ], [ 570.203793696157049, 129.894172085978511 ], [ 578.162325434264289, 0.008803303836412 ], [ 625.4685588940348, 0.00859411505276 ] ] ] } },
{ "type": "Feature", "properties": { "feature_type": "building", "subtype": "no-damage", "uid": "327f4add-1bf5-4ff5-89f0-bb8e99d510e0" }, "geometry": { "type": "Polygon", "coordinates": [ [ [ 583.487079648509848, 198.894164124309611 ], [ 579.053056427002502, 270.656259949104083 ], [ 540.567784801111429, 266.666933012223978 ], [ 544.639380690904886, 235.642420371358014 ], [ 539.058905443789854, 236.010154727591811 ], [ 540.067358668137217, 225.925622519723902 ], [ 545.109624769655738, 225.925622521758413 ], [ 546.406207481151455, 218.002061497512386 ], [ 539.923293920875381, 217.857996751395092 ], [ 542.041235194202159, 198.961389692355709 ], [ 547.9109170946017, 198.848511193574211 ], [ 547.910917090405519, 195.687913249054304 ], [ 583.487079648509848, 198.894164124309611 ] ] ] } },
{ "type": "Feature", "properties": { "feature_type": "building", "subtype": "no-damage", "uid": "df37a49d-f206-4f0e-a9ea-6b440de8a725" }, "geometry": { "type": "Polygon", "coordinates": [ [ [ 512.432929346306878, 206.238979132047092 ], [ 512.715930212925855, 206.085865871879605 ], [ 529.139311238514324, 209.399355026474694 ], [ 525.393627846583968, 230.288743167710805 ], [ 534.757836328698545, 231.873455375001413 ], [ 528.563052254680656, 262.703310985108999 ], [ 510.122764787136873, 261.118598781887385 ], [ 513.068814422073274, 244.753399070357801 ], [ 504.490048568083182, 243.398857094134996 ], [ 512.432929346306878, 206.238979132047092 ] ] ] } },
{ "type": "Feature", "properties": { "feature_type": "building", "subtype": "no-damage", "uid": "0786de57-0a59-4b70-824d-c8c0b1ab5931" }, "geometry": { "type": "Polygon", "coordinates": [ [ [ 689.574469932143074, 154.185299821355187 ], [ 689.574469932906027, 137.203203815080002 ], [ 693.819993932949501, 136.693740935929412 ], [ 696.598680505803941, 91.71986949199372 ], [ 693.564329466618915, 90.636172690913455 ], [ 694.288739729386521, 59.098240968059507 ], [ 738.882916937465552, 60.709065643029 ], [ 738.80123015141487, 64.466657769573729 ], [ 743.048942993883088, 64.058223843261899 ], [ 743.315061326806813, 75.767430435950743 ], [ 743.80034916732177, 86.12050002939506 ], [ 740.340810854573533, 89.047801675787056 ], [ 736.115161198400642, 121.628732448516899 ], [ 741.533645201895297, 122.712429248579895 ], [ 739.980462660396938, 137.696713109066508 ], [ 744.748728590796532, 138.130191831329711 ], [ 744.315249867643161, 160.237606576215597 ], [ 689.263452364264026, 156.119558730482908 ], [ 689.574469932143074, 154.185299821355187 ] ] ] } },
{ "type": "Feature", "properties": { "feature_type": "building", "subtype": "no-damage", "uid": "0e130dff-7d82-42c1-b9ce-71d2837b227b" }, "geometry": { "type": "Polygon", "coordinates": [ [ [ 689.173716652361463, 174.109502098657799 ], [ 738.807030147541127, 177.360592505967702 ], [ 738.807030148304079, 197.734092366887211 ], [ 734.688982302316504, 198.384310446721514 ], [ 734.425324545365129, 203.432337203338591 ], [ 736.802817984707985, 203.432337203338591 ], [ 737.370369979178122, 214.026580365195201 ], [ 731.518407253928785, 214.026580365195201 ], [ 730.651449812708393, 223.12963349610061 ], [ 736.28667317784334, 222.696154772820108 ], [ 736.503412540246586, 239.385085512304613 ], [ 730.434710452466902, 238.301388710207107 ], [ 730.001231729440747, 242.636175916562706 ], [ 737.587109340818415, 243.936612079283208 ], [ 736.936891260220932, 273.629904431731006 ], [ 678.417263992977496, 272.979686351896589 ], [ 680.110899997953197, 240.629456082102905 ], [ 686.564096478385522, 240.629456082102905 ], [ 690.130336638544122, 193.079587264735807 ], [ 685.714991680309595, 193.419229186204092 ], [ 686.903738400362499, 174.059639738806311 ], [ 689.173716652361463, 174.109502098657799 ] ] ] } },
{ "type": "Feature", "properties": { "feature_type": "building", "subtype": "no-damage", "uid": "d2ed5cdb-1400-4ff2-86f1-6eeba2cd4b81" }, "geometry": { "type": "Polygon", "coordinates": [ [ [ 753.643510589449306, 220.80083192180669 ], [ 773.11712364402365, 219.049456722340096 ], [ 773.342880644384195, 221.081269689217493 ], [ 779.551198033626065, 220.629755692056904 ], [ 779.889833527681844, 223.451718147353091 ], [ 805.964766574297983, 221.194148187998991 ], [ 805.876323316467619, 218.629293736225009 ], [ 824.272520737649302, 217.214201627216511 ], [ 824.360963994716712, 216.418212313228906 ], [ 839.130987887072251, 215.18000672013531 ], [ 839.573204171900443, 216.595098829143808 ], [ 841.784285593752429, 216.418212314246091 ], [ 844.879799579411383, 265.946436143784524 ], [ 829.313786377009933, 267.273084997378703 ], [ 828.16402404136511, 264.000684493134884 ], [ 824.803180278654736, 263.6469114674087 ], [ 811.536691753392461, 263.470024952510983 ], [ 798.093316712978094, 263.381581695062209 ], [ 788.364558460618923, 264.531344035793325 ], [ 778.74324055602176, 268.932223776001024 ], [ 764.897929419755997, 271.748219261575628 ], [ 756.919275545231926, 271.748219261575628 ], [ 752.460616030982578, 267.524226037282801 ], [ 750.583285705358549, 252.036250866622595 ], [ 749.011528620510944, 225.60957989419839 ], [ 751.691719899768827, 225.481951739829498 ], [ 751.041286557429999, 222.363559468069894 ], [ 752.912321919697661, 221.947773834412288 ], [ 753.120214741104178, 221.046904956062292 ], [ 753.643510589449306, 220.80083192180669 ] ] ] } },
{ "type": "Feature", "properties": { "feature_type": "building", "subtype": "no-damage", "uid": "a4cd8dac-6f15-4fa1-973b-725f8d772bc5" }, "geometry": { "type": "Polygon", "coordinates": [ [ [ 889.215801306538765, 217.397412239747609 ], [ 915.692675071722647, 216.661943524228207 ], [ 915.324940711292697, 212.065264049943693 ], [ 932.24072116989214, 211.697529691675413 ], [ 932.79232270983789, 211.881396869792212 ], [ 932.976189888717727, 210.410459439770904 ], [ 948.56532149410441, 209.933339829309688 ], [ 948.388434981241176, 211.702204965061696 ], [ 952.633711309538853, 211.702204965061696 ], [ 952.633711312463447, 226.560672113719704 ], [ 956.61365786777867, 225.94156931361249 ], [ 957.321203921265806, 247.344837470758193 ], [ 954.579462959044236, 247.610167244121897 ], [ 954.491019706427437, 251.767000316750313 ], [ 953.831890638924392, 260.733488924802714 ], [ 937.133157797565218, 260.622245945431075 ], [ 936.690941512355494, 258.145834756192187 ], [ 931.472789362293497, 257.261402188824775 ], [ 916.791208727259573, 258.853380811713691 ], [ 887.69337722394323, 260.445359432568011 ], [ 886.74611866751161, 265.656466431538888 ], [ 870.381939744915826, 266.575802326192388 ], [ 868.359400778509098, 263.633927460045982 ], [ 860.636979263266426, 263.450060285998177 ], [ 859.533776189351443, 220.454239281395189 ], [ 863.145888125310307, 219.889846788504912 ], [ 862.920131129527476, 214.810314376906405 ], [ 881.520648065075875, 213.230015404137788 ], [ 883.731729484766106, 216.148642884689906 ], [ 887.004129987992997, 214.821994030078514 ], [ 888.596108612026569, 217.20996196492041 ], [ 888.949881639405817, 217.298405221351913 ], [ 889.215801306538765, 217.397412239747609 ] ] ] } },
{ "type": "Feature", "properties": { "feature_type": "building", "subtype": "no-damage", "uid": "b733b575-2485-4667-8466-e07d2c41de2e" }, "geometry": { "type": "Polygon", "coordinates": [ [ [ 1022.843564240990986, 420.267991924415014 ], [ 1013.434972180457976, 420.271874535094412 ], [ 1014.581712157395032, 404.607072998509011 ], [ 996.746595801726016, 403.136135563401297 ], [ 1001.59317924975096, 368.098665204276813 ], [ 997.190917825881797, 367.534272716472685 ], [ 999.368251569889367, 347.369372517414376 ], [ 1003.996269985090976, 347.48225101416142 ], [ 1007.036876489563952, 321.419017263132218 ], [ 1017.98609079965604, 322.322045250332508 ], [ 1017.760333804381958, 320.854624775328205 ], [ 1022.843614589865979, 321.139735905697478 ], [ 1022.843564240990986, 420.267991924415014 ] ] ] } },
{ "type": "Feature", "properties": { "feature_type": "building", "subtype": "no-damage", "uid": "9b363cee-4f7b-4fb7-a540-a37e929aa214" }, "geometry": { "type": "Polygon", "coordinates": [ [ [ 926.086267217918135, 417.628443046728592 ], [ 935.025658390893796, 419.638073620257614 ], [ 934.401979933922348, 421.647704192769311 ], [ 953.320226367323926, 426.706429430074593 ], [ 952.765845519734398, 430.240607334474475 ], [ 964.823628962181374, 433.844082845840376 ], [ 965.17011699345062, 430.587095368287009 ], [ 980.623483123314259, 435.507225391660484 ], [ 979.791911855363196, 444.862402197783922 ], [ 983.875900141984744, 445.999659919317423 ], [ 982.975031268212206, 448.07858809879508 ], [ 986.02412592804717, 448.979456974093409 ], [ 983.082251068003984, 462.401761036644189 ], [ 990.988539758820366, 465.343635898721516 ], [ 986.024125932116135, 480.05301021215962 ], [ 971.866353152391071, 475.456330739909617 ], [ 969.108345469574715, 484.64968968339241 ], [ 951.273229114541437, 478.949807138372023 ], [ 952.928033724587294, 474.353127665104694 ], [ 943.734674776907013, 470.675784087508077 ], [ 942.447604525892416, 475.27246356077552 ], [ 923.509285097452903, 472.882190237117925 ], [ 909.482820299087848, 466.7973870762047 ], [ 912.240827983811528, 455.765356338328672 ], [ 907.385799405994021, 454.105876455786813 ], [ 915.588571602091292, 425.658440498633297 ], [ 920.55522551567185, 426.900103978109087 ], [ 925.747636421220591, 418.095581131134907 ], [ 926.086267217918135, 417.628443046728592 ] ] ] } },
{ "type": "Feature", "properties": { "feature_type": "building", "subtype": "no-damage", "uid": "4e057618-3cc4-44f6-947d-374d261220a2" }, "geometry": { "type": "Polygon", "coordinates": [ [ [ 777.686357072515648, 349.169548506573392 ], [ 782.991646479770566, 352.217267957398178 ], [ 786.039365928052575, 346.911978550271215 ], [ 801.052206165795724, 354.136202424476778 ], [ 798.807172827592126, 357.002793589313001 ], [ 806.541156105806067, 361.094004486991082 ], [ 802.31716288176699, 369.307324654267518 ], [ 844.087762572890711, 390.192624496456915 ], [ 850.893084993947468, 376.581979654599479 ], [ 878.68238560827217, 395.45396123419232 ], [ 862.509371581464848, 416.718479678939275 ], [ 875.088382490921276, 424.505486431333509 ], [ 861.01187028367076, 448.166006956009483 ], [ 775.264809565006999, 398.201433015066982 ], [ 779.56126113280834, 390.093613117037023 ], [ 761.985362140315715, 379.288757178582387 ], [ 777.148069473622968, 349.597553326471484 ], [ 777.686357072515648, 349.169548506573392 ] ] ] } },
{ "type": "Feature", "properties": { "feature_type": "building", "subtype": "no-damage", "uid": "2e1b784c-c1b5-464c-a6e8-5ecc6a6840ec" }, "geometry": { "type": "Polygon", "coordinates": [ [ [ 445.917473908323473, 209.855946935431405 ], [ 458.532369819698374, 204.538924688336294 ], [ 468.228116263912113, 212.983607075575492 ], [ 479.174926766624992, 208.083606183347911 ], [ 488.662162535185075, 215.589990527221488 ], [ 498.045142965028219, 210.272968282160889 ], [ 507.4281233909295, 216.841054585720514 ], [ 505.760037980487311, 231.958078610150011 ], [ 496.689823569592306, 236.753824165695193 ], [ 485.117481038392725, 227.892120425623006 ], [ 475.630245272121499, 232.583610639399495 ], [ 466.977052204522693, 225.285736973977009 ], [ 454.987688323541875, 230.394248541603787 ], [ 443.311090459347611, 220.489991421483609 ], [ 445.917473907179101, 209.960202270079293 ], [ 445.917473908323473, 209.855946935431405 ] ] ] } }
]
}
