{
"type": "FeatureCollection",
"name": "socal-fire_00000703_post_disaster",
"features": [
{ "type": "Feature", "properties": { "feature_type": "building", "subtype": "no-damage", "uid": "9acfdce7-f08b-4e48-8fc2-47db2f5295a5" }, "geometry": { "type": "Polygon", "coordinates": [ [ [ 932.722470714779888, 454.230798617465325 ], [ 943.383992322485255, 448.733451538258521 ], [ 949.381098225341248, 459.394973144690823 ], [ 938.719576615855658, 464.725733946889704 ], [ 932.722470714779888, 454.230798617465325 ] ] ] } },
{ "type": "Feature", "properties": { "feature_type": "building", "subtype": "destroyed", "uid": "abe261f5-f4f8-4680-888b-15795fe521e5" }, "geometry": { "type": "Polygon", "coordinates": [ [ [ 796.423832303336326, 348.724701675309291 ], [ 815.984043518824024, 316.833052952717821 ], [ 836.819920686409887, 332.141044338218876 ], [ 833.418144821989813, 337.243708134403221 ], [ 858.081019833281175, 353.827365471493579 ], [ 843.198250431895417, 378.702851473060093 ], [ 825.97676012002546, 366.796635947273728 ], [ 828.315481028220916, 362.757027112273022 ], [ 823.638039214627497, 360.630917194992094 ], [ 821.086707315263425, 364.88313702751941 ], [ 796.423832303336326, 348.724701675309291 ] ] ] } },
{ "type": "Feature", "properties": { "feature_type": "building", "subtype": "destroyed", "uid": "a29ee29f-381f-4260-829b-4f719f3a6dcb" }, "geometry": { "type": "Polygon", "coordinates": [ [ [ 862.45006666468089, 358.072924115586773 ], [ 867.052195161519649, 352.857178485192492 ], [ 874.824678845431436, 359.095619335976096 ], [ 870.018011301106867, 364.720443055746784 ], [ 862.45006666468089, 358.072924115586773 ] ] ] } },
{ "type": "Feature", "properties": { "feature_type": "building", "subtype": "no-damage", "uid": "e34385bd-fa9a-4466-b4e7-8995702b58c7" }, "geometry": { "type": "Polygon", "coordinates": [ [ [ 957.012414186391652, 858.747221053592511 ], [ 964.250818323274302, 853.712035647878224 ], [ 969.603656303388902, 861.133223716789189 ], [ 973.262674840082013, 858.779616369738847 ], [ 981.24261838556265, 869.704318052440385 ], [ 967.0827850008734, 879.699494564065617 ], [ 959.58640262249412, 867.70528275479478 ], [ 962.584955571506157, 865.781441763056023 ], [ 957.012414186391652, 858.747221053592511 ] ] ] } },
{ "type": "Feature", "properties": { "feature_type": "building", "subtype": "no-damage", "uid": "c287c78f-f560-46d8-8cab-f784d89e1dc3" }, "geometry": { "type": "Polygon", "coordinates": [ [ [ 524.829023382812352, 973.407348173269042 ], [ 523.978579419918105, 958.737189766105757 ], [ 538.045148826567015, 957.315980938529151 ], [ 538.436126839475151, 958.949800753459499 ], [ 568.20166564555268, 957.674134806956658 ], [ 571.603441507810999, 1002.96027599020897 ], [ 526.104689335927674, 1005.511607888301 ], [ 525.679467348758408, 989.565783529548185 ], [ 538.861348824355559, 989.99100551239394 ], [ 539.073959811455097, 972.131682226766202 ], [ 524.829023382812352, 973.407348173269042 ] ] ] } },
{ "type": "Feature", "properties": { "feature_type": "building", "subtype": "no-damage", "uid": "1db9a126-661d-43da-bdc5-0d16fa831aa4" }, "geometry": { "type": "Polygon", "coordinates": [ [ [ 388.861571551589691, 1022.984588066575952 ], [ 390.060290369919812, 1013.095249459234992 ], [ 407.919613658093112, 1015.22135937346502 ], [ 406.603467005523612, 1022.984685581805024 ], [ 388.861571551589691, 1022.984588066575952 ] ] ] } },
{ "type": "Feature", "properties": { "feature_type": "building", "subtype": "no-damage", "uid": "56c0ac78-3afd-4c08-b57d-49ec9e05ab3d" }, "geometry": { "type": "Polygon", "coordinates": [ [ [ 419.858785811387008, 1022.984748458070953 ], [ 420.888884137689615, 1014.796137391635966 ], [ 438.960818411436719, 1017.347469288710954 ], [ 437.512892408586083, 1022.98481894858196 ], [ 419.858785811387008, 1022.984748458070953 ] ] ] } },
{ "type": "Feature", "properties": { "feature_type": "building", "subtype": "no-damage", "uid": "a33f3e08-c5f8-4941-9709-179b46f4b6b5" }, "geometry": { "type": "Polygon", "coordinates": [ [ [ -0.000000586073041, 976.55263524201473 ], [ 33.485580380932063, 991.103372991375295 ], [ 32.956250649447618, 984.564190776648616 ], [ 39.019596123349359, 984.964531387511784 ], [ 39.608323813162308, 980.633288234135762 ], [ 59.43209055126944, 980.799874508091762 ], [ 60.431608201999758, 991.79456866650537 ], [ 70.093612157194528, 991.461396116558603 ], [ 79.589029839323288, 985.131117661467897 ], [ 82.754169067123414, 993.960190240141628 ], [ 84.919790642031515, 991.96115494046137 ], [ 88.917861247750281, 990.628464737622835 ], [ 93.415690672921343, 990.461878463666721 ], [ 98.413278926318625, 993.460431416238862 ], [ 100.912073054225303, 998.957778494428339 ], [ 100.578900500463803, 1003.28902164780402 ], [ 99.079624026720722, 1006.953919697217998 ], [ 95.747898526999037, 1009.286127547861952 ], [ 90.916896544633218, 1011.118576577654949 ], [ 93.582276950437873, 1015.449819728996999 ], [ 76.923649439749397, 1021.446925632105945 ], [ 67.095059205893676, 1022.446443280928975 ], [ 63.318122988272378, 1022.980084826289954 ], [ 33.696615213535452, 1022.979419577312001 ], [ 21.124436390852249, 1018.307795245268949 ], [ 18.535282056711779, 1022.979062590800027 ], [ -0.000000607435651, 1022.978610997426017 ], [ -0.000000589760634, 1011.644344240232044 ], [ 1.134083378661865, 1009.145550114614025 ], [ 6.964603006544512, 1012.810448166061974 ], [ 10.629501060027691, 1006.646755987978963 ], [ -0.0000005877261, 1001.149408909790054 ], [ -0.000000586073041, 976.55263524201473 ] ] ] } },
{ "type": "Feature", "properties": { "feature_type": "building", "subtype": "no-damage", "uid": "109bfd1c-3cc8-4a3a-a4fd-941a803ce985" }, "geometry": { "type": "Polygon", "coordinates": [ [ [ 28.901081291011899, 472.275589593405186 ], [ 43.358628713875113, 471.212534634256201 ], [ 44.84690565078386, 488.221413952157889 ], [ 29.96413624825373, 490.134912882084905 ], [ 28.901081291011899, 472.275589593405186 ] ] ] } },
{ "type": "Feature", "properties": { "feature_type": "building", "subtype": "no-damage", "uid": "b982f554-c297-4f69-99ce-6b2e0af50ba8" }, "geometry": { "type": "Polygon", "coordinates": [ [ [ 54.397331432882567, 483.454894075129175 ], [ 52.564882403089172, 466.296507738632783 ], [ 90.879725678880675, 462.79819596215799 ], [ 90.213380578605722, 474.126062669500982 ], [ 90.879725679643627, 483.454894077163772 ], [ 87.381413901006667, 483.121721528234275 ], [ 88.047759003951938, 490.618103906104011 ], [ 91.212898228191619, 489.951758802141626 ], [ 92.878760981994375, 509.608939267307278 ], [ 93.711692355080999, 516.105803993302288 ], [ 59.552701165721672, 519.440032786841243 ], [ 58.886356068117053, 516.10830728127064 ], [ 32.065965772863159, 519.106860234860051 ], [ 31.399620675258539, 502.781405272213021 ], [ 68.88153257160549, 499.116507220764788 ], [ 68.789173154769401, 497.061625512613205 ], [ 65.296442552625408, 497.307592455059591 ], [ 64.149339128767451, 489.575754713954325 ], [ 69.365084759925352, 489.67802423833291 ], [ 68.342389537628534, 480.205786122124209 ], [ 64.149339131946405, 480.473767241604719 ], [ 64.456147699741734, 483.030505297155628 ], [ 54.397331432882567, 483.454894075129175 ] ] ] } },
{ "type": "Feature", "properties": { "feature_type": "building", "subtype": "no-damage", "uid": "02b6556f-2dc0-4d20-97ac-2a12d2dfef67" }, "geometry": { "type": "Polygon", "coordinates": [ [ [ 92.878760981994375, 509.608939267307278 ], [ 103.794405127614695, 509.874519774645307 ], [ 103.982758973082198, 523.749919705131447 ], [ 79.999036014969874, 524.880042778698908 ], [ 78.994482171586768, 517.59702742723789 ], [ 93.711692355080999, 516.105803993302288 ], [ 92.878760981994375, 509.608939267307278 ] ] ] } },
{ "type": "Feature", "properties": { "feature_type": "building", "subtype": "no-damage", "uid": "dcb02a59-f37f-4856-820d-6169e2e117cd" }, "geometry": { "type": "Polygon", "coordinates": [ [ [ -0.000000591032218, 300.317459600005407 ], [ 17.110924542758251, 299.718459078242972 ], [ 18.308925580306919, 326.673482460914101 ], [ -0.00000059014211, 327.571983238980124 ], [ -0.000000591032218, 300.317459600005407 ] ] ] } },
{ "type": "Feature", "properties": { "feature_type": "building", "subtype": "no-damage", "uid": "583bd0b5-4b4a-4d50-a217-736e2b91de44" }, "geometry": { "type": "Polygon", "coordinates": [ [ [ 45.71425823595262, 281.770439952817526 ], [ 68.007555824747016, 284.117102853393874 ], [ 65.660892923153028, 299.605078023036924 ], [ 85.842193895350192, 301.247742054254218 ], [ 83.495530990958713, 332.458358676883677 ], [ 59.324903081245168, 329.407696899827272 ], [ 59.794235661665702, 318.378381256131718 ], [ 45.714258235443992, 316.501050932415296 ], [ 47.826254848480779, 302.655739798058676 ], [ 44.194248125141911, 302.744183055507619 ], [ 44.775593074857262, 296.319749954498718 ], [ 45.71425823595262, 281.770439952817526 ] ] ] } },
{ "type": "Feature", "properties": { "feature_type": "building", "subtype": "no-damage", "uid": "f37791dd-e92e-4d4a-9c42-b4ca5bdb3918" }, "geometry": { "type": "Polygon", "coordinates": [ [ [ 44.775593074857262, 296.319749954498718 ], [ 35.010704987009078, 295.952821964577709 ], [ 35.487824598487563, 280.957175880997283 ], [ 45.71425823595262, 281.770439952817526 ], [ 44.775593074857262, 296.319749954498718 ] ] ] } },
{ "type": "Feature", "properties": { "feature_type": "building", "subtype": "no-damage", "uid": "e350906e-4d47-419d-928b-ec207ababfc7" }, "geometry": { "type": "Polygon", "coordinates": [ [ [ 45.714258235443992, 316.501050932415296 ], [ 59.794235661665702, 318.378381256131718 ], [ 59.324903081245168, 329.407696899827272 ], [ 44.591680684810193, 328.604661637466222 ], [ 45.714258235443992, 316.501050932415296 ] ] ] } },
{ "type": "Feature", "properties": { "feature_type": "building", "subtype": "no-damage", "uid": "956e7e42-84ef-4491-b355-700c9009b438" }, "geometry": { "type": "Polygon", "coordinates": [ [ [ 96.336551333487705, 304.894322131244678 ], [ 101.090687946459198, 286.165905171595909 ], [ 107.285472016407994, 288.759070597638811 ], [ 109.878637440671, 279.106732622019308 ], [ 124.861371011189604, 283.284610254335576 ], [ 122.124140838266001, 292.360689244468517 ], [ 139.555975083751292, 298.411408568172021 ], [ 135.73576707475479, 312.619521920332375 ], [ 130.768025588140688, 311.809429930634906 ], [ 128.030795418777586, 323.622739088859021 ], [ 107.429536762779705, 318.580472986959592 ], [ 110.887090662093797, 306.911228571801018 ], [ 96.336551333487705, 304.894322131244678 ] ] ] } },
{ "type": "Feature", "properties": { "feature_type": "building", "subtype": "no-damage", "uid": "bc7aac4f-4fbb-41da-a26e-aecfe5488207" }, "geometry": { "type": "Polygon", "coordinates": [ [ [ 139.555975083751292, 298.411408568172021 ], [ 122.124140838266001, 292.360689244468517 ], [ 124.861371011189604, 283.284610254335576 ], [ 142.032326494939099, 289.325270473156195 ], [ 139.555975083751292, 298.411408568172021 ] ] ] } },
{ "type": "Feature", "properties": { "feature_type": "building", "subtype": "no-damage", "uid": "beab1ed1-e524-4c24-8b3c-79c47718c7b8" }, "geometry": { "type": "Polygon", "coordinates": [ [ [ 188.58698380584741, 282.839911706035195 ], [ 217.2702637187341, 293.320340903457009 ], [ 213.960654496353499, 303.800770102913418 ], [ 188.954718165387391, 295.710614233218223 ], [ 189.874054056226214, 292.584872192006799 ], [ 185.549685019287011, 291.495630447709516 ], [ 188.58698380584741, 282.839911706035195 ] ] ] } },
{ "type": "Feature", "properties": { "feature_type": "building", "subtype": "no-damage", "uid": "1686a4de-f284-4088-90f5-2dc20344b54b" }, "geometry": { "type": "Polygon", "coordinates": [ [ [ 217.2702637187341, 293.320340903457009 ], [ 230.324833422764101, 299.204090631680572 ], [ 220.396005756131103, 322.371355175116776 ], [ 183.806437151156501, 309.500652648951075 ], [ 186.984733759160804, 300.43560435352822 ], [ 188.954718165387391, 295.710614233218223 ], [ 213.960654496353499, 303.800770102913418 ], [ 217.2702637187341, 293.320340903457009 ] ] ] } },
{ "type": "Feature", "properties": { "feature_type": "building", "subtype": "no-damage", "uid": "f40b648a-db78-4df4-a3fe-fb57fa31f4a0" }, "geometry": { "type": "Polygon", "coordinates": [ [ [ 185.64968502012951, 291.528963781832317 ], [ 189.874054056226214, 292.584872192006799 ], [ 188.954718165387391, 295.710614233218223 ], [ 186.984733759160804, 300.43560435352822 ], [ 170.270392073668489, 295.130825364266286 ], [ 173.007622248117997, 287.063199596954689 ], [ 185.64968502012951, 291.528963781832317 ] ] ] } },
{ "type": "Feature", "properties": { "feature_type": "building", "subtype": "no-damage", "uid": "7a3d901f-7a28-4d7d-bf4a-6f40ec30e05e" }, "geometry": { "type": "Polygon", "coordinates": [ [ [ 217.059119996073889, 336.695250542531085 ], [ 258.429235253704974, 362.252788412676693 ], [ 242.800525046501406, 387.074857565268417 ], [ 211.543104628406809, 367.768803781614679 ], [ 219.081658961463489, 357.104507404041499 ], [ 206.9464251553932, 350.117554604064821 ], [ 217.059119996073889, 336.695250542531085 ] ] ] } },
{ "type": "Feature", "properties": { "feature_type": "building", "subtype": "destroyed", "uid": "63849259-979d-45cb-af31-46896e2ada85" }, "geometry": { "type": "Polygon", "coordinates": [ [ [ 371.479856422787577, 307.196859101487178 ], [ 378.834543574930024, 293.958422217053226 ], [ 390.785910208859775, 285.500531989089723 ], [ 399.979269154378414, 294.510023754455574 ], [ 415.056377824179378, 309.770999605296197 ], [ 404.024347088082095, 317.125686761506586 ], [ 393.911652248800124, 328.157717496330918 ], [ 371.479856422787577, 307.196859101487178 ] ] ] } },
{ "type": "Feature", "properties": { "feature_type": "building", "subtype": "destroyed", "uid": "e0a35b6c-57fa-42ae-ba9e-891d6b034d6f" }, "geometry": { "type": "Polygon", "coordinates": [ [ [ 378.834543574930024, 293.958422217053226 ], [ 372.031457958664191, 288.626274029283877 ], [ 382.144152795784578, 279.616782262900585 ], [ 397.956730186064192, 278.329712010996218 ], [ 408.437159382342998, 286.971469419111088 ], [ 399.979269154378414, 294.510023754455574 ], [ 390.785910208859775, 285.500531989089723 ], [ 378.834543574930024, 293.958422217053226 ] ] ] } },
{ "type": "Feature", "properties": { "feature_type": "building", "subtype": "no-damage", "uid": "c70ecf54-b6fe-4b86-83eb-6529bbdec374" }, "geometry": { "type": "Polygon", "coordinates": [ [ [ 368.299999416738217, 241.82000033356789 ], [ 348.369185353815396, 265.162720894549182 ], [ 329.329999414334281, 250.250000329976103 ], [ 350.367282167322116, 226.56937463791661 ], [ 368.299999416738217, 241.82000033356789 ] ] ] } },
{ "type": "Feature", "properties": { "feature_type": "building", "subtype": "no-damage", "uid": "c47d0cac-9f9b-40ba-9617-03e09ab87eb2" }, "geometry": { "type": "Polygon", "coordinates": [ [ [ 349.840122784854316, 226.182878964904489 ], [ 354.988403796287628, 219.931394881464513 ], [ 374.110590402844082, 235.008503552153599 ], [ 368.299999416738217, 241.82000033356789 ], [ 350.367282167322116, 226.56937463791661 ], [ 329.329999414334281, 250.250000329976103 ], [ 317.847233654291927, 241.259987635593689 ], [ 339.359693586413812, 215.886316945599589 ], [ 349.840122784854316, 226.182878964904489 ] ] ] } },
{ "type": "Feature", "properties": { "feature_type": "building", "subtype": "destroyed", "uid": "3b2393f9-3eb1-4f78-8386-fcf5e2c369ff" }, "geometry": { "type": "Polygon", "coordinates": [ [ [ 192.497818398713491, 103.388580190817606 ], [ 212.2346885796604, 104.829227654025502 ], [ 213.387206545166009, 94.744695443105741 ], [ 242.632349952437295, 97.481925613231454 ], [ 238.310407577054889, 142.862320551688896 ], [ 237.301954355504989, 145.167356486514393 ], [ 236.293501134590912, 147.328327675222596 ], [ 231.107170284920386, 148.76897513029229 ], [ 226.208968925068604, 147.760521910522812 ], [ 225.776774688242512, 142.286061569254088 ], [ 189.32839399074399, 139.9810256374804 ], [ 192.497818398713491, 103.388580190817606 ] ] ] } },
{ "type": "Feature", "properties": { "feature_type": "building", "subtype": "destroyed", "uid": "43ba1a5f-8489-4a17-9dfe-35def93b77c7" }, "geometry": { "type": "Polygon", "coordinates": [ [ [ 141.844571788037598, 91.073824424128773 ], [ 149.015391764351904, 90.52222288672634 ], [ 149.199258942977394, 78.938590614499617 ], [ 169.424648623448888, 78.938590613482347 ], [ 168.873047088589487, 105.967065914666506 ], [ 184.134022938796306, 106.150933093800703 ], [ 184.134022938796306, 118.837768441849505 ], [ 150.486329195136392, 118.2861669044471 ], [ 150.854063553658989, 105.783198736549593 ], [ 141.844571787528992, 105.231597199147203 ], [ 141.844571788037598, 91.073824424128773 ] ] ] } },
{ "type": "Feature", "properties": { "feature_type": "building", "subtype": "destroyed", "uid": "b2e591b7-b4c1-4443-830d-b0356f4e220e" }, "geometry": { "type": "Polygon", "coordinates": [ [ [ 135.986519111062307, 131.307421136800912 ], [ 173.311556432955086, 133.329960105242009 ], [ 171.472884645682399, 163.300310268503409 ], [ 134.147847325061207, 161.093904122962698 ], [ 135.986519111062307, 131.307421136800912 ] ] ] } },
{ "type": "Feature", "properties": { "feature_type": "building", "subtype": "no-damage", "uid": "1dbb62e7-4ca5-48b8-ba2b-bf76cc9a6034" }, "geometry": { "type": "Polygon", "coordinates": [ [ [ 47.891618593703562, 119.697092589308397 ], [ 48.177947909886029, 114.711988201969305 ], [ 82.164450252902029, 114.009864118341795 ], [ 82.740709232539416, 145.848172947201704 ], [ 45.716069553877709, 147.28882040735769 ], [ 46.004199047383992, 141.238101079585192 ], [ 33.244809160499877, 141.312340069904906 ], [ 33.766148909770607, 119.282300449274501 ], [ 47.891618593703562, 119.697092589308397 ] ] ] } },
{ "type": "Feature", "properties": { "feature_type": "building", "subtype": "no-damage", "uid": "b1a2c26a-8ba0-4ee2-83ce-48b738e6990f" }, "geometry": { "type": "Polygon", "coordinates": [ [ [ 17.899999411260719, 130.400000333664906 ], [ 15.56635048495685, 147.659233111030403 ], [ -0.000000589506318, 145.452826963455209 ], [ -0.000000588234734, 128.000000335824211 ], [ 17.899999411260719, 130.400000333664906 ] ] ] } },
{ "type": "Feature", "properties": { "feature_type": "building", "subtype": "no-damage", "uid": "81538cd7-ec12-4daa-99f1-f22fb7cc8c8e" }, "geometry": { "type": "Polygon", "coordinates": [ [ [ 19.427561244994209, 119.159820376773098 ], [ 17.899999411260719, 130.400000333664906 ], [ -0.000000588234734, 128.000000335824211 ], [ -0.00000059014211, 116.217945514695799 ], [ 19.427561244994209, 119.159820376773098 ] ] ] } },
{ "type": "Feature", "properties": { "feature_type": "building", "subtype": "un-classified", "uid": "5b915625-90b1-4bc9-acfe-202f8cb0468c" }, "geometry": { "type": "Polygon", "coordinates": [ [ [ 2.338543933083712, 232.641435146238308 ], [ 20.173182003814048, 232.876101432633703 ], [ 20.642514584616048, 248.129410312829407 ], [ 2.338543930413386, 248.129410310794896 ], [ 2.338543933083712, 232.641435146238308 ] ] ] } },
{ "type": "Feature", "properties": { "feature_type": "building", "subtype": "no-damage", "uid": "5e5e7780-cf29-4889-914f-c002cc83c11c" }, "geometry": { "type": "Polygon", "coordinates": [ [ [ 63.270727952561963, 238.9545557295273 ], [ 73.499324906548551, 238.9545557295273 ], [ 73.787454398910413, 251.776318106503595 ], [ 63.414792698679307, 251.776318106503595 ], [ 63.270727952561963, 238.9545557295273 ] ] ] } },
{ "type": "Feature", "properties": { "feature_type": "building", "subtype": "no-damage", "uid": "32ece631-8484-4519-8675-670990ef00d3" }, "geometry": { "type": "Polygon", "coordinates": [ [ [ 538.448066569966159, 92.644535574594869 ], [ 557.583055805787012, 76.911322206247902 ], [ 582.67115279585505, 103.2750851498093 ], [ 564.811829512767986, 119.220909508561903 ], [ 538.448066569966159, 92.644535574594869 ] ] ] } },
{ "type": "Feature", "properties": { "feature_type": "building", "subtype": "no-damage", "uid": "a8c3959f-8789-4cd4-a28b-cb627a37725b" }, "geometry": { "type": "Polygon", "coordinates": [ [ [ 556.248215533915413, 0.008900741753787 ], [ 574.142175691629177, 10.46057198280432 ], [ 561.931358709063034, 26.74166128593917 ], [ 543.750808987074038, 14.53084430985961 ], [ 556.225331858332879, 0.008900792617145 ], [ 556.248215533915413, 0.008900741753787 ] ] ] } },
{ "type": "Feature", "properties": { "feature_type": "building", "subtype": "destroyed", "uid": "9f2482a9-0f68-4f6b-8d09-cf27c5f909aa" }, "geometry": { "type": "Polygon", "coordinates": [ [ [ 791.169320411465833, 4.591547962681902 ], [ 806.242240768836609, 0.006831987589691 ], [ 806.266497758133028, 0.006831641718857 ], [ 809.241254686102934, 11.31569266945343 ], [ 810.775297517577201, 10.90661458007699 ], [ 821.596703980431698, 42.003804807903279 ], [ 797.710682871312088, 50.879484782464203 ], [ 794.055991115928691, 38.610162462983403 ], [ 790.531824067557068, 39.915409519113069 ], [ 781.917193503076533, 12.635746065330959 ], [ 793.011793474203841, 9.111579017849914 ], [ 791.169320411465833, 4.591547962681902 ] ] ] } },
{ "type": "Feature", "properties": { "feature_type": "building", "subtype": "no-damage", "uid": "e34470eb-29d9-40bb-bc5d-7e016e1b8881" }, "geometry": { "type": "Polygon", "coordinates": [ [ [ 712.826797469220423, 65.365472383713225 ], [ 735.929670349112712, 68.759114729650378 ], [ 732.536028002157877, 93.689333480364525 ], [ 709.041581012674669, 89.904117022674811 ], [ 712.826797469220423, 65.365472383713225 ] ] ] } },
{ "type": "Feature", "properties": { "feature_type": "building", "subtype": "no-damage", "uid": "081b5618-475b-476f-b9c7-556e95625ee6" }, "geometry": { "type": "Polygon", "coordinates": [ [ [ 269.466262700790821, 259.03481320565021 ], [ 272.594164995532822, 235.163979902564392 ], [ 280.6608603832737, 236.480991397014606 ], [ 280.002354638210193, 245.041566098733711 ], [ 283.624136241463589, 245.535445407372293 ], [ 281.977871877724112, 257.717801713234621 ], [ 277.862210962525808, 257.553175275665296 ], [ 277.697584528898517, 259.693318951857975 ], [ 269.466262700790821, 259.03481320565021 ] ] ] } },
{ "type": "Feature", "properties": { "feature_type": "building", "subtype": "un-classified", "uid": "fff2e02d-21c7-49e2-b561-92c2700d5abe" }, "geometry": { "type": "Polygon", "coordinates": [ [ [ 80.159647704323845, 197.77345986326219 ], [ 80.324274141384464, 190.200643779837492 ], [ 92.342004010950632, 190.859149525028101 ], [ 92.012751137846678, 197.279580550554499 ], [ 80.159647704323845, 197.77345986326219 ] ] ] } },
{ "type": "Feature", "properties": { "feature_type": "building", "subtype": "no-damage", "uid": "3fd875f1-1f9a-442b-a89c-2b0a6c748caf" }, "geometry": { "type": "Polygon", "coordinates": [ [ [ 999.343271091800034, 875.395042314180841 ], [ 998.71294203398395, 858.796377143167661 ], [ 1010.058865062974974, 857.745828714661116 ], [ 1011.109413492499016, 874.974822941964362 ], [ 999.343271091800034, 875.395042314180841 ] ] ] } },
{ "type": "Feature", "properties": { "feature_type": "building", "subtype": "destroyed", "uid": "9a901583-2842-4909-933b-9eabfe8b8ea7" }, "geometry": { "type": "Polygon", "coordinates": [ [ [ 1022.841135664049034, 476.830354576463321 ], [ 1004.723635122845053, 484.629475780323276 ], [ 998.630454237659137, 466.770152494695481 ], [ 992.957492726469923, 469.081359038834023 ], [ 988.124969956153222, 457.315216641188783 ], [ 988.96540869473688, 454.163571358721072 ], [ 981.191350324499808, 437.354796501599708 ], [ 966.063452956623564, 443.447977385513298 ], [ 958.499504272621948, 428.320080013188488 ], [ 962.49158829748842, 426.218983160244591 ], [ 961.230930183763689, 423.907776617123375 ], [ 974.047621013350408, 418.024705416266215 ], [ 972.786962899498462, 414.662950446673108 ], [ 981.821679385113271, 410.250647044504319 ], [ 983.292447180495742, 412.771963272716391 ], [ 995.688918636975927, 406.678782387785589 ], [ 998.210234869003102, 413.192182644932927 ], [ 1003.042757639447018, 411.091085788937107 ], [ 1012.287583810026035, 430.841396241400673 ], [ 1008.925828838143048, 432.102054357032728 ], [ 1009.766267578380052, 435.884028699859527 ], [ 1017.120106579325011, 433.152602787573699 ], [ 1022.841141531646031, 445.972862145204601 ], [ 1022.841135664049034, 476.830354576463321 ] ] ] } },
{ "type": "Feature", "properties": { "feature_type": "building", "subtype": "no-damage", "uid": "629ab34b-8c72-4f98-b093-d3890acd7ace" }, "geometry": { "type": "Polygon", "coordinates": [ [ [ 157.403689492953305, 516.951621341495752 ], [ 158.4356024591942, 509.986208820579009 ], [ 145.923657744191502, 507.922382889623407 ], [ 146.310625109361098, 505.471589596168712 ], [ 150.825244333136112, 478.770841599999073 ], [ 169.915634203378289, 480.705678413512487 ], [ 169.27068860281571, 484.962319396934788 ], [ 204.871685927697911, 489.734916863350293 ], [ 203.581794717035791, 500.698992126701398 ], [ 208.999337792788509, 500.956970371758416 ], [ 209.257316033013495, 497.216285872346589 ], [ 234.152216333878101, 499.409100919727109 ], [ 233.378281610278293, 518.499490790475306 ], [ 206.806522740321412, 515.919708375509344 ], [ 207.064500976986011, 510.760143543542824 ], [ 202.549881752193699, 510.631154424066096 ], [ 202.291903510824199, 522.240175291921673 ], [ 157.403689492953305, 516.951621341495752 ] ] ] } },
{ "type": "Feature", "properties": { "feature_type": "building", "subtype": "no-damage", "uid": "bf6bfbcc-e9e5-4260-aa26-9872063cbda7" }, "geometry": { "type": "Polygon", "coordinates": [ [ [ 584.60370167889198, 1007.602002572962988 ], [ 583.451316626079915, 994.102634773667887 ], [ 596.127552238802195, 992.785623282269512 ], [ 595.139793622287812, 979.450881920543566 ], [ 613.248701642624155, 978.957002607835875 ], [ 614.236460262063247, 991.79786466397502 ], [ 622.138529219101429, 991.468611789853753 ], [ 623.455540714060476, 1005.626485333321966 ], [ 584.60370167889198, 1007.602002572962988 ] ] ] } },
{ "type": "Feature", "properties": { "feature_type": "building", "subtype": "no-damage", "uid": "bee6b0df-b50a-4294-b618-035176246949" }, "geometry": { "type": "Polygon", "coordinates": [ [ [ 559.346455663437837, 235.949969345101209 ], [ 570.70567978183692, 223.438360169186808 ], [ 571.199559093273024, 214.383906158829006 ], [ 582.888036089608136, 200.88453836055109 ], [ 596.058151016055376, 212.57301535574021 ], [ 600.832317675808554, 206.15258432614479 ], [ 610.874530307005216, 214.219279717190688 ], [ 610.709903869435948, 218.170314198506787 ], [ 608.569760193497245, 220.804337183338191 ], [ 614.660938348718105, 226.895515337795189 ], [ 613.508553293617183, 228.871032577436011 ], [ 616.801082024911011, 232.163561304406102 ], [ 618.282719953243145, 230.023417632282388 ], [ 626.349415343018563, 236.443848656791488 ], [ 615.813323404709081, 248.626204963671114 ], [ 607.417375139413593, 242.699653246783299 ], [ 603.466340660385868, 247.144567035720712 ], [ 597.210536070901981, 245.004423358510707 ], [ 594.08263377590572, 248.296952091584387 ], [ 588.979214243048659, 248.790831401240297 ], [ 585.028179768089899, 247.473819906790112 ], [ 579.266254485464515, 251.918733696744795 ], [ 573.998208514020916, 254.388130244006902 ], [ 573.010449896997898, 254.058877370902991 ], [ 571.528811965359751, 255.705141739474413 ], [ 558.358697040056882, 243.687411866095005 ], [ 559.346455663437837, 235.949969345101209 ] ] ] } },
{ "type": "Feature", "properties": { "feature_type": "building", "subtype": "no-damage", "uid": "b38d2cbd-9c3b-4348-bbd4-9490da732758" }, "geometry": { "type": "Polygon", "coordinates": [ [ [ 642.890019246021325, 214.502211231621203 ], [ 649.185961471274823, 220.168559240299601 ], [ 646.982381692919375, 223.316530351145701 ], [ 650.445149916885043, 225.205313016636097 ], [ 646.352787471004376, 229.297675465822408 ], [ 638.797656800522191, 229.61247257690701 ], [ 635.964482796818402, 233.704835026093207 ], [ 629.038946347361161, 227.723689908364804 ], [ 632.816511681394218, 224.575718796501405 ], [ 629.983337680106388, 220.798153460434293 ], [ 633.760903017827104, 217.964979458638311 ], [ 637.538468352623113, 221.112950569484411 ], [ 642.890019246021325, 214.502211231621203 ] ] ] } }
]
}
