{
"type": "FeatureCollection",
"name": "socal-fire_00000476_post_disaster",
"features": [
{ "type": "Feature", "properties": { "feature_type": "building", "subtype": "no-damage", "uid": "17f94b62-7cf0-4a20-8756-70253e3acc49" }, "geometry": { "type": "Polygon", "coordinates": [ [ [ 482.586812579576986, 19.98779996243465 ], [ 526.815032218722422, 21.545131638861719 ], [ 526.503565883691181, 38.364313756481323 ], [ 515.290777808201369, 39.610179098640238 ], [ 500.963326374134681, 54.560563199461008 ], [ 512.799047124010258, 58.609625559188672 ], [ 510.618782776376293, 74.494408670952026 ], [ 506.258254080218308, 83.215466067081763 ], [ 498.783062024211915, 86.33012942502225 ], [ 484.767076929881284, 84.461331409240699 ], [ 476.357485870307414, 67.953615626906512 ], [ 484.144144257403013, 62.035755253431837 ], [ 482.275346242765579, 51.445899848641403 ], [ 486.324408604274026, 46.462438481022957 ], [ 483.832677920464391, 39.921645431891122 ], [ 488.8161392888465, 35.249650400575369 ], [ 482.586812578305398, 34.315251393701857 ], [ 482.586812579576986, 19.98779996243465 ] ] ] } },
{ "type": "Feature", "properties": { "feature_type": "building", "subtype": "no-damage", "uid": "c8cf8d2e-4233-4ef3-b97a-ccae8bdcb102" }, "geometry": { "type": "Polygon", "coordinates": [ [ [ 526.112423183114174, 157.5576705495059 ], [ 549.168510178822658, 139.669327191330211 ], [ 564.67174109421137, 156.365114324678103 ], [ 570.63452221148475, 151.19737068918289 ], [ 580.57249074870856, 163.122932928305801 ], [ 576.199784590030958, 169.483232788628811 ], [ 590.510459277412679, 189.756688598494691 ], [ 597.665796623456004, 185.781501183758309 ], [ 608.398802636989558, 199.694657131266609 ], [ 584.547678159376346, 218.775556713252911 ], [ 567.851891022593009, 199.297138387961894 ], [ 566.659334797510724, 193.334357266874491 ], [ 558.708959970707156, 193.334357268909088 ], [ 526.112423183114174, 157.5576705495059 ] ] ] } },
{ "type": "Feature", "properties": { "feature_type": "building", "subtype": "no-damage", "uid": "4c856dbe-435f-4ff6-9b84-ee8074a1dab9" }, "geometry": { "type": "Polygon", "coordinates": [ [ [ 712.357889123155701, 140.054559251701306 ], [ 725.780200434372659, 121.019281392728502 ], [ 747.743982576624944, 124.679911752101305 ], [ 744.32739424520264, 170.071728183706114 ], [ 720.899359956606986, 169.827686163003193 ], [ 722.363612099771444, 144.447315685390095 ], [ 712.357889123155701, 140.054559251701306 ] ] ] } },
{ "type": "Feature", "properties": { "feature_type": "building", "subtype": "no-damage", "uid": "45e45686-729e-495b-9de3-80c64bd8a37c" }, "geometry": { "type": "Polygon", "coordinates": [ [ [ 753.589637178132648, 136.029430321521289 ], [ 761.620596257259763, 135.073363764276593 ], [ 773.093394939492555, 138.323990055653297 ], [ 768.504275464870148, 166.814773452999788 ], [ 772.71096831717955, 170.256613059284092 ], [ 771.372475134315664, 186.700957839213203 ], [ 753.589637175971006, 185.553677970112687 ], [ 754.736917047106203, 170.447826370122698 ], [ 747.853237836316907, 156.489254640250493 ], [ 753.589637178132648, 136.029430321521289 ] ] ] } },
{ "type": "Feature", "properties": { "feature_type": "building", "subtype": "no-damage", "uid": "eebfe739-89d6-454c-b8e2-e94501b523c9" }, "geometry": { "type": "Polygon", "coordinates": [ [ [ 834.823880009266873, 115.689190154755195 ], [ 856.315057153881753, 103.230536729096798 ], [ 857.872388833869422, 105.099334746912902 ], [ 886.215825363665431, 85.788421942940957 ], [ 890.887820394727441, 96.066811015497777 ], [ 895.248349093683032, 93.575080333214459 ], [ 899.920344125380893, 102.296137727309699 ], [ 903.969406484854744, 101.361738718401597 ], [ 917.050992578288174, 120.984117856641802 ], [ 908.952867856797297, 126.279045559545594 ], [ 915.493660898936241, 137.491833637958706 ], [ 879.986498656176082, 157.114212773146988 ], [ 872.199840266664523, 140.2950306545101 ], [ 868.462244238661356, 139.672097985973807 ], [ 864.101715544283479, 126.279045560562906 ], [ 844.47933640960116, 135.311569285874413 ], [ 839.184408705679289, 129.082242578131599 ], [ 834.823880009266873, 115.689190154755195 ] ] ] } },
{ "type": "Feature", "properties": { "feature_type": "building", "subtype": "no-damage", "uid": "9193ab52-e925-414c-936b-3f21d4968203" }, "geometry": { "type": "Polygon", "coordinates": [ [ [ 955.089875463699968, 149.102001713591591 ], [ 990.475968919458069, 145.929455401728291 ], [ 999.017439753545204, 159.839850763886204 ], [ 1008.779120706915023, 160.083892787640991 ], [ 1011.219540944208006, 163.988565168733913 ], [ 1022.847201676045984, 163.766536070774691 ], [ 1022.847150177913022, 208.680888028179396 ], [ 1017.564633563358029, 205.475709221280312 ], [ 978.029825701861455, 206.695919338019394 ], [ 976.077489510297369, 184.488095168200601 ], [ 951.429245103309427, 184.488095170235113 ], [ 951.185203079681742, 170.577699813163491 ], [ 958.26242177391066, 169.845573740882088 ], [ 958.262421772639073, 167.405153500282893 ], [ 953.8696653399669, 167.161111481614512 ], [ 955.089875463699968, 149.102001713591591 ] ] ] } },
{ "type": "Feature", "properties": { "feature_type": "building", "subtype": "no-damage", "uid": "de847bb0-1692-4f1b-9689-297d4d45b6a9" }, "geometry": { "type": "Polygon", "coordinates": [ [ [ 1022.84699957519797, 428.463327336315615 ], [ 1010.834883314254967, 430.314977100590909 ], [ 997.643891462303259, 397.337497482668311 ], [ 1002.210004026930051, 393.278730757426274 ], [ 998.658583147428658, 387.697926511998674 ], [ 1015.908341714196013, 379.580393068635487 ], [ 1010.834883310821965, 369.940822104069582 ], [ 1022.847028058806018, 360.682550275161816 ], [ 1022.84699957519797, 428.463327336315615 ] ] ] } },
{ "type": "Feature", "properties": { "feature_type": "building", "subtype": "no-damage", "uid": "00ebc30a-45f1-424d-abc0-7cccc893b410" }, "geometry": { "type": "Polygon", "coordinates": [ [ [ 838.626594195254597, 469.917092205491087 ], [ 850.828695387570519, 469.917092206508414 ], [ 860.346334319855714, 460.155411251232692 ], [ 863.518880626505961, 460.399453277022019 ], [ 864.739090748713011, 472.357512444055715 ], [ 895.488385751731812, 474.797932682620285 ], [ 892.559881462096996, 513.600614473864539 ], [ 865.715258840426031, 513.844656494567516 ], [ 865.22717479469668, 521.165917209243958 ], [ 844.97168681872779, 520.189749116259577 ], [ 844.971686817583304, 506.035311733398828 ], [ 835.698089912486239, 505.303185660099984 ], [ 836.186173957961273, 474.309848634093612 ], [ 838.626594195254597, 469.917092205491087 ] ] ] } },
{ "type": "Feature", "properties": { "feature_type": "building", "subtype": "no-damage", "uid": "60476bbf-2c40-44b9-b0bf-9308494e2982" }, "geometry": { "type": "Polygon", "coordinates": [ [ [ 942.629066892589663, 429.300605546642487 ], [ 965.5690171359646, 416.610420307327274 ], [ 967.521353327528686, 428.568479475378297 ], [ 975.08665606468935, 440.282496619674475 ], [ 956.051378204696789, 454.680976026290125 ], [ 946.533739275081984, 445.651421142278707 ], [ 942.385024869343624, 438.330160428619422 ], [ 942.629066892589663, 429.300605546642487 ] ] ] } },
{ "type": "Feature", "properties": { "feature_type": "building", "subtype": "no-damage", "uid": "b17777d9-371a-4a02-8a85-3d6f787e292e" }, "geometry": { "type": "Polygon", "coordinates": [ [ [ 939.215417666604139, 602.617531380627725 ], [ 942.953013691555498, 603.240464051198614 ], [ 944.821811706319977, 601.060199702166187 ], [ 948.559407729491113, 603.551930387501216 ], [ 951.362604749603406, 601.683132374771503 ], [ 974.411113577003448, 615.387651135467877 ], [ 978.460175938511838, 611.650055110008338 ], [ 997.459622403131903, 619.43671349519559 ], [ 1008.672410483580961, 620.682578840406222 ], [ 1005.246280790989999, 635.632962943261532 ], [ 995.279358057150944, 641.239356982468053 ], [ 983.755103641670757, 657.124140093214237 ], [ 928.002629585646332, 624.420174866883031 ], [ 930.494360270218863, 614.764718464897101 ], [ 916.789841509774988, 616.010583808073193 ], [ 914.921043498825156, 604.797795729660152 ], [ 934.543422633634691, 601.060199702166187 ], [ 935.477821638855289, 602.617531380627725 ], [ 939.215417666604139, 602.617531380627725 ] ] ] } },
{ "type": "Feature", "properties": { "feature_type": "building", "subtype": "no-damage", "uid": "574bea7b-e1b5-4b74-aaef-5e37b7c12327" }, "geometry": { "type": "Polygon", "coordinates": [ [ [ 932.963523352634184, 710.986028579886693 ], [ 914.677661248099525, 738.017302993380213 ], [ 897.584355373733615, 722.911590822061385 ], [ 888.838943060193287, 714.166178513099908 ], [ 899.174430334491149, 697.470391376700263 ], [ 903.149617750245397, 697.470391377717533 ], [ 910.702473837940374, 681.56964172284097 ], [ 922.628036075666046, 686.339866620117732 ], [ 930.18089216259807, 681.967160463093933 ], [ 961.187353986254493, 700.25302256559155 ], [ 976.690584897446911, 706.215803684644357 ], [ 999.349153154682654, 723.706628302567196 ], [ 987.423590913269322, 743.980084111415749 ], [ 971.5228412596623, 736.824746766517933 ], [ 932.963523352634184, 710.986028579886693 ] ] ] } },
{ "type": "Feature", "properties": { "feature_type": "building", "subtype": "no-damage", "uid": "e3c6b80f-fdc5-4804-a0b8-81e538dd4a9c" }, "geometry": { "type": "Polygon", "coordinates": [ [ [ 816.492122691732447, 660.154990817202133 ], [ 825.033593525946685, 668.208377606194631 ], [ 843.580787338175469, 639.899502840472906 ], [ 853.098426266900219, 648.196931649151111 ], [ 852.122258174932881, 652.101604029226905 ], [ 856.026930552974591, 655.762234389616879 ], [ 838.211862816333564, 678.946226652420137 ], [ 847.485459717743083, 689.684075698645643 ], [ 834.79527447868054, 701.886176892485878 ], [ 807.462567810262954, 675.773680342591319 ], [ 816.492122691732447, 660.154990817202133 ] ] ] } },
{ "type": "Feature", "properties": { "feature_type": "building", "subtype": "no-damage", "uid": "ca26f622-ac60-4054-a5b8-2c8c9e5e05e7" }, "geometry": { "type": "Polygon", "coordinates": [ [ [ 826.125417377216422, 856.07732480470554 ], [ 834.535008440223464, 837.700811007607058 ], [ 850.731257885494188, 844.24160405063526 ], [ 842.944599494202407, 861.372252501505727 ], [ 826.125417377216422, 856.07732480470554 ] ] ] } },
{ "type": "Feature", "properties": { "feature_type": "building", "subtype": "no-damage", "uid": "235649fe-975b-4c07-b85c-10191e66861e" }, "geometry": { "type": "Polygon", "coordinates": [ [ [ 674.939995785754604, 758.84201247902331 ], [ 690.443226699362981, 697.624126316293655 ], [ 742.120663069580473, 709.947207297703926 ], [ 731.785175796935732, 740.15863163627273 ], [ 745.300812999361028, 744.531337790244834 ], [ 737.747956918023874, 778.320430806348782 ], [ 674.939995785754604, 758.84201247902331 ] ] ] } },
{ "type": "Feature", "properties": { "feature_type": "building", "subtype": "no-damage", "uid": "81ba7cbc-789d-4569-8477-3d69bcc81375" }, "geometry": { "type": "Polygon", "coordinates": [ [ [ 1022.847322572270969, 954.187941504220362 ], [ 1016.194842190282998, 958.931317533106039 ], [ 989.958605260216132, 884.197794160069066 ], [ 1020.567548341330962, 877.83749430076341 ], [ 1022.847226658983004, 886.285941635458926 ], [ 1022.847322572270969, 954.187941504220362 ] ] ] } },
{ "type": "Feature", "properties": { "feature_type": "building", "subtype": "no-damage", "uid": "505e491d-47d5-4061-84f4-8bfcb53823c3" }, "geometry": { "type": "Polygon", "coordinates": [ [ [ 954.227964138954917, 1022.980066710794972 ], [ 957.471279748480697, 1003.888953407456029 ], [ 969.42933891729615, 1008.037667812303994 ], [ 972.845927251770263, 1000.960449119347004 ], [ 984.559944396703941, 1004.132995430194001 ], [ 987.244406658515004, 996.323650669024801 ], [ 1007.011810588119033, 1002.18065923710401 ], [ 1008.476062730646959, 999.984281027380348 ], [ 1022.142416067272052, 1002.668743286648009 ], [ 1019.121785513347049, 1022.978564745337962 ], [ 954.227964138954917, 1022.980066710794972 ] ] ] } },
{ "type": "Feature", "properties": { "feature_type": "building", "subtype": "no-damage", "uid": "9f5a984a-f266-4a65-b85d-88fcfab4c142" }, "geometry": { "type": "Polygon", "coordinates": [ [ [ 828.193244977892277, 1008.974697299109948 ], [ 858.802188061549941, 966.837710720401219 ], [ 873.907900229691904, 964.452598273797435 ], [ 876.690531417947795, 956.899742185594732 ], [ 886.230981210722462, 954.912148481278336 ], [ 889.411131144444767, 960.477410861095564 ], [ 891.398724849015821, 958.489817153727358 ], [ 891.398724849015821, 952.924554773910131 ], [ 896.963987227434927, 950.936961067559196 ], [ 905.709399538304865, 955.309667221531299 ], [ 913.659774365489852, 952.527036032640012 ], [ 927.572930310711286, 982.738460371208703 ], [ 889.013612403174534, 1001.024322476758016 ], [ 867.945119109748248, 999.434247507608347 ], [ 846.22541576037213, 1022.982112217353006 ], [ 844.128603514621545, 1022.982146316148032 ], [ 828.193244977892277, 1008.974697299109948 ] ] ] } },
{ "type": "Feature", "properties": { "feature_type": "building", "subtype": "no-damage", "uid": "79547160-b256-4f88-8121-4f2ca3746813" }, "geometry": { "type": "Polygon", "coordinates": [ [ [ 791.161131288524871, 935.548335095482798 ], [ 801.128054025670394, 937.10566677190991 ], [ 798.324857005303784, 957.66244491600628 ], [ 787.112068929686757, 955.793646901242028 ], [ 791.161131288524871, 935.548335095482798 ] ] ] } },
{ "type": "Feature", "properties": { "feature_type": "building", "subtype": "no-damage", "uid": "ca993f4b-8f47-473b-8866-1a136c32518f" }, "geometry": { "type": "Polygon", "coordinates": [ [ [ 821.684832168243588, 949.252853855161902 ], [ 834.143485589580223, 949.252853855161902 ], [ 832.58615390959244, 967.629367651243115 ], [ 818.881635151056003, 967.629367651243115 ], [ 821.684832168243588, 949.252853855161902 ] ] ] } },
{ "type": "Feature", "properties": { "feature_type": "building", "subtype": "no-damage", "uid": "a97a8cf1-b025-48ac-a00a-38fb0aa1103a" }, "geometry": { "type": "Polygon", "coordinates": [ [ [ 775.719364550599039, 1012.586219573744984 ], [ 778.522561573763141, 989.537710746348012 ], [ 783.506022939729178, 976.767590992525129 ], [ 821.193449533556532, 986.423047393493789 ], [ 815.587055494857964, 1002.619296837490992 ], [ 814.02972381893926, 1017.258214607095056 ], [ 775.719364550599039, 1012.586219573744984 ] ] ] } },
{ "type": "Feature", "properties": { "feature_type": "building", "subtype": "no-damage", "uid": "ec7c79c4-befc-49ed-a351-8b3c503a2a72" }, "geometry": { "type": "Polygon", "coordinates": [ [ [ 736.786072613722354, 1004.799561186522965 ], [ 743.949798329611212, 975.210259316098018 ], [ 751.424990383328804, 975.210259318132557 ], [ 753.293788397457547, 967.42360092785907 ], [ 769.801504175597643, 970.849730619050433 ], [ 771.670302191379506, 981.751052363195299 ], [ 766.063908150391967, 1012.586219574762026 ], [ 748.621793362707876, 1010.717421562031973 ], [ 736.786072613722354, 1004.799561186522965 ] ] ] } },
{ "type": "Feature", "properties": { "feature_type": "building", "subtype": "no-damage", "uid": "ec6d88af-65db-454d-abb8-7899e6b83c7d" }, "geometry": { "type": "Polygon", "coordinates": [ [ [ 697.852780678244471, 989.537710746348012 ], [ 705.950905399353928, 956.210812850463299 ], [ 720.278356834183455, 958.391077199495726 ], [ 724.327419194420372, 952.161750489718315 ], [ 738.343404293328604, 955.587880181926948 ], [ 738.343404294218772, 963.997471238702246 ], [ 730.245279571964829, 1001.061965161063995 ], [ 697.852780678244471, 989.537710746348012 ] ] ] } },
{ "type": "Feature", "properties": { "feature_type": "building", "subtype": "no-damage", "uid": "9cdc72fc-0699-441b-90da-fe91219b61a1" }, "geometry": { "type": "Polygon", "coordinates": [ [ [ 620.261940966217026, 928.332002040542761 ], [ 622.647053417907614, 910.841177423637191 ], [ 631.789984467377394, 894.940427771812438 ], [ 666.771633702210352, 904.083358822044033 ], [ 656.833665172870383, 936.282376867981043 ], [ 634.572615654488914, 935.487339386457847 ], [ 620.261940966217026, 928.332002040542761 ] ] ] } },
{ "type": "Feature", "properties": { "feature_type": "building", "subtype": "no-damage", "uid": "42258596-f492-4700-9a85-af71a6d0efee" }, "geometry": { "type": "Polygon", "coordinates": [ [ [ 642.920509224470038, 988.357331981496372 ], [ 656.03862768537067, 943.835232952114552 ], [ 666.771633701447399, 912.033733648465045 ], [ 708.908620284993958, 923.959295887587928 ], [ 699.76568923361674, 960.133501347244078 ], [ 683.069902096579085, 958.145907640893142 ], [ 668.361708671106044, 997.500263031727968 ], [ 642.920509224470038, 988.357331981496372 ] ] ] } },
{ "type": "Feature", "properties": { "feature_type": "building", "subtype": "no-damage", "uid": "cd416e27-5070-4ff4-887d-61e4c500236d" }, "geometry": { "type": "Polygon", "coordinates": [ [ [ 472.117031712334096, 257.476894526399576 ], [ 511.690007257508626, 250.881398601187499 ], [ 517.270811500266632, 276.248690615130613 ], [ 461.462769070525326, 287.410299102933891 ], [ 459.433385708158312, 274.726653095962376 ], [ 471.609685874730587, 270.667886374789418 ], [ 472.117031712334096, 257.476894526399576 ] ] ] } },
{ "type": "Feature", "properties": { "feature_type": "building", "subtype": "no-damage", "uid": "65b0344f-4c41-4e2f-ade2-cad79b7ec32d" }, "geometry": { "type": "Polygon", "coordinates": [ [ [ 441.649197978713573, 382.814085619631385 ], [ 466.692878683824972, 349.820030088102328 ], [ 482.991147075269112, 360.55303610544911 ], [ 497.699340506464182, 343.459730225744693 ], [ 506.444752813392199, 349.820030088102328 ], [ 510.02242148940212, 345.447323932095685 ], [ 524.333096174113393, 355.385292464867575 ], [ 491.339040645377395, 394.342129117484092 ], [ 482.991147076667801, 393.149572891639025 ], [ 481.003553372605495, 398.317316530186019 ], [ 482.991147078193706, 404.280097651273309 ], [ 473.45069728770801, 408.652803803210816 ], [ 441.649197978713573, 382.814085619631385 ] ] ] } },
{ "type": "Feature", "properties": { "feature_type": "building", "subtype": "no-damage", "uid": "e2218366-92c1-42d8-9dff-8350013792fa" }, "geometry": { "type": "Polygon", "coordinates": [ [ [ 543.811514499788473, 407.460247581434828 ], [ 579.985719964408531, 385.994235549792904 ], [ 592.706319683276092, 406.267691356606974 ], [ 567.66263898248792, 420.578366045385508 ], [ 570.047751430363746, 427.336184644944183 ], [ 575.613013807129846, 427.336184644944183 ], [ 584.358426119525689, 440.851821852199578 ], [ 583.563388635459205, 446.019565490746572 ], [ 587.936094788414607, 452.379865351069611 ], [ 566.470082759185857, 468.280615003911578 ], [ 552.556926810404093, 444.031971781343827 ], [ 548.581739395285695, 445.622046748459127 ], [ 542.221439533817374, 436.479115695175722 ], [ 541.823920797124856, 432.901447023744026 ], [ 535.463620930824618, 420.180847302080792 ], [ 539.836327087086033, 416.603178628614614 ], [ 539.438808347087388, 409.050322548550128 ], [ 543.811514499788473, 407.460247581434828 ] ] ] } },
{ "type": "Feature", "properties": { "feature_type": "building", "subtype": "no-damage", "uid": "c826e433-19ee-466c-8030-8832b2a6aaf8" }, "geometry": { "type": "Polygon", "coordinates": [ [ [ 452.550714874882715, 500.648134886690173 ], [ 471.550161344589128, 501.582533892546508 ], [ 483.074415757526083, 505.631596258377726 ], [ 500.827996877443923, 504.074264579916075 ], [ 504.565592906464417, 512.483855637708643 ], [ 526.36823639119666, 505.943062591628575 ], [ 531.974630429895342, 527.122773404261352 ], [ 503.008261224950672, 550.79421490528091 ], [ 484.631747431664621, 542.384623844436533 ], [ 474.664824697825111, 538.024095146371678 ], [ 456.599777237789908, 534.28649911786033 ], [ 455.665378232950786, 520.893446695501211 ], [ 451.927782203930292, 512.172389301406042 ], [ 452.550714874882715, 500.648134886690173 ] ] ] } },
{ "type": "Feature", "properties": { "feature_type": "building", "subtype": "no-damage", "uid": "a5d188ad-5996-44e1-9888-9604731d131d" }, "geometry": { "type": "Polygon", "coordinates": [ [ [ 329.789436652972199, 655.095190073177605 ], [ 325.416730497727883, 646.349777763198972 ], [ 320.248986858290209, 649.132408952090259 ], [ 299.578012310584711, 589.902116494694269 ], [ 319.056430634733772, 582.34926041157803 ], [ 325.019211753151581, 596.262416358069117 ], [ 328.199361686365307, 594.274822651718182 ], [ 328.596880426618327, 588.312041530630836 ], [ 338.137330220918784, 585.529410340722166 ], [ 359.603342250529124, 633.231659301282775 ], [ 348.870336233180808, 634.424215526110629 ], [ 353.640561132111316, 647.939852729297058 ], [ 329.789436652972199, 655.095190073177605 ] ] ] } },
{ "type": "Feature", "properties": { "feature_type": "building", "subtype": "no-damage", "uid": "385b47bb-b4d8-4544-8dc5-81178dfcb594" }, "geometry": { "type": "Polygon", "coordinates": [ [ [ 304.396811026941009, 694.765602961983859 ], [ 357.668124260017976, 677.008498549985688 ], [ 379.991341231176989, 731.801849302096684 ], [ 363.248928500995703, 736.875307707123284 ], [ 353.102011695773172, 720.132894976944272 ], [ 334.837561447440692, 725.713699226440895 ], [ 331.286140563362096, 718.610857454724169 ], [ 312.006998630921487, 722.162278339565319 ], [ 304.396811026941009, 694.765602961983859 ] ] ] } },
{ "type": "Feature", "properties": { "feature_type": "building", "subtype": "no-damage", "uid": "07fc9e16-3f22-45e0-8973-d0e5d03d7d01" }, "geometry": { "type": "Polygon", "coordinates": [ [ [ 26.7496583881364, 834.369072869612978 ], [ 53.535763245065503, 808.517367021595419 ], [ 73.469608713125879, 830.320010504798915 ], [ 41.700042492519593, 860.220778712544075 ], [ 30.48725441461367, 849.630923307753733 ], [ 26.7496583881364, 834.369072869612978 ] ] ] } },
{ "type": "Feature", "properties": { "feature_type": "building", "subtype": "no-damage", "uid": "940baaec-3d47-4b53-bbf5-3b31f0a496a4" }, "geometry": { "type": "Polygon", "coordinates": [ [ [ 72.223743372111215, 835.30347187343466 ], [ 88.419992819162147, 798.238977949038599 ], [ 139.811938173560605, 821.287486776435571 ], [ 118.320761024876703, 865.515706416465264 ], [ 100.878646237574102, 855.86025001651376 ], [ 94.337853194672149, 858.974913371402408 ], [ 85.928262137005646, 856.794649022369981 ], [ 81.256267101238734, 844.958928274403434 ], [ 72.223743372111215, 835.30347187343466 ] ] ] } },
{ "type": "Feature", "properties": { "feature_type": "building", "subtype": "no-damage", "uid": "62ab3982-95b0-45ce-ac9f-65f81bc93bd4" }, "geometry": { "type": "Polygon", "coordinates": [ [ [ 32.243230300675968, 873.753743741338894 ], [ 56.226138135203954, 865.967085353099947 ], [ 95.159430074369439, 877.179873431512988 ], [ 90.798901373633655, 892.753190206973613 ], [ 54.668806458649513, 885.27799815503738 ], [ 39.718422353884833, 886.212397159876332 ], [ 32.243230300675968, 873.753743741338894 ] ] ] } },
{ "type": "Feature", "properties": { "feature_type": "building", "subtype": "no-damage", "uid": "de5be024-32dc-423b-97a7-eabec4523a0b" }, "geometry": { "type": "Polygon", "coordinates": [ [ [ 183.368269191862112, 999.972843044332308 ], [ 206.416778014938814, 975.055536207257319 ], [ 206.416778016210401, 971.629406511996876 ], [ 216.695167089022902, 958.547820422888663 ], [ 245.038603616021305, 983.153660925695362 ], [ 233.202882870341995, 994.989381673662024 ], [ 229.153820507307699, 1005.779219679782955 ], [ 209.744834035692293, 1022.982640872783008 ], [ 207.315877722013795, 1022.982605142291959 ], [ 203.30211465954099, 1019.795204776782043 ], [ 197.635884058496487, 1022.982459894853037 ], [ 194.59348337819381, 1022.982413301981978 ], [ 189.597595900368788, 1018.86080577296002 ], [ 190.531994908259691, 1013.877344403307006 ], [ 183.368269191862112, 999.972843044332308 ] ] ] } },
{ "type": "Feature", "properties": { "feature_type": "building", "subtype": "no-damage", "uid": "5b12ab26-ae96-4704-b023-5b5cd42f8b7c" }, "geometry": { "type": "Polygon", "coordinates": [ [ [ 324.787806502025092, 833.122842913473278 ], [ 325.722205505592626, 820.975655828186632 ], [ 322.296075817834094, 820.66418949391857 ], [ 322.919008487260612, 802.287675697837358 ], [ 329.459801534358689, 801.976209363569183 ], [ 329.771267865193693, 793.255151969474014 ], [ 332.574464885433088, 793.255151970491283 ], [ 332.885931223643183, 781.107964886221907 ], [ 336.93499358426152, 778.927700535154941 ], [ 346.590449982179678, 778.304767865601434 ], [ 346.901916320135513, 774.878638174410071 ], [ 357.80323806059431, 775.501570847015387 ], [ 358.737637069375296, 779.862099542028432 ], [ 368.393093467929305, 782.976762898951733 ], [ 366.212829122329822, 807.582603400741164 ], [ 365.589896448707123, 840.909501299677686 ], [ 324.787806502025092, 833.122842913473278 ] ] ] } },
{ "type": "Feature", "properties": { "feature_type": "building", "subtype": "no-damage", "uid": "588c0621-7c6d-4f92-a1ce-add75c4eb552" }, "geometry": { "type": "Polygon", "coordinates": [ [ [ 306.09982636760418, 902.891302063183161 ], [ 313.575018419795811, 856.482818074121042 ], [ 343.787252964610616, 860.84334677116874 ], [ 337.246459919674123, 890.432648645662994 ], [ 343.787252965373625, 893.235845662214388 ], [ 354.688574708757017, 888.875316964149533 ], [ 353.442709364054679, 886.07211994454633 ], [ 363.72109843661292, 885.137720939707265 ], [ 364.655497444376579, 879.842793235786189 ], [ 391.441602295074972, 878.596927894644523 ], [ 390.818669627174415, 909.120628772960458 ], [ 332.885931220209898, 923.448080208296801 ], [ 330.394200540596614, 920.956349524996199 ], [ 319.49287879848481, 925.939810890580134 ], [ 303.919562022004811, 910.055027777799523 ], [ 306.09982636760418, 902.891302063183161 ] ] ] } },
{ "type": "Feature", "properties": { "feature_type": "building", "subtype": "no-damage", "uid": "1145b12e-6bce-4a9c-a08f-1dc7c06ccc08" }, "geometry": { "type": "Polygon", "coordinates": [ [ [ 422.793937225991726, 872.657562597230026 ], [ 425.875054165147276, 869.383875849202809 ], [ 432.815364848510796, 871.940832414756414 ], [ 432.624694023740119, 876.707603068484673 ], [ 451.468249766125723, 885.255195363002372 ], [ 463.729999455810685, 875.060000306946336 ], [ 452.50417664642282, 901.465425456427397 ], [ 400.80076495343269, 881.220113645581932 ], [ 407.839999459014791, 864.110000302938033 ], [ 422.793937225991726, 872.657562597230026 ] ] ] } },
{ "type": "Feature", "properties": { "feature_type": "building", "subtype": "no-damage", "uid": "e59c6b7a-278e-47a0-8e4d-62f7e55279f8" }, "geometry": { "type": "Polygon", "coordinates": [ [ [ 453.438575649863083, 859.106003827092991 ], [ 450.635378631531125, 869.384392898632655 ], [ 463.729999455810685, 875.060000306946336 ], [ 451.468249766125723, 885.255195363002372 ], [ 432.624694023740119, 876.707603068484673 ], [ 432.815364848510796, 871.940832414756414 ], [ 425.875054165147276, 869.383875849202809 ], [ 422.793937225991726, 872.657562597230026 ], [ 407.839999459014791, 864.110000302938033 ], [ 411.702086694145805, 854.745475134114486 ], [ 428.832735148070412, 862.220667181981753 ], [ 435.996460866121026, 850.073480098729647 ], [ 453.438575649863083, 859.106003827092991 ] ] ] } },
{ "type": "Feature", "properties": { "feature_type": "building", "subtype": "no-damage", "uid": "16d74c02-bcf9-41da-b65b-0951e84bfb83" }, "geometry": { "type": "Polygon", "coordinates": [ [ [ 468.090013226465828, 915.867950314797099 ], [ 476.81107062196088, 877.24612471804312 ], [ 485.532128013641227, 874.131461360102548 ], [ 516.367295228772605, 884.098384097374037 ], [ 516.990227897563386, 894.376773167896317 ], [ 508.269170504229919, 931.441267091274995 ], [ 468.090013226465828, 915.867950314797099 ] ] ] } },
{ "type": "Feature", "properties": { "feature_type": "building", "subtype": "no-damage", "uid": "3e1644ab-8f1f-46eb-9707-a78575f4e21d" }, "geometry": { "type": "Polygon", "coordinates": [ [ [ 332.660010829068881, 1022.984074235778053 ], [ 325.453850723285711, 1010.372612308950011 ], [ 347.567960543811978, 991.684632181652773 ], [ 372.173801047130723, 1019.40513604036596 ], [ 370.475454887949411, 1022.984367372499037 ], [ 332.660010829068881, 1022.984074235778053 ] ] ] } },
{ "type": "Feature", "properties": { "feature_type": "building", "subtype": "no-damage", "uid": "13907ced-38b4-44d0-8e49-afb746ea8c9f" }, "geometry": { "type": "Polygon", "coordinates": [ [ [ 420.394017699832091, 1022.984647800500966 ], [ 428.86067410405218, 989.192901496317631 ], [ 445.056923551993293, 993.55343019133079 ], [ 447.860120570325421, 987.324103482570649 ], [ 469.974230393903611, 991.996098514903679 ], [ 470.285696728171672, 1000.405689571678977 ], [ 493.334205555063079, 1003.831819259818985 ], [ 492.151050646268402, 1022.984838539111024 ], [ 420.394017699832091, 1022.984647800500966 ] ] ] } },
{ "type": "Feature", "properties": { "feature_type": "building", "subtype": "no-damage", "uid": "d16d3a41-d739-4a67-b4b5-2f50391c1fc8" }, "geometry": { "type": "Polygon", "coordinates": [ [ [ -0.000000545636671, 865.105248105113674 ], [ 12.705853764352369, 851.77121178073628 ], [ 20.79616794027352, 861.060091018743037 ], [ 19.14814097527869, 865.255068738017485 ], [ 24.841325026898939, 873.195562281923799 ], [ 11.657109333643509, 885.331033543070021 ], [ -0.000000545636671, 865.105248105113674 ] ] ] } },
{ "type": "Feature", "properties": { "feature_type": "building", "subtype": "no-damage", "uid": "0ba967ba-3dd7-4a9c-8c0c-c05de3c1442f" }, "geometry": { "type": "Polygon", "coordinates": [ [ [ 520.752349082888941, 272.242099502030896 ], [ 568.601510011498362, 267.520142831692681 ], [ 571.749481123362102, 282.000809952774716 ], [ 524.215117309143466, 285.778375289859014 ], [ 520.752349082888941, 272.242099502030896 ] ] ] } }
]
}
