{
"type": "FeatureCollection",
"name": "socal-fire_00000630_post_disaster",
"features": [
{ "type": "Feature", "properties": { "feature_type": "building", "subtype": "no-damage", "uid": "89e515b8-9dcb-4a86-8071-e1c0d2a31e9b" }, "geometry": { "type": "Polygon", "coordinates": [ [ [ 996.56020272382807, 0.003109966772807 ], [ 974.931514163236329, 26.017344432838168 ], [ 945.853506729176047, 0.004245057881111 ], [ 996.56020272382807, 0.003109966772807 ] ] ] } },
{ "type": "Feature", "properties": { "feature_type": "building", "subtype": "no-damage", "uid": "7433ca3b-e4f6-4bef-9bf5-52cc954fcba7" }, "geometry": { "type": "Polygon", "coordinates": [ [ [ 866.816608018317424, 0.005764976068609 ], [ 887.461450466741098, 59.981784059404447 ], [ 913.051096762335419, 51.606990726394478 ], [ 936.314411571691608, 18.107817398423631 ], [ 967.487253422584217, 39.510067027000851 ], [ 960.042992680914836, 60.912316649474469 ], [ 933.057547500469695, 87.897761832713499 ], [ 897.697308983707217, 102.321017015928902 ], [ 860.941271579423642, 112.091609237604402 ], [ 817.964174927029262, 0.006552513783621 ], [ 866.816608018317424, 0.005764976068609 ] ] ] } },
{ "type": "Feature", "properties": { "feature_type": "building", "subtype": "no-damage", "uid": "2cf88dde-98f0-430c-9fb5-dcb05a6324d4" }, "geometry": { "type": "Polygon", "coordinates": [ [ [ 1022.847273566315948, 82.844560964396948 ], [ 1006.734335023322956, 69.970973458401048 ], [ 1022.847320291685037, 52.865493219350739 ], [ 1022.847273566315948, 82.844560964396948 ] ] ] } },
{ "type": "Feature", "properties": { "feature_type": "building", "subtype": "no-damage", "uid": "974b580f-c084-4e47-9a81-f82dac5c0d29" }, "geometry": { "type": "Polygon", "coordinates": [ [ [ 710.847388236645088, 0.007873058798266 ], [ 727.248400637786631, 60.361143158763667 ], [ 622.143889828296096, 49.078738044376479 ], [ 618.581025050847302, 81.144521001484179 ], [ 548.76654613177584, 72.946829426929611 ], [ 545.797492150610879, 63.44585670266536 ], [ 437.269250625669713, 48.243665430991641 ], [ 443.527579467726525, 23.725623230118 ], [ 493.893659230401909, 7.373158439949496 ], [ 494.960407060577609, 0.008838899031506 ], [ 710.847388236645088, 0.007873058798266 ] ] ] } },
{ "type": "Feature", "properties": { "feature_type": "building", "subtype": "no-damage", "uid": "098ea9f1-ef50-4bc3-bc2c-51f621bd3003" }, "geometry": { "type": "Polygon", "coordinates": [ [ [ -0.000000543474979, 253.010811539150012 ], [ 23.533402476510229, 255.954268569043904 ], [ 26.325000256130359, 249.107631968109303 ], [ 52.379912846251102, 255.621360112841103 ], [ 50.984113956568187, 260.274023074381091 ], [ 66.803168029977101, 266.787751221147516 ], [ 67.733700624370627, 274.697278261665588 ], [ 97.51074358469026, 284.93313677685012 ], [ 68.198966918642739, 367.285271213198087 ], [ -0.000000545382355, 348.220288173609788 ], [ -0.000000543474979, 253.010811539150012 ] ] ] } },
{ "type": "Feature", "properties": { "feature_type": "building", "subtype": "no-damage", "uid": "1c0ff538-a96a-4414-bf03-f5023432d968" }, "geometry": { "type": "Polygon", "coordinates": [ [ [ 78.678203550126241, 348.405450169037692 ], [ 110.681752790949702, 358.700298174564296 ], [ 101.953512087658495, 384.661219238569288 ], [ 69.50236076019101, 374.142570187940521 ], [ 78.678203550126241, 348.405450169037692 ] ] ] } },
{ "type": "Feature", "properties": { "feature_type": "building", "subtype": "no-damage", "uid": "cf936c8a-44da-4b03-a775-0967d8abdb69" }, "geometry": { "type": "Polygon", "coordinates": [ [ [ 72.031697157765791, 400.99521088238248 ], [ 104.593875767091603, 410.99237098154822 ], [ 98.309946562104329, 432.986123200526492 ], [ 63.46270278603393, 422.703329954246215 ], [ 72.031697157765791, 400.99521088238248 ] ] ] } },
{ "type": "Feature", "properties": { "feature_type": "building", "subtype": "no-damage", "uid": "70e67df0-e60d-42d3-8d78-d5814ed26e7e" }, "geometry": { "type": "Polygon", "coordinates": [ [ [ 1022.846959959636024, 432.212599249023413 ], [ 1009.670705609726951, 432.347327106196872 ], [ 1010.035253927060012, 388.601529014049788 ], [ 1022.846976305085036, 387.633088410968014 ], [ 1022.846959959636024, 432.212599249023413 ] ] ] } },
{ "type": "Feature", "properties": { "feature_type": "building", "subtype": "no-damage", "uid": "00d244f8-914e-41a2-b248-198419cf9004" }, "geometry": { "type": "Polygon", "coordinates": [ [ [ 797.123162899760246, 400.670533920078128 ], [ 822.641545123997616, 351.456511057638693 ], [ 924.715074019548183, 396.295954106489091 ], [ 921.069590843930541, 402.493275506106386 ], [ 923.621429068821158, 405.045113726546219 ], [ 911.955882907810974, 433.844430809191579 ], [ 894.822111986807613, 426.553464458974474 ], [ 902.113078335118303, 407.961500268260579 ], [ 852.534507155466599, 386.817697853037998 ], [ 849.253572301886607, 394.473212522495317 ], [ 863.106408365622428, 401.39963055143761 ], [ 859.460925190004787, 417.075208205523325 ], [ 852.169958841312678, 422.907981283865922 ], [ 827.380673252249721, 409.784241855306277 ], [ 825.193383347998065, 413.794273348637773 ], [ 797.123162899760246, 400.670533920078128 ] ] ] } },
{ "type": "Feature", "properties": { "feature_type": "building", "subtype": "no-damage", "uid": "ce7ab65b-5aa9-450e-bffe-b2954891c33b" }, "geometry": { "type": "Polygon", "coordinates": [ [ [ 884.530669725090661, 438.860831665780324 ], [ 928.803807304954262, 438.003932228505391 ], [ 929.08944045308624, 461.711483323050572 ], [ 882.816870848379153, 463.425282195565728 ], [ 884.530669725090661, 438.860831665780324 ] ] ] } },
{ "type": "Feature", "properties": { "feature_type": "building", "subtype": "no-damage", "uid": "d49eb2e8-a77c-4242-b397-9a998cc27dff" }, "geometry": { "type": "Polygon", "coordinates": [ [ [ 1022.84699642294197, 681.833733586851849 ], [ 1010.772660738821969, 755.607614691293179 ], [ 964.14891873559975, 743.311734635109019 ], [ 967.794401910200122, 664.569298056630146 ], [ 977.27265816594138, 664.933846373835763 ], [ 978.532410660504183, 658.173535882752731 ], [ 997.066681346775113, 661.288363195675402 ], [ 996.337584709820476, 670.178270092922276 ], [ 1022.84699332727098, 676.421015698892802 ], [ 1022.84699642294197, 681.833733586851849 ] ] ] } },
{ "type": "Feature", "properties": { "feature_type": "building", "subtype": "no-damage", "uid": "be67f8dc-8f56-4982-9102-595825f91b3c" }, "geometry": { "type": "Polygon", "coordinates": [ [ [ 895.40644051764275, 670.665235590087491 ], [ 884.838014125390828, 719.794136647623759 ], [ 859.702297302262878, 713.510207444671892 ], [ 865.414960220395983, 680.091129397058467 ], [ 879.125351212471173, 681.804928271607992 ], [ 881.696049524423074, 667.808904131148438 ], [ 895.40644051764275, 670.665235590087491 ] ] ] } },
{ "type": "Feature", "properties": { "feature_type": "building", "subtype": "no-damage", "uid": "be8f74ef-df67-48f5-8cdd-f15c7f799e93" }, "geometry": { "type": "Polygon", "coordinates": [ [ [ 906.658056259015439, 592.265193997771235 ], [ 900.945393343934143, 626.255538333510344 ], [ 893.233298410494399, 625.969905186395749 ], [ 890.376966953589545, 636.823964726905274 ], [ 849.245793971514672, 631.111301811061708 ], [ 850.38832655793874, 617.115277672636694 ], [ 829.8227400689359, 614.830212505892405 ], [ 838.106101293553024, 576.555370982762042 ], [ 871.81081248256362, 580.55423502507324 ], [ 868.954481026294502, 601.69108780372494 ], [ 890.94823324603874, 606.546851281276304 ], [ 894.66146413792967, 589.408862537814912 ], [ 906.658056259015439, 592.265193997771235 ] ] ] } },
{ "type": "Feature", "properties": { "feature_type": "building", "subtype": "no-damage", "uid": "34f41c2d-98f3-44e7-b0a9-e1f2a7b358a5" }, "geometry": { "type": "Polygon", "coordinates": [ [ [ 842.213468162459662, 641.505082554136152 ], [ 831.235709435377885, 698.844503278069737 ], [ 808.998262070315491, 695.199020099909376 ], [ 821.757453181798269, 637.183170185083668 ], [ 842.213468162459662, 641.505082554136152 ] ] ] } },
{ "type": "Feature", "properties": { "feature_type": "building", "subtype": "no-damage", "uid": "ff2c7a0b-dbd9-48d7-b6d0-6ffeabe4fc82" }, "geometry": { "type": "Polygon", "coordinates": [ [ [ 667.673590797778502, 356.743493597848214 ], [ 642.139726590887904, 444.033680546022822 ], [ 636.795429428147827, 445.2213021360472 ], [ 633.826375453340802, 452.940842483413007 ], [ 628.482078290346408, 453.534653277407926 ], [ 624.919213520527023, 464.817058390777788 ], [ 594.634862946163025, 458.87895043353501 ], [ 595.822484536823367, 454.722274864380609 ], [ 586.915322603373852, 451.159410092272822 ], [ 589.884376581487118, 436.907950997738283 ], [ 579.195782260330475, 433.345086223596013 ], [ 605.917268058517152, 341.304412913289184 ], [ 607.69870044584286, 340.116791325299403 ], [ 667.673590797778502, 356.743493597848214 ] ] ] } },
{ "type": "Feature", "properties": { "feature_type": "building", "subtype": "no-damage", "uid": "6c02610c-c180-4c22-9638-9bbcaa837a3f" }, "geometry": { "type": "Polygon", "coordinates": [ [ [ 525.158999867291527, 337.741548143216107 ], [ 568.507187939046617, 344.273466895471074 ], [ 569.694809534284673, 340.710602119294322 ], [ 585.133890218845636, 346.648710078571696 ], [ 575.632917488476551, 386.43403337897621 ], [ 563.756701574497811, 382.277357809821694 ], [ 544.160945323070678, 442.846058954981174 ], [ 528.721864638509714, 440.470815772897822 ], [ 524.56518907215218, 460.066572026611198 ], [ 492.499406109699521, 450.56559929624342 ], [ 525.158999867291527, 337.741548143216107 ] ] ] } },
{ "type": "Feature", "properties": { "feature_type": "building", "subtype": "no-damage", "uid": "25586f27-d901-4f58-b925-d400dcfad93f" }, "geometry": { "type": "Polygon", "coordinates": [ [ [ 516.251837931044633, 337.741548143216107 ], [ 500.812757248263779, 416.124573155017799 ], [ 450.932650420692426, 406.029789632689528 ], [ 461.027433948616988, 351.399196439686591 ], [ 472.309839060208219, 353.774439623804426 ], [ 479.435568607603614, 322.302467460691673 ], [ 518.033270320150564, 331.803440190042181 ], [ 516.251837931044633, 337.741548143216107 ] ] ] } },
{ "type": "Feature", "properties": { "feature_type": "building", "subtype": "no-damage", "uid": "47a019fa-1ecc-468a-b9c4-ba44dda51ab5" }, "geometry": { "type": "Polygon", "coordinates": [ [ [ 377.432415869401382, 338.580973357931327 ], [ 416.980051047583117, 351.60842965349849 ], [ 411.396855492920508, 375.337010762845807 ], [ 396.973600310974689, 375.337010760811324 ], [ 388.5988069810154, 399.530858166719383 ], [ 349.981704390615107, 395.808727795249411 ], [ 346.259574020543312, 393.017130019953015 ], [ 353.703834759160884, 353.004228544198611 ], [ 370.453421423148484, 358.122157802299512 ], [ 377.432415869401382, 338.580973357931327 ] ] ] } },
{ "type": "Feature", "properties": { "feature_type": "building", "subtype": "no-damage", "uid": "15ff25ba-6d41-4db2-a36d-ce7d44003e1b" }, "geometry": { "type": "Polygon", "coordinates": [ [ [ 244.044782182873689, 357.688095577629497 ], [ 280.971954388352685, 373.130367587953913 ], [ 283.881367956243594, 373.354168633056076 ], [ 286.566980481702615, 365.744933146375899 ], [ 306.037671278310199, 372.011362370581082 ], [ 300.890247272494378, 391.705854213432701 ], [ 279.852949170852526, 387.006032291718384 ], [ 270.229504290077102, 412.519351272639881 ], [ 248.744604102045514, 405.357717875146818 ], [ 256.353839583386105, 382.7538124652948 ], [ 234.64513835317689, 374.920775936564212 ], [ 241.13536861460139, 357.464294533544489 ], [ 244.044782182873689, 357.688095577629497 ] ] ] } },
{ "type": "Feature", "properties": { "feature_type": "building", "subtype": "no-damage", "uid": "8e329646-69c8-4b49-ba5f-67c549634d69" }, "geometry": { "type": "Polygon", "coordinates": [ [ [ 305.935422046885378, 415.922329602153013 ], [ 333.851399823631482, 423.831856635550309 ], [ 328.733470565275582, 450.352035521211178 ], [ 300.352226494893216, 439.650910706413924 ], [ 305.935422046885378, 415.922329602153013 ] ] ] } },
{ "type": "Feature", "properties": { "feature_type": "building", "subtype": "no-damage", "uid": "784ed798-b0ee-4dc7-951c-1e297e8c8729" }, "geometry": { "type": "Polygon", "coordinates": [ [ [ 386.42649129890799, 404.755938491812174 ], [ 388.5988069810154, 399.530858166719383 ], [ 402.710811665571782, 407.547536269143109 ], [ 392.009686854333609, 442.442508486796612 ], [ 375.260100191236006, 439.185644412904821 ], [ 386.42649129890799, 404.755938491812174 ] ] ] } },
{ "type": "Feature", "properties": { "feature_type": "building", "subtype": "no-damage", "uid": "d2695b70-3237-4e5b-814d-70cc73f43538" }, "geometry": { "type": "Polygon", "coordinates": [ [ [ 250.898413104348691, 466.248782986671188 ], [ 305.334569765360527, 486.720500022126714 ], [ 298.355575322159382, 507.657483351091173 ], [ 242.523619771337593, 486.255233728617611 ], [ 250.898413104348691, 466.248782986671188 ] ] ] } },
{ "type": "Feature", "properties": { "feature_type": "building", "subtype": "no-damage", "uid": "5cc7f3cc-d6b6-4d8f-a282-7f17917c92ee" }, "geometry": { "type": "Polygon", "coordinates": [ [ [ 211.350777925404088, 396.458838552381394 ], [ 238.336223105340707, 407.159963367178591 ], [ 228.100364589391802, 432.284343361122183 ], [ 199.719120518119297, 419.722153367202225 ], [ 211.350777925404088, 396.458838552381394 ] ] ] } },
{ "type": "Feature", "properties": { "feature_type": "building", "subtype": "no-damage", "uid": "10ce43b8-5d0b-475a-9014-c5b0355eab3e" }, "geometry": { "type": "Polygon", "coordinates": [ [ [ 290.787407580099284, 790.24797235438507 ], [ 302.088405423013626, 795.351648799333589 ], [ 306.09843691774438, 791.341617306002036 ], [ 315.212144853990992, 796.809842069173556 ], [ 316.305789803700804, 794.62255216593951 ], [ 334.533205679118907, 809.204484864339065 ], [ 330.158625869344121, 821.599127657470149 ], [ 342.553268663112476, 826.338255784195667 ], [ 331.981367459314583, 846.023864926526585 ], [ 317.034886442308505, 838.003801944949942 ], [ 312.660306632152185, 844.201123341515427 ], [ 298.442922248540413, 832.900125500001423 ], [ 291.516504215528016, 839.097446896567021 ], [ 283.131892913692809, 832.535577181778535 ], [ 287.141924406261921, 825.609159150801588 ], [ 272.559991704554079, 817.589096166173249 ], [ 290.787407580099284, 790.24797235438507 ] ] ] } },
{ "type": "Feature", "properties": { "feature_type": "building", "subtype": "no-damage", "uid": "bad48821-e98a-4e40-a51a-0c1a4005f9c5" }, "geometry": { "type": "Polygon", "coordinates": [ [ [ 319.326047357675975, 845.861076176990309 ], [ 344.747397324739609, 860.142733460495378 ], [ 339.034734412201487, 871.853692435227913 ], [ 310.757052989250326, 857.857668294768359 ], [ 319.326047357675975, 845.861076176990309 ] ] ] } },
{ "type": "Feature", "properties": { "feature_type": "building", "subtype": "no-damage", "uid": "e1fb2edf-11e5-47ee-bd94-c21e3bd22bdf" }, "geometry": { "type": "Polygon", "coordinates": [ [ [ 378.107073266249415, 830.817726336826922 ], [ 397.353963021696813, 837.979359736354468 ], [ 398.249167195239124, 834.39854303709933 ], [ 407.425009985682891, 837.53175764818468 ], [ 407.648811027987676, 840.441171213150483 ], [ 431.147920613419615, 848.05040669881339 ], [ 423.314884082144772, 870.20671002354743 ], [ 403.39659120029188, 862.821275579934877 ], [ 402.053784936418026, 868.640102715970215 ], [ 387.954319185514919, 865.059286019766887 ], [ 389.968528577956022, 861.478469318477096 ], [ 368.931230473770995, 853.197830705645742 ], [ 378.107073266249415, 830.817726336826922 ] ] ] } },
{ "type": "Feature", "properties": { "feature_type": "building", "subtype": "no-damage", "uid": "61168b83-49cb-4980-8c52-397b6277e567" }, "geometry": { "type": "Polygon", "coordinates": [ [ [ 376.81823667412408, 901.544085570174389 ], [ 397.407932692046586, 904.45349914124381 ], [ 388.008288861078199, 955.703938138016269 ], [ 359.809357355711484, 946.08049325660636 ], [ 365.404383450205785, 917.210158627635451 ], [ 375.027828328310989, 916.538755496398039 ], [ 376.81823667412408, 901.544085570174389 ] ] ] } },
{ "type": "Feature", "properties": { "feature_type": "building", "subtype": "no-damage", "uid": "6a9686f8-5a71-405d-9e57-3e9c4cc94058" }, "geometry": { "type": "Polygon", "coordinates": [ [ [ 364.547513494477585, 975.980369721857983 ], [ 385.361010554323286, 975.532767633688081 ], [ 387.822822035570312, 993.213050081809911 ], [ 388.941827255867793, 1011.117133575034018 ], [ 386.927617863172316, 1012.012337750355982 ], [ 363.204707235435592, 1011.788536709323012 ], [ 363.42850827583311, 998.808076176812165 ], [ 352.462257139576081, 998.58427513476181 ], [ 353.581262355041702, 984.037207293656138 ], [ 364.099911406307683, 984.708610423876394 ], [ 364.547513494477585, 975.980369721857983 ] ] ] } },
{ "type": "Feature", "properties": { "feature_type": "building", "subtype": "no-damage", "uid": "1e701339-2c54-43f5-b671-1048e86ba6e1" }, "geometry": { "type": "Polygon", "coordinates": [ [ [ 560.875296084493471, 860.918804682529753 ], [ 575.457228783276491, 862.741546267540798 ], [ 575.457228783022174, 862.37699795236972 ], [ 577.279970374264281, 856.179676552752426 ], [ 597.694676152789498, 864.564287858655575 ], [ 594.413741295649061, 872.948899157437836 ], [ 608.631125676972147, 878.417123921626512 ], [ 601.340159328534241, 898.831829698368779 ], [ 555.042523005005592, 882.427155415975335 ], [ 560.875296084493471, 860.918804682529753 ] ] ] } },
{ "type": "Feature", "properties": { "feature_type": "building", "subtype": "no-damage", "uid": "9000816f-2370-49b7-96b9-67fc55cfd9b7" }, "geometry": { "type": "Polygon", "coordinates": [ [ [ 516.55670154430868, 838.554555985893899 ], [ 534.460785040332553, 838.778357033030602 ], [ 535.803591302807718, 847.506597730979934 ], [ 544.308030958453628, 848.401801908336893 ], [ 542.9652246966142, 867.872492705069135 ], [ 539.160606954672289, 868.096293749154029 ], [ 539.384408000537519, 877.719738626494859 ], [ 522.151727638548664, 879.510146977139811 ], [ 522.599329724429708, 863.396471834560543 ], [ 513.423486932205606, 863.844073919678635 ], [ 516.55670154430868, 838.554555985893899 ] ] ] } },
{ "type": "Feature", "properties": { "feature_type": "building", "subtype": "no-damage", "uid": "4a6e4a09-952a-4b27-ba56-de577653055c" }, "geometry": { "type": "Polygon", "coordinates": [ [ [ 511.856879629333093, 843.701979987639902 ], [ 510.290272320611223, 860.934660351660909 ], [ 508.276062928933015, 860.03945617735576 ], [ 507.828460844196286, 874.138921928256991 ], [ 488.805372130672311, 873.691319842121743 ], [ 490.371979438504013, 861.158461395745917 ], [ 480.748534560907501, 859.591854090203242 ], [ 482.762743951314178, 832.73572885087583 ], [ 495.071801354623972, 835.197540329706385 ], [ 494.17659718146308, 840.344964336538737 ], [ 511.856879629333093, 843.701979987639902 ] ] ] } },
{ "type": "Feature", "properties": { "feature_type": "building", "subtype": "no-damage", "uid": "42e5ad27-f764-4651-812e-4567bbf66066" }, "geometry": { "type": "Polygon", "coordinates": [ [ [ 478.166153085830388, 834.499021905774725 ], [ 477.047147869474713, 857.326728357677098 ], [ 468.990310294369294, 856.431524184389218 ], [ 468.990310296912526, 871.873796196748231 ], [ 451.310027848915411, 871.649995152663337 ], [ 452.429033064635291, 856.207723140304324 ], [ 450.1910226284906, 855.08871792598336 ], [ 451.310027845482125, 836.065629210300131 ], [ 458.471661243230415, 836.289430255402294 ], [ 458.695462285026622, 832.708613555129887 ], [ 478.166153085830388, 834.499021905774725 ] ] ] } },
{ "type": "Feature", "properties": { "feature_type": "building", "subtype": "no-damage", "uid": "02002c2e-c76e-4768-bc10-4b04fa3ca375" }, "geometry": { "type": "Polygon", "coordinates": [ [ [ 453.620763324608617, 905.120126510393447 ], [ 490.995537615841386, 914.967372432836555 ], [ 486.743317788018487, 935.109466361823479 ], [ 449.592344538836073, 925.933623572652436 ], [ 453.620763324608617, 905.120126510393447 ] ] ] } },
{ "type": "Feature", "properties": { "feature_type": "building", "subtype": "no-damage", "uid": "22a4422a-385c-4f96-9ea2-1c6c5ffaa24b" }, "geometry": { "type": "Polygon", "coordinates": [ [ [ 497.151219700721072, 914.28468083240864 ], [ 509.460277103013709, 918.536900660866763 ], [ 511.698287541065724, 915.627487094883577 ], [ 535.868800257226667, 925.698534058359769 ], [ 525.350151202018765, 949.645245730686838 ], [ 492.003795700245973, 938.007591459633431 ], [ 495.360811350839015, 931.741162236445575 ], [ 491.108591521871574, 929.055549715564553 ], [ 497.151219700721072, 914.28468083240864 ] ] ] } },
{ "type": "Feature", "properties": { "feature_type": "building", "subtype": "no-damage", "uid": "a9fe0745-96c9-49a0-bf7d-0b9a4d6af275" }, "geometry": { "type": "Polygon", "coordinates": [ [ [ 572.644600150498945, 938.429433903978861 ], [ 555.506611404873524, 966.135849037783373 ], [ 540.939320977557941, 958.423754105362036 ], [ 537.22609008312395, 963.565150724941759 ], [ 527.228929984465481, 956.995588373858027 ], [ 544.938185015927843, 926.147208640103486 ], [ 551.507747365359364, 931.002972117654849 ], [ 558.362942865211721, 927.004108077378305 ], [ 572.644600150498945, 938.429433903978861 ] ] ] } },
{ "type": "Feature", "properties": { "feature_type": "building", "subtype": "no-damage", "uid": "f62d12ae-dd40-4ac4-9a89-eae58d45980c" }, "geometry": { "type": "Polygon", "coordinates": [ [ [ 591.443084907501543, 949.12127417636566 ], [ 583.026094169823295, 961.922114261028241 ], [ 589.689545171046916, 968.410211292623785 ], [ 581.272554428663739, 980.684989462046701 ], [ 561.808263338325332, 967.533441427448338 ], [ 579.343660719657123, 939.827513565629374 ], [ 591.443084907501543, 949.12127417636566 ] ] ] } },
{ "type": "Feature", "properties": { "feature_type": "building", "subtype": "no-damage", "uid": "74d0b554-bc43-4afe-8d03-520b8578bf1b" }, "geometry": { "type": "Polygon", "coordinates": [ [ [ 605.952303903034135, 956.539222587113954 ], [ 623.408785310125268, 966.610269551607416 ], [ 622.513581135565687, 970.414887297999257 ], [ 628.780010356847015, 973.324300862965174 ], [ 608.63791643014622, 999.956625059224962 ], [ 587.376817278951648, 989.214174964511244 ], [ 601.252481986532757, 971.757693555387959 ], [ 596.552660071175751, 967.281672683862212 ], [ 605.952303903034135, 956.539222587113954 ] ] ] } },
{ "type": "Feature", "properties": { "feature_type": "building", "subtype": "no-damage", "uid": "999b496b-c5ab-4239-ab61-fd4ad42e32a6" }, "geometry": { "type": "Polygon", "coordinates": [ [ [ 645.200568394611537, 997.805914208136869 ], [ 632.575082285169401, 1017.270205299871009 ], [ 613.461499141587865, 1004.469365213174001 ], [ 628.366586913151309, 986.583259886486758 ], [ 645.200568394611537, 997.805914208136869 ] ] ] } },
{ "type": "Feature", "properties": { "feature_type": "building", "subtype": "no-damage", "uid": "08c4084c-9fdc-4642-86cf-d59bdacfd34d" }, "geometry": { "type": "Polygon", "coordinates": [ [ [ 691.213782030948892, 990.960837522299812 ], [ 682.446083339647203, 1005.515217343417021 ], [ 677.808313898412734, 1022.984166885417039 ], [ 648.443416345952642, 1022.984384226578982 ], [ 652.109845873523909, 1016.737871666083947 ], [ 652.285199847220156, 1012.003314376029948 ], [ 660.176128667624198, 1001.306721973688013 ], [ 662.631084298864266, 999.377828261757145 ], [ 668.417765435420961, 989.558005732729384 ], [ 674.730508494465312, 992.539023285312282 ], [ 681.218605523391375, 982.54384677775613 ], [ 691.213782030948892, 990.960837522299812 ] ] ] } },
{ "type": "Feature", "properties": { "feature_type": "building", "subtype": "no-damage", "uid": "86f3fec8-3ccc-4241-87c5-514e3b65dc13" }, "geometry": { "type": "Polygon", "coordinates": [ [ [ 828.300153854428004, 797.418658406205509 ], [ 858.922212526157637, 804.709624757439883 ], [ 860.74495411040607, 796.325013457640352 ], [ 878.607821670652925, 798.512303359857128 ], [ 877.514176715348071, 805.438721392868501 ], [ 900.845269038004176, 812.729687743085606 ], [ 900.480720716729365, 820.02065409431998 ], [ 913.239911830755432, 822.572492314759643 ], [ 910.688073609806679, 841.164456505473481 ], [ 835.955668523123336, 830.228006981165095 ], [ 837.413861792709213, 814.916977648354191 ], [ 825.383767315764885, 812.365139425879875 ], [ 828.300153854428004, 797.418658406205509 ] ] ] } },
{ "type": "Feature", "properties": { "feature_type": "building", "subtype": "no-damage", "uid": "17078340-4ef9-418e-b36d-e3d389bc9064" }, "geometry": { "type": "Polygon", "coordinates": [ [ [ 1022.847165608076011, 868.511740351065214 ], [ 1010.329437556349944, 866.370565300254498 ], [ 1022.847109791644016, 819.835861513356576 ], [ 1022.847165608076011, 868.511740351065214 ] ] ] } },
{ "type": "Feature", "properties": { "feature_type": "building", "subtype": "no-damage", "uid": "45052fb2-e317-4304-9a4d-764c46f67783" }, "geometry": { "type": "Polygon", "coordinates": [ [ [ 973.14550917402687, 898.086268921562578 ], [ 1001.580277938707013, 903.554493684733984 ], [ 996.049658795886671, 934.176552353407715 ], [ 965.489994507366077, 929.801972544905084 ], [ 967.677284409583194, 912.303653304791055 ], [ 973.14550917402687, 898.086268921562578 ] ] ] } },
{ "type": "Feature", "properties": { "feature_type": "building", "subtype": "no-damage", "uid": "2454e70a-bd89-45e3-b964-6fe3491b3fd0" }, "geometry": { "type": "Polygon", "coordinates": [ [ [ 1022.847263544200018, 940.667499430861994 ], [ 1015.068565683965971, 938.186583845721998 ], [ 1018.714048857041007, 908.658170129682503 ], [ 1022.847217952829055, 908.726018995626646 ], [ 1022.847263544200018, 940.667499430861994 ] ] ] } },
{ "type": "Feature", "properties": { "feature_type": "building", "subtype": "no-damage", "uid": "ccdc2a36-2e8f-4f88-96da-be1bb179804c" }, "geometry": { "type": "Polygon", "coordinates": [ [ [ 1022.847315047799952, 974.084448681134631 ], [ 1019.078597175264008, 973.912197257570597 ], [ 1019.078597178570021, 979.015873706588195 ], [ 970.958219269902429, 977.557680434713689 ], [ 973.510057491741236, 951.674749893782746 ], [ 1014.339469051843025, 952.403846529211364 ], [ 1014.339469048664, 948.758363354102812 ], [ 1022.847274357495962, 947.897659426162704 ], [ 1022.847315047799952, 974.084448681134631 ] ] ] } },
{ "type": "Feature", "properties": { "feature_type": "building", "subtype": "no-damage", "uid": "0cb8df23-b6e1-4580-a871-d0ef516cd75a" }, "geometry": { "type": "Polygon", "coordinates": [ [ [ 993.958270835804342, 1022.979171161686054 ], [ 995.018408223663869, 990.681419865307817 ], [ 1008.871244286254978, 989.952323233948277 ], [ 1009.235792606894051, 987.400485009439535 ], [ 1022.847332632407984, 984.948784651413348 ], [ 1022.847392007874987, 1019.911737838340969 ], [ 1019.443145496411034, 1019.116188629730004 ], [ 1019.15484150992495, 1022.978563908125011 ], [ 993.958270835804342, 1022.979171161686054 ] ] ] } },
{ "type": "Feature", "properties": { "feature_type": "building", "subtype": "no-damage", "uid": "aeedcb7b-a3bd-43dd-9c81-e993e4ba78b7" }, "geometry": { "type": "Polygon", "coordinates": [ [ [ 623.661312511954634, 574.528832347727189 ], [ 618.303623696453201, 623.520835026519421 ], [ 601.290206692453353, 621.520728265791604 ], [ 607.338668541769493, 574.039495268172459 ], [ 623.661312511954634, 574.528832347727189 ] ] ] } },
{ "type": "Feature", "properties": { "feature_type": "building", "subtype": "no-damage", "uid": "8c51b206-866f-431e-a0b4-51ea917b8b5a" }, "geometry": { "type": "Polygon", "coordinates": [ [ [ 667.621851097964623, 580.251069474838573 ], [ 720.662208871073744, 582.112134657013144 ], [ 720.196942573876981, 603.979650584185833 ], [ 663.899720727638623, 599.792253919206701 ], [ 667.621851097964623, 580.251069474838573 ] ] ] } },
{ "type": "Feature", "properties": { "feature_type": "building", "subtype": "no-damage", "uid": "34acf466-e109-440c-b260-b4790a30cbc2" }, "geometry": { "type": "Polygon", "coordinates": [ [ [ 748.112920348715647, 581.181602068977668 ], [ 770.910968864435517, 583.042667252169508 ], [ 769.980436273602436, 603.514384289659461 ], [ 743.925523682973107, 599.792253916154891 ], [ 748.112920348715647, 581.181602068977668 ] ] ] } },
{ "type": "Feature", "properties": { "feature_type": "building", "subtype": "no-damage", "uid": "cbc51d99-3575-4821-81ae-d05280f1646a" }, "geometry": { "type": "Polygon", "coordinates": [ [ [ 687.163035538393501, 623.986101323080334 ], [ 682.975638874939705, 653.763144281615723 ], [ 649.941731839837757, 650.041013912180233 ], [ 655.990193689662533, 620.263970951610304 ], [ 687.163035538393501, 623.986101323080334 ] ] ] } },
{ "type": "Feature", "properties": { "feature_type": "building", "subtype": "no-damage", "uid": "30ff15b4-359f-46cf-a3d3-7bc7a757623b" }, "geometry": { "type": "Polygon", "coordinates": [ [ [ 649.941731843270986, 656.089475762385632 ], [ 672.274514061158357, 658.881073539716567 ], [ 670.413448876440384, 675.63066020675376 ], [ 646.684867766326988, 672.373796131844756 ], [ 649.941731843270986, 656.089475762385632 ] ] ] } },
{ "type": "Feature", "properties": { "feature_type": "building", "subtype": "no-damage", "uid": "70cab405-72b4-40f9-a461-81851691a95b" }, "geometry": { "type": "Polygon", "coordinates": [ [ [ 672.936418469980481, 899.980058463083537 ], [ 689.273894655248114, 905.798885598101606 ], [ 696.211727012726215, 908.932100208169572 ], [ 705.835171889178355, 922.360162826816122 ], [ 706.954177103753864, 927.059984747513113 ], [ 712.101601111858486, 940.935649451277641 ], [ 711.653999024960171, 956.601722506704164 ], [ 691.735706135477699, 956.154120420568916 ], [ 692.18330822631799, 941.607052581497896 ], [ 688.60249152350184, 930.193199357581193 ], [ 680.098051865821503, 920.122152391053191 ], [ 671.146010118699678, 915.422330475442436 ], [ 665.998586117843047, 911.393911688017397 ], [ 672.936418469980481, 899.980058463083537 ] ] ] } },
{ "type": "Feature", "properties": { "feature_type": "building", "subtype": "no-damage", "uid": "70ceada0-2c1a-4f38-a4ef-31460b7b5318" }, "geometry": { "type": "Polygon", "coordinates": [ [ [ 364.301734856701501, 703.210934951613922 ], [ 393.101051935281703, 708.679159712750902 ], [ 392.007406981502925, 726.542027270070662 ], [ 362.478993269274213, 722.167447459533491 ], [ 364.301734856701501, 703.210934951613922 ] ] ] } },
{ "type": "Feature", "properties": { "feature_type": "building", "subtype": "no-damage", "uid": "d67f426b-b326-43bd-8dc1-4ba94b1fff86" }, "geometry": { "type": "Polygon", "coordinates": [ [ [ 433.930463496146785, 714.511932790076116 ], [ 429.920432001416088, 741.123959970504757 ], [ 399.29837333388258, 736.384831843779239 ], [ 400.756566602705504, 722.89654409597938 ], [ 410.599371175906811, 723.625640729373458 ], [ 412.786661081811474, 711.230997933190565 ], [ 433.930463496146785, 714.511932790076116 ] ] ] } },
{ "type": "Feature", "properties": { "feature_type": "building", "subtype": "no-damage", "uid": "55420c9d-0a8a-4d7d-a3f3-221aa02d4446" }, "geometry": { "type": "Polygon", "coordinates": [ [ [ 461.430401858800224, 717.54442722552642 ], [ 457.923322380422974, 747.70531071858511 ], [ 445.297836269709308, 746.302478926980143 ], [ 448.629561769176689, 716.492303386909043 ], [ 461.430401858800224, 717.54442722552642 ] ] ] } },
{ "type": "Feature", "properties": { "feature_type": "building", "subtype": "no-damage", "uid": "40b62d47-aa21-4e51-a6d4-28c742b9054f" }, "geometry": { "type": "Polygon", "coordinates": [ [ [ 506.807140058422078, 1022.984843688514957 ], [ 515.323148194181385, 1010.012435075799999 ], [ 530.541619163220503, 1019.859680995191979 ], [ 530.274916459906876, 1022.984834982742996 ], [ 506.807140058422078, 1022.984843688514957 ] ] ] } },
{ "type": "Feature", "properties": { "feature_type": "building", "subtype": "no-damage", "uid": "d5b3e5b3-4afe-4def-a60a-3951fc83ae6e" }, "geometry": { "type": "Polygon", "coordinates": [ [ [ 487.124216695426981, 995.912969324898995 ], [ 507.937713754636889, 1014.488455947325974 ], [ 502.117900501435713, 1022.984842219580969 ], [ 469.701195318124007, 1022.984802808617019 ], [ 468.324929028658175, 1020.531084127445979 ], [ 472.577148859787314, 1011.579042381343015 ], [ 483.319598951323428, 1001.955597502985029 ], [ 487.124216695426981, 995.912969324898995 ] ] ] } },
{ "type": "Feature", "properties": { "feature_type": "building", "subtype": "no-damage", "uid": "c4b25c02-f1ee-4244-8e2e-109db7ae8f00" }, "geometry": { "type": "Polygon", "coordinates": [ [ [ 445.07727731696292, 970.207361795995666 ], [ 470.784260425673381, 985.060285374747309 ], [ 462.500899200801882, 1001.055741533818946 ], [ 437.079549235518527, 987.05971739335962 ], [ 445.07727731696292, 970.207361795995666 ] ] ] } },
{ "type": "Feature", "properties": { "feature_type": "building", "subtype": "no-damage", "uid": "8d23a311-ec7a-42ea-acc3-cf24b56063c0" }, "geometry": { "type": "Polygon", "coordinates": [ [ [ 119.630093632414699, 241.52545335450489 ], [ 140.219789647031092, 246.449076311148787 ], [ 134.62476355749601, 268.605379636900011 ], [ 128.805936421968511, 266.814971285237903 ], [ 125.672721811264196, 277.109819291781719 ], [ 110.230449795851399, 274.200405724781319 ], [ 110.901852930395094, 270.843390071645615 ], [ 110.454250840063494, 266.591170243187491 ], [ 115.377873804719002, 253.610709711693602 ], [ 119.630093632414699, 241.52545335450489 ] ] ] } },
{ "type": "Feature", "properties": { "feature_type": "building", "subtype": "no-damage", "uid": "45841c20-8b78-4c12-9cf4-99758710cbf9" }, "geometry": { "type": "Polygon", "coordinates": [ [ [ 163.65585819388491, 245.044654592013188 ], [ 152.24200496615191, 277.272004878188909 ], [ 145.080371568403507, 274.36259131118851 ], [ 156.494224796390796, 239.225827453943396 ], [ 163.879659235172312, 241.687638935825703 ], [ 163.65585819388491, 245.044654592013188 ] ] ] } },
{ "type": "Feature", "properties": { "feature_type": "building", "subtype": "no-damage", "uid": "e69291e6-31d4-49a0-81a8-7189bab3fcd8" }, "geometry": { "type": "Polygon", "coordinates": [ [ [ 561.423133331466943, 785.267913790166858 ], [ 562.461731292990748, 769.273505222985932 ], [ 567.4470014961488, 764.495954614625703 ], [ 585.726325567952131, 764.911393799642042 ], [ 590.296156586348047, 793.576697462010998 ], [ 580.741055365811349, 793.784417053501897 ], [ 580.117896591974272, 783.606157058239432 ], [ 561.423133331466943, 785.267913790166858 ] ] ] } },
{ "type": "Feature", "properties": { "feature_type": "building", "subtype": "un-classified", "uid": "0de5b653-fb70-4f8b-b98e-f1ad8fdf18a8" }, "geometry": { "type": "Polygon", "coordinates": [ [ [ 623.531291269405529, 775.920532158833566 ], [ 642.433774120259386, 778.620886853301954 ], [ 642.641493715819479, 792.538099501504576 ], [ 621.869534538495259, 790.253183992052641 ], [ 623.531291269405529, 775.920532158833566 ] ] ] } },
{ "type": "Feature", "properties": { "feature_type": "building", "subtype": "un-classified", "uid": "9984b73a-07ed-4e29-89f7-9b8dcb2d42c6" }, "geometry": { "type": "Polygon", "coordinates": [ [ [ 555.676808918998859, 756.613174351601288 ], [ 558.126798986190465, 744.36322400928691 ], [ 567.620510499959551, 748.191333491895875 ], [ 567.008012982589435, 759.675661937688574 ], [ 555.676808918998859, 756.613174351601288 ] ] ] } },
{ "type": "Feature", "properties": { "feature_type": "building", "subtype": "no-damage", "uid": "2fe57e9d-83c1-4ae1-bf48-de073d1553a2" }, "geometry": { "type": "Polygon", "coordinates": [ [ [ 188.083066046155295, 326.207009322339275 ], [ 203.755179087563306, 330.79396923618998 ], [ 207.959892338875193, 336.909915787990883 ], [ 207.57764568307519, 340.35013572388749 ], [ 191.523285983451188, 372.076608465932509 ], [ 168.970733070248997, 364.049428614150713 ], [ 188.083066046155295, 326.207009322339275 ] ] ] } },
{ "type": "Feature", "properties": { "feature_type": "building", "subtype": "no-damage", "uid": "6e359c40-c6e9-4cfd-ae7c-7ba4820efecc" }, "geometry": { "type": "Polygon", "coordinates": [ [ [ 348.244416386340788, 430.178100711093009 ], [ 372.020835757245209, 434.763932045362424 ], [ 369.570845686365885, 452.22011128646659 ], [ 343.539701208435588, 445.635762973530689 ], [ 348.244416386340788, 430.178100711093009 ] ] ] } }
]
}
