{
"type": "FeatureCollection",
"name": "socal-fire_00000595_post_disaster",
"features": [
{ "type": "Feature", "properties": { "feature_type": "building", "subtype": "no-damage", "uid": "a610641e-b03e-4c61-996f-a200b528ece3" }, "geometry": { "type": "Polygon", "coordinates": [ [ [ 721.972624480299714, 0.007829027406638 ], [ 720.685517877497659, 56.572419975695468 ], [ 689.1353214945226, 55.616353419468062 ], [ 692.864542985097501, 0.008107215387022 ], [ 721.972624480299714, 0.007829027406638 ] ] ] } },
{ "type": "Feature", "properties": { "feature_type": "building", "subtype": "no-damage", "uid": "5c90458a-a2e7-4b7f-9706-97133997ff21" }, "geometry": { "type": "Polygon", "coordinates": [ [ [ 761.491510867814213, 0.007385399233962 ], [ 758.494747759292977, 57.72227776151756 ], [ 730.386390986035963, 56.574997891399782 ], [ 732.680637779290009, 0.007716324378303 ], [ 761.491510867814213, 0.007385399233962 ] ] ] } },
{ "type": "Feature", "properties": { "feature_type": "building", "subtype": "no-damage", "uid": "558d5ee3-616f-465d-bbed-afbdd6736c71" }, "geometry": { "type": "Polygon", "coordinates": [ [ [ 802.203075629909335, 0.00684895967494 ], [ 799.246693801669949, 60.041749474149078 ], [ 768.833105332475725, 58.393722511188997 ], [ 772.2785520128391, 0.007251111831087 ], [ 802.203075629909335, 0.00684895967494 ] ] ] } },
{ "type": "Feature", "properties": { "feature_type": "building", "subtype": "no-damage", "uid": "368c9ba2-36b4-40ab-85f5-44967963a902" }, "geometry": { "type": "Polygon", "coordinates": [ [ [ 831.486646687676966, 0.006413258047951 ], [ 829.526954158675721, 60.993754128395217 ], [ 812.932096538011024, 61.725880199659407 ], [ 815.396119311370171, 0.006657824331525 ], [ 831.486646687676966, 0.006413258047951 ] ] ] } },
{ "type": "Feature", "properties": { "feature_type": "building", "subtype": "no-damage", "uid": "cd764fd3-2fba-4c2f-9890-19a28a2d46b8" }, "geometry": { "type": "Polygon", "coordinates": [ [ [ 894.160484537741354, 0.005340615953155 ], [ 892.92576023554966, 53.120388956727339 ], [ 863.959391037217415, 52.497456288191053 ], [ 864.853606036452447, 0.005865970351966 ], [ 894.160484537741354, 0.005340615953155 ] ] ] } },
{ "type": "Feature", "properties": { "feature_type": "building", "subtype": "no-damage", "uid": "7abcccdf-c541-4bbd-8cda-aaa0be12e459" }, "geometry": { "type": "Polygon", "coordinates": [ [ [ 937.969702366262709, 0.004477399665258 ], [ 935.872393548415971, 52.15838605764057 ], [ 906.657370142325817, 51.109641628330593 ], [ 908.60484531718464, 0.005066319019647 ], [ 937.969702366262709, 0.004477399665258 ] ] ] } },
{ "type": "Feature", "properties": { "feature_type": "building", "subtype": "no-damage", "uid": "066b9c0b-e5d4-4646-8a9e-df47b75ac24e" }, "geometry": { "type": "Polygon", "coordinates": [ [ [ 512.519769491425564, 0.008912265356143 ], [ 511.62398123156521, 30.32745009713701 ], [ 492.489674291831307, 29.623119779758241 ], [ 493.007321369332715, 22.29967641463492 ], [ 494.506495974069821, 0.008905791467955 ], [ 512.519769491425564, 0.008912265356143 ] ] ] } },
{ "type": "Feature", "properties": { "feature_type": "building", "subtype": "no-damage", "uid": "d4aea798-59c8-4ecd-ad1a-fd902aa4c9e7" }, "geometry": { "type": "Polygon", "coordinates": [ [ [ 386.486029936001216, 0.008535928388641 ], [ 384.766578665575992, 3.021573241411566 ], [ 354.802452095856381, 28.341260196065729 ], [ 330.36657211202612, 0.008119791860885 ], [ 386.486029936001216, 0.008535928388641 ] ] ] } },
{ "type": "Feature", "properties": { "feature_type": "building", "subtype": "no-damage", "uid": "a9f1b0e0-5e5c-4565-95d4-baeb70637845" }, "geometry": { "type": "Polygon", "coordinates": [ [ [ 288.223910039241218, 33.627606403115891 ], [ 324.12607679764659, 4.099156333000033 ], [ 335.596051917935426, 19.47380383463452 ], [ 300.411681519746992, 49.567371627742347 ], [ 288.223910039241218, 33.627606403115891 ] ] ] } },
{ "type": "Feature", "properties": { "feature_type": "building", "subtype": "no-damage", "uid": "7b2390ec-394f-4c71-8aee-552dd5ab8c95" }, "geometry": { "type": "Polygon", "coordinates": [ [ [ 325.790993593957126, 28.16732172240663 ], [ 340.967177499453385, 27.891391107690939 ], [ 340.783223755207587, 42.239783166495108 ], [ 325.607039851237118, 42.239783165477839 ], [ 325.790993593957126, 28.16732172240663 ] ] ] } },
{ "type": "Feature", "properties": { "feature_type": "building", "subtype": "no-damage", "uid": "8718cb19-00dd-47a5-89d4-0e1e871af7ff" }, "geometry": { "type": "Polygon", "coordinates": [ [ [ 199.596891049127294, 0.006555834143622 ], [ 200.551485557343796, 4.257676932690718 ], [ 196.536006014219794, 4.831316868258246 ], [ 200.933912178257998, 32.93967364291025 ], [ 151.689270892507295, 40.218941930471537 ], [ 145.468562733810586, 0.005665120107201 ], [ 199.596891049127294, 0.006555834143622 ] ] ] } },
{ "type": "Feature", "properties": { "feature_type": "building", "subtype": "no-damage", "uid": "8083e63d-78fb-478f-89ff-0eb55cbe103c" }, "geometry": { "type": "Polygon", "coordinates": [ [ [ 13.580097064070941, 0.002898258218407 ], [ 14.787132200612611, 3.247083177334693 ], [ 17.487065085127451, 3.012306405553282 ], [ 17.134899924912119, 14.04681469759044 ], [ 11.38286900609409, 14.39897985526256 ], [ 11.735034165419311, 23.555273976100231 ], [ 16.313181222786959, 23.90743913275508 ], [ 16.31318122227832, 34.941947426826772 ], [ 3.725879722822599, 34.626938098554177 ], [ 3.653813432805322, 33.185612378572941 ], [ -0.000000572085617, 33.023487177144247 ], [ -0.000000573992993, 0.002565328040499 ], [ 13.580097064070941, 0.002898258218407 ] ] ] } },
{ "type": "Feature", "properties": { "feature_type": "building", "subtype": "no-damage", "uid": "1cd1342d-cf03-4675-9e20-82d0374cf022" }, "geometry": { "type": "Polygon", "coordinates": [ [ [ -0.000000571449826, 38.21367129989008 ], [ 6.662032474943736, 38.213671298872811 ], [ 6.662032471128984, 45.348233617154222 ], [ -0.000000572467093, 45.564432476270397 ], [ -0.000000571449826, 38.21367129989008 ] ] ] } },
{ "type": "Feature", "properties": { "feature_type": "building", "subtype": "no-damage", "uid": "9c886fa4-bb29-4b5f-ae84-32ba1adc7884" }, "geometry": { "type": "Polygon", "coordinates": [ [ [ -0.000000570559717, 47.457118654228438 ], [ 7.273600727031141, 47.446322185281304 ], [ 7.483751173635619, 37.744117755309993 ], [ 13.847350348228639, 37.585697748082133 ], [ 14.434292280861211, 47.681098958079993 ], [ 14.19951550577365, 51.085362156031323 ], [ 13.880139218843411, 52.216867628525613 ], [ 12.61115069470512, 53.424933588580679 ], [ -0.000000570559717, 53.854376433608273 ], [ -0.000000570559717, 47.457118654228438 ] ] ] } },
{ "type": "Feature", "properties": { "feature_type": "building", "subtype": "no-damage", "uid": "2878fa0d-4674-4113-bab5-f95e9f068d66" }, "geometry": { "type": "Polygon", "coordinates": [ [ [ 100.951142613521995, 235.064820389717511 ], [ 116.835925725287495, 152.214775147847604 ], [ 145.802294923874086, 157.509702849734197 ], [ 142.596936289318506, 177.214478306295689 ], [ 161.174694762664188, 180.810173498023602 ], [ 157.1295376731141, 203.582909691277109 ], [ 139.300882363397903, 199.987214503618191 ], [ 131.745026649355509, 239.605074912301092 ], [ 100.951142613521995, 235.064820389717511 ] ] ] } },
{ "type": "Feature", "properties": { "feature_type": "building", "subtype": "no-damage", "uid": "df540d0b-38fb-4e67-a643-d46c6a4d6a1d" }, "geometry": { "type": "Polygon", "coordinates": [ [ [ 883.309999434326869, 197.820000318900696 ], [ 851.294401986602111, 212.72812481552549 ], [ 840.08330568895633, 190.836480773199412 ], [ 870.599999436545886, 174.520000320451402 ], [ 883.309999434326869, 197.820000318900696 ] ] ] } },
{ "type": "Feature", "properties": { "feature_type": "building", "subtype": "no-damage", "uid": "380bd4b4-841b-4fd1-b674-bf4262d42dd6" }, "geometry": { "type": "Polygon", "coordinates": [ [ [ 916.642408944327713, 180.313000154223687 ], [ 883.759999434176393, 197.59000031731901 ], [ 871.049999436141093, 174.290000317852389 ], [ 903.708181685325144, 157.129007892437812 ], [ 916.642408944327713, 180.313000154223687 ] ] ] } },
{ "type": "Feature", "properties": { "feature_type": "building", "subtype": "no-damage", "uid": "406cf8c4-abac-44a9-a384-911b4dc7fb2e" }, "geometry": { "type": "Polygon", "coordinates": [ [ [ 494.506488427219097, 0.00890579350249 ], [ 492.489674291831307, 29.623119779758241 ], [ 511.321467735336398, 30.656279666048778 ], [ 510.595452807761774, 59.590103510989238 ], [ 414.040888803148221, 55.85250748247794 ], [ 414.352355138687983, 55.54104114719253 ], [ 414.352355137416396, 0.00868565790696 ], [ 494.506488427219097, 0.00890579350249 ] ] ] } },
{ "type": "Feature", "properties": { "feature_type": "building", "subtype": "no-damage", "uid": "78411799-5cb4-43ee-930f-998b71d98c3d" }, "geometry": { "type": "Polygon", "coordinates": [ [ [ 1005.297357400846977, 282.181451218042184 ], [ 1012.437864719185995, 286.641860440447886 ], [ 1003.975041232145031, 297.484853031863111 ], [ 998.685776553395726, 291.931125117797592 ], [ 1005.297357400846977, 282.181451218042184 ] ] ] } },
{ "type": "Feature", "properties": { "feature_type": "building", "subtype": "no-damage", "uid": "9ab50810-cb70-4c20-bcc3-84deb42f7f33" }, "geometry": { "type": "Polygon", "coordinates": [ [ [ 950.215120552601434, 45.492532760952628 ], [ 959.328418388020737, 48.192769159457796 ], [ 966.754068475009831, 49.542887356167213 ], [ 976.204895860496549, 50.555476007005389 ], [ 970.466893516596997, 78.232899060402374 ], [ 963.378772978530947, 79.920546807052091 ], [ 946.502295508471093, 78.907958161300243 ], [ 943.464529563585643, 73.507485368358985 ], [ 950.215120552601434, 45.492532760952628 ] ] ] } },
{ "type": "Feature", "properties": { "feature_type": "building", "subtype": "no-damage", "uid": "f510b763-28a4-40ef-a63f-7b0675b6f3f2" }, "geometry": { "type": "Polygon", "coordinates": [ [ [ 315.199268853951025, 0.007981032551588 ], [ 315.462610438674972, 4.428332229498172 ], [ 319.574262842777216, 4.222749610106901 ], [ 319.779845466619122, 7.923236778477853 ], [ 295.315513642831775, 27.590640792814071 ], [ 295.586523574817477, 0.007785014325819 ], [ 315.199268853951025, 0.007981032551588 ] ] ] } },
{ "type": "Feature", "properties": { "feature_type": "building", "subtype": "no-damage", "uid": "b2b1c3aa-38e4-453e-a2ec-e6271e2a62ff" }, "geometry": { "type": "Polygon", "coordinates": [ [ [ 101.898125982402703, 146.162162065362793 ], [ 108.627824632917694, 147.554513508875999 ], [ 109.788117501494995, 150.803333546792089 ], [ 104.218711722354797, 181.203006752545207 ], [ 98.649305947410824, 178.418303861449601 ], [ 97.024895926926646, 172.848898084344711 ], [ 101.898125982402703, 146.162162065362793 ] ] ] } }
]
}
