{
"type": "FeatureCollection",
"name": "socal-fire_00000658_post_disaster",
"features": [
{ "type": "Feature", "properties": { "feature_type": "building", "subtype": "no-damage", "uid": "e9f48437-3a64-4baa-a872-c17f13ccac73" }, "geometry": { "type": "Polygon", "coordinates": [ [ [ 753.874537289527439, 65.352449045750262 ], [ 766.434028162270465, 62.153398730252007 ], [ 765.297818251976082, 57.04045413310152 ], [ 807.367821709706163, 46.95956946988742 ], [ 808.938789115618647, 51.793315332041772 ], [ 821.204419249712601, 49.074333284707102 ], [ 826.270314716065286, 65.389246095196157 ], [ 833.519149065917873, 62.998673064288781 ], [ 843.432108143363735, 106.145356190083703 ], [ 837.450347633936872, 107.293370829217196 ], [ 839.504689625403671, 115.933691565167905 ], [ 827.48074678523119, 118.954782731811903 ], [ 828.387074136546971, 123.123888537589394 ], [ 798.914193389890215, 129.198646235172191 ], [ 760.47672826291182, 106.337147367669004 ], [ 753.874537289527439, 65.352449045750262 ] ] ] } },
{ "type": "Feature", "properties": { "feature_type": "building", "subtype": "no-damage", "uid": "f84b3969-3289-412f-accc-4ea58b3498ca" }, "geometry": { "type": "Polygon", "coordinates": [ [ [ 906.029345035673941, 162.185535509192903 ], [ 818.367436213118481, 226.48519210833129 ], [ 823.682158515812489, 232.58728067481249 ], [ 847.57756171309029, 213.850592950683989 ], [ 850.41738740764049, 216.871684119362499 ], [ 860.809941019945882, 209.318956203769886 ], [ 868.302247111041879, 219.832353461127298 ], [ 873.566940028535555, 227.3494301607235 ], [ 769.360834690114302, 310.874631517208172 ], [ 754.572071879041459, 287.043149136163379 ], [ 817.295643149709576, 240.335114056940796 ], [ 811.62568960734859, 232.599298114595797 ], [ 788.759201992021076, 247.228748716903397 ], [ 772.507076275129862, 224.412195013459097 ], [ 887.592880249821064, 139.099875252076913 ], [ 906.029345035673941, 162.185535509192903 ] ] ] } },
{ "type": "Feature", "properties": { "feature_type": "building", "subtype": "no-damage", "uid": "3a726162-66ac-44c5-a7c2-efa5ffd0c98c" }, "geometry": { "type": "Polygon", "coordinates": [ [ [ 767.028919459673716, 264.637409005297172 ], [ 746.030655722936899, 280.442823659845089 ], [ 720.37992210272887, 245.654016185258712 ], [ 741.22114316975194, 232.027063948650806 ], [ 767.028919459673716, 264.637409005297172 ] ] ] } },
{ "type": "Feature", "properties": { "feature_type": "building", "subtype": "no-damage", "uid": "140bd938-0d60-41e2-bfcf-cc410d9935b4" }, "geometry": { "type": "Polygon", "coordinates": [ [ [ 957.617335460758341, 207.190222234667289 ], [ 959.331904107469654, 196.493049109092993 ], [ 1007.091262800244976, 203.126293370960411 ], [ 1002.111983913826975, 238.719646624512393 ], [ 966.46935140634514, 233.3246079557386 ], [ 965.938691865721239, 236.508565200498992 ], [ 938.079065961602168, 235.18191634893941 ], [ 941.887591024787071, 205.031595582266789 ], [ 957.617335460758341, 207.190222234667289 ] ] ] } },
{ "type": "Feature", "properties": { "feature_type": "building", "subtype": "no-damage", "uid": "9564297e-f90b-4321-a652-88632725d004" }, "geometry": { "type": "Polygon", "coordinates": [ [ [ 1022.829383605997009, 261.795303599280828 ], [ 1010.012966643929985, 260.32084051966001 ], [ 1012.551750332419033, 206.967656539472614 ], [ 1022.829439012852049, 207.527565425333506 ], [ 1022.829383605997009, 261.795303599280828 ] ] ] } },
{ "type": "Feature", "properties": { "feature_type": "building", "subtype": "no-damage", "uid": "bf7b77a9-7ee2-42bd-aa86-817133ef926e" }, "geometry": { "type": "Polygon", "coordinates": [ [ [ 576.075467811413546, 31.837758320495951 ], [ 616.945145349906056, 3.212676140107444 ], [ 629.080379154450497, 18.289784808762011 ], [ 641.21561296522566, 9.648027398612589 ], [ 668.6459925323569, 47.892400614772313 ], [ 675.84922982589012, 42.562005015551911 ], [ 702.213078314120594, 78.578191477745222 ], [ 636.654573495126897, 129.084097422374896 ], [ 618.577392232661396, 103.568449370658399 ], [ 626.253130096653422, 99.053309448898375 ], [ 619.59329871381135, 88.668487630172805 ], [ 605.37060796435992, 95.328319008436338 ], [ 578.70620320890464, 57.200769509444683 ], [ 589.447332135656211, 50.478901732422827 ], [ 576.075467811413546, 31.837758320495951 ] ] ] } },
{ "type": "Feature", "properties": { "feature_type": "building", "subtype": "no-damage", "uid": "43bb4af9-1a42-4187-b03a-316363c4efd2" }, "geometry": { "type": "Polygon", "coordinates": [ [ [ 253.513934463159387, 400.985747191087626 ], [ 258.156874063755993, 384.839405000976285 ], [ 263.146301692570319, 385.948166696155226 ], [ 264.255063393089927, 381.928905547062811 ], [ 260.374397455512792, 381.30522709454192 ], [ 263.287512503816515, 367.917366448726398 ], [ 266.752392802141003, 368.471747295298485 ], [ 271.048844376300281, 346.920191837121308 ], [ 312.991849359639275, 358.107190054806324 ], [ 303.961569519042712, 398.856327844341479 ], [ 306.896410469814782, 399.872234325237116 ], [ 302.801374395088885, 416.443191146976119 ], [ 293.701216601063777, 413.532691695097128 ], [ 293.429734162725424, 414.29284252335998 ], [ 260.471766216396816, 405.279625587718215 ], [ 260.906138115118779, 403.705027448254782 ], [ 253.513934463159387, 400.985747191087626 ] ] ] } },
{ "type": "Feature", "properties": { "feature_type": "building", "subtype": "no-damage", "uid": "f8dbb53f-1fbb-4786-812a-2c7f0217d4a7" }, "geometry": { "type": "Polygon", "coordinates": [ [ [ 287.543910046329927, 446.310737139741775 ], [ 271.814812996506987, 498.963970147834289 ], [ 221.653683700014398, 482.307142677268018 ], [ 232.209999316059509, 451.890000395309926 ], [ 236.927271647381502, 453.441091226230526 ], [ 239.237470954363005, 447.665592962210724 ], [ 234.229999314488197, 446.100000394898927 ], [ 240.049881125010813, 429.329631828588276 ], [ 287.543910046329927, 446.310737139741775 ] ] ] } },
{ "type": "Feature", "properties": { "feature_type": "building", "subtype": "no-damage", "uid": "bf594612-9129-4ac3-a265-95aaf43397e4" }, "geometry": { "type": "Polygon", "coordinates": [ [ [ 295.149842424971212, 444.844875608344921 ], [ 337.446806236484008, 443.433166931935489 ], [ 338.865056113776291, 463.661728882594218 ], [ 334.568604542668822, 463.86962170145739 ], [ 336.140393949273005, 502.735524218298679 ], [ 297.423069125338372, 504.090066195538782 ], [ 295.149842424971212, 444.844875608344921 ] ] ] } },
{ "type": "Feature", "properties": { "feature_type": "building", "subtype": "no-damage", "uid": "f3553e05-aaa5-437f-834e-077bd45cbb1d" }, "geometry": { "type": "Polygon", "coordinates": [ [ [ 368.444328391514375, 427.017055986906712 ], [ 393.473339735969773, 406.136172837947811 ], [ 395.690863128616627, 408.838779468928919 ], [ 401.026778791243316, 405.512494386444189 ], [ 412.045098138864887, 417.570277825583275 ], [ 404.214468666917526, 424.500038422485773 ], [ 406.501289661698308, 427.479835479296185 ], [ 410.867038840661905, 424.707931238297192 ], [ 419.101475190228882, 434.196744910034511 ], [ 414.23480852642848, 438.563411578395574 ], [ 426.292288677920624, 451.602728237524389 ], [ 417.514012330184073, 459.091966788626507 ], [ 419.848761296639111, 462.078273607551012 ], [ 402.518824249267993, 476.812554855877977 ], [ 365.549542887429311, 434.890451112006019 ], [ 370.767695043086292, 430.910504556309775 ], [ 368.444328391514375, 427.017055986906712 ] ] ] } },
{ "type": "Feature", "properties": { "feature_type": "building", "subtype": "no-damage", "uid": "fd487d33-4095-4fc4-a412-a7c3ef1e9bb4" }, "geometry": { "type": "Polygon", "coordinates": [ [ [ 412.361887607095923, 389.099148965597919 ], [ 438.123052077289913, 368.589352800587676 ], [ 463.03833397072151, 396.907983074929973 ], [ 460.127834520622287, 399.957077740740885 ], [ 475.99970128486251, 419.238085749832123 ], [ 444.305457200335582, 444.017222034201609 ], [ 405.984234805854783, 400.509668791200625 ], [ 415.110244331559386, 393.029241075780988 ], [ 412.361887607095923, 389.099148965597919 ] ] ] } },
{ "type": "Feature", "properties": { "feature_type": "building", "subtype": "no-damage", "uid": "ad23e65b-4b6a-460d-8606-d8f94dd75a5f" }, "geometry": { "type": "Polygon", "coordinates": [ [ [ 462.895673174335798, 349.156415520435075 ], [ 495.630437605192924, 336.062509750281095 ], [ 515.158417765205286, 392.727515761197481 ], [ 481.520625352997115, 405.595664533788408 ], [ 462.895673174335798, 349.156415520435075 ] ] ] } },
{ "type": "Feature", "properties": { "feature_type": "building", "subtype": "no-damage", "uid": "7420b384-6b5b-48b9-9f8d-deea99cc0454" }, "geometry": { "type": "Polygon", "coordinates": [ [ [ 519.561295689211875, 333.742370838570196 ], [ 557.375592531032339, 326.179511471071805 ], [ 570.355445355775146, 377.235687610815717 ], [ 532.147958401732808, 386.345343068025613 ], [ 519.561295689211875, 333.742370838570196 ] ] ] } },
{ "type": "Feature", "properties": { "feature_type": "building", "subtype": "no-damage", "uid": "89c1c93f-3fe4-4ec6-9da2-e9e6845f8b82" }, "geometry": { "type": "Polygon", "coordinates": [ [ [ 578.774744271869849, 331.239525100628782 ], [ 630.205858533783271, 331.095460352476891 ], [ 629.91772904371021, 385.984128516367321 ], [ 580.647585963384472, 386.416322754719317 ], [ 578.774744271869849, 331.239525100628782 ] ] ] } },
{ "type": "Feature", "properties": { "feature_type": "building", "subtype": "no-damage", "uid": "d9b2bda2-6009-4ea9-af73-ae5a3982b98c" }, "geometry": { "type": "Polygon", "coordinates": [ [ [ 639.775714800660126, 327.768325203916675 ], [ 681.329697238569793, 311.955747818725627 ], [ 705.967899214573663, 373.735119935572413 ], [ 661.655909092703382, 391.93797064645571 ], [ 639.775714800660126, 327.768325203916675 ] ] ] } },
{ "type": "Feature", "properties": { "feature_type": "building", "subtype": "no-damage", "uid": "2e2c2686-3aea-45da-89f6-7c7adcd271ba" }, "geometry": { "type": "Polygon", "coordinates": [ [ [ 598.370382538363287, 270.57096897165502 ], [ 630.917501055480898, 257.304480449954781 ], [ 634.013015043683026, 262.964848884971502 ], [ 649.932801273463838, 256.42004787648392 ], [ 655.858499483879541, 270.836298742984184 ], [ 660.103775812177105, 269.244320118060784 ], [ 668.240555440757134, 291.620464101039772 ], [ 617.827899039775616, 314.173494595864724 ], [ 598.370382538363287, 270.57096897165502 ] ] ] } },
{ "type": "Feature", "properties": { "feature_type": "building", "subtype": "no-damage", "uid": "edf0d74a-437d-4938-be74-393fe27246d6" }, "geometry": { "type": "Polygon", "coordinates": [ [ [ 568.959882523571764, 223.918292377867289 ], [ 596.944377629931637, 200.857327751958309 ], [ 602.349590896091058, 205.98535059521231 ], [ 616.832790542418707, 194.481948003662495 ], [ 639.208766874941261, 215.884384579494309 ], [ 621.230459099933682, 230.587640683050608 ], [ 624.035102037388469, 234.190496914723809 ], [ 596.506782842950429, 257.429393592541885 ], [ 568.959882523571764, 223.918292377867289 ] ] ] } },
{ "type": "Feature", "properties": { "feature_type": "building", "subtype": "no-damage", "uid": "654309bc-a31d-4c95-823e-1473e2564008" }, "geometry": { "type": "Polygon", "coordinates": [ [ [ 522.90504759427381, 248.302347393784487 ], [ 542.185677582187168, 234.947415612600992 ], [ 565.22547251997355, 270.896740367951224 ], [ 515.608805434251281, 300.348344899024426 ], [ 497.920154068082581, 264.263496109135701 ], [ 514.28215658345448, 256.922705788695112 ], [ 512.15951842070433, 250.82012106643441 ], [ 521.003844101118375, 245.77885543050769 ], [ 522.90504759427381, 248.302347393784487 ] ] ] } },
{ "type": "Feature", "properties": { "feature_type": "building", "subtype": "no-damage", "uid": "ca7a44a0-16a0-4d5c-855c-bdda8a345199" }, "geometry": { "type": "Polygon", "coordinates": [ [ [ 475.809391461375412, 207.422591578616391 ], [ 482.919321526356384, 201.677229440097904 ], [ 485.199774005677796, 203.577606498548107 ], [ 489.923568422669575, 199.396776959378087 ], [ 487.588819459393619, 196.681952582606698 ], [ 500.891458909873279, 184.356649906001508 ], [ 533.384671064609506, 221.743929375669495 ], [ 486.756983321396717, 254.389106040232889 ], [ 461.727541635294983, 220.780668444669402 ], [ 477.381998097179689, 209.813704596293292 ], [ 475.809391461375412, 207.422591578616391 ] ] ] } },
{ "type": "Feature", "properties": { "feature_type": "building", "subtype": "no-damage", "uid": "e297d5f4-a052-48bd-961c-a514de8c2b77" }, "geometry": { "type": "Polygon", "coordinates": [ [ [ 450.444399154298821, 264.021775792179085 ], [ 453.252218591867518, 268.148419512836711 ], [ 467.048437731348201, 260.187785436254217 ], [ 476.212605716152325, 274.798563655347607 ], [ 478.680083404074878, 273.47973937658162 ], [ 496.921986095118086, 306.649066804369397 ], [ 454.027006527568517, 327.256345645492786 ], [ 451.904368362020989, 322.834182805604314 ], [ 456.326531203563093, 320.534658127194007 ], [ 449.794356396135527, 308.105125407237097 ], [ 451.964035053213081, 306.956471999606606 ], [ 443.024682391555928, 291.202457037694217 ], [ 449.377371435271982, 287.401702909603785 ], [ 439.478676612055096, 269.822698316196977 ], [ 450.444399154298821, 264.021775792179085 ] ] ] } },
{ "type": "Feature", "properties": { "feature_type": "building", "subtype": "no-damage", "uid": "19947860-be44-4b4b-86fb-650937b0237b" }, "geometry": { "type": "Polygon", "coordinates": [ [ [ 377.925350049747522, 306.484544507490909 ], [ 398.437441416535705, 292.347832888874109 ], [ 400.93215523196011, 295.743415583411092 ], [ 411.6039865523814, 289.368035830028987 ], [ 421.305651392064306, 302.603878574364785 ], [ 426.387196513273807, 299.636819800983403 ], [ 436.296754169785515, 314.951590727848611 ], [ 439.345848829747581, 312.872662546336528 ], [ 449.55427164538321, 328.904793602431425 ], [ 405.067313452782798, 357.118192534307411 ], [ 402.502459003551621, 353.226689231990918 ], [ 403.917551115612014, 352.342256660554483 ], [ 400.998923639891473, 346.681888223503393 ], [ 396.842090567008313, 349.600515701003587 ], [ 393.569690064162785, 345.089909602649072 ], [ 400.45556041818088, 339.712150272461884 ], [ 377.925350049747522, 306.484544507490909 ] ] ] } },
{ "type": "Feature", "properties": { "feature_type": "building", "subtype": "no-damage", "uid": "f2454746-600e-4273-a4d6-1e8bcbc19b0a" }, "geometry": { "type": "Polygon", "coordinates": [ [ [ 337.413543791385905, 337.413358695766476 ], [ 348.272841303686619, 329.323182048389583 ], [ 350.770479729634985, 332.038006429230109 ], [ 362.661410506121115, 322.861900027482477 ], [ 373.520708021600683, 338.336398984031518 ], [ 377.538648097717385, 335.024313242051107 ], [ 387.21097247528968, 347.731619862777677 ], [ 384.369770630757728, 350.572821707690878 ], [ 397.869925520553522, 367.467898754643727 ], [ 367.901547342642402, 388.552617427687721 ], [ 364.436667045208026, 383.840380217073914 ], [ 361.941953227367605, 385.572820368842713 ], [ 352.933264452385117, 374.000120172361505 ], [ 354.942895023752612, 372.406275234524628 ], [ 344.617551735236418, 358.754646854496684 ], [ 334.08431562162599, 343.02409029804312 ], [ 338.8658504371719, 339.836400423386578 ], [ 337.413543791385905, 337.413358695766476 ] ] ] } },
{ "type": "Feature", "properties": { "feature_type": "building", "subtype": "no-damage", "uid": "0c552c37-f3fd-49ae-91eb-cb34d470f382" }, "geometry": { "type": "Polygon", "coordinates": [ [ [ 971.801627025900416, 858.751661111411977 ], [ 978.208612557512993, 861.086410077103665 ], [ 982.606628049541428, 851.638821241341134 ], [ 1006.551379065567971, 860.869224130095176 ], [ 988.898150356191877, 901.689768050819907 ], [ 948.391138722467304, 884.089559940576578 ], [ 964.576254724594492, 850.658008853807132 ], [ 972.536147842473042, 854.461068897657469 ], [ 971.801627025900416, 858.751661111411977 ] ] ] } },
{ "type": "Feature", "properties": { "feature_type": "building", "subtype": "no-damage", "uid": "059b8f40-6558-4f75-b513-6bc432a39c80" }, "geometry": { "type": "Polygon", "coordinates": [ [ [ 960.097583104341425, 849.037961076311717 ], [ 957.737737534934809, 855.393239991799305 ], [ 955.837737532278197, 854.626573329354642 ], [ 948.524565420050635, 869.03098001497915 ], [ 950.395600784861358, 869.862551288397867 ], [ 944.367568649807936, 883.314398312039771 ], [ 921.106992103146013, 873.850969833172826 ], [ 919.86878650496601, 876.327381022411714 ], [ 911.732006875623028, 873.408753544911406 ], [ 909.520925458221654, 877.742473130402914 ], [ 896.608209957414033, 872.435877722129817 ], [ 898.819291381173343, 867.394612081116748 ], [ 890.063408950197072, 863.591552034214601 ], [ 912.17422315943395, 828.391135817796794 ], [ 915.711953434371594, 830.602217236723845 ], [ 917.303932059422323, 828.391135815762368 ], [ 960.097583104341425, 849.037961076311717 ] ] ] } },
{ "type": "Feature", "properties": { "feature_type": "building", "subtype": "no-damage", "uid": "35f46880-24d6-4810-8dc9-a7fbab3a6211" }, "geometry": { "type": "Polygon", "coordinates": [ [ [ 867.913763740730133, 811.856850617480518 ], [ 880.803118455069921, 820.311158549322954 ], [ 888.287259901088646, 810.401600891540966 ], [ 910.879406043392123, 825.98160052627793 ], [ 884.804472998810411, 861.086813411324215 ], [ 857.325531090171239, 842.129703063634679 ], [ 858.642185601670462, 840.120072491122983 ], [ 850.465068099725272, 834.922752038868452 ], [ 867.913763740730133, 811.856850617480518 ] ] ] } },
{ "type": "Feature", "properties": { "feature_type": "building", "subtype": "no-damage", "uid": "9b1fa846-2d9b-4da0-b3f9-b60385198e28" }, "geometry": { "type": "Polygon", "coordinates": [ [ [ 808.108175112211597, 787.782938711335078 ], [ 813.624529655822698, 791.329820295804439 ], [ 816.277827357670844, 788.411192821355939 ], [ 830.605634965198306, 797.167075247753246 ], [ 828.659883316201444, 801.058578548035143 ], [ 837.268766761466736, 805.641750981961991 ], [ 839.65781221747136, 802.058182801897374 ], [ 859.662740406765238, 814.439065174784446 ], [ 851.029598886906683, 827.74170462666109 ], [ 843.916759014037439, 824.158136448631012 ], [ 831.887033728649044, 842.400713942441712 ], [ 790.663472617881098, 817.760590942356657 ], [ 799.81701831428984, 803.437178730047776 ], [ 797.73809013430332, 802.259119426885604 ], [ 808.108175112211597, 787.782938711335078 ] ] ] } },
{ "type": "Feature", "properties": { "feature_type": "building", "subtype": "no-damage", "uid": "9ea8e47b-aad5-44c6-bf90-39ce016da1e9" }, "geometry": { "type": "Polygon", "coordinates": [ [ [ 755.167551700082186, 770.011461041753137 ], [ 780.904539439035148, 767.623493105893999 ], [ 781.523642240032586, 773.726077832223837 ], [ 798.327861037943762, 772.399428973543309 ], [ 798.962046899897359, 789.475994930743695 ], [ 792.24035938261477, 789.564438185140716 ], [ 793.213235206795275, 796.374568962922922 ], [ 786.137774661624803, 796.816785246097993 ], [ 786.756877459443331, 805.572667672495299 ], [ 754.828861736838007, 808.225965381718197 ], [ 752.706223572053432, 781.781431586611461 ], [ 755.713294309291769, 781.16232878853873 ], [ 755.167551700082186, 770.011461041753137 ] ] ] } },
{ "type": "Feature", "properties": { "feature_type": "building", "subtype": "no-damage", "uid": "5289df49-fd34-46c7-8733-606473992ae3" }, "geometry": { "type": "Polygon", "coordinates": [ [ [ 720.44027877736869, 712.170015327870942 ], [ 745.838930813821776, 694.659882297737454 ], [ 779.548107133238432, 736.937450820256913 ], [ 760.245883971424746, 751.273020068869414 ], [ 752.344389104656102, 742.242740225349394 ], [ 737.783062861657527, 750.031356590410837 ], [ 719.383867682466757, 725.536722517583939 ], [ 725.705063574304859, 721.811732083225593 ], [ 720.44027877736869, 712.170015327870942 ] ] ] } },
{ "type": "Feature", "properties": { "feature_type": "building", "subtype": "no-damage", "uid": "b3f057d2-80fb-4428-b629-6dae65ddd301" }, "geometry": { "type": "Polygon", "coordinates": [ [ [ 785.308654306243966, 700.950961232692862 ], [ 813.376377912553835, 692.280104956550645 ], [ 829.707654808186817, 741.859993238778316 ], [ 808.225396954938105, 750.314301168586098 ], [ 803.513159745341, 737.494244062994198 ], [ 792.494840397210737, 741.167017182343329 ], [ 784.87210373726009, 723.981210894863693 ], [ 793.501519126669564, 721.665730187813551 ], [ 785.308654306243966, 700.950961232692862 ] ] ] } },
{ "type": "Feature", "properties": { "feature_type": "building", "subtype": "no-damage", "uid": "b4116b10-5a75-45a0-81fa-e8f8f16216cb" }, "geometry": { "type": "Polygon", "coordinates": [ [ [ 825.079913951277376, 689.710594499447438 ], [ 854.942982108101319, 679.991523228652568 ], [ 871.966132198119226, 722.993226491071937 ], [ 862.148930689328381, 727.503832591461105 ], [ 865.686660965029091, 735.640612217751141 ], [ 852.685502207535478, 739.885888547828358 ], [ 847.555793309963065, 725.646524194191215 ], [ 832.697326164481979, 729.626470754973752 ], [ 823.296001168563407, 701.208366816359217 ], [ 828.493321614842216, 699.545224276642671 ], [ 825.079913951277376, 689.710594499447438 ] ] ] } },
{ "type": "Feature", "properties": { "feature_type": "building", "subtype": "no-damage", "uid": "bb734fc7-bd68-4520-9aa0-4a449d1fd99b" }, "geometry": { "type": "Polygon", "coordinates": [ [ [ 897.114363274091829, 691.037672420052218 ], [ 902.067185656130846, 682.900892788675833 ], [ 929.396152020134537, 701.739306498116321 ], [ 903.332118214168872, 745.918753693585472 ], [ 881.002082607687385, 731.656343855435921 ], [ 889.790032106095396, 717.249869271168905 ], [ 879.849564642054702, 710.622890961978896 ], [ 892.239132786784239, 689.445373322404521 ], [ 897.114363274091829, 691.037672420052218 ] ] ] } },
{ "type": "Feature", "properties": { "feature_type": "building", "subtype": "no-damage", "uid": "4d7aec55-87ae-49bd-982f-e8b6ea8dff25" }, "geometry": { "type": "Polygon", "coordinates": [ [ [ 940.90416757148239, 721.035921302946008 ], [ 968.498463705289396, 737.309480561629812 ], [ 950.51644582369795, 772.438745784581897 ], [ 938.777082024297442, 765.553157400617238 ], [ 943.066464954217167, 758.893326018284597 ], [ 919.813494357048285, 746.025177242641917 ], [ 923.877120288387573, 739.929738350147886 ], [ 914.621083449719322, 734.624448942003596 ], [ 925.457419261664995, 717.805552733422132 ], [ 936.745269062124635, 724.239627123277955 ], [ 940.90416757148239, 721.035921302946008 ] ] ] } },
{ "type": "Feature", "properties": { "feature_type": "building", "subtype": "no-damage", "uid": "4dcf49bc-6b16-4d32-b5d6-aa7211a25679" }, "geometry": { "type": "Polygon", "coordinates": [ [ [ 1022.829401599926996, 787.874567674148352 ], [ 1005.869438691757978, 792.093946427112883 ], [ 1004.542789838418003, 786.433577988027196 ], [ 982.431975630706802, 786.168248215680705 ], [ 953.473829100844455, 773.25553272275863 ], [ 965.32522551938689, 746.103452869078524 ], [ 989.028018350114053, 757.866406029407699 ], [ 1001.144744538969007, 758.839281857275637 ], [ 1001.144744536170947, 755.920654379775328 ], [ 1022.829365725365051, 748.871942813592909 ], [ 1022.829401599926996, 787.874567674148352 ] ] ] } },
{ "type": "Feature", "properties": { "feature_type": "building", "subtype": "no-damage", "uid": "343bb73e-ff7f-4df0-89be-f188fa793597" }, "geometry": { "type": "Polygon", "coordinates": [ [ [ 791.335063453219959, 374.017762756704599 ], [ 819.017802845493179, 368.622724087930919 ], [ 817.868040504507576, 363.758344960798183 ], [ 831.753631828987182, 361.8125933101486 ], [ 833.08028068270869, 368.622724086913593 ], [ 841.924606362995519, 367.384518491785514 ], [ 842.189936135214907, 369.418713397849388 ], [ 851.476478103508839, 368.268951056101002 ], [ 853.422229756193246, 378.174595825263907 ], [ 856.871516769358777, 377.378606511276416 ], [ 858.640381906636776, 387.638024305148178 ], [ 793.457701619276122, 399.224090953631503 ], [ 791.335063453219959, 374.017762756704599 ] ] ] } },
{ "type": "Feature", "properties": { "feature_type": "building", "subtype": "no-damage", "uid": "8b9b2f64-fb4a-4e7b-be94-f2337d106081" }, "geometry": { "type": "Polygon", "coordinates": [ [ [ 879.166777303435538, 320.767016900720023 ], [ 905.098431554712647, 287.632125361890587 ], [ 915.038899017100334, 295.55568638206762 ], [ 922.242136309489069, 288.928708072877498 ], [ 931.606344790077742, 295.98788061838502 ], [ 939.529905807712566, 284.174571461178175 ], [ 957.393934292185691, 298.292916553210489 ], [ 917.632064441999205, 350.012160310657691 ], [ 879.166777303435538, 320.767016900720023 ] ] ] } },
{ "type": "Feature", "properties": { "feature_type": "building", "subtype": "no-damage", "uid": "cd1ca855-6d76-4199-898c-6ca9d0b45c25" }, "geometry": { "type": "Polygon", "coordinates": [ [ [ 912.424019243599218, 388.567712966315582 ], [ 940.372579934161308, 395.770950259974995 ], [ 958.812867403358155, 373.87310889083119 ], [ 978.693802326861942, 392.025266864993512 ], [ 961.550097572721256, 412.194331282763812 ], [ 967.024557913354897, 428.473647565538727 ], [ 936.770961289874322, 437.261597058350617 ], [ 934.898119590857391, 423.143251968352786 ], [ 901.475098555974114, 415.075626200023976 ], [ 912.424019243599218, 388.567712966315582 ] ] ] } },
{ "type": "Feature", "properties": { "feature_type": "building", "subtype": "no-damage", "uid": "a256846b-4d8f-45cc-abd1-77dafee6eb65" }, "geometry": { "type": "Polygon", "coordinates": [ [ [ 991.959477689195296, 389.336800420431302 ], [ 1009.736572313830038, 380.580917991999513 ], [ 998.946494981748856, 356.524352132751915 ], [ 1022.829321201743028, 342.191558409075185 ], [ 1022.82928963721497, 402.953858103257176 ], [ 1003.074000335827009, 413.09309418717902 ], [ 991.959477689195296, 389.336800420431302 ] ] ] } },
{ "type": "Feature", "properties": { "feature_type": "building", "subtype": "no-damage", "uid": "e85e26cb-e478-41a4-a8ca-62cbbfddb264" }, "geometry": { "type": "Polygon", "coordinates": [ [ [ 43.479117087783607, 831.401431591762275 ], [ 70.795713611841308, 859.50817760321786 ], [ 65.603302699934659, 865.039224005873393 ], [ 40.205640643591629, 889.082344087643264 ], [ 12.09889463696428, 857.363486139593533 ], [ 43.479117087783607, 831.401431591762275 ] ] ] } },
{ "type": "Feature", "properties": { "feature_type": "building", "subtype": "no-damage", "uid": "d928af7b-5097-48ac-8b64-6ab0d630ec2b" }, "geometry": { "type": "Polygon", "coordinates": [ [ [ 45.401250311255943, 819.949473765921198 ], [ 82.425397664911827, 793.987419218090054 ], [ 101.614742328579695, 821.191137245397044 ], [ 96.873845413070754, 824.577492186462791 ], [ 100.824592842958197, 828.866875110659748 ], [ 65.380744461181038, 849.975154243438169 ], [ 45.401250311255943, 819.949473765921198 ] ] ] } },
{ "type": "Feature", "properties": { "feature_type": "building", "subtype": "no-damage", "uid": "ed37e268-049c-41c0-93f8-c428ccd8ac18" }, "geometry": { "type": "Polygon", "coordinates": [ [ [ 85.406579532081352, 871.115456401066922 ], [ 105.571642095118804, 858.468070673370448 ], [ 125.294488370912106, 891.988065012502261 ], [ 122.906520434289703, 893.31471386507917 ], [ 125.559818137155006, 897.559990196173658 ], [ 111.143567273577503, 905.608326565014977 ], [ 109.993804933482096, 903.485688403536756 ], [ 106.4560746612147, 905.431440054186396 ], [ 85.406579532081352, 871.115456401066922 ] ] ] } },
{ "type": "Feature", "properties": { "feature_type": "building", "subtype": "no-damage", "uid": "9fedc6ce-c2f5-488e-9fdc-ab85168cbdcd" }, "geometry": { "type": "Polygon", "coordinates": [ [ [ 68.090502139619687, 893.760700065060746 ], [ 86.715454311923054, 882.698607260766835 ], [ 106.356312969191194, 916.900792163699293 ], [ 85.022276842788713, 929.54318394381346 ], [ 68.090502139619687, 893.760700065060746 ] ] ] } },
{ "type": "Feature", "properties": { "feature_type": "building", "subtype": "no-damage", "uid": "0a37beb8-300e-490c-81cb-b6d0ecd0b6a0" }, "geometry": { "type": "Polygon", "coordinates": [ [ [ 47.104515217689332, 905.579303337921601 ], [ 67.084009371937825, 899.145228948065778 ], [ 82.209728104774982, 934.024684836566394 ], [ 57.376458538397721, 943.73223566972365 ], [ 47.104515217689332, 905.579303337921601 ] ] ] } },
{ "type": "Feature", "properties": { "feature_type": "building", "subtype": "no-damage", "uid": "28ff78b1-25c8-4991-8c13-4b2473898f42" }, "geometry": { "type": "Polygon", "coordinates": [ [ [ 18.207619722007259, 914.948218670665369 ], [ 44.734066761206449, 908.062630291786945 ], [ 54.441617588770107, 944.40950665630919 ], [ 28.028049050641311, 951.069338040676371 ], [ 18.207619722007259, 914.948218670665369 ] ] ] } },
{ "type": "Feature", "properties": { "feature_type": "building", "subtype": "no-damage", "uid": "baabe8a6-ffce-44be-9f5e-0f2f5034e8f5" }, "geometry": { "type": "Polygon", "coordinates": [ [ [ 99.385162625099781, 943.195211559492577 ], [ 120.380563260371105, 936.309623178579614 ], [ 121.509348239285401, 940.034613612938074 ], [ 139.908543421909513, 934.616445703977774 ], [ 152.663813695466303, 974.688312507944715 ], [ 111.4631619153771, 987.782218280133179 ], [ 99.385162625099781, 943.195211559492577 ] ] ] } },
{ "type": "Feature", "properties": { "feature_type": "building", "subtype": "no-damage", "uid": "b6104cdb-17a8-4f26-af83-a8a7f10a402b" }, "geometry": { "type": "Polygon", "coordinates": [ [ [ 75.408871480815733, 955.813235745522775 ], [ 95.727001130391571, 949.379161355666838 ], [ 108.595149902221294, 990.69269163504066 ], [ 89.857319232407946, 996.449495037293673 ], [ 75.408871480815733, 955.813235745522775 ] ] ] } },
{ "type": "Feature", "properties": { "feature_type": "building", "subtype": "no-damage", "uid": "073b9760-4c4d-435c-9b71-3d75eca0f532" }, "geometry": { "type": "Polygon", "coordinates": [ [ [ 30.846976673245759, 968.169061473330544 ], [ 70.176652289149274, 956.932011295506754 ], [ 81.989961448519352, 996.693881147595334 ], [ 42.084026853359923, 1008.074996069502049 ], [ 30.846976673245759, 968.169061473330544 ] ] ] } },
{ "type": "Feature", "properties": { "feature_type": "building", "subtype": "no-damage", "uid": "0d52ba77-5138-4c73-acb2-40fa13d75d99" }, "geometry": { "type": "Polygon", "coordinates": [ [ [ 91.23461692993439, 1022.980907675378944 ], [ 105.207196204381503, 1013.519474459228036 ], [ 110.477068511283704, 1022.981291223753033 ], [ 91.23461692993439, 1022.980907675378944 ] ] ] } },
{ "type": "Feature", "properties": { "feature_type": "building", "subtype": "no-damage", "uid": "69989253-8014-4564-94fa-d261047db74b" }, "geometry": { "type": "Polygon", "coordinates": [ [ [ 130.365486802189309, 1006.616886210481994 ], [ 139.291909893119794, 1022.981831911420045 ], [ 113.251683510235097, 1022.981345043290048 ], [ 111.176142134960998, 1018.920642496286973 ], [ 130.365486802189309, 1006.616886210481994 ] ] ] } },
{ "type": "Feature", "properties": { "feature_type": "building", "subtype": "no-damage", "uid": "ef2ba061-c6be-43fe-8bcd-f33dfea2ab3d" }, "geometry": { "type": "Polygon", "coordinates": [ [ [ 132.816254309193511, 1002.860709529805035 ], [ 158.923746804069992, 995.554793403136841 ], [ 172.855319647257886, 1022.982410813744991 ], [ 143.219008497852514, 1022.981902474156982 ], [ 132.816254309193511, 1002.860709529805035 ] ] ] } },
{ "type": "Feature", "properties": { "feature_type": "building", "subtype": "no-damage", "uid": "870d7386-152d-4e77-86a6-eda1507b4072" }, "geometry": { "type": "Polygon", "coordinates": [ [ [ 356.157140852795123, 977.747028307488449 ], [ 387.275125957684622, 970.975985255232899 ], [ 388.715773415424792, 976.306380850384244 ], [ 412.05426224218462, 970.687855764015467 ], [ 430.708766307693395, 1022.985031749676978 ], [ 368.697450675175389, 1022.984696636444028 ], [ 356.157140852795123, 977.747028307488449 ] ] ] } },
{ "type": "Feature", "properties": { "feature_type": "building", "subtype": "no-damage", "uid": "5b2495e0-8cf1-4b5e-9a01-c515fe04b99e" }, "geometry": { "type": "Polygon", "coordinates": [ [ [ 333.693230135078579, 889.066169795179462 ], [ 361.687097649027976, 887.824506317738155 ], [ 362.138611638813472, 897.080543154752149 ], [ 389.56808665974529, 893.016917224049166 ], [ 391.893122517147617, 920.464987662648582 ], [ 398.526366784356526, 919.580555094264014 ], [ 402.288817400461028, 953.843877205031049 ], [ 397.534680788252388, 954.276071442365833 ], [ 398.399069263684908, 967.385963311576802 ], [ 353.162739069050019, 971.131646703506476 ], [ 352.190125315777721, 949.615151017114158 ], [ 344.642466323789108, 949.825033397927996 ], [ 344.303830825537091, 947.454584945895931 ], [ 339.450055410102323, 947.567463443660131 ], [ 339.450055413408393, 935.263707157855947 ], [ 334.257644503281881, 935.489464150332651 ], [ 333.354616518116018, 920.025109922043157 ], [ 336.176578970106505, 919.347838936474886 ], [ 333.693230135078579, 889.066169795179462 ] ] ] } },
{ "type": "Feature", "properties": { "feature_type": "building", "subtype": "no-damage", "uid": "39dbd793-2e31-4506-bcd2-c19a6efc28a1" }, "geometry": { "type": "Polygon", "coordinates": [ [ [ 302.284590348859922, 747.254320405470708 ], [ 328.577596934528174, 754.425140384581482 ], [ 325.819589248151374, 762.515296254276677 ], [ 354.870603519052111, 768.766780340768491 ], [ 349.054622559444681, 800.256263512855753 ], [ 354.570637926603297, 802.094935302162639 ], [ 352.131673444897388, 814.690751532955346 ], [ 359.754410099761685, 817.324060560022303 ], [ 355.527256136256028, 836.103711781269681 ], [ 298.972125497349793, 829.302249094207923 ], [ 302.285614652072411, 810.42976738742459 ], [ 292.057017698085815, 808.989119932354811 ], [ 294.794247864905799, 796.167357552326735 ], [ 297.099283799222974, 795.879228061109302 ], [ 298.395866513897715, 791.269156190440981 ], [ 293.929859390744923, 790.548832462906148 ], [ 302.284590348859922, 747.254320405470708 ] ] ] } },
{ "type": "Feature", "properties": { "feature_type": "building", "subtype": "no-damage", "uid": "e47969db-feab-470e-ae63-51209c65bba4" }, "geometry": { "type": "Polygon", "coordinates": [ [ [ 407.449313675552673, 774.165025462070389 ], [ 437.47527129835521, 776.988442812854714 ], [ 436.715120473906893, 786.38173516364543 ], [ 457.467010455177274, 788.394405052708521 ], [ 456.759464402834624, 803.695088486576196 ], [ 465.426903572165713, 804.933294079669736 ], [ 463.687869089812125, 820.950921955871308 ], [ 470.314847396332709, 821.959375175640844 ], [ 468.297940957937783, 842.272504337493956 ], [ 434.468635687224889, 838.950240545651013 ], [ 413.697402284494615, 837.086173487442693 ], [ 414.649322835669977, 818.464636921357851 ], [ 405.362780867375989, 817.668647609404843 ], [ 407.220089260831287, 801.218201836840649 ], [ 404.478348299499885, 801.306645094289479 ], [ 407.449313675552673, 774.165025462070389 ] ] ] } },
{ "type": "Feature", "properties": { "feature_type": "building", "subtype": "no-damage", "uid": "fbf6ec43-21ec-4879-b999-d7d58dc0ae8a" }, "geometry": { "type": "Polygon", "coordinates": [ [ [ 463.699288524392273, 881.348115532712768 ], [ 487.94323818527522, 876.80223517077593 ], [ 489.781909975599604, 884.340789507137742 ], [ 515.891049384168241, 877.721571066446586 ], [ 524.06015098507703, 915.842830133244092 ], [ 526.876146467218632, 915.373497554349569 ], [ 540.95612389204166, 965.826749991002885 ], [ 484.870880485121688, 976.856065640802058 ], [ 474.812917414850517, 937.597510992839261 ], [ 476.167459387640179, 936.807361507472251 ], [ 463.699288524392273, 881.348115532712768 ] ] ] } },
{ "type": "Feature", "properties": { "feature_type": "building", "subtype": "no-damage", "uid": "1883be4d-85ba-4ba6-b414-38f36b058f63" }, "geometry": { "type": "Polygon", "coordinates": [ [ [ 468.297940957937783, 842.272504337493956 ], [ 478.640891170624116, 843.219317061589095 ], [ 476.191790491461177, 870.591618769966999 ], [ 430.667330803574316, 866.557805887837162 ], [ 434.468635687224889, 838.950240545651013 ], [ 468.297940957937783, 842.272504337493956 ] ] ] } },
{ "type": "Feature", "properties": { "feature_type": "building", "subtype": "no-damage", "uid": "5a1709a3-89d5-4648-ada6-e7a23723dba2" }, "geometry": { "type": "Polygon", "coordinates": [ [ [ 612.364555379502917, 974.46015401016507 ], [ 624.442554669525975, 955.609444837758019 ], [ 619.814536248475179, 951.545818909089576 ], [ 633.021320518938296, 928.518605309232498 ], [ 668.013654909276966, 948.949613456442648 ], [ 680.543168192137273, 949.062491952172422 ], [ 682.462102654765545, 967.461687130470636 ], [ 675.125000286227987, 969.041986104256466 ], [ 674.899243291207995, 981.797256380100407 ], [ 671.512888347598732, 987.554059783370803 ], [ 668.352290405112967, 986.086639307349174 ], [ 664.288664473646463, 992.182078196791508 ], [ 671.512888348361685, 996.697218120585944 ], [ 654.017497229612673, 1022.984689799391958 ], [ 596.248724579404438, 1022.985010711575001 ], [ 591.500973492252342, 1022.408262010627027 ], [ 618.347115773343489, 982.02301337766346 ], [ 612.364555379502917, 974.46015401016507 ] ] ] } },
{ "type": "Feature", "properties": { "feature_type": "building", "subtype": "no-damage", "uid": "450964a2-5b2c-45c7-ab55-19042b33e943" }, "geometry": { "type": "Polygon", "coordinates": [ [ [ 186.285215882454509, 0.006627667446653 ], [ 205.757996704282391, 28.54971840489408 ], [ 195.418179606791711, 35.852534497386422 ], [ 200.31638096346461, 44.352354501015448 ], [ 175.105050442647013, 62.792641970464103 ], [ 169.774654844443205, 54.580951455000658 ], [ 158.537604671449913, 60.487606034621322 ], [ 164.876453488660388, 71.580591466327789 ], [ 140.817640931568292, 83.682030114751981 ], [ 135.775374826362111, 76.478792822109867 ], [ 120.792641258386695, 86.13113079366029 ], [ 94.284728026709232, 46.081131450354363 ], [ 129.724655503420706, 21.446059914136718 ], [ 122.233288717779999, 11.07339821301691 ], [ 93.99659853180421, 29.51368568144829 ], [ 81.462965645407806, 9.200556518577933 ], [ 86.505231751885603, 7.039585328852491 ], [ 82.186187793415286, 0.004721346433133 ], [ 186.285215882454509, 0.006627667446653 ] ] ] } },
{ "type": "Feature", "properties": { "feature_type": "building", "subtype": "no-damage", "uid": "26cfc8fb-7cd8-4ade-9c3f-ee1a388b40d2" }, "geometry": { "type": "Polygon", "coordinates": [ [ [ 172.67519609645791, 72.133979214993246 ], [ 224.893474908636108, 35.36054343597575 ], [ 252.10581738844931, 77.64999458494853 ], [ 200.623007290519013, 113.320227296281999 ], [ 172.67519609645791, 72.133979214993246 ] ] ] } },
{ "type": "Feature", "properties": { "feature_type": "building", "subtype": "no-damage", "uid": "cb9cea31-86f5-44b4-b8b8-fb7a31d14f1d" }, "geometry": { "type": "Polygon", "coordinates": [ [ [ 113.459958377130903, 139.270298421743604 ], [ 121.628732072271404, 87.85459526872468 ], [ 174.117233654727499, 96.771996613463173 ], [ 166.473681368010887, 151.404115628872205 ], [ 113.459958377130903, 139.270298421743604 ] ] ] } },
{ "type": "Feature", "properties": { "feature_type": "building", "subtype": "no-damage", "uid": "119de382-6ebf-4306-9f1c-9508fab80a42" }, "geometry": { "type": "Polygon", "coordinates": [ [ [ 354.399657277876827, 203.163083417539099 ], [ 391.310926134022679, 229.012259463536992 ], [ 358.940393287629718, 276.651656699954515 ], [ 318.314134957432998, 245.389606853529614 ], [ 354.399657277876827, 203.163083417539099 ] ] ] } },
{ "type": "Feature", "properties": { "feature_type": "building", "subtype": "no-damage", "uid": "5eb2b82a-3dcf-4568-8b0d-0cd532eae606" }, "geometry": { "type": "Polygon", "coordinates": [ [ [ 523.009731457670796, 113.176695552378007 ], [ 549.065631304550266, 94.050556303421757 ], [ 562.560885215445069, 112.017956077198704 ], [ 558.597241625317565, 114.895669912954901 ], [ 572.008474051208964, 132.324842420046906 ], [ 544.077128881995691, 154.070637175345411 ], [ 546.710437908554468, 157.743410293677186 ], [ 533.405297561447128, 167.237182311698007 ], [ 528.138679506167819, 158.921469594804705 ], [ 526.614132174533779, 160.099528894915011 ], [ 507.633278740440517, 133.568767322051912 ], [ 509.044987414052628, 132.374244597737288 ], [ 502.475112419386107, 123.415324149101906 ], [ 504.158303533879689, 122.492283859819594 ], [ 505.787198162511515, 124.881329312517707 ], [ 516.341635296711956, 117.548790433567106 ], [ 518.674968629359114, 120.582123771602994 ], [ 524.908301961295365, 116.248790438382002 ], [ 523.009731457670796, 113.176695552378007 ] ] ] } },
{ "type": "Feature", "properties": { "feature_type": "building", "subtype": "no-damage", "uid": "614c3083-00ee-4b85-aa98-8060b2a94ab0" }, "geometry": { "type": "Polygon", "coordinates": [ [ [ 425.244600492358586, 109.939157863773104 ], [ 444.436787225747821, 94.461587917042351 ], [ 447.797630984389116, 97.557101910457561 ], [ 456.676515340196204, 90.585677899122004 ], [ 465.40801369685181, 100.495235555886694 ], [ 469.635167662900699, 97.515438498058955 ], [ 478.990344469025388, 108.395162636070594 ], [ 474.624595291333378, 111.374959692881006 ], [ 478.020177982946279, 115.8100064746138 ], [ 483.910474494434084, 111.374959692881006 ], [ 494.128514987891606, 125.726473540119699 ], [ 457.593516535388289, 156.645519471382613 ], [ 446.095893146132482, 142.406155120797308 ], [ 451.8447048419049, 138.160878791737304 ], [ 449.191407138658121, 134.44626200635301 ], [ 444.680801037378217, 138.426208562049311 ], [ 435.853754692626183, 127.185606661051494 ], [ 437.932682870578219, 125.453166512334604 ], [ 425.244600492358586, 109.939157863773104 ] ] ] } },
{ "type": "Feature", "properties": { "feature_type": "building", "subtype": "no-damage", "uid": "3dfc8a0c-c8bf-471e-ad07-acecee8461d6" }, "geometry": { "type": "Polygon", "coordinates": [ [ [ 409.586902898418316, 131.426147512820307 ], [ 420.31036021158252, 141.585212335000108 ], [ 425.728528115457209, 137.182950913038809 ], [ 455.076937604485181, 161.451827987285412 ], [ 422.45406963359568, 196.542572530786799 ], [ 394.347323623280715, 170.467639488243208 ], [ 401.532548744180815, 162.900461906096012 ], [ 388.653323114566092, 150.961818500424414 ], [ 409.586902898418316, 131.426147512820307 ] ] ] } },
{ "type": "Feature", "properties": { "feature_type": "building", "subtype": "no-damage", "uid": "d0015aa8-721d-4bbb-80f7-f9d14a2eb559" }, "geometry": { "type": "Polygon", "coordinates": [ [ [ 534.338042195008484, 177.226175091263912 ], [ 548.903781675962364, 165.350199810307004 ], [ 551.612865625356562, 168.510797756861393 ], [ 556.128005547371458, 164.672928821686895 ], [ 553.306043097415568, 161.625209371879492 ], [ 562.449201436666499, 153.272200521048489 ], [ 565.722677882511562, 156.658555458045214 ], [ 579.836903367067748, 143.742940714051912 ], [ 608.488722111337324, 174.949285371066708 ], [ 565.722677881494292, 214.790981946000386 ], [ 534.338042195008484, 177.226175091263912 ] ] ] } },
{ "type": "Feature", "properties": { "feature_type": "building", "subtype": "no-damage", "uid": "22176edf-ee56-4817-ac76-a3c437828f93" }, "geometry": { "type": "Polygon", "coordinates": [ [ [ 755.799421900093421, 0.007730401321223 ], [ 746.915081570619009, 6.190275272204731 ], [ 741.960481662362554, 0.007890553758834 ], [ 755.799421900093421, 0.007730401321223 ] ] ] } }
]
}
