{
"type": "FeatureCollection",
"name": "socal-fire_00000796_post_disaster",
"features": [
{ "type": "Feature", "properties": { "feature_type": "building", "subtype": "no-damage", "uid": "f547573c-8b3b-497c-9e22-2c0816ec0994" }, "geometry": { "type": "Polygon", "coordinates": [ [ [ 174.665454599868099, 0.006186499025962 ], [ 160.081368342825897, 73.558779082102177 ], [ 114.7375960088944, 66.541290509997026 ], [ 119.706740919821598, 40.086872027582288 ], [ 112.652771060538399, 38.85597795978174 ], [ 114.836079053322706, 25.208961608623738 ], [ 119.027673720202301, 25.876649258037649 ], [ 124.303129386017005, 0.005301176505474 ], [ 174.665454599868099, 0.006186499025962 ] ] ] } },
{ "type": "Feature", "properties": { "feature_type": "building", "subtype": "no-damage", "uid": "ef530101-7895-4a03-a599-fac26857e452" }, "geometry": { "type": "Polygon", "coordinates": [ [ [ 311.382897962684183, 0.007967837579293 ], [ 309.973919961554714, 56.119665158781963 ], [ 297.161431590515292, 57.878241994274241 ], [ 286.233132676937828, 62.902747239264542 ], [ 277.063410605465094, 69.811441950490391 ], [ 272.290130625012523, 76.845749296528609 ], [ 269.275427474838978, 85.889858735476594 ], [ 259.190528719672727, 86.858061568636685 ], [ 259.316141351814792, 83.717745790899215 ], [ 234.193615125461207, 80.451817382418483 ], [ 234.068002493827805, 83.592133159138669 ], [ 230.550848818773687, 81.331105800673257 ], [ 224.521442523513002, 78.190790022935801 ], [ 220.376225696776913, 73.794347930644648 ], [ 216.984684655263607, 68.895455316397644 ], [ 215.35172045025999, 63.745337442698599 ], [ 215.351720451531605, 58.343994302426658 ], [ 224.989401777758104, 9.604209098005178 ], [ 229.384971545279001, 7.444981847006032 ], [ 230.463566748896199, 0.007023318248399 ], [ 311.382897962684183, 0.007967837579293 ] ] ] } },
{ "type": "Feature", "properties": { "feature_type": "building", "subtype": "no-damage", "uid": "199a1e86-6171-4a7a-8e9e-af27cb60188e" }, "geometry": { "type": "Polygon", "coordinates": [ [ [ 1022.842521106513004, 250.612342322893312 ], [ 1019.599465206182003, 251.567883067968893 ], [ 1014.701263848111012, 251.42381832388611 ], [ 1010.379321474507947, 250.991624084516786 ], [ 1010.00337065297299, 264.272240447081913 ], [ 973.476305577614994, 264.006910676769905 ], [ 974.712919545359341, 206.120226706867101 ], [ 982.00236671389132, 206.49978624956421 ], [ 982.61568659003126, 182.276109923680792 ], [ 979.482353253822794, 182.076109919961198 ], [ 980.196616523004082, 153.6844268996864 ], [ 984.563283192255881, 153.817760235160392 ], [ 985.260475896589242, 116.883365240225999 ], [ 983.146131681837346, 116.920458995983594 ], [ 983.105963941572213, 83.180573570639083 ], [ 1022.842723416153945, 85.361497641837303 ], [ 1022.842521106513004, 250.612342322893312 ] ] ] } },
{ "type": "Feature", "properties": { "feature_type": "building", "subtype": "no-damage", "uid": "a143fbe5-73b9-4093-aa78-5f49a8300b1a" }, "geometry": { "type": "Polygon", "coordinates": [ [ [ 172.413332052097587, 441.032839942723285 ], [ 186.203370468849613, 392.491904705224101 ], [ 225.1412681169856, 401.105739456392996 ], [ 224.168392292805095, 405.174129269538014 ], [ 229.917203985652804, 406.589221377529213 ], [ 231.420739350457211, 401.990172022743081 ], [ 296.514976383039425, 418.794390822050673 ], [ 295.630543815926274, 422.332121095589173 ], [ 299.1682740906096, 423.304996920405415 ], [ 300.141149915425899, 419.767266647884128 ], [ 338.339109098607821, 430.568793568377089 ], [ 309.929111272150124, 533.077690610764876 ], [ 301.368771611278078, 531.155445716281974 ], [ 301.873000500858609, 527.965046500090807 ], [ 260.112294985729307, 516.318404881226911 ], [ 258.785646131244789, 521.713443548983378 ], [ 211.3523086451886, 510.98765417845641 ], [ 212.878722294313889, 503.829831824863618 ], [ 161.916475028717002, 492.541571605555021 ], [ 167.762428055718004, 471.117896157766609 ], [ 171.662428053099688, 471.984562824614216 ], [ 179.008264129522587, 442.78556139049391 ], [ 172.413332052097587, 441.032839942723285 ] ] ] } },
{ "type": "Feature", "properties": { "feature_type": "building", "subtype": "no-damage", "uid": "130c1d4f-d6a0-4ce9-ab4c-98877554febf" }, "geometry": { "type": "Polygon", "coordinates": [ [ [ -0.000000581495339, 410.366077962205395 ], [ 6.261297314979045, 410.279903411935777 ], [ 6.261297317395054, 409.038239931442718 ], [ 21.274137551959321, 409.263996927988387 ], [ 20.935502062226949, 420.100332738788325 ], [ 27.708211942833341, 420.326089738385917 ], [ 27.595333445196228, 416.713977797722578 ], [ 50.961182535678859, 416.939734791216608 ], [ 51.074061034460392, 421.454874715011215 ], [ 84.824731944051464, 421.906388705050915 ], [ 84.937610442070053, 419.987454241024125 ], [ 96.56409574307051, 419.648818748748624 ], [ 97.132157887610234, 451.127088377440714 ], [ 57.295641803144271, 564.332752139035279 ], [ 22.095698240959699, 555.650099393881533 ], [ 35.002344213332613, 506.899219399798199 ], [ 29.695748801244001, 505.395684031306416 ], [ 37.910160813822777, 472.986925658793325 ], [ 42.62239802100391, 474.164984959920787 ], [ 47.196040012218589, 458.157237979672402 ], [ 43.073656576404993, 457.505331706334687 ], [ 43.116199295206123, 463.163513301798389 ], [ 26.702952257443339, 463.547509506680228 ], [ 26.883196592060411, 459.883228990311522 ], [ -0.000000578952171, 461.382419853902206 ], [ -0.000000581495339, 410.366077962205395 ] ] ] } },
{ "type": "Feature", "properties": { "feature_type": "building", "subtype": "no-damage", "uid": "3e7181db-4789-4f57-bafb-61cab58a094e" }, "geometry": { "type": "Polygon", "coordinates": [ [ [ -0.000000582258289, 518.242210748765274 ], [ 15.8558958148343, 518.547269340607954 ], [ 16.211130230155021, 552.939587728343554 ], [ 20.576879408101341, 553.008885331240322 ], [ 20.997131977432741, 571.556959374819371 ], [ 12.33493122863322, 571.626256978733409 ], [ 12.35850271439927, 593.649042001358112 ], [ -0.000000578570696, 592.771836667509888 ], [ -0.000000582258289, 518.242210748765274 ] ] ] } },
{ "type": "Feature", "properties": { "feature_type": "building", "subtype": "no-damage", "uid": "651e0595-b5d4-4c01-8120-a2c1314cb00e" }, "geometry": { "type": "Polygon", "coordinates": [ [ [ 33.011554592323762, 719.130331588545118 ], [ 44.565111372750927, 706.837218383059849 ], [ 44.185035959128022, 703.30794668898443 ], [ 60.295788040991788, 685.340122033233911 ], [ 75.147028457645419, 698.373880394462617 ], [ 46.918808880062542, 732.041426580989651 ], [ 33.011554592323762, 719.130331588545118 ] ] ] } },
{ "type": "Feature", "properties": { "feature_type": "building", "subtype": "no-damage", "uid": "7a17354c-d6d2-4d8c-b99b-8814cd437f4e" }, "geometry": { "type": "Polygon", "coordinates": [ [ [ 132.947440784095306, 777.219392793441557 ], [ 155.235141508229788, 776.86561976568089 ], [ 156.650233617238513, 780.580236553099667 ], [ 159.215088067486988, 775.981187199330748 ], [ 196.44969919722169, 794.288941364078482 ], [ 193.002075509065207, 801.895628615858186 ], [ 189.968742173445008, 800.795628616254476 ], [ 187.102075509710289, 807.328961949700215 ], [ 179.835408842346794, 803.295628616463546 ], [ 176.194069940646813, 811.043806390318878 ], [ 163.868767264675796, 802.356368379767446 ], [ 156.375851985304507, 801.161845655452908 ], [ 156.538741445306613, 805.125489249648922 ], [ 132.485397459082407, 805.668454121747914 ], [ 132.947440784095306, 777.219392793441557 ] ] ] } },
{ "type": "Feature", "properties": { "feature_type": "building", "subtype": "no-damage", "uid": "8e0bca97-b04b-49ca-a7dd-ef91162a6d40" }, "geometry": { "type": "Polygon", "coordinates": [ [ [ 412.082587619430626, 846.989737439689065 ], [ 432.122482180125417, 792.673219628085235 ], [ 480.248414458642912, 811.153759311155227 ], [ 515.756562532716202, 847.571895300051096 ], [ 502.422366935199818, 884.093628899341638 ], [ 412.082587619430626, 846.989737439689065 ] ] ] } },
{ "type": "Feature", "properties": { "feature_type": "building", "subtype": "no-damage", "uid": "3ed44bef-4b66-4711-ae13-ce74997348fc" }, "geometry": { "type": "Polygon", "coordinates": [ [ [ 449.781362469655278, 745.610897159291881 ], [ 468.293436147118996, 698.427684983969698 ], [ 567.287878921751371, 738.1609162926095 ], [ 543.019001847501499, 793.697137323848892 ], [ 468.519193142138874, 764.122970840440757 ], [ 449.781362469655278, 745.610897159291881 ] ] ] } },
{ "type": "Feature", "properties": { "feature_type": "building", "subtype": "no-damage", "uid": "db792948-4fe4-4eec-b774-aa8978b51cb8" }, "geometry": { "type": "Polygon", "coordinates": [ [ [ 404.311422271537879, 909.056386723344986 ], [ 422.330405804052418, 864.376662242576458 ], [ 498.451417879639678, 895.817949836876437 ], [ 481.903371774349296, 938.659002526303539 ], [ 404.311422271537879, 909.056386723344986 ] ] ] } },
{ "type": "Feature", "properties": { "feature_type": "building", "subtype": "no-damage", "uid": "eeede45f-7f9d-4d90-b0a9-90858b126870" }, "geometry": { "type": "Polygon", "coordinates": [ [ [ 493.298783256220986, 533.997598134282839 ], [ 513.03019332716508, 476.480481808966317 ], [ 515.473535267760212, 477.240632634177473 ], [ 519.002806957131156, 466.870003510149786 ], [ 554.024041432847866, 479.032416726752899 ], [ 550.92914164143599, 489.29445287575038 ], [ 556.847458786938773, 491.303422914317082 ], [ 522.577841167809765, 589.270080536340515 ], [ 494.756208217619985, 579.238088526112278 ], [ 491.499220737904523, 586.306444335929314 ], [ 482.300654340772724, 583.51650004803264 ], [ 485.557641825447377, 574.161323242926528 ], [ 456.92513049214341, 562.815746980474387 ], [ 471.475669822275279, 525.070783569959417 ], [ 493.298783256220986, 533.997598134282839 ] ] ] } },
{ "type": "Feature", "properties": { "feature_type": "building", "subtype": "no-damage", "uid": "fb9becb2-4a51-485f-be3d-843057f686c7" }, "geometry": { "type": "Polygon", "coordinates": [ [ [ 444.155661460213423, 562.255674675731029 ], [ 477.003304386164473, 574.10791696742649 ], [ 472.262407467985213, 590.813934677226484 ], [ 438.624615056666983, 579.30032787882385 ], [ 444.155661460213423, 562.255674675731029 ] ] ] } },
{ "type": "Feature", "properties": { "feature_type": "building", "subtype": "no-damage", "uid": "48214319-9413-485e-82e5-64ddc6bbabc3" }, "geometry": { "type": "Polygon", "coordinates": [ [ [ 572.652995888283385, 479.144664769127473 ], [ 588.522147656509446, 485.312151701611697 ], [ 586.5125170822173, 491.618233845993302 ], [ 594.481741767333688, 494.528733297872293 ], [ 593.511575285069398, 498.13220880720371 ], [ 643.310285045293654, 515.199247277234008 ], [ 607.965908531930722, 609.397742035347733 ], [ 558.919841340548942, 591.392331014253386 ], [ 556.547830427072199, 600.111253530801946 ], [ 532.668151081065844, 591.178484590524249 ], [ 572.652995888283385, 479.144664769127473 ] ] ] } },
{ "type": "Feature", "properties": { "feature_type": "building", "subtype": "no-damage", "uid": "db69f652-300c-4e2d-9f61-33ec8832dea0" }, "geometry": { "type": "Polygon", "coordinates": [ [ [ 684.807994865733235, 583.949858072565007 ], [ 709.324443491413945, 514.940636209606623 ], [ 728.485054688272953, 521.999808753079606 ], [ 701.964940868414601, 591.087888441762061 ], [ 684.807994865733235, 583.949858072565007 ] ] ] } },
{ "type": "Feature", "properties": { "feature_type": "building", "subtype": "no-damage", "uid": "e767e053-3698-4c18-ab79-b3de7fec51be" }, "geometry": { "type": "Polygon", "coordinates": [ [ [ 919.196506991714841, 619.84716673547041 ], [ 929.013478433457976, 620.072923735067889 ], [ 929.464992428838514, 607.882045946010749 ], [ 972.69745717160913, 609.010830924670472 ], [ 972.24594318118784, 623.459278673081826 ], [ 992.564072829364932, 623.910792665156123 ], [ 991.2813535014443, 709.388709205748114 ], [ 916.965717179014518, 707.640612501669693 ], [ 918.235999461742949, 661.181908303601858 ], [ 921.215796516137857, 661.181908301567319 ], [ 921.562284548170055, 653.143386006434298 ], [ 918.235999461870165, 653.143386003382489 ], [ 919.196506991714841, 619.84716673547041 ] ] ] } },
{ "type": "Feature", "properties": { "feature_type": "building", "subtype": "no-damage", "uid": "00dad1f6-add3-4cf9-8929-9dd5a49bbc59" }, "geometry": { "type": "Polygon", "coordinates": [ [ [ 1022.842656869206962, 898.606707889541099 ], [ 1003.095919249479948, 898.083019466101518 ], [ 1003.00101082055096, 871.267664555920987 ], [ 1007.424493966396994, 871.731858996734672 ], [ 1014.083482130389029, 721.324925688679627 ], [ 1009.50984013370703, 720.631949634279181 ], [ 1013.865634524846996, 668.234841263996827 ], [ 1022.842439151909957, 668.54175323623565 ], [ 1022.842656869206962, 898.606707889541099 ] ] ] } },
{ "type": "Feature", "properties": { "feature_type": "building", "subtype": "no-damage", "uid": "b17b23d4-c338-450e-b327-a97fe1e36651" }, "geometry": { "type": "Polygon", "coordinates": [ [ [ 1003.589148148270965, 1022.979032378980946 ], [ 1004.35706818201902, 987.709563208348754 ], [ 1015.532039487639054, 988.048198703676007 ], [ 1015.532039487639054, 991.547432139454145 ], [ 1022.842797253092044, 991.255073609261558 ], [ 1022.842852278471014, 1022.978562039407961 ], [ 1003.589148148270965, 1022.979032378980946 ] ] ] } },
{ "type": "Feature", "properties": { "feature_type": "building", "subtype": "no-damage", "uid": "5f874d62-bfb6-4e02-ac41-5f2fa366d388" }, "geometry": { "type": "Polygon", "coordinates": [ [ [ 858.427342331151067, 979.637172942131201 ], [ 947.747484754025209, 983.382856335078259 ], [ 947.459355264079363, 1011.907676009343049 ], [ 935.646046102039008, 1010.611093298355968 ], [ 935.246759541695951, 1022.980556326564056 ], [ 905.409862751429046, 1022.981150420755966 ], [ 904.960255239061894, 1016.517747878993987 ], [ 923.544607451451498, 1016.949942112260032 ], [ 923.256477959471113, 1013.492388211546995 ], [ 855.546047416179249, 1009.170445838199953 ], [ 858.427342331151067, 979.637172942131201 ] ] ] } },
{ "type": "Feature", "properties": { "feature_type": "building", "subtype": "no-damage", "uid": "015812e1-f72b-42d4-8fd0-85db5318f808" }, "geometry": { "type": "Polygon", "coordinates": [ [ [ 810.699999425370038, 809.970000325217029 ], [ 805.293856878668976, 943.43032635999657 ], [ 774.083240252220548, 941.318329747850157 ], [ 776.946571243921994, 852.079613482742502 ], [ 778.889999428155875, 807.890000324579205 ], [ 810.699999425370038, 809.970000325217029 ] ] ] } },
{ "type": "Feature", "properties": { "feature_type": "building", "subtype": "no-damage", "uid": "b85078e5-d551-47ec-98fe-53ecd0690851" }, "geometry": { "type": "Polygon", "coordinates": [ [ [ 815.989999427418411, 664.420000323460613 ], [ 811.173512924341708, 798.212914006020469 ], [ 810.719999425385936, 809.470000324564808 ], [ 778.909999425374281, 807.390000324944253 ], [ 785.259999426486047, 663.300000325621227 ], [ 815.989999427418411, 664.420000323460613 ] ] ] } },
{ "type": "Feature", "properties": { "feature_type": "building", "subtype": "no-damage", "uid": "a67c3b68-f469-4415-b9cf-87bed090835e" }, "geometry": { "type": "Polygon", "coordinates": [ [ [ 816.907212817291565, 638.898803384582152 ], [ 816.009999428197375, 663.920000325860201 ], [ 785.279999428282281, 662.800000323951735 ], [ 788.681727930396505, 585.585087646839611 ], [ 792.858232359118574, 586.036601636879368 ], [ 792.858232360008742, 577.683592784013968 ], [ 796.921858290076443, 577.796471279743628 ], [ 797.373372279353362, 565.718471991502497 ], [ 819.582939435612161, 565.507444756867471 ], [ 816.907212817291565, 638.898803384582152 ] ] ] } },
{ "type": "Feature", "properties": { "feature_type": "building", "subtype": "no-damage", "uid": "7bf6aa86-4255-415b-97ce-a257781ccad1" }, "geometry": { "type": "Polygon", "coordinates": [ [ [ 742.046157687128925, 734.215488072322955 ], [ 745.842524899560772, 734.279077688491839 ], [ 745.773227292849128, 727.487912305521377 ], [ 750.113535956394003, 727.405460000884659 ], [ 750.208274075218242, 720.904639735310525 ], [ 752.98017831469167, 720.904639734293255 ], [ 753.257368737850584, 714.647676562460106 ], [ 756.514356219346382, 714.667855197894824 ], [ 757.259317773026396, 686.84121943146431 ], [ 761.222961362518163, 687.00410889553541 ], [ 761.442809071441843, 673.656269740029074 ], [ 764.542809072764612, 673.78960307346847 ], [ 764.956832649786406, 660.76229708827907 ], [ 774.990165980423512, 660.595630421734086 ], [ 769.71133665718412, 806.056167772796243 ], [ 738.402423736466289, 805.08329195204908 ], [ 742.046157687128925, 734.215488072322955 ] ] ] } },
{ "type": "Feature", "properties": { "feature_type": "building", "subtype": "no-damage", "uid": "2bced8bc-4cf4-4a5c-a487-d4cbe2ea91a9" }, "geometry": { "type": "Polygon", "coordinates": [ [ [ 738.457301017024292, 807.570456046786489 ], [ 769.281412547642162, 808.515948971523812 ], [ 763.639325089075896, 938.343863655162068 ], [ 756.539325084696884, 938.077196987265893 ], [ 756.272658421124106, 943.077196988701417 ], [ 752.805991752970044, 943.077196987684147 ], [ 752.605991752302202, 946.177196987861976 ], [ 733.022488230355634, 945.916338441386415 ], [ 738.457301017024292, 807.570456046786489 ] ] ] } },
{ "type": "Feature", "properties": { "feature_type": "building", "subtype": "no-damage", "uid": "74397b1a-181b-4273-a600-c782d5361d3f" }, "geometry": { "type": "Polygon", "coordinates": [ [ [ 718.224930340178616, 813.560066222952514 ], [ 727.405841543686506, 813.879799363513825 ], [ 722.469432961779717, 951.94171027417508 ], [ 691.160520044368127, 950.880391190892851 ], [ 694.348559544591467, 887.568470861706601 ], [ 698.992484244068919, 887.706197811670904 ], [ 699.325817580973649, 881.572864475491656 ], [ 702.792484247093171, 881.706197809948435 ], [ 702.961781853121465, 875.349051161442276 ], [ 705.861781851868955, 875.349051159407736 ], [ 705.795115187946749, 867.88238449493781 ], [ 709.728448518815526, 867.88238449493781 ], [ 710.31571966262436, 842.03257842690607 ], [ 713.378795410965381, 842.03257842894061 ], [ 713.703660266964334, 828.778856318106364 ], [ 717.836993601044014, 828.845522985334696 ], [ 718.224930340178616, 813.560066222952514 ] ] ] } },
{ "type": "Feature", "properties": { "feature_type": "building", "subtype": "no-damage", "uid": "d8c6d9e1-fcbe-4f18-9f0c-f52e4c41d837" }, "geometry": { "type": "Polygon", "coordinates": [ [ [ 664.908976736501131, 658.914033050540183 ], [ 705.312782056856463, 672.810987791747607 ], [ 703.718937122325428, 679.294260360607268 ], [ 709.485603788749586, 681.427593692586356 ], [ 706.320188273987014, 690.900937157046201 ], [ 701.220188271708366, 689.300937158824922 ], [ 699.286854940142575, 693.834270493730969 ], [ 655.415151717334197, 677.092314642646556 ], [ 660.527729880232187, 662.150142823616648 ], [ 663.627729879774733, 663.150142823903707 ], [ 664.908976736501131, 658.914033050540183 ] ] ] } },
{ "type": "Feature", "properties": { "feature_type": "building", "subtype": "no-damage", "uid": "b1c9acbd-537d-411d-92ae-d82c2ce90c8c" }, "geometry": { "type": "Polygon", "coordinates": [ [ [ 671.403359883009784, 640.759241119426065 ], [ 711.021494349573686, 655.278636230867164 ], [ 705.374659646987084, 669.232833531907545 ], [ 666.389781578345378, 653.975520528470611 ], [ 671.403359883009784, 640.759241119426065 ] ] ] } },
{ "type": "Feature", "properties": { "feature_type": "building", "subtype": "no-damage", "uid": "495a3735-836c-4aeb-ac63-2d35f72dbb33" }, "geometry": { "type": "Polygon", "coordinates": [ [ [ 635.565311309990534, 710.137767673583198 ], [ 643.702090938443348, 686.258088330250416 ], [ 652.281086849817029, 689.442045572976326 ], [ 625.438014243835482, 764.857556737951313 ], [ 627.229798336665453, 765.454818102143122 ], [ 609.990322529103423, 816.937602338719444 ], [ 592.717978715807021, 811.492134336244135 ], [ 612.344262321604106, 754.141353126708964 ], [ 630.132051955884435, 707.840562566727272 ], [ 635.565311309990534, 710.137767673583198 ] ] ] } },
{ "type": "Feature", "properties": { "feature_type": "building", "subtype": "no-damage", "uid": "7f82a190-e205-4218-91c9-67c312bc2fd4" }, "geometry": { "type": "Polygon", "coordinates": [ [ [ 661.034828980831207, 692.098117004537812 ], [ 674.865044582665178, 696.996318363371643 ], [ 645.252815503214265, 785.733210982150013 ], [ 646.500172408383264, 785.941103798978816 ], [ 634.08913836106467, 824.531818293921901 ], [ 618.876898187568486, 818.694563347059443 ], [ 630.989964475152192, 780.233243770651939 ], [ 631.960130962375843, 780.30254137558336 ], [ 661.034828980831207, 692.098117004537812 ] ] ] } },
{ "type": "Feature", "properties": { "feature_type": "building", "subtype": "no-damage", "uid": "a8cfa319-4c36-464f-ac31-7439bdcfc2e8" }, "geometry": { "type": "Polygon", "coordinates": [ [ [ 684.138775524535959, 699.386843503375871 ], [ 697.794988241770511, 704.109085284197363 ], [ 668.349557242996298, 793.493319618215537 ], [ 669.804806969444712, 793.839807643889799 ], [ 657.855695383975103, 831.489215950016046 ], [ 642.55501195061413, 826.094177280224926 ], [ 684.138775524535959, 699.386843503375871 ] ] ] } },
{ "type": "Feature", "properties": { "feature_type": "building", "subtype": "no-damage", "uid": "a9e1cde7-e9d3-49f6-a539-e5b8f303e844" }, "geometry": { "type": "Polygon", "coordinates": [ [ [ 867.536511005300667, 759.036222198084715 ], [ 862.359911585028613, 882.255567050197669 ], [ 836.003888726659625, 881.656566530469718 ], [ 842.117417641335805, 759.009162750305677 ], [ 867.536511005300667, 759.036222198084715 ] ] ] } },
{ "type": "Feature", "properties": { "feature_type": "building", "subtype": "no-damage", "uid": "cdd614d5-2776-4351-a17d-81c0252e14b4" }, "geometry": { "type": "Polygon", "coordinates": [ [ [ 774.319960621626024, 988.817883228507867 ], [ 771.559883387235345, 989.142598196930521 ], [ 771.884598357565437, 969.659700069189284 ], [ 783.087264779085331, 969.659700069189284 ], [ 784.061409684099203, 970.796202457651475 ], [ 784.061409687659648, 988.006095806433905 ], [ 783.89905220115952, 988.817883230542407 ], [ 774.319960621626024, 988.817883228507867 ] ] ] } },
{ "type": "Feature", "properties": { "feature_type": "building", "subtype": "no-damage", "uid": "6e7e461f-8c0f-4fb8-9da3-25eb78ef61c2" }, "geometry": { "type": "Polygon", "coordinates": [ [ [ 775.187463288796266, 949.88905802907027 ], [ 774.773035560434096, 967.916664180715202 ], [ 762.340203730041139, 967.916664182749741 ], [ 756.331001673939454, 968.53830577344911 ], [ 755.709360083748606, 960.45696508316712 ], [ 764.826770095509346, 959.835323491450481 ], [ 766.070053279197168, 949.681844161773824 ], [ 775.187463288796266, 949.88905802907027 ] ] ] } },
{ "type": "Feature", "properties": { "feature_type": "building", "subtype": "no-damage", "uid": "24647cdb-dbdb-4c79-ac68-c8a76352f417" }, "geometry": { "type": "Polygon", "coordinates": [ [ [ 855.545300774384145, 1022.982046651433052 ], [ 855.971785918585852, 1014.351959722774041 ], [ 899.970664190220873, 1015.650819597482041 ], [ 899.802831062464406, 1022.981257229738958 ], [ 855.545300774384145, 1022.982046651433052 ] ] ] } },
{ "type": "Feature", "properties": { "feature_type": "building", "subtype": "no-damage", "uid": "b3038eda-1a3c-4252-8b08-bdd4de9102d1" }, "geometry": { "type": "Polygon", "coordinates": [ [ [ 871.386555085406258, 965.845242998483855 ], [ 895.008935566446098, 967.295740044127228 ], [ 894.18008011404504, 976.413150051563434 ], [ 871.386555085914893, 975.169866872199123 ], [ 871.386555085406258, 965.845242998483855 ] ] ] } },
{ "type": "Feature", "properties": { "feature_type": "building", "subtype": "no-damage", "uid": "a3310fd5-f488-4533-ad54-c8f3b2e3adfa" }, "geometry": { "type": "Polygon", "coordinates": [ [ [ 430.832508722650687, 624.661062880266172 ], [ 449.356166575134296, 631.984369474837422 ], [ 441.250458774096273, 671.83573302766581 ], [ 433.824808689014503, 674.535969422101857 ], [ 438.550222379532613, 679.59891266306829 ], [ 427.074217700380188, 688.374680951343521 ], [ 420.661156259906022, 674.535969424136397 ], [ 424.036451754731786, 644.495839521157222 ], [ 430.832508722650687, 624.661062880266172 ] ] ] } }
]
}
