{
"type": "FeatureCollection",
"name": "socal-fire_00000555_post_disaster",
"features": [
{ "type": "Feature", "properties": { "feature_type": "building", "subtype": "no-damage", "uid": "5d330abc-9c63-4338-b708-158da9b80b73" }, "geometry": { "type": "Polygon", "coordinates": [ [ [ 481.389985123220583, 793.495726120333302 ], [ 477.482036918718222, 744.646373593243311 ], [ 509.918006996823408, 741.715412441170315 ], [ 512.653570741564522, 793.104931301345459 ], [ 481.58538253385899, 794.472713172380622 ], [ 481.389985123220583, 793.495726120333302 ] ] ] } },
{ "type": "Feature", "properties": { "feature_type": "building", "subtype": "no-damage", "uid": "6dc6493f-a813-48be-b241-b7bfb7303c02" }, "geometry": { "type": "Polygon", "coordinates": [ [ [ 521.6947359509752, 676.115354737389339 ], [ 520.697207503354321, 646.438883421276842 ], [ 539.400865898566053, 646.438883419242302 ], [ 538.652719561801405, 642.199387523625433 ], [ 553.366264163223605, 641.700623298098435 ], [ 553.366264162842185, 645.940119200836193 ], [ 591.771109391222467, 643.446298079304825 ], [ 593.766166289516036, 671.377094611159123 ], [ 521.6947359509752, 676.115354737389339 ] ] ] } },
{ "type": "Feature", "properties": { "feature_type": "building", "subtype": "destroyed", "uid": "32cb5f8c-a5b0-41e1-8f07-b27e2e02ecf9" }, "geometry": { "type": "Polygon", "coordinates": [ [ [ 192.584278201630013, 767.567197852703885 ], [ 190.339839195786396, 742.130222441363685 ], [ 207.796587027053306, 740.633929770886198 ], [ 207.29782280165341, 734.399376974178608 ], [ 225.253334860990606, 734.149994862432436 ], [ 226.001481194449212, 738.389490764152924 ], [ 248.695253377601205, 737.391962315133469 ], [ 252.685367163888401, 763.826466177527664 ], [ 222.759513738314411, 767.567197855755694 ], [ 224.006424297681605, 773.801750650428744 ], [ 208.544733364835309, 774.05113276115776 ], [ 207.048440692958991, 766.569669408770778 ], [ 192.584278201630013, 767.567197852703885 ] ] ] } },
{ "type": "Feature", "properties": { "feature_type": "building", "subtype": "destroyed", "uid": "916c704c-93cf-4994-b3ba-6977d5a26d33" }, "geometry": { "type": "Polygon", "coordinates": [ [ [ 80.786617747004598, 803.016179741575684 ], [ 77.130663106834959, 720.554091782169166 ], [ 113.283992310607402, 718.523005872405179 ], [ 127.501593679084095, 718.116788687197186 ], [ 131.969982682421886, 803.422396920680058 ], [ 80.786617746750281, 805.047265649305018 ], [ 80.786617747004598, 803.016179741575684 ] ] ] } },
{ "type": "Feature", "properties": { "feature_type": "building", "subtype": "destroyed", "uid": "678db039-219f-4ab9-b7bd-7dbbd9a67de6" }, "geometry": { "type": "Polygon", "coordinates": [ [ [ 121.944893228113301, 692.958669650608613 ], [ 115.7235232318437, 591.861407184856262 ], [ 148.385715723258187, 590.306064684835405 ], [ 155.643980720389607, 690.366432151251956 ], [ 121.944893228113301, 692.958669650608613 ] ] ] } },
{ "type": "Feature", "properties": { "feature_type": "building", "subtype": "destroyed", "uid": "d9521042-0c3d-48b8-a5ba-cd2537a5792a" }, "geometry": { "type": "Polygon", "coordinates": [ [ [ 109.119479113179096, 698.696906741111206 ], [ 77.609581760621424, 699.651752110841699 ], [ 75.38160922366275, 670.369827304147861 ], [ 109.119479113814805, 669.096700138064421 ], [ 109.119479113179096, 698.696906741111206 ] ] ] } },
{ "type": "Feature", "properties": { "feature_type": "building", "subtype": "no-damage", "uid": "e5048569-59f3-484e-899a-21213fc82f03" }, "geometry": { "type": "Polygon", "coordinates": [ [ [ 44.189861088555347, 723.62836989947948 ], [ 16.3406183079824, 726.338879019815067 ], [ 16.340618305439239, 689.736473006870028 ], [ 45.002295456682702, 690.724778156013713 ], [ 44.189861088555347, 723.62836989947948 ] ] ] } },
{ "type": "Feature", "properties": { "feature_type": "building", "subtype": "destroyed", "uid": "cf1981b5-db4f-4a28-8457-d1e0a1fc3327" }, "geometry": { "type": "Polygon", "coordinates": [ [ [ 172.841967123805091, 698.300875383790299 ], [ 164.566640545533488, 676.339431777243931 ], [ 198.3045104345411, 672.838332073312017 ], [ 198.622792224917589, 697.346030009990614 ], [ 172.841967123805091, 698.300875383790299 ] ] ] } },
{ "type": "Feature", "properties": { "feature_type": "building", "subtype": "destroyed", "uid": "0c929d8b-cbf9-45e3-847f-ae8208e4a507" }, "geometry": { "type": "Polygon", "coordinates": [ [ [ 154.227357392372596, 756.061111640202284 ], [ 150.237243605322391, 718.155030639515871 ], [ 171.185341000655598, 715.661209520019042 ], [ 173.180397896278805, 756.061111643254094 ], [ 154.227357392372596, 756.061111640202284 ] ] ] } },
{ "type": "Feature", "properties": { "feature_type": "building", "subtype": "destroyed", "uid": "76d2552a-33cc-4d9c-9803-519abf30dc08" }, "geometry": { "type": "Polygon", "coordinates": [ [ [ 217.819795924419509, 709.177274611565167 ], [ 215.325974806193813, 692.468673115412116 ], [ 238.019746987820014, 692.468673112360307 ], [ 238.269129100837802, 708.927892498801612 ], [ 217.819795924419509, 709.177274611565167 ] ] ] } },
{ "type": "Feature", "properties": { "feature_type": "building", "subtype": "no-damage", "uid": "1999fe47-6d0a-4533-bd14-105869f8e469" }, "geometry": { "type": "Polygon", "coordinates": [ [ [ 171.81210445150839, 960.404712854529862 ], [ 165.078787429654398, 925.740599303492672 ], [ 179.542949916787194, 921.999867624247372 ], [ 186.276266938005392, 957.661509622269477 ], [ 171.81210445150839, 960.404712854529862 ] ] ] } },
{ "type": "Feature", "properties": { "feature_type": "building", "subtype": "destroyed", "uid": "595530b8-b617-43f8-b21a-95d790f4ea7f" }, "geometry": { "type": "Polygon", "coordinates": [ [ [ 237.323043527571713, 727.278925376155826 ], [ 236.076132970239087, 727.029543267461463 ], [ 233.831693962869593, 713.064145001534257 ], [ 245.303271109047188, 711.069088104512616 ], [ 247.048945892669792, 726.032014821493703 ], [ 237.323043527571713, 727.278925376155826 ] ] ] } },
{ "type": "Feature", "properties": { "feature_type": "building", "subtype": "destroyed", "uid": "350b6231-c1c6-478b-8580-632eb69fce5e" }, "geometry": { "type": "Polygon", "coordinates": [ [ [ 218.619385136301787, 727.278925376155826 ], [ 217.621856693385809, 714.5604376730289 ], [ 233.831693962869593, 713.064145001534257 ], [ 236.076132970239087, 727.029543267461463 ], [ 232.086019181535789, 728.775218048667739 ], [ 218.619385136301787, 727.278925376155826 ] ] ] } },
{ "type": "Feature", "properties": { "feature_type": "building", "subtype": "destroyed", "uid": "761a97ac-99d4-4f90-b576-1cde10195078" }, "geometry": { "type": "Polygon", "coordinates": [ [ [ 207.646572213998297, 692.365429717441543 ], [ 203.895315697880307, 678.546198297813135 ], [ 215.61916030617391, 676.396826785750477 ], [ 218.550121460790507, 691.247029954083473 ], [ 215.325974806193813, 692.468673115412116 ], [ 207.646572213998297, 692.365429717441543 ] ] ] } },
{ "type": "Feature", "properties": { "feature_type": "building", "subtype": "no-damage", "uid": "93f7647d-75be-4856-a7d2-5c890e963db4" }, "geometry": { "type": "Polygon", "coordinates": [ [ [ 982.041730734393127, 992.645430120669289 ], [ 997.282728723114815, 970.956317601229216 ], [ 1022.84499841703996, 991.520850299620861 ], [ 1022.845024391685001, 1006.84471909732099 ], [ 1018.385649013695001, 1014.139145235193041 ], [ 1007.247996638714994, 1020.001067537304948 ], [ 979.306166992830981, 999.288942065842775 ], [ 982.041730734393127, 992.645430120669289 ] ] ] } },
{ "type": "Feature", "properties": { "feature_type": "building", "subtype": "no-damage", "uid": "46cd3ad6-1e94-4978-a37f-160972b32590" }, "geometry": { "type": "Polygon", "coordinates": [ [ [ 510.451331219936492, 650.072749840841652 ], [ 511.648795427549885, 675.390564461378062 ], [ 501.21375021030309, 676.074829721200103 ], [ 501.213750212337686, 674.535232882022797 ], [ 496.423893391802608, 672.995636048949109 ], [ 495.226429189656983, 653.494076140969128 ], [ 498.305622857076287, 650.928081419179648 ], [ 510.451331219936492, 650.072749840841652 ] ] ] } }
]
}
