{
"type": "FeatureCollection",
"name": "socal-fire_00000667_post_disaster",
"features": [
{ "type": "Feature", "properties": { "feature_type": "building", "subtype": "no-damage", "uid": "539ade6b-1001-4138-a2ce-faf5351bf964" }, "geometry": { "type": "Polygon", "coordinates": [ [ [ 822.568363863271998, 26.21416973598949 ], [ 831.636396035204712, 25.801986454892269 ], [ 831.773790465585648, 38.71706257932302 ], [ 822.568363865433639, 39.816217995921363 ], [ 822.568363863271998, 26.21416973598949 ] ] ] } },
{ "type": "Feature", "properties": { "feature_type": "building", "subtype": "no-damage", "uid": "0ec3acde-d8ec-4e52-a1d4-b6aa8ba31283" }, "geometry": { "type": "Polygon", "coordinates": [ [ [ 996.726761593497031, 768.044689525578633 ], [ 1016.149815498110001, 769.187222107933508 ], [ 1015.864182351249951, 778.327482773893507 ], [ 997.29802788416589, 776.899317045441194 ], [ 996.726761593497031, 768.044689525578633 ] ] ] } },
{ "type": "Feature", "properties": { "feature_type": "building", "subtype": "no-damage", "uid": "2d7858ad-8a29-4511-a2fc-d031f5669472" }, "geometry": { "type": "Polygon", "coordinates": [ [ [ 858.558851546265601, 813.665302051568347 ], [ 864.142047105760184, 791.33251983292098 ], [ 893.919090065698356, 796.91571538453104 ], [ 889.266427099707244, 820.179030198334658 ], [ 858.558851546265601, 813.665302051568347 ] ] ] } },
{ "type": "Feature", "properties": { "feature_type": "building", "subtype": "no-damage", "uid": "fa70e46a-14cf-4127-acf8-731d1520ed06" }, "geometry": { "type": "Polygon", "coordinates": [ [ [ 863.015360568171786, 750.308506032583523 ], [ 871.584354938632146, 753.736103784734496 ], [ 865.87169202711118, 775.158589709483635 ], [ 856.731431363184583, 772.873524545791156 ], [ 863.015360568171786, 750.308506032583523 ] ] ] } },
{ "type": "Feature", "properties": { "feature_type": "building", "subtype": "no-damage", "uid": "66f7c798-2494-411c-80c3-56bc85cb48a8" }, "geometry": { "type": "Polygon", "coordinates": [ [ [ 839.449907988176847, 789.064796358153785 ], [ 846.814774887364706, 790.993690074153847 ], [ 842.080217595274917, 803.268468237473144 ], [ 835.416766589982217, 800.462804655280365 ], [ 839.449907988176847, 789.064796358153785 ] ] ] } },
{ "type": "Feature", "properties": { "feature_type": "building", "subtype": "no-damage", "uid": "120f27a5-6504-4272-bce3-7eab1d443d3f" }, "geometry": { "type": "Polygon", "coordinates": [ [ [ 894.914256719837226, 828.722307315763487 ], [ 901.928415671250946, 829.073015262647459 ], [ 902.454477594374453, 838.191421898924659 ], [ 894.388194798621043, 838.542129848860441 ], [ 894.914256719837226, 828.722307315763487 ] ] ] } },
{ "type": "Feature", "properties": { "feature_type": "building", "subtype": "no-damage", "uid": "a6a6c7cb-555b-4771-9893-ae4526dbe981" }, "geometry": { "type": "Polygon", "coordinates": [ [ [ 894.037486849575316, 844.328810980584308 ], [ 899.473460040010991, 843.276687137897852 ], [ 899.648814013198603, 850.641554037720539 ], [ 893.511424932173895, 851.342969933523023 ], [ 894.037486849575316, 844.328810980584308 ] ] ] } },
{ "type": "Feature", "properties": { "feature_type": "building", "subtype": "no-damage", "uid": "6d1c0b5e-4d84-4bf0-bff7-7826cc2a6263" }, "geometry": { "type": "Polygon", "coordinates": [ [ [ 865.805497069715443, 842.92597918999661 ], [ 881.236646764656712, 846.959120589335043 ], [ 879.132399079283459, 853.973279540239218 ], [ 863.525895414206275, 850.115492117394524 ], [ 865.805497069715443, 842.92597918999661 ] ] ] } },
{ "type": "Feature", "properties": { "feature_type": "building", "subtype": "no-damage", "uid": "85c78f4b-d4ce-452a-b6d1-17d56568743d" }, "geometry": { "type": "Polygon", "coordinates": [ [ [ 891.247960583202143, 859.900364432275751 ], [ 897.736057613526896, 858.848240591623835 ], [ 898.086765560665299, 869.895540941866443 ], [ 891.072606604673751, 871.649080675269147 ], [ 891.247960583202143, 859.900364432275751 ] ] ] } },
{ "type": "Feature", "properties": { "feature_type": "building", "subtype": "no-damage", "uid": "11b2368b-f4ee-4fbb-8d44-4f46f71268c1" }, "geometry": { "type": "Polygon", "coordinates": [ [ [ 891.343855505684814, 890.741664721083907 ], [ 897.386483680719607, 892.308272029678392 ], [ 896.491279509211722, 901.707915862934328 ], [ 888.88204402176757, 900.588910646578825 ], [ 891.343855505684814, 890.741664721083907 ] ] ] } },
{ "type": "Feature", "properties": { "feature_type": "building", "subtype": "no-damage", "uid": "515d8819-2778-4cc4-8e68-e7e48ffbaa19" }, "geometry": { "type": "Polygon", "coordinates": [ [ [ 880.82520644869669, 920.059601442293797 ], [ 886.420232544971213, 922.521412922141621 ], [ 887.315436716224781, 920.283402484344151 ], [ 894.477070114990397, 923.192816054396303 ], [ 892.462860720260323, 929.2354442294303 ], [ 886.196431497071558, 926.997433793667369 ], [ 881.04900749252738, 935.725674497720433 ], [ 873.88737409948385, 932.36865884255019 ], [ 880.82520644869669, 920.059601442293797 ] ] ] } },
{ "type": "Feature", "properties": { "feature_type": "building", "subtype": "no-damage", "uid": "d8432ac7-b4bb-42a0-b3b4-94b65bb7de4f" }, "geometry": { "type": "Polygon", "coordinates": [ [ [ 844.887871443112999, 941.137496797916015 ], [ 865.228932406383706, 939.383957060444345 ], [ 865.22893240727376, 947.099531905116464 ], [ 844.887871445910491, 948.327009723279502 ], [ 844.887871443112999, 941.137496797916015 ] ] ] } },
{ "type": "Feature", "properties": { "feature_type": "building", "subtype": "destroyed", "uid": "807b408e-9df2-4a74-a1f9-7968ec7a7a89" }, "geometry": { "type": "Polygon", "coordinates": [ [ [ -0.000000624093401, 725.312830285673613 ], [ 6.059152237389831, 726.42369303426608 ], [ 4.652020168989178, 763.803824458559689 ], [ -0.000000624093401, 763.803824458559689 ], [ -0.000000624093401, 725.312830285673613 ] ] ] } },
{ "type": "Feature", "properties": { "feature_type": "building", "subtype": "destroyed", "uid": "1024ba7d-1822-468a-9b61-846cb9d2b1d2" }, "geometry": { "type": "Polygon", "coordinates": [ [ [ 40.46018715366187, 715.238997982668025 ], [ 39.788784022169963, 764.699028631847568 ], [ 6.890030606278277, 765.14663071798293 ], [ 9.351842084091894, 713.000987543853284 ], [ 40.46018715366187, 715.238997982668025 ] ] ] } },
{ "type": "Feature", "properties": { "feature_type": "building", "subtype": "destroyed", "uid": "431e5a86-382f-4031-9eb9-aea3c71004d9" }, "geometry": { "type": "Polygon", "coordinates": [ [ [ 72.675631158366642, 723.242584782492941 ], [ 72.228029073502853, 763.526772638432362 ], [ 46.93851113615424, 764.645777861908869 ], [ 47.386113225977198, 749.651107932633295 ], [ 41.567286088288029, 749.651107934667834 ], [ 42.462490264119211, 727.494804611968334 ], [ 48.281317400028172, 727.942406699120966 ], [ 48.057516355561738, 720.556972257542952 ], [ 65.402246075950828, 720.532142222964694 ], [ 65.264851647731604, 723.692214043014587 ], [ 72.675631158366642, 723.242584782492941 ] ] ] } },
{ "type": "Feature", "properties": { "feature_type": "building", "subtype": "destroyed", "uid": "4ba82f9d-887c-4029-bbe9-286cd2ed50f9" }, "geometry": { "type": "Polygon", "coordinates": [ [ [ 75.081711112266518, 723.83738205503721 ], [ 97.238014433188738, 724.284984139137919 ], [ 96.790412345527457, 736.817842587548398 ], [ 104.175846788377996, 736.370240498361227 ], [ 102.609239482708006, 767.478585566146876 ], [ 73.291302762893011, 766.583381392858996 ], [ 75.081711112266518, 723.83738205503721 ] ] ] } },
{ "type": "Feature", "properties": { "feature_type": "building", "subtype": "destroyed", "uid": "ecb1f0b1-c16b-4a13-9c7f-cb5d5a75b4be" }, "geometry": { "type": "Polygon", "coordinates": [ [ [ 106.572006713710294, 727.786506094390461 ], [ 113.286038024305995, 727.338904006220673 ], [ 113.286038021508503, 720.84867373691327 ], [ 128.504508993472086, 720.624872694862916 ], [ 127.833105862488907, 740.319364537714591 ], [ 132.756728823456797, 740.095563491595158 ], [ 131.413922558311214, 754.642631330666177 ], [ 130.071116296726188, 757.104442811531271 ], [ 128.728310038319989, 766.727887690906755 ], [ 105.676802540803706, 767.623091865211904 ], [ 106.572006713710294, 727.786506094390461 ] ] ] } },
{ "type": "Feature", "properties": { "feature_type": "building", "subtype": "destroyed", "uid": "0e90446b-b957-49f5-8168-cc083ac911cd" }, "geometry": { "type": "Polygon", "coordinates": [ [ [ 162.756625199253392, 729.076704074552367 ], [ 163.204227286405995, 769.80849401866169 ], [ 133.214887434463293, 769.360891933543598 ], [ 134.781494736954386, 727.286295724924798 ], [ 136.795704132701701, 725.943489462449747 ], [ 141.943128134194097, 726.391091551636919 ], [ 142.390730224652913, 720.57226441661885 ], [ 156.713997016716291, 721.243667546838992 ], [ 156.71399701938671, 727.286295724924798 ], [ 159.847211627293404, 727.733897811060046 ], [ 162.756625199253392, 729.076704074552367 ] ] ] } },
{ "type": "Feature", "properties": { "feature_type": "building", "subtype": "destroyed", "uid": "634116c1-07ae-4173-9819-22e3f5926e2c" }, "geometry": { "type": "Polygon", "coordinates": [ [ [ 464.092845869040673, 732.112212778384901 ], [ 462.379046991820474, 747.536402649331308 ], [ 456.952017226142686, 746.393870066976433 ], [ 453.810052622504713, 772.67211946927705 ], [ 439.814028482933281, 772.957752617408914 ], [ 437.243330175304777, 770.101421159487131 ], [ 432.101933552545518, 770.101421159487131 ], [ 436.957697025774223, 741.823739735522395 ], [ 441.813460504597913, 743.53753860905465 ], [ 444.384158816931176, 730.112780760789747 ], [ 464.092845869040673, 732.112212778384901 ] ] ] } },
{ "type": "Feature", "properties": { "feature_type": "building", "subtype": "destroyed", "uid": "ec41c7ce-7a51-4d54-bf68-1d0cc669a249" }, "geometry": { "type": "Polygon", "coordinates": [ [ [ 432.387566695463875, 737.539242552200108 ], [ 429.53123523957629, 773.24338576350624 ], [ 405.538051000583721, 771.81522003098496 ], [ 404.10988527518299, 768.958888577132257 ], [ 399.825388089698492, 768.673255430017662 ], [ 403.82425212654249, 738.396141990492197 ], [ 408.1087493130442, 739.253041422680667 ], [ 411.53634706099939, 725.257017286290193 ], [ 432.67319984092552, 724.114484704952474 ], [ 432.387566695463875, 737.539242552200108 ] ] ] } },
{ "type": "Feature", "properties": { "feature_type": "building", "subtype": "destroyed", "uid": "117c1d34-e822-40cd-b829-f820950c0730" }, "geometry": { "type": "Polygon", "coordinates": [ [ [ 370.405174080959114, 740.109940860972756 ], [ 377.546002723984088, 740.109940860972756 ], [ 377.831635867411194, 732.397845928551419 ], [ 403.538618983242486, 734.968544239358494 ], [ 399.825388089698492, 768.673255430017662 ], [ 392.398926298032904, 772.100853179116825 ], [ 392.113293153842903, 774.385918342809305 ], [ 368.977008350217773, 773.814652051631924 ], [ 370.405174080959114, 740.109940860972756 ] ] ] } },
{ "type": "Feature", "properties": { "feature_type": "building", "subtype": "destroyed", "uid": "7b69923f-88db-4ff8-a643-74715d02a64b" }, "geometry": { "type": "Polygon", "coordinates": [ [ [ 370.821429311712393, 723.390694155360734 ], [ 370.405174080959114, 740.109940860972756 ], [ 368.977008350217773, 773.814652051631924 ], [ 342.258114737958977, 772.519595213914386 ], [ 344.543179906356613, 755.667239617567589 ], [ 340.258682722143817, 755.667239617567589 ], [ 339.973049575410585, 749.383310413598451 ], [ 343.971913611872992, 748.240777829209037 ], [ 345.685712489728928, 727.389558195637278 ], [ 360.824269212545403, 727.675191341734717 ], [ 361.395535504104373, 721.96252842996023 ], [ 370.821429311712393, 723.390694155360734 ] ] ] } },
{ "type": "Feature", "properties": { "feature_type": "building", "subtype": "destroyed", "uid": "f25602ae-34e9-471d-89a1-400bb345fff6" }, "geometry": { "type": "Polygon", "coordinates": [ [ [ 305.463098837336815, 727.087624393167175 ], [ 321.595664427572103, 726.386208497364692 ], [ 321.771018401649883, 728.139748235853631 ], [ 331.064779009717313, 727.262978365591835 ], [ 331.941548879470474, 741.466650241859497 ], [ 325.628805824622304, 741.466650241859497 ], [ 327.382345560695512, 757.423861857633369 ], [ 333.169026696107778, 758.125277754453123 ], [ 334.045796564843727, 768.120454258957579 ], [ 328.259115431847476, 768.120454260992119 ], [ 328.259115432356111, 772.504303603145559 ], [ 300.903895517926117, 772.679657575570218 ], [ 301.254603466590311, 732.874305528960122 ], [ 305.463098837336815, 727.087624393167175 ] ] ] } },
{ "type": "Feature", "properties": { "feature_type": "building", "subtype": "destroyed", "uid": "06253326-cf2d-4d1a-b7e4-6b21982ed537" }, "geometry": { "type": "Polygon", "coordinates": [ [ [ 299.494915899977514, 729.584242484643369 ], [ 299.494915902774892, 758.902179202801449 ], [ 292.333282504390809, 757.783173986445945 ], [ 292.557083544915315, 774.344451216177731 ], [ 269.057973962662288, 775.015854346397987 ], [ 269.281775008018883, 728.241436223185701 ], [ 299.494915899977514, 729.584242484643369 ] ] ] } },
{ "type": "Feature", "properties": { "feature_type": "building", "subtype": "destroyed", "uid": "03217f33-53d6-4f94-b9b3-327dd803ace3" }, "geometry": { "type": "Polygon", "coordinates": [ [ [ 235.073804525792895, 726.002187043912045 ], [ 262.604378412902122, 725.476125120534221 ], [ 262.604378412266328, 739.329089051952451 ], [ 265.760749939690413, 739.855150973295622 ], [ 264.182564177949189, 771.594220227332357 ], [ 241.561901557389291, 772.646344071036083 ], [ 241.561901556117704, 774.92594573188569 ], [ 233.495618761508695, 775.276653677752392 ], [ 235.073804525792895, 726.002187043912045 ] ] ] } },
{ "type": "Feature", "properties": { "feature_type": "building", "subtype": "destroyed", "uid": "0bdf00f2-3dc2-4a14-b07e-0dd5d736c75b" }, "geometry": { "type": "Polygon", "coordinates": [ [ [ 231.391371076389703, 724.248647306440262 ], [ 231.040663129251413, 772.295636125169381 ], [ 199.652301822730294, 770.366742416290208 ], [ 199.301593876609189, 744.414354289908374 ], [ 204.386859115201588, 741.433336736308092 ], [ 205.088275008206693, 724.248647306440262 ], [ 231.391371076389703, 724.248647306440262 ] ] ] } },
{ "type": "Feature", "properties": { "feature_type": "building", "subtype": "destroyed", "uid": "d2685fc6-f320-493a-8e65-f70783983e80" }, "geometry": { "type": "Polygon", "coordinates": [ [ [ 191.741133984583314, 731.999959811420013 ], [ 192.412537118872706, 741.623404688760957 ], [ 195.993353813550698, 742.294807817963942 ], [ 196.217154856109687, 758.40848296257775 ], [ 191.2935318953962, 758.40848296156048 ], [ 191.069730854108712, 769.59853514240956 ], [ 173.165647362916786, 768.927132014223844 ], [ 172.941846318068912, 766.465320534376019 ], [ 166.4516160534655, 765.793917403138494 ], [ 168.018223354685006, 742.966210951236008 ], [ 170.703835878999513, 742.742409907151114 ], [ 172.494244230280401, 730.880954590995429 ], [ 191.741133984583314, 731.999959811420013 ] ] ] } },
{ "type": "Feature", "properties": { "feature_type": "building", "subtype": "destroyed", "uid": "645b78ee-8301-461e-9e96-f4c8262935d0" }, "geometry": { "type": "Polygon", "coordinates": [ [ [ 413.276682291585928, 793.973955610973576 ], [ 436.074730810484709, 797.230819684865423 ], [ 430.491535252134611, 834.917389682901785 ], [ 408.624019332842693, 835.847922270937261 ], [ 413.276682291585928, 793.973955610973576 ] ] ] } },
{ "type": "Feature", "properties": { "feature_type": "building", "subtype": "destroyed", "uid": "8158d42b-d2d7-4407-bfe5-b0c4d211b66b" }, "geometry": { "type": "Polygon", "coordinates": [ [ [ 403.444685505446103, 795.716792210708036 ], [ 402.016519775722088, 822.280674761140517 ], [ 394.304424841519392, 821.423775319796619 ], [ 394.018791696185019, 836.276698897530991 ], [ 372.310672622792481, 835.991065755502746 ], [ 375.167004081096081, 795.716792210708036 ], [ 403.444685505446103, 795.716792210708036 ] ] ] } },
{ "type": "Feature", "properties": { "feature_type": "building", "subtype": "destroyed", "uid": "9fadd1a1-f766-41d2-bc9b-9b1cc758e443" }, "geometry": { "type": "Polygon", "coordinates": [ [ [ 370.596873752057377, 798.001857377452325 ], [ 369.739974312748018, 825.993905653285196 ], [ 362.884778820016493, 824.565739923815727 ], [ 362.027879381851506, 840.561196082887818 ], [ 343.176091764600926, 838.561764066309934 ], [ 341.176659745988218, 805.42831916377645 ], [ 344.032991199587002, 802.000721417728982 ], [ 347.460588950975477, 802.857620851951992 ], [ 350.316920406863119, 793.146093899900961 ], [ 370.596873752057377, 798.001857377452325 ] ] ] } },
{ "type": "Feature", "properties": { "feature_type": "building", "subtype": "destroyed", "uid": "a478a7d3-c021-4bdd-89a0-444c181744f6" }, "geometry": { "type": "Polygon", "coordinates": [ [ [ 340.605393451886073, 793.717360191078342 ], [ 338.034695143240299, 826.56517194649723 ], [ 332.322032227141676, 825.708272509222411 ], [ 329.465700771762783, 835.705432605336341 ], [ 306.615049116269574, 834.848533171113331 ], [ 309.471380573174372, 793.431727043963747 ], [ 340.605393451886073, 793.717360191078342 ] ] ] } },
{ "type": "Feature", "properties": { "feature_type": "building", "subtype": "destroyed", "uid": "0b968247-b997-43ad-a363-3cfe366432a3" }, "geometry": { "type": "Polygon", "coordinates": [ [ [ 305.516498859695616, 795.931925845641558 ], [ 301.141919046360385, 839.677723941857835 ], [ 273.436246917998574, 837.125885721418172 ], [ 275.623536822123128, 794.10918425757859 ], [ 305.516498859695616, 795.931925845641558 ] ] ] } },
{ "type": "Feature", "properties": { "feature_type": "building", "subtype": "destroyed", "uid": "130f5352-077b-484c-9647-d4bb18efc47b" }, "geometry": { "type": "Polygon", "coordinates": [ [ [ 273.541714816405374, 796.329976519977208 ], [ 272.399182233033116, 828.892155129298771 ], [ 263.544554715458219, 827.749622544909357 ], [ 262.687655280980778, 835.461717480382504 ], [ 241.550802497494203, 834.890451190222393 ], [ 241.265169352541193, 806.612769766257543 ], [ 246.120932828694606, 806.898402913372252 ], [ 246.977832265588006, 794.330544501364784 ], [ 273.541714816405374, 796.329976519977208 ] ] ] } },
{ "type": "Feature", "properties": { "feature_type": "building", "subtype": "destroyed", "uid": "d1243715-566d-4227-a622-9aa562b38be8" }, "geometry": { "type": "Polygon", "coordinates": [ [ [ 229.826995839623493, 793.003820197065579 ], [ 230.722200015963296, 799.941652548439265 ], [ 235.645822975150992, 799.046448374134116 ], [ 235.869624020253212, 823.66456317973325 ], [ 229.826995840132213, 823.216961091563348 ], [ 230.498398970606786, 834.854615360582329 ], [ 210.132503994989008, 835.302217445700308 ], [ 209.237299824752796, 831.945201793581873 ], [ 207.670692518955605, 808.893694296577223 ], [ 210.356305041108499, 793.227621239115933 ], [ 229.826995839623493, 793.003820197065579 ] ] ] } },
{ "type": "Feature", "properties": { "feature_type": "building", "subtype": "destroyed", "uid": "ec9e1d3a-d3ba-4b01-8412-65059cd872ba" }, "geometry": { "type": "Polygon", "coordinates": [ [ [ 195.442728148415796, 793.045267967137761 ], [ 195.666529193263699, 797.521288841715318 ], [ 203.499565721740993, 797.297487795595885 ], [ 202.828162593173687, 820.796597380770436 ], [ 199.023544848561613, 822.810806778551978 ], [ 199.694947977128805, 837.134073570486407 ], [ 172.615021697018904, 835.791267308011356 ], [ 173.957827957968192, 793.269069012239925 ], [ 195.442728148415796, 793.045267967137761 ] ] ] } },
{ "type": "Feature", "properties": { "feature_type": "building", "subtype": "destroyed", "uid": "e1acb03d-1c22-422a-a6b9-94725bba2ded" }, "geometry": { "type": "Polygon", "coordinates": [ [ [ 168.532209522168102, 793.663060311485992 ], [ 166.818410648762693, 835.651132726761148 ], [ 135.970030914240994, 834.508600142371733 ], [ 137.969462932090806, 807.659084450928276 ], [ 142.25396011528639, 807.659084451945546 ], [ 143.967758989200405, 791.37799514474159 ], [ 168.532209522168102, 793.663060311485992 ] ] ] } },
{ "type": "Feature", "properties": { "feature_type": "building", "subtype": "destroyed", "uid": "f3423c12-bf7b-46b7-92b2-cbc649043bc2" }, "geometry": { "type": "Polygon", "coordinates": [ [ [ 135.837093851118993, 793.64000986067515 ], [ 134.718088630440008, 831.686187281869024 ], [ 105.623952956235797, 832.581391457191444 ], [ 109.876172782532805, 803.03965369291393 ], [ 105.847753997014607, 802.368250562693675 ], [ 106.742958173354495, 791.625800467979957 ], [ 135.837093851118993, 793.64000986067515 ] ] ] } },
{ "type": "Feature", "properties": { "feature_type": "building", "subtype": "destroyed", "uid": "517aab4d-4c84-438d-991a-546cd6522cc6" }, "geometry": { "type": "Polygon", "coordinates": [ [ [ 104.354132520553307, 791.142188717523709 ], [ 103.011326257442306, 823.817141088817493 ], [ 75.483797891069926, 824.040942133919657 ], [ 78.393211459087979, 789.575581415032843 ], [ 104.354132520553307, 791.142188717523709 ] ] ] } },
{ "type": "Feature", "properties": { "feature_type": "building", "subtype": "destroyed", "uid": "85dba0ad-c9d7-494c-b6e7-a6331dc0ded4" }, "geometry": { "type": "Polygon", "coordinates": [ [ [ 74.309686427410242, 789.669347222787337 ], [ 71.167721821864816, 823.945324701572076 ], [ 62.598727452421812, 823.945324702589346 ], [ 60.884928577109036, 831.371786489930741 ], [ 40.890608381826802, 831.371786490948011 ], [ 45.460738713281494, 789.669347220752798 ], [ 74.309686427410242, 789.669347222787337 ] ] ] } },
{ "type": "Feature", "properties": { "feature_type": "building", "subtype": "destroyed", "uid": "6d2b4f04-a830-4d5a-9e20-d078d9fc03b8" }, "geometry": { "type": "Polygon", "coordinates": [ [ [ 39.950213227466278, 789.334826444934833 ], [ 38.522047495707717, 821.897005055273667 ], [ 32.523751437580827, 821.040105615964308 ], [ 31.095585707221019, 833.893597171017291 ], [ 9.958732926404789, 832.465431444599517 ], [ 10.529999218090939, 789.906092737129597 ], [ 39.950213227466278, 789.334826444934833 ] ] ] } },
{ "type": "Feature", "properties": { "feature_type": "building", "subtype": "destroyed", "uid": "21ecdba4-4904-47bd-95c4-c58720c020f9" }, "geometry": { "type": "Polygon", "coordinates": [ [ [ -0.000000623966242, 792.782520524417691 ], [ 9.346093002441139, 794.572928877097183 ], [ 8.003286738312893, 807.553389407573832 ], [ -0.000000625364985, 807.777190451658726 ], [ -0.000000623966242, 792.782520524417691 ] ] ] } },
{ "type": "Feature", "properties": { "feature_type": "building", "subtype": "destroyed", "uid": "50d67608-4b27-48f8-a6a7-ee425b26b2e6" }, "geometry": { "type": "Polygon", "coordinates": [ [ [ 11.19952266927028, 854.400062955945259 ], [ 28.879805117394511, 854.847665044115047 ], [ 28.432203033547989, 865.142513053710786 ], [ 35.146234342872113, 865.590115141880574 ], [ 33.803428081668507, 892.670041422241297 ], [ 26.194192595750259, 892.222439336105936 ], [ 25.52278946374971, 895.579454992293449 ], [ 9.185313279117931, 895.355653947191286 ], [ 9.185313277846348, 893.565245596546447 ], [ 2.471281964325993, 894.012847684716235 ], [ 4.261690315606877, 867.380523488456447 ], [ 10.75192058110037, 867.156722446405979 ], [ 11.19952266927028, 854.400062955945259 ] ] ] } },
{ "type": "Feature", "properties": { "feature_type": "building", "subtype": "destroyed", "uid": "500a75c2-daea-4ec0-bb3d-bddad997ba71" }, "geometry": { "type": "Polygon", "coordinates": [ [ [ 45.664883392739362, 854.623864001047423 ], [ 64.01656897337277, 854.623864000030153 ], [ 63.12136479805023, 865.36631409576114 ], [ 68.492589846425076, 865.590115138828878 ], [ 68.716390889492757, 893.789046639614071 ], [ 61.107155406117663, 894.236648729818512 ], [ 62.226160626288113, 898.488868561328445 ], [ 43.203071912128259, 897.369863337852053 ], [ 42.979270870586483, 893.341444552461553 ], [ 36.936642689448142, 892.893842466326191 ], [ 38.50324999460954, 865.36631409779568 ], [ 44.098276089739663, 865.590115138828878 ], [ 45.664883392739362, 854.623864001047423 ] ] ] } },
{ "type": "Feature", "properties": { "feature_type": "building", "subtype": "destroyed", "uid": "1ce19482-4473-4ad3-a14c-4a31edc394a7" }, "geometry": { "type": "Polygon", "coordinates": [ [ [ 72.964169369979942, 856.64988368538036 ], [ 95.930713373014257, 858.108076953185787 ], [ 96.659810006662752, 863.940850036614734 ], [ 103.221679723740905, 863.940850036614734 ], [ 101.398938132880303, 899.302036830996826 ], [ 76.974200864074916, 899.666585149219827 ], [ 76.974200861023107, 878.158234416791402 ], [ 70.776879464202437, 879.9809760038371 ], [ 72.964169369979942, 856.64988368538036 ] ] ] } },
{ "type": "Feature", "properties": { "feature_type": "building", "subtype": "destroyed", "uid": "31099d4a-440d-4131-8c36-597cc90f5592" }, "geometry": { "type": "Polygon", "coordinates": [ [ [ 133.542283435910292, 866.445768027101963 ], [ 131.751875088317007, 898.449317269192761 ], [ 125.261644822060603, 898.673118313277769 ], [ 124.814042732110394, 901.358730837210487 ], [ 111.162179070140198, 903.149139188872596 ], [ 108.476566548750199, 898.673118313277769 ], [ 103.552943585239206, 897.77791413693808 ], [ 106.238556113241401, 867.788574289577014 ], [ 109.147969680496502, 867.788574287542474 ], [ 109.8193728072835, 859.284134626557147 ], [ 127.499655259349694, 860.403139847999 ], [ 127.052053169145196, 865.32676280566011 ], [ 133.542283435910292, 866.445768027101963 ] ] ] } },
{ "type": "Feature", "properties": { "feature_type": "building", "subtype": "destroyed", "uid": "bd7a5125-6b9d-4c2f-93ea-c18d85d133f0" }, "geometry": { "type": "Polygon", "coordinates": [ [ [ 167.309283428133313, 858.517017485662677 ], [ 166.166750845905398, 900.505089902972486 ], [ 131.751875088317007, 898.449317269192761 ], [ 135.88963740243409, 871.941775330875771 ], [ 141.031034028626806, 872.513041622053265 ], [ 141.602300316752491, 857.374484901273263 ], [ 167.309283428133313, 858.517017485662677 ] ] ] } },
{ "type": "Feature", "properties": { "feature_type": "building", "subtype": "destroyed", "uid": "f0257135-84f4-4546-9710-a5ee132d7f72" }, "geometry": { "type": "Polygon", "coordinates": [ [ [ 202.170717928200787, 860.314058315427815 ], [ 200.456919053396689, 892.876236921697569 ], [ 170.179805612850089, 889.163006031587315 ], [ 170.751071902247389, 864.884188650951046 ], [ 193.601723559266503, 865.169821789927482 ], [ 193.316090409735807, 860.02842516831322 ], [ 202.170717928200787, 860.314058315427815 ] ] ] } },
{ "type": "Feature", "properties": { "feature_type": "building", "subtype": "destroyed", "uid": "3ce361bf-f462-42b9-ad42-4219ac81bbfd" }, "geometry": { "type": "Polygon", "coordinates": [ [ [ 237.861086969630406, 861.725703253946222 ], [ 235.576021804538811, 903.713775667186951 ], [ 203.013843191779813, 903.428142525158705 ], [ 207.298340376628403, 860.297537525494022 ], [ 237.861086969630406, 861.725703253946222 ] ] ] } },
{ "type": "Feature", "properties": { "feature_type": "building", "subtype": "destroyed", "uid": "526f412a-d269-4a45-a77e-b04b7fbf2984" }, "geometry": { "type": "Polygon", "coordinates": [ [ [ 261.568638058965178, 867.152733020640653 ], [ 261.568638061254092, 879.149325142487783 ], [ 266.995667831382377, 879.720591431630737 ], [ 268.138200409922717, 904.285041958364445 ], [ 239.574885841128406, 905.713207686816645 ], [ 235.576021804538811, 903.713775667186951 ], [ 238.717986405506593, 873.43666222460979 ], [ 244.430649319570591, 872.865395935466836 ], [ 243.859383027502986, 864.29640156475341 ], [ 255.570342002237112, 864.582034709833465 ], [ 256.427241440274884, 868.009632455880933 ], [ 261.568638058965178, 867.152733020640653 ] ] ] } },
{ "type": "Feature", "properties": { "feature_type": "building", "subtype": "destroyed", "uid": "fddb3970-c729-4508-a25b-464d9eace481" }, "geometry": { "type": "Polygon", "coordinates": [ [ [ 303.63278098033021, 868.70573633721358 ], [ 302.490248393015975, 910.693808754523388 ], [ 295.920686043457181, 908.694376733876425 ], [ 295.920686044728825, 911.836341333826454 ], [ 273.641300680921688, 912.407607627038487 ], [ 275.069466409882807, 871.562067791066283 ], [ 281.639028761094607, 865.84940487929191 ], [ 298.777017499599083, 866.991937461646785 ], [ 303.63278098033021, 868.70573633721358 ] ] ] } },
{ "type": "Feature", "properties": { "feature_type": "building", "subtype": "destroyed", "uid": "00786696-2ffb-4a84-8692-15f223869076" }, "geometry": { "type": "Polygon", "coordinates": [ [ [ 340.650632187675228, 869.300903819725249 ], [ 338.860223837665899, 911.151698983241999 ], [ 330.579585222798926, 909.137489590546693 ], [ 330.355784179349712, 913.837311509209258 ], [ 312.227899640258101, 911.375500025292354 ], [ 311.108894421867888, 907.12328019479969 ], [ 307.751878770639109, 907.12328019479969 ], [ 309.542287120012588, 880.714757044659336 ], [ 316.032517385378924, 878.70054765196403 ], [ 316.927721560955774, 869.300903817690823 ], [ 340.650632187675228, 869.300903819725249 ] ] ] } },
{ "type": "Feature", "properties": { "feature_type": "building", "subtype": "destroyed", "uid": "6ffed34c-caec-4eb6-8b20-99608abeb2c4" }, "geometry": { "type": "Polygon", "coordinates": [ [ [ 365.712956253368986, 870.514971173822573 ], [ 365.99858939794052, 874.228202064950096 ], [ 373.425051187317308, 875.085101501207646 ], [ 371.996885457847611, 910.503611567433609 ], [ 365.141689960156896, 909.646712132193329 ], [ 365.998589397431772, 913.931209316532886 ], [ 344.861736616488372, 914.502475609744806 ], [ 343.719204034896279, 882.797196436680792 ], [ 349.14623380184571, 883.082829580743692 ], [ 350.860032678430116, 869.943704881627923 ], [ 365.712956253368986, 870.514971173822573 ] ] ] } },
{ "type": "Feature", "properties": { "feature_type": "building", "subtype": "destroyed", "uid": "c4f95c4e-0880-4ef3-a67f-37c057f6b01d" }, "geometry": { "type": "Polygon", "coordinates": [ [ [ 378.852080954775317, 871.371870608045583 ], [ 384.279110721343216, 869.658071737565137 ], [ 385.136010162051377, 868.801172297238509 ], [ 410.271726982000416, 870.229338026707978 ], [ 403.987797776377306, 915.645008190065141 ], [ 375.710116353426088, 914.216842458561132 ], [ 378.852080954775317, 871.371870608045583 ] ] ] } },
{ "type": "Feature", "properties": { "feature_type": "building", "subtype": "destroyed", "uid": "456385e8-5f50-4e66-8824-da61ca3cfdcf" }, "geometry": { "type": "Polygon", "coordinates": [ [ [ 424.342449385633017, 869.07774887456435 ], [ 451.763231372707992, 873.933512354150366 ], [ 442.051704422562977, 919.634815662587584 ], [ 411.774590977311505, 912.779620164389257 ], [ 424.342449385633017, 869.07774887456435 ] ] ] } },
{ "type": "Feature", "properties": { "feature_type": "building", "subtype": "no-damage", "uid": "2c3a8d76-da10-4273-a11c-5787875d028d" }, "geometry": { "type": "Polygon", "coordinates": [ [ [ 549.846436763954443, 1022.985004675114965 ], [ 565.191946073830195, 1012.431857953842041 ], [ 570.155562565519404, 1022.984956225732958 ], [ 549.846436763954443, 1022.985004675114965 ] ] ] } },
{ "type": "Feature", "properties": { "feature_type": "building", "subtype": "no-damage", "uid": "54439dd1-d10c-45e3-9fac-2c43112cf8cb" }, "geometry": { "type": "Polygon", "coordinates": [ [ [ 506.922784348800178, 1001.006532126223988 ], [ 540.056229248413388, 977.870247324890897 ], [ 543.769460146789356, 983.01164394752243 ], [ 548.625223618873633, 980.440945636715242 ], [ 557.194217990986999, 995.579502357495244 ], [ 551.767188225182053, 997.293301233062039 ], [ 555.480419116691451, 1002.14906471061397 ], [ 555.766052263806159, 1005.576662456660983 ], [ 533.486666898600333, 1019.57268659610304 ], [ 528.345270277494024, 1015.573822555826951 ], [ 517.79853723757742, 1022.985040383226988 ], [ 517.765064463339286, 1022.985040395433998 ], [ 503.209553457163622, 1004.148496727190945 ], [ 506.922784348800178, 1001.006532126223988 ] ] ] } },
{ "type": "Feature", "properties": { "feature_type": "building", "subtype": "no-damage", "uid": "c88048fb-f0d7-4e03-8571-4c06b305bce4" }, "geometry": { "type": "Polygon", "coordinates": [ [ [ 485.21466527744218, 976.442081595421314 ], [ 527.202737692722962, 946.164968155895963 ], [ 532.058501172309548, 954.733962524574849 ], [ 524.917672529411675, 957.875927123507608 ], [ 540.056229248413388, 977.870247324890897 ], [ 503.78081974732379, 1001.292165270287001 ], [ 485.21466527744218, 976.442081595421314 ] ] ] } },
{ "type": "Feature", "properties": { "feature_type": "building", "subtype": "no-damage", "uid": "05e0785c-399f-4bb1-aa6b-f5e19f385566" }, "geometry": { "type": "Polygon", "coordinates": [ [ [ 486.64283100589472, 968.444353515885268 ], [ 475.788771469452684, 951.877631063601257 ], [ 512.064180974992837, 927.027547392804763 ], [ 524.346406237344013, 942.166104113584765 ], [ 486.64283100589472, 968.444353515885268 ] ] ] } },
{ "type": "Feature", "properties": { "feature_type": "building", "subtype": "no-damage", "uid": "5f408253-033c-4611-b899-5db926971789" }, "geometry": { "type": "Polygon", "coordinates": [ [ [ 482.246784663588187, 925.350945650735866 ], [ 489.085589642195714, 933.59258241878581 ], [ 479.967183004772892, 940.431387395230672 ], [ 472.777670078518383, 931.839042677244947 ], [ 482.246784663588187, 925.350945650735866 ] ] ] } },
{ "type": "Feature", "properties": { "feature_type": "building", "subtype": "no-damage", "uid": "c27d93fd-4f18-4b73-bf3d-51223b7ee0e5" }, "geometry": { "type": "Polygon", "coordinates": [ [ [ 416.33949848828081, 1022.984824480480029 ], [ 415.97063529916619, 1020.307283133210944 ], [ 419.551451998676214, 1019.412078958906022 ], [ 417.313441560624085, 1013.145649735718052 ], [ 438.574540709529913, 1009.341031994411992 ], [ 440.812551144275915, 1017.174068521107984 ], [ 451.331200197703481, 1014.712257042277997 ], [ 453.125280364996797, 1022.984960533858953 ], [ 416.33949848828081, 1022.984824480480029 ] ] ] } },
{ "type": "Feature", "properties": { "feature_type": "building", "subtype": "destroyed", "uid": "6b0219de-ca9f-40ec-969e-f4e34b3339f9" }, "geometry": { "type": "Polygon", "coordinates": [ [ [ 355.563622580583512, 933.907262286778746 ], [ 401.219035485665984, 934.13106332984637 ], [ 400.771433401819479, 943.754508207187314 ], [ 403.904648013922497, 944.42591133740757 ], [ 403.457045926897024, 968.148821965649745 ], [ 378.167527989929908, 968.148821969718824 ], [ 377.943726945081892, 961.434790656326527 ], [ 360.263444497466423, 961.210989613258789 ], [ 360.934847626542307, 950.692340561612696 ], [ 354.892219448837182, 951.363743689798412 ], [ 355.563622580583512, 933.907262286778746 ] ] ] } },
{ "type": "Feature", "properties": { "feature_type": "building", "subtype": "destroyed", "uid": "420b9256-3a6f-4473-96b0-c1455506e1bd" }, "geometry": { "type": "Polygon", "coordinates": [ [ [ 400.595856207919326, 970.046219023379081 ], [ 402.02402193395568, 991.754338094225545 ], [ 401.452755640362227, 999.466433026646996 ], [ 382.600968024891813, 997.181367862954517 ], [ 383.457867461658111, 993.753770114872509 ], [ 358.32215064361651, 994.039403258935408 ], [ 359.464683227243086, 972.331284190123483 ], [ 373.746340512275992, 973.18818362129457 ], [ 374.031973658373374, 968.046787002732117 ], [ 400.595856207919326, 970.046219023379081 ] ] ] } },
{ "type": "Feature", "properties": { "feature_type": "building", "subtype": "destroyed", "uid": "92dc2cec-7b42-44be-81d6-730159e50dbd" }, "geometry": { "type": "Polygon", "coordinates": [ [ [ 370.305782636796096, 999.636198125172427 ], [ 391.119279698294918, 1001.874208565003983 ], [ 390.895478654845817, 1007.469234655937953 ], [ 400.295122488866014, 1008.140637785141053 ], [ 398.828804223207612, 1022.984736629289046 ], [ 354.423876521348177, 1022.984447075382036 ], [ 355.758714798994617, 1004.559821085885005 ], [ 369.410578461473619, 1005.00742317405502 ], [ 370.305782636796096, 999.636198125172427 ] ] ] } },
{ "type": "Feature", "properties": { "feature_type": "building", "subtype": "destroyed", "uid": "ba754db7-456b-4ef2-b8b9-be519398681c" }, "geometry": { "type": "Polygon", "coordinates": [ [ [ 291.112420467034724, 996.23437196668317 ], [ 332.695107440802474, 995.13796792916753 ], [ 329.880911400754826, 1022.637431876435016 ], [ 325.308465966345977, 1022.718342089512021 ], [ 325.267229390345392, 1022.984204864072012 ], [ 298.148150884630525, 1022.983942522061966 ], [ 297.970544006618809, 1022.294184478378952 ], [ 287.810431104894121, 1022.090959214896998 ], [ 287.850703566073719, 1001.707530281268987 ], [ 290.707035022342779, 1001.707530280251035 ], [ 291.112420467034724, 996.23437196668317 ] ] ] } },
{ "type": "Feature", "properties": { "feature_type": "building", "subtype": "destroyed", "uid": "1e4c9b1c-c179-42e1-b225-8c40d9bee58f" }, "geometry": { "type": "Polygon", "coordinates": [ [ [ 290.13576873167392, 969.145351673981509 ], [ 298.990396249121716, 970.002251108204518 ], [ 299.847295684489211, 962.861422466960562 ], [ 310.130088928863472, 963.718321903218111 ], [ 310.130088931025227, 960.005091010056162 ], [ 338.693403497022018, 960.290724154118948 ], [ 336.40833833307488, 990.567837598730648 ], [ 324.98301250240371, 990.282204452633323 ], [ 324.983012502912288, 993.424169053600622 ], [ 315.557118694922792, 993.138535909537836 ], [ 314.985852407560003, 989.139671870278448 ], [ 294.134632771823874, 989.710938163490368 ], [ 288.99323614982751, 978.571245479935328 ], [ 290.13576873167392, 969.145351673981509 ] ] ] } },
{ "type": "Feature", "properties": { "feature_type": "building", "subtype": "destroyed", "uid": "8a960fdc-6128-4dce-bf5a-54739914f62d" }, "geometry": { "type": "Polygon", "coordinates": [ [ [ 237.374277722665994, 929.580257023619424 ], [ 269.365190036618117, 929.8658901646304 ], [ 267.365758017623875, 957.001039004205722 ], [ 260.796195665776281, 957.001039004205722 ], [ 261.653095104958595, 971.282696289745445 ], [ 243.086940632915287, 969.568897419264886 ], [ 245.086372654325487, 954.430340695433188 ], [ 235.946111992942008, 954.430340697467727 ], [ 237.374277722665994, 929.580257023619424 ] ] ] } },
{ "type": "Feature", "properties": { "feature_type": "building", "subtype": "destroyed", "uid": "40be9685-a391-4d3d-a859-c140ba36402a" }, "geometry": { "type": "Polygon", "coordinates": [ [ [ 241.141006722577913, 974.216734442014513 ], [ 259.940294388583823, 974.440535487116676 ], [ 259.492692302702721, 988.763802282102915 ], [ 267.549529875519283, 989.435205412323171 ], [ 266.878126744663177, 1006.89168681534295 ], [ 240.02200150113589, 1005.548880554901984 ], [ 240.469603591086013, 998.834849245579107 ], [ 239.126797326830598, 997.268241939019163 ], [ 231.06995975426841, 997.268241942070972 ], [ 232.636567061210002, 979.140357402727432 ], [ 240.91720567773001, 978.916556360677077 ], [ 241.141006722577913, 974.216734442014513 ] ] ] } },
{ "type": "Feature", "properties": { "feature_type": "building", "subtype": "destroyed", "uid": "0edcdf1d-8312-4f81-8a7a-df5cd122c1d3" }, "geometry": { "type": "Polygon", "coordinates": [ [ [ 203.622577435352298, 931.592051698745763 ], [ 224.489700314116988, 930.189219908158066 ], [ 228.172133764664608, 932.46882156697302 ], [ 227.996779794020114, 937.37873283352144 ], [ 233.608106955354486, 937.729440780405525 ], [ 232.029921191451706, 960.174749423705748 ], [ 221.333328787710087, 962.805059030421944 ], [ 220.631912895849496, 966.662846459370257 ], [ 207.480364858960513, 964.558598771962806 ], [ 207.831072808769193, 955.790900080535039 ], [ 201.869037695337198, 955.440192135685606 ], [ 203.622577435352298, 931.592051698745763 ] ] ] } },
{ "type": "Feature", "properties": { "feature_type": "building", "subtype": "destroyed", "uid": "8813c278-07f9-4947-af4d-709ae3634742" }, "geometry": { "type": "Polygon", "coordinates": [ [ [ 199.95233858954731, 930.800723304504913 ], [ 198.833333370521302, 955.418838108069508 ], [ 186.076673881584696, 954.076031845594571 ], [ 185.629071792143208, 968.623099686700129 ], [ 169.515396649816211, 968.175497598530342 ], [ 172.424810220377395, 930.576922262454559 ], [ 177.124632133318414, 932.591131653115212 ], [ 177.572234221106811, 925.65329930275891 ], [ 194.58111354155389, 926.324702431961896 ], [ 194.804914585893187, 929.905519133251573 ], [ 199.95233858954731, 930.800723304504913 ] ] ] } },
{ "type": "Feature", "properties": { "feature_type": "building", "subtype": "destroyed", "uid": "516a67f9-4859-43cf-8324-e21e5d00da61" }, "geometry": { "type": "Polygon", "coordinates": [ [ [ 168.495119801782096, 931.066840146623463 ], [ 166.210054638216491, 959.058888421439178 ], [ 158.783592849475411, 957.34508954688954 ], [ 157.926693414997999, 969.627314811782298 ], [ 136.789840631384294, 966.770983354877785 ], [ 140.788704672297314, 923.640378357247641 ], [ 161.639924306761799, 924.782910939602516 ], [ 160.783024868851101, 930.209940706296948 ], [ 168.495119801782096, 931.066840146623463 ] ] ] } },
{ "type": "Feature", "properties": { "feature_type": "building", "subtype": "destroyed", "uid": "e0aa7ce6-5f0a-4ba8-816c-224b47da097a" }, "geometry": { "type": "Polygon", "coordinates": [ [ [ 135.735172563991512, 925.701769188669573 ], [ 133.164474254074207, 961.977178692170469 ], [ 101.459195082404705, 962.548444983347849 ], [ 105.172425975058601, 923.702337169039879 ], [ 109.742556307276303, 924.273603460217373 ], [ 110.599455743661096, 922.559804584650465 ], [ 127.451811340137297, 923.416704022942554 ], [ 128.023077631314806, 925.130502898509462 ], [ 135.735172563991512, 925.701769188669573 ] ] ] } },
{ "type": "Feature", "properties": { "feature_type": "building", "subtype": "destroyed", "uid": "ce4d5282-6e54-4a6d-98f0-d5182494cb9b" }, "geometry": { "type": "Polygon", "coordinates": [ [ [ 78.535371438448877, 920.812102969842272 ], [ 97.101525906295947, 920.240836679682161 ], [ 98.815324779065548, 922.240268699311855 ], [ 105.172425975058601, 923.702337169039879 ], [ 101.957289383848007, 954.802447305581495 ], [ 75.964673126624135, 952.803015287986341 ], [ 78.535371438448877, 920.812102969842272 ] ] ] } },
{ "type": "Feature", "properties": { "feature_type": "building", "subtype": "destroyed", "uid": "8e2351c5-81f9-4c9e-9991-88e1506975d7" }, "geometry": { "type": "Polygon", "coordinates": [ [ [ 72.278066539873521, 921.90327771807074 ], [ 67.993569358076655, 955.607988910764334 ], [ 59.138941838340031, 956.750521493119209 ], [ 49.713048031622122, 960.749385534413136 ], [ 37.430822767872193, 959.035586658846341 ], [ 41.144053661289007, 925.902141758347398 ], [ 45.142917702329129, 927.044674343754082 ], [ 46.285450282140999, 917.047514244588342 ], [ 62.852172732519811, 917.333147390685667 ], [ 65.422871044853181, 920.475111992670236 ], [ 72.278066539873521, 921.90327771807074 ] ] ] } },
{ "type": "Feature", "properties": { "feature_type": "building", "subtype": "destroyed", "uid": "25403f59-c670-460f-9faa-370d43927d9e" }, "geometry": { "type": "Polygon", "coordinates": [ [ [ 34.574491310585849, 921.332011425875976 ], [ 36.288290187170197, 941.897597918436645 ], [ 38.0020890612114, 943.611396794003554 ], [ 37.716455913969583, 951.609124873539486 ], [ 8.867508197679138, 951.323491726424891 ], [ 9.438774491145509, 917.904413679828622 ], [ 34.574491310585849, 921.332011425875976 ] ] ] } },
{ "type": "Feature", "properties": { "feature_type": "building", "subtype": "destroyed", "uid": "6b1b47e3-4a6d-4022-a9af-6ec2eda2264e" }, "geometry": { "type": "Polygon", "coordinates": [ [ [ -0.000000625492143, 917.85623091757293 ], [ 6.296809884964294, 919.046946263200766 ], [ 5.154277301591988, 948.181527124440322 ], [ -0.000000626890886, 948.28531209103096 ], [ -0.000000625492143, 917.85623091757293 ] ] ] } },
{ "type": "Feature", "properties": { "feature_type": "building", "subtype": "destroyed", "uid": "e5ddd813-d7c7-467f-a090-f6bfcb71913d" }, "geometry": { "type": "Polygon", "coordinates": [ [ [ 223.527192940166799, 1022.983036287580944 ], [ 225.016086248274291, 1007.004828186129998 ], [ 263.862194065512028, 1009.004260205760033 ], [ 263.06337751254091, 1022.983550121428948 ], [ 223.527192940166799, 1022.983036287580944 ] ] ] } },
{ "type": "Feature", "properties": { "feature_type": "building", "subtype": "destroyed", "uid": "d2f283d3-1fe7-4129-915b-322d923dad71" }, "geometry": { "type": "Polygon", "coordinates": [ [ [ 141.245895729865595, 1022.981723504315028 ], [ 144.071403295718113, 991.322566948474218 ], [ 161.934270852785886, 993.874405171965691 ], [ 163.757012440594792, 985.854342191406317 ], [ 174.328913647444608, 986.583438826834936 ], [ 172.870720377350096, 1008.456337872400013 ], [ 180.526235042485013, 1009.185434510879986 ], [ 181.884267398637803, 1022.982412978493016 ], [ 141.245895729865595, 1022.981723504315028 ] ] ] } },
{ "type": "Feature", "properties": { "feature_type": "building", "subtype": "destroyed", "uid": "3d159b58-37b7-41ba-87b5-2e1efee660bc" }, "geometry": { "type": "Polygon", "coordinates": [ [ [ 108.199424021707998, 1022.98110369971198 ], [ 107.972935921614294, 1008.005591789871005 ], [ 111.940260491423899, 1007.888226090055014 ], [ 114.542989577258595, 993.145308541623422 ], [ 132.405857136742497, 995.332598440788388 ], [ 132.770405453693911, 1005.175403015514007 ], [ 137.509533578894207, 1008.456337877486021 ], [ 135.806212740442191, 1022.981625127460006 ], [ 108.199424021707998, 1022.98110369971198 ] ] ] } },
{ "type": "Feature", "properties": { "feature_type": "building", "subtype": "destroyed", "uid": "1cd73a19-13e0-4222-b7af-7c2068f1a07c" }, "geometry": { "type": "Polygon", "coordinates": [ [ [ 73.120763965809218, 1022.980387746070051 ], [ 72.642567915031961, 1022.306822887535986 ], [ 75.193197346918623, 992.779754766715087 ], [ 98.692306930570339, 993.451157894900803 ], [ 98.692306927772847, 1002.850801731209003 ], [ 104.958736151597407, 1002.403199643038988 ], [ 104.532252571189701, 1022.981031649730994 ], [ 73.120763965809218, 1022.980387746070051 ] ] ] } },
{ "type": "Feature", "properties": { "feature_type": "building", "subtype": "destroyed", "uid": "d303d959-8762-4092-99f1-657c35add34e" }, "geometry": { "type": "Polygon", "coordinates": [ [ [ -0.000000625110668, 998.824186870754147 ], [ 4.410534370132598, 998.598429873191094 ], [ 3.45335430017758, 1022.978788625496009 ], [ -0.000000667835889, 1022.978703227953019 ], [ -0.000000625110668, 998.824186870754147 ] ] ] } },
{ "type": "Feature", "properties": { "feature_type": "building", "subtype": "destroyed", "uid": "cf080f2d-bec5-4316-a4dc-a502b63a8006" }, "geometry": { "type": "Polygon", "coordinates": [ [ [ 10.50796130312775, 1022.978961283199055 ], [ 10.50796132449036, 1011.963311573938995 ], [ 7.080363575899342, 1013.677110442385015 ], [ 8.508529303843138, 996.539121702992475 ], [ 13.07865963580646, 997.681654288399159 ], [ 15.078091655817881, 983.971263290985121 ], [ 31.64481410238194, 985.399429021471974 ], [ 31.073547812730329, 992.825890810847795 ], [ 37.071843874417659, 992.540257660681391 ], [ 34.215512414715313, 1019.389773361280049 ], [ 27.93158320858365, 1018.818507067050973 ], [ 27.014105410885371, 1022.979355811954974 ], [ 10.50796130312775, 1022.978961283199055 ] ] ] } },
{ "type": "Feature", "properties": { "feature_type": "building", "subtype": "destroyed", "uid": "1c5528a5-389f-46ea-b0c3-01c565609c3f" }, "geometry": { "type": "Polygon", "coordinates": [ [ [ 41.745585446248249, 1022.979696749041977 ], [ 37.709860116994321, 1020.716820130112978 ], [ 41.070707909862811, 1000.537985741235047 ], [ 47.069003971677297, 1001.680518324606965 ], [ 48.782802845082699, 987.684494186181723 ], [ 66.777691026584264, 988.541393621422003 ], [ 64.49262585716933, 1001.680518327659001 ], [ 69.919655625008829, 1002.537417762899054 ], [ 67.920223606141818, 1021.960471669035996 ], [ 63.064460129734172, 1021.103572235830029 ], [ 62.324218298674523, 1022.98015536461196 ], [ 41.745585446248249, 1022.979696749041977 ] ] ] } },
{ "type": "Feature", "properties": { "feature_type": "building", "subtype": "destroyed", "uid": "ecb091ae-d9dd-406c-bb7a-dc1d68245f17" }, "geometry": { "type": "Polygon", "coordinates": [ [ [ 48.782802845082699, 987.684494186181723 ], [ 47.542671635452017, 997.660065891585532 ], [ 38.88682274537949, 996.835699326339295 ], [ 40.672950291629888, 987.355483873310504 ], [ 41.497316853824429, 982.134495655912701 ], [ 48.779221479761098, 982.546678931923566 ], [ 48.782802845082699, 987.684494186181723 ] ] ] } },
{ "type": "Feature", "properties": { "feature_type": "building", "subtype": "no-damage", "uid": "c1437d97-bf2d-4c8c-9e94-78edc3e0fcd2" }, "geometry": { "type": "Polygon", "coordinates": [ [ [ 665.137720072486559, 914.792415655428272 ], [ 687.988371726835339, 917.93438026046465 ], [ 687.417105438582439, 935.643635294086266 ], [ 663.995187488224133, 933.358570125307438 ], [ 665.137720072486559, 914.792415655428272 ] ] ] } },
{ "type": "Feature", "properties": { "feature_type": "building", "subtype": "no-damage", "uid": "a2cab2ed-fe7c-4580-bc4c-1bec622e228d" }, "geometry": { "type": "Polygon", "coordinates": [ [ [ 715.409153715181901, 895.94062804352086 ], [ 739.116704804135338, 897.36879376993852 ], [ 738.259805368131993, 921.933244299724038 ], [ 713.409721692754488, 922.504510590901532 ], [ 715.409153715181901, 895.94062804352086 ] ] ] } },
{ "type": "Feature", "properties": { "feature_type": "building", "subtype": "no-damage", "uid": "92bf9f4f-8d9d-492c-8376-7475b8d4f00d" }, "geometry": { "type": "Polygon", "coordinates": [ [ [ 635.038078728665596, 909.596855575851009 ], [ 652.494560130034529, 914.744279577597013 ], [ 649.361345519965994, 933.095965161025561 ], [ 628.9954505476544, 928.172342198278102 ], [ 635.038078728665596, 909.596855575851009 ] ] ] } },
{ "type": "Feature", "properties": { "feature_type": "building", "subtype": "un-classified", "uid": "6caef667-7bb4-4a63-b950-d4c31f8f7376" }, "geometry": { "type": "Polygon", "coordinates": [ [ [ 628.771649503060758, 910.268258706071265 ], [ 624.74323071728827, 924.367724453920687 ], [ 614.224581664242123, 919.444101498294117 ], [ 621.162414017396827, 905.344635746375616 ], [ 628.771649503060758, 910.268258706071265 ] ] ] } },
{ "type": "Feature", "properties": { "feature_type": "building", "subtype": "no-damage", "uid": "3d8fe6cf-87c6-4723-9163-51714792f7a0" }, "geometry": { "type": "Polygon", "coordinates": [ [ [ 714.202378039240898, 968.831055558833668 ], [ 692.494258965466997, 993.681139234716511 ], [ 684.78216402808539, 985.39777800908314 ], [ 690.494826942149416, 978.256949367839184 ], [ 678.212601681069827, 964.260925231448709 ], [ 685.924696614382356, 957.405729732232999 ], [ 695.350590423007588, 965.403457811769044 ], [ 702.205785915993374, 958.262629168490548 ], [ 714.202378039240898, 968.831055558833668 ] ] ] } },
{ "type": "Feature", "properties": { "feature_type": "building", "subtype": "no-damage", "uid": "a6d1f23e-e28a-4fcb-ad88-f2fbca761769" }, "geometry": { "type": "Polygon", "coordinates": [ [ [ 673.749996478456524, 1007.290461329175969 ], [ 692.316150951898521, 1005.291029309546047 ], [ 693.173050384341423, 1014.431289971436968 ], [ 672.893097040927273, 1017.287621429358978 ], [ 673.749996478456524, 1007.290461329175969 ] ] ] } },
{ "type": "Feature", "properties": { "feature_type": "building", "subtype": "un-classified", "uid": "947c1039-60d7-4474-9cae-9583b378f4c1" }, "geometry": { "type": "Polygon", "coordinates": [ [ [ 662.954483709043075, 740.370750843114251 ], [ 677.158155586457042, 739.318627000427796 ], [ 679.262403268397065, 750.541281323095177 ], [ 663.305191653129668, 753.171590931845913 ], [ 662.954483709043075, 740.370750843114251 ] ] ] } },
{ "type": "Feature", "properties": { "feature_type": "building", "subtype": "no-damage", "uid": "b2b6bba8-f820-4abd-87a2-0ba3638c4e3d" }, "geometry": { "type": "Polygon", "coordinates": [ [ [ 803.137100005137995, 791.991754540566376 ], [ 820.145979321261734, 796.467775412092237 ], [ 817.684167840396299, 805.867419248399983 ], [ 802.465696870975762, 800.496194200534546 ], [ 803.137100005137995, 791.991754540566376 ] ] ] } },
{ "type": "Feature", "properties": { "feature_type": "building", "subtype": "un-classified", "uid": "81db4d70-7e32-46ca-aa64-4eba2bbe01e5" }, "geometry": { "type": "Polygon", "coordinates": [ [ [ 763.499780716439091, 906.110000918236778 ], [ 778.067071147060801, 907.252533502626193 ], [ 778.352704293921079, 915.250261582162125 ], [ 764.927946447943327, 914.678995293019284 ], [ 763.499780716439091, 906.110000918236778 ] ] ] } },
{ "type": "Feature", "properties": { "feature_type": "building", "subtype": "no-damage", "uid": "89dc6896-9aa8-4e9b-b600-73499e177413" }, "geometry": { "type": "Polygon", "coordinates": [ [ [ 771.156070931812792, 943.328656764856305 ], [ 781.674719982188662, 945.566667197567426 ], [ 781.003316854002946, 957.204321471672642 ], [ 783.912730417443299, 958.547127734147693 ], [ 781.898521024111915, 978.017818530879936 ], [ 770.93226988582046, 974.660802877744231 ], [ 765.561044840624618, 971.527588264624342 ], [ 771.156070931812792, 943.328656764856305 ] ] ] } },
{ "type": "Feature", "properties": { "feature_type": "building", "subtype": "no-damage", "uid": "e1b4a714-3761-46d8-9bc7-646b83e5f8cb" }, "geometry": { "type": "Polygon", "coordinates": [ [ [ 717.139996576822227, 940.602360838272489 ], [ 735.37481659767343, 945.051069732568408 ], [ 732.059394777133889, 959.970467929699112 ], [ 709.887511342373386, 953.961265878811673 ], [ 712.995719300829933, 941.321220184303002 ], [ 717.139996576822227, 940.602360838272489 ] ] ] } },
{ "type": "Feature", "properties": { "feature_type": "building", "subtype": "no-damage", "uid": "645c3e10-5760-48ae-bc00-6a2cab9257af" }, "geometry": { "type": "Polygon", "coordinates": [ [ [ 859.174684422986502, 962.751332503961976 ], [ 869.87778620406084, 964.010520948300382 ], [ 867.674206425832494, 986.046318743551069 ], [ 839.027669296020917, 984.472333184059039 ], [ 839.972060628766258, 959.918158500131426 ], [ 859.174684422986502, 962.751332503961976 ] ] ] } },
{ "type": "Feature", "properties": { "feature_type": "building", "subtype": "no-damage", "uid": "41890147-0090-431a-9691-4fce55262934" }, "geometry": { "type": "Polygon", "coordinates": [ [ [ 909.115695641036041, 753.8156301238472 ], [ 918.255357678336395, 754.023349716355369 ], [ 917.839918495608913, 762.124413795691339 ], [ 909.531134825543859, 762.124413796708609 ], [ 909.115695641036041, 753.8156301238472 ] ] ] } }
]
}
