{
"type": "FeatureCollection",
"name": "socal-fire_00000800_post_disaster",
"features": [
{ "type": "Feature", "properties": { "feature_type": "building", "subtype": "destroyed", "uid": "aea464ae-c8cc-42ac-9cb1-72c2665aec24" }, "geometry": { "type": "Polygon", "coordinates": [ [ [ 22.140490122821959, 938.851490058860463 ], [ 14.272140726236699, 915.612411605574039 ], [ 14.08915585825792, 912.867638560206728 ], [ 47.941356754009107, 901.888546376702607 ], [ 47.209417274973113, 897.313924633745501 ], [ 49.222250843848023, 896.216015417226117 ], [ 95.334438011926409, 879.747377140952722 ], [ 97.347271574697729, 880.479316619988708 ], [ 106.313530194414696, 902.98645559423926 ], [ 105.947560453879404, 904.450334552311006 ], [ 56.541645630774802, 925.310609700765326 ], [ 53.796872584771258, 925.127624829989031 ], [ 51.418069276505499, 921.467927434809553 ], [ 47.941356751974581, 923.663745871917286 ], [ 50.137175191371448, 928.238367613857122 ], [ 48.124341620843467, 929.519261702169956 ], [ 23.970338819394701, 939.21745979939567 ], [ 22.140490122821959, 938.851490058860463 ] ] ] } },
{ "type": "Feature", "properties": { "feature_type": "building", "subtype": "destroyed", "uid": "71198b4f-5d42-4ad4-b4fa-9cfbc357bc5c" }, "geometry": { "type": "Polygon", "coordinates": [ [ [ 693.833625205279532, 910.966447304521125 ], [ 680.988913356515127, 912.367688595874142 ], [ 678.887051417959242, 910.966447306555665 ], [ 677.952890553072848, 899.289436535785512 ], [ 683.324315510084489, 897.888195241380572 ], [ 680.054752494680429, 877.803736714353818 ], [ 682.62369486173759, 874.300633480376177 ], [ 700.139211019421055, 873.132932403400901 ], [ 700.372751236342083, 862.156542281867701 ], [ 704.342934899584407, 859.120519475628384 ], [ 723.259692348112594, 856.551577111369056 ], [ 726.529255364406822, 857.485737970914784 ], [ 729.798818377776342, 892.516770286276937 ], [ 728.397577088839057, 894.852172440227605 ], [ 719.289508683089934, 896.720494164405295 ], [ 722.091991269738401, 924.511779799468968 ], [ 720.457209760574074, 925.445940661049235 ], [ 698.737969725270318, 929.182584108387346 ], [ 694.767786062282198, 927.314262385226925 ], [ 693.133004554770878, 912.834769028698815 ], [ 693.833625205279532, 910.966447304521125 ] ] ] } },
{ "type": "Feature", "properties": { "feature_type": "building", "subtype": "no-damage", "uid": "f42099e0-ff5a-42ce-89a7-9d71836f4e57" }, "geometry": { "type": "Polygon", "coordinates": [ [ [ 358.935995547103687, 506.658996021980386 ], [ 358.339869400924215, 475.064310487333614 ], [ 361.320500115291225, 473.275932058713693 ], [ 417.35635747545308, 472.381742845420888 ], [ 419.144735899241311, 473.573995131167578 ], [ 420.93311432824288, 505.168680662762483 ], [ 415.866042118905398, 506.957059088330709 ], [ 360.724373974197988, 509.639626730243322 ], [ 358.935995547103687, 506.658996021980386 ] ] ] } },
{ "type": "Feature", "properties": { "feature_type": "building", "subtype": "no-damage", "uid": "03a595f1-1e7e-4d22-992d-b86d9d18cb33" }, "geometry": { "type": "Polygon", "coordinates": [ [ [ 538.336280596401593, 382.596392441855016 ], [ 521.521385084648955, 375.590185978986028 ], [ 520.587224218999609, 370.452301239277517 ], [ 533.198395852114572, 339.391452584613887 ], [ 535.066717579217197, 339.39145259071762 ], [ 553.749934810951572, 349.200141636292699 ], [ 554.450555457136829, 351.76908400360378 ], [ 539.9710621039128, 380.961610936124089 ], [ 538.336280596401593, 382.596392441855016 ] ] ] } },
{ "type": "Feature", "properties": { "feature_type": "building", "subtype": "no-damage", "uid": "4e7c30b3-b23d-423c-a620-3c07dc80a393" }, "geometry": { "type": "Polygon", "coordinates": [ [ [ 582.813273914593083, 402.787954469478677 ], [ 564.88075668024544, 395.651544549895789 ], [ 563.416877722427785, 391.808862286991882 ], [ 576.225818605303516, 362.714268006504483 ], [ 580.434470605691445, 362.71426800447 ], [ 596.537139140668842, 370.216647662553498 ], [ 597.635048357442656, 372.229481228884993 ], [ 584.094167999345586, 400.958105773923421 ], [ 582.813273914593083, 402.787954469478677 ] ] ] } },
{ "type": "Feature", "properties": { "feature_type": "building", "subtype": "no-damage", "uid": "a9ae5c25-ad8c-4d23-95f4-8fcb44b459fd" }, "geometry": { "type": "Polygon", "coordinates": [ [ [ 563.286994011600882, 350.319257470278899 ], [ 534.86577432686056, 335.378458187770775 ], [ 534.079416469069884, 333.356395126406483 ], [ 537.786532078773917, 322.796732474311 ], [ 539.920931978745898, 321.898037779693198 ], [ 544.63907912154832, 311.900059313514078 ], [ 546.998152689706899, 311.113701455469084 ], [ 550.48059462702804, 311.563048802777985 ], [ 559.780806665711907, 289.391509976679799 ], [ 564.225383099868509, 288.531269374256283 ], [ 580.283207651357316, 296.560181649300318 ], [ 580.426581086111923, 298.424036286867192 ], [ 579.566340485595674, 301.434878388228412 ], [ 594.047057267373361, 311.040898431330277 ], [ 594.62055100155942, 314.051740535743306 ], [ 594.047057267119044, 314.911981135115013 ], [ 598.3482602703358, 316.919209204384572 ], [ 601.359102376020928, 315.772221736521203 ], [ 616.269939456975749, 325.521615214377505 ], [ 616.986806627696637, 326.955349551749975 ], [ 601.088173817523966, 367.081243741990477 ], [ 594.123289941609983, 367.979938433556583 ], [ 577.272764434053897, 356.858591600631087 ], [ 576.598743412581825, 355.510549558704327 ], [ 577.160427594174848, 351.803433949763587 ], [ 574.913690860427437, 351.241749763847281 ], [ 573.453311985488085, 353.4884865003919 ], [ 564.578701881730694, 353.600823338999305 ], [ 563.286994011600882, 350.319257470278899 ] ] ] } },
{ "type": "Feature", "properties": { "feature_type": "building", "subtype": "no-damage", "uid": "68ff7983-33b2-4fa6-8235-2b3d12574526" }, "geometry": { "type": "Polygon", "coordinates": [ [ [ 617.443088859803993, 311.516460743104972 ], [ 609.691847128261088, 307.359997784820791 ], [ 608.680815598341724, 305.113261048276286 ], [ 614.072983759055774, 290.509472276504084 ], [ 617.555425696758448, 290.284798601323814 ], [ 630.586498756765877, 296.575661459579521 ], [ 631.260519775949092, 297.586692987718493 ], [ 627.216393654364538, 304.663913701984711 ], [ 628.901446207917616, 306.236629415022719 ], [ 626.205362125843976, 314.212544820854873 ], [ 624.969656922778881, 315.111239516489889 ], [ 619.802162432286082, 314.100207986316491 ], [ 617.443088859803993, 311.516460743104972 ] ] ] } },
{ "type": "Feature", "properties": { "feature_type": "building", "subtype": "no-damage", "uid": "275631fd-a5a1-41b2-92b2-149df42e2e3d" }, "geometry": { "type": "Polygon", "coordinates": [ [ [ 565.324074172920291, 238.915531431624288 ], [ 556.674137748285261, 241.723952352050702 ], [ 554.989085195240818, 241.274605004741801 ], [ 550.383274888629899, 231.16428969690341 ], [ 551.281969584773719, 229.928584493584111 ], [ 559.370221826417037, 226.221468882608889 ], [ 560.830600701865023, 226.44614255575479 ], [ 566.222768865503667, 236.444121023968393 ], [ 565.324074172920291, 238.915531431624288 ] ] ] } },
{ "type": "Feature", "properties": { "feature_type": "building", "subtype": "no-damage", "uid": "fb732356-ff80-48b1-ad77-6b3f6ffb73ed" }, "geometry": { "type": "Polygon", "coordinates": [ [ [ 561.971977829966477, 224.699813635144693 ], [ 551.834112112479943, 224.699813635144693 ], [ 550.109985290954569, 222.837756665303601 ], [ 550.523775728527539, 211.182659340756288 ], [ 552.868588203614877, 210.768868902674797 ], [ 561.282327102882277, 211.80334499737009 ], [ 562.316803195543116, 212.699890944003613 ], [ 562.454733340298731, 222.492931300744203 ], [ 561.971977829966477, 224.699813635144693 ] ] ] } },
{ "type": "Feature", "properties": { "feature_type": "building", "subtype": "no-damage", "uid": "537e2d3f-d786-4725-8f23-f22e4ed3d877" }, "geometry": { "type": "Polygon", "coordinates": [ [ [ 561.8518114019123, 210.133744503938487 ], [ 551.801126712462633, 208.350558511051304 ], [ 551.09865950309711, 207.485983482809701 ], [ 552.449557979066185, 196.246508127876211 ], [ 553.854492399323249, 195.165789344862986 ], [ 563.202709885129366, 197.111083155100488 ], [ 564.283428665980978, 198.029694121780693 ], [ 563.040602065108828, 209.755492929782207 ], [ 561.8518114019123, 210.133744503938487 ] ] ] } },
{ "type": "Feature", "properties": { "feature_type": "building", "subtype": "no-damage", "uid": "2320dac2-1aa2-44f9-a4b2-10ed6bd8c917" }, "geometry": { "type": "Polygon", "coordinates": [ [ [ 610.66217971880792, 110.657973026839201 ], [ 565.121837712315028, 86.136250405271753 ], [ 563.48705620149758, 82.633147175363163 ], [ 586.140457100543358, 33.122621504490063 ], [ 591.278341840761186, 33.5897019373147 ], [ 635.417442557426739, 56.710183262442683 ], [ 636.351603417735532, 59.97974628000803 ], [ 613.698202519707024, 109.490271949863896 ], [ 610.66217971880792, 110.657973026839201 ] ] ] } },
{ "type": "Feature", "properties": { "feature_type": "building", "subtype": "no-damage", "uid": "8e1fa788-27f9-4a3a-bbec-6233ad0bac54" }, "geometry": { "type": "Polygon", "coordinates": [ [ [ 719.267245148952611, 52.525993134424887 ], [ 708.654122706999601, 52.343008266700451 ], [ 707.190243746384454, 51.611068789699083 ], [ 705.726364789965487, 32.946612076317997 ], [ 708.471137837113474, 32.031687726505837 ], [ 735.918868292444017, 31.848702857764131 ], [ 736.467822903755518, 33.12959694404244 ], [ 743.055278212027815, 33.12959694302517 ], [ 743.787217693098341, 33.12959694302517 ], [ 743.787217690555167, 34.776460773907758 ], [ 754.034370398076476, 34.59347590211425 ], [ 755.681234223872934, 32.397657463989262 ], [ 761.902719792118546, 32.214672597282089 ], [ 763.915553358704642, 30.018854160174371 ], [ 790.997314076933208, 30.20183902891608 ], [ 793.010147645172424, 31.665717988005159 ], [ 792.278208167662228, 49.964204958816488 ], [ 790.631344337415271, 51.611068789699083 ], [ 771.600917886548132, 51.428083916888298 ], [ 771.600917890362894, 86.744163770198128 ], [ 770.868978409546685, 88.574012468805151 ], [ 764.464507970779096, 87.842072990786519 ], [ 764.281523100257232, 87.293118381509586 ], [ 763.732568492251744, 79.058799241338377 ], [ 759.340931616001171, 78.87581437463119 ], [ 758.06003753201162, 78.143874895595289 ], [ 754.034370398076476, 52.708978005201139 ], [ 746.897960476458138, 52.525993133407617 ], [ 746.897960479001313, 87.110133511750604 ], [ 742.140353866284613, 89.122967080116624 ], [ 721.829033325578621, 88.574012469822421 ], [ 719.81619975746662, 87.293118379475047 ], [ 719.084260279956538, 53.623902353996023 ], [ 719.267245148952611, 52.525993134424887 ] ] ] } },
{ "type": "Feature", "properties": { "feature_type": "building", "subtype": "no-damage", "uid": "538001f0-59f7-41b4-bde0-317a7d4cd39f" }, "geometry": { "type": "Polygon", "coordinates": [ [ [ 693.807581880486396, 103.9707824701497 ], [ 688.216017976685976, 96.945484227197383 ], [ 688.64613827611754, 95.655123324579449 ], [ 693.377461580546196, 90.923800023457588 ], [ 694.237702181443865, 90.923800023457588 ], [ 700.259386386964707, 97.375604526374573 ], [ 700.1160129534818, 99.526206031415981 ], [ 696.388303683942468, 103.397288738252499 ], [ 693.807581880486396, 103.9707824701497 ] ] ] } },
{ "type": "Feature", "properties": { "feature_type": "building", "subtype": "destroyed", "uid": "8cd040b3-ea9b-4b26-b498-4276755320f1" }, "geometry": { "type": "Polygon", "coordinates": [ [ [ 1022.830561898152951, 235.1402397008778 ], [ 997.718822282410201, 230.201438852743308 ], [ 995.383420127187719, 229.2672779901458 ], [ 993.748638620566567, 226.231255192044614 ], [ 987.676593022201587, 224.129393250437289 ], [ 989.54491474345491, 218.290887866578089 ], [ 986.041811510112552, 216.889646572173206 ], [ 984.640570220920949, 225.063554112017499 ], [ 981.604547421293432, 225.530634543824902 ], [ 970.628157292510764, 222.494611742671907 ], [ 969.460456215916793, 221.793991097503891 ], [ 969.226915998741561, 215.955485709575697 ], [ 959.184686734972502, 213.153003125852308 ], [ 957.549905230640093, 207.548037953319096 ], [ 950.777238981130722, 206.380336878378387 ], [ 950.543698768660306, 206.146796660948809 ], [ 952.879100919559392, 179.990292533650489 ], [ 956.382204153410385, 178.822591458709695 ], [ 958.717606306852645, 179.056131673087492 ], [ 966.891513844790666, 173.217626285159298 ], [ 973.430639878396278, 174.385327365186413 ], [ 978.10144418706102, 171.582844779428399 ], [ 988.844294094726479, 174.151787147756806 ], [ 989.544914742691958, 177.654890379699907 ], [ 1022.830614972922035, 187.012887219249194 ], [ 1022.830561898152951, 235.1402397008778 ] ] ] } },
{ "type": "Feature", "properties": { "feature_type": "building", "subtype": "no-damage", "uid": "2e477277-3e4c-442b-9968-9dd2acd18748" }, "geometry": { "type": "Polygon", "coordinates": [ [ [ 195.142583152129902, 329.355128249224208 ], [ 180.896630011503504, 336.594874926470993 ], [ 178.561227853992193, 335.19363363206611 ], [ 171.087940961349403, 318.378738125656525 ], [ 170.854400744301188, 317.211037043594899 ], [ 183.465572377289106, 305.767566489237026 ], [ 186.735135395872106, 305.767566490254296 ], [ 193.507801643982788, 300.162601321790191 ], [ 193.040721212556804, 294.324095931827401 ], [ 192.807180994618591, 275.874418915617923 ], [ 194.675502722102692, 274.239637405817916 ], [ 212.424559090603509, 273.772556976045109 ], [ 217.328903615934905, 277.976280855190623 ], [ 215.69412210994949, 305.30048605946422 ], [ 208.220835217688091, 320.247059844747923 ], [ 202.615870046298596, 318.845818555429275 ], [ 195.142583148696588, 325.852025015246625 ], [ 195.142583152129902, 329.355128249224208 ] ] ] } },
{ "type": "Feature", "properties": { "feature_type": "building", "subtype": "no-damage", "uid": "1d0e7be5-a3bd-4568-8ed1-b09f1925f8f2" }, "geometry": { "type": "Polygon", "coordinates": [ [ [ 104.870466421868997, 367.60383726247818 ], [ 89.316752497440262, 361.199366821931278 ], [ 88.401828149662521, 358.820563515064578 ], [ 77.05676622765624, 353.331017425347113 ], [ 77.056766223332858, 350.769229251773197 ], [ 62.783946387217092, 342.168940372084023 ], [ 64.247825347323641, 332.653727145634491 ], [ 71.201250395113888, 328.445075144229918 ], [ 72.848114219893091, 329.542984363800997 ], [ 78.33766031291745, 319.47881652705729 ], [ 84.010191273539121, 318.563892178262392 ], [ 89.865707105572838, 321.857619834941318 ], [ 89.682722237466891, 326.249256707122072 ], [ 105.602405900142102, 332.836712015393516 ], [ 124.815817222548404, 326.066271835328621 ], [ 123.717908003485704, 322.589559311942594 ], [ 123.717908000433894, 321.49165009644048 ], [ 135.245954792707806, 318.746877051073227 ], [ 136.709833754848887, 319.11284678957378 ], [ 138.173712709360501, 322.589559311942594 ], [ 141.833410102760297, 322.040604705717499 ], [ 141.833410106066395, 320.21075600609322 ], [ 155.557275332778005, 315.453149393376975 ], [ 157.57010889847399, 316.734043481689923 ], [ 166.170397778037113, 338.143273236369282 ], [ 167.268306992394912, 343.266849590637889 ], [ 139.637591667432503, 356.258775339456179 ], [ 136.52684888508989, 353.69698716384778 ], [ 133.233121229300707, 354.977881251143287 ], [ 133.599090965894106, 357.722654297527981 ], [ 122.985968524704006, 366.50592804595891 ], [ 118.228361908935497, 366.871897783442307 ], [ 114.934634257596798, 361.748321431208183 ], [ 106.700315119204703, 367.237867522960187 ], [ 104.870466421868997, 367.60383726247818 ] ] ] } },
{ "type": "Feature", "properties": { "feature_type": "building", "subtype": "destroyed", "uid": "8593a2f4-84ff-4d0a-afd6-370d0ae75b9e" }, "geometry": { "type": "Polygon", "coordinates": [ [ [ 990.3829722946125, 950.579926960022249 ], [ 972.758850337974764, 939.202329238294055 ], [ 973.205030640668042, 935.409796666419197 ], [ 977.220653364653003, 931.617264093527069 ], [ 992.836963961968536, 940.317779997061621 ], [ 995.290955624238336, 936.079067118424518 ], [ 999.306578350766358, 937.863788330214561 ], [ 1004.660741983720982, 925.816920159532856 ], [ 1008.676364707960033, 926.709280763902029 ], [ 1014.253618490227041, 931.394173938111408 ], [ 1003.991471529427031, 947.679754990482024 ], [ 1000.868209407395057, 948.125935293175189 ], [ 995.290955625764241, 946.564304230697189 ], [ 993.283144262245855, 950.133746655294544 ], [ 990.3829722946125, 950.579926960022249 ] ] ] } }
]
}
