{
"type": "FeatureCollection",
"name": "socal-fire_00000463_post_disaster",
"features": [
{ "type": "Feature", "properties": { "feature_type": "building", "subtype": "no-damage", "uid": "a7d16b9d-96b9-4df2-9096-180cabc16277" }, "geometry": { "type": "Polygon", "coordinates": [ [ [ 634.018712414429729, 494.926988501958476 ], [ 634.201697283859858, 493.829079277243579 ], [ 655.244957299593125, 537.1964934002973 ], [ 610.596649089749576, 557.324829071160138 ], [ 600.898450992157905, 533.53679600864541 ], [ 592.481146987949046, 532.438886789014532 ], [ 595.225920034231081, 510.480702424867786 ], [ 634.018712414429729, 494.926988501958476 ] ] ] } },
{ "type": "Feature", "properties": { "feature_type": "building", "subtype": "no-damage", "uid": "eb12b9dd-10e1-434d-85fd-102e201371ff" }, "geometry": { "type": "Polygon", "coordinates": [ [ [ 4.736948024152178, 862.940815368288668 ], [ 19.478041014429611, 864.768275244818938 ], [ 22.103270464775338, 894.728541553864147 ], [ 55.603690573361703, 898.127134897819815 ], [ 58.516770580996941, 864.626714790644087 ], [ 74.538710633349524, 866.568768129321029 ], [ 68.712550612740785, 947.163981721529126 ], [ 70.272545576619592, 950.055809518160004 ], [ -0.000000807601895, 945.390810413314625 ], [ -0.000000806457983, 899.621007882594768 ], [ 1.476539913119604, 885.985033143069018 ], [ 4.736948024152178, 862.940815368288668 ] ] ] } },
{ "type": "Feature", "properties": { "feature_type": "building", "subtype": "no-damage", "uid": "454b4979-ea42-4d33-b04b-20f7fb215b02" }, "geometry": { "type": "Polygon", "coordinates": [ [ [ 150.535903183399711, 934.491882741507197 ], [ 156.622501616410688, 937.154769558998851 ], [ 161.187450442948403, 951.230028431264373 ], [ 156.622501617173413, 983.184670207610679 ], [ 100.321466114871996, 1007.150651534532017 ], [ 84.724557630027121, 977.858896577711221 ], [ 93.4740428736674, 952.371265639487092 ], [ 118.200849011587593, 953.512502845676295 ], [ 150.535903183399711, 934.491882741507197 ] ] ] } },
{ "type": "Feature", "properties": { "feature_type": "building", "subtype": "no-damage", "uid": "517d0933-f1fc-468e-a9f8-8684409ca0c4" }, "geometry": { "type": "Polygon", "coordinates": [ [ [ 126.1895094511015, 843.953731054569403 ], [ 136.84105671141279, 850.801154292721094 ], [ 148.2534287733084, 845.094968261775421 ], [ 158.144151226188711, 846.997030271073754 ], [ 167.654461274336711, 859.550639541187934 ], [ 168.034873677035392, 872.865073608310468 ], [ 155.481264408187513, 878.95167204436973 ], [ 140.645180730010992, 868.680537190701102 ], [ 130.374045876084409, 861.452701550486381 ], [ 120.863735823742104, 855.746515517507078 ], [ 117.059611804889698, 850.801154292721094 ], [ 120.483323419263996, 843.953731054569403 ], [ 125.809097052343006, 842.812493848380313 ], [ 126.1895094511015, 843.953731054569403 ] ] ] } },
{ "type": "Feature", "properties": { "feature_type": "building", "subtype": "major-damage", "uid": "02e00aaa-6f9d-45ec-98ab-077ae31522ed" }, "geometry": { "type": "Polygon", "coordinates": [ [ [ 1022.814150124009984, 561.257261153228342 ], [ 1015.948833376360994, 562.850399210435967 ], [ 1008.008466047145021, 562.383318778931994 ], [ 1001.469340015238004, 558.413135119790923 ], [ 992.127731398627589, 550.939848221827901 ], [ 977.881778256053053, 549.772147146626821 ], [ 975.54637610272664, 548.604446069391997 ], [ 962.23458382684646, 551.640468871625899 ], [ 960.132721888001015, 546.736124345409621 ], [ 974.612215244039703, 538.795757018993072 ], [ 975.312835888372661, 529.220608187904986 ], [ 983.953823858998021, 528.28644732489704 ], [ 983.019662999040065, 538.328676591556359 ], [ 991.193570540321957, 537.394515729565228 ], [ 991.19357053714441, 536.460354865540353 ], [ 993.06189225985645, 527.352286465956354 ], [ 1004.738903032589974, 525.717504956200742 ], [ 1009.876787773670003, 532.256630988105371 ], [ 1013.846971437134016, 522.447941939740076 ], [ 1022.814146314782988, 522.302153872416966 ], [ 1022.814150124009984, 561.257261153228342 ] ] ] } },
{ "type": "Feature", "properties": { "feature_type": "building", "subtype": "destroyed", "uid": "7a8b5237-bfd0-42a7-b211-6ba7c649859f" }, "geometry": { "type": "Polygon", "coordinates": [ [ [ 800.567004820656393, 800.030885394666939 ], [ 804.751541241445011, 801.172122601872957 ], [ 814.642263696231794, 806.117483828692571 ], [ 814.261851296202167, 821.333979910197513 ], [ 818.826800116893196, 825.518516334924698 ], [ 824.913398552954618, 830.083465157647652 ], [ 823.011336542130266, 840.354600013349796 ], [ 813.501026489787932, 854.049446488636363 ], [ 794.480406389170639, 858.233982911329804 ], [ 779.644322704384876, 846.821610848421642 ], [ 779.263910305880472, 833.507176777231848 ], [ 789.154632760031745, 822.475217117403531 ], [ 784.209271530159981, 811.823669860655059 ], [ 800.567004820656393, 800.030885394666939 ] ] ] } },
{ "type": "Feature", "properties": { "feature_type": "building", "subtype": "no-damage", "uid": "7e7e52a1-af3f-475a-917f-75d016efb02e" }, "geometry": { "type": "Polygon", "coordinates": [ [ [ 434.588964257493728, 849.153666081007486 ], [ 435.276236621298779, 849.220294405654272 ], [ 449.288649547485591, 851.555696562157436 ], [ 449.591154837067222, 852.489857421098236 ], [ 449.861334528782322, 855.299726265368008 ], [ 449.969406410145723, 856.974840375659028 ], [ 453.42770652022682, 857.785379465547749 ], [ 453.914029973143386, 856.596588803089162 ], [ 455.102820635348394, 851.841426154271289 ], [ 456.886006629037013, 850.814743309790288 ], [ 460.398342673444915, 851.138958941678538 ], [ 463.748570904831809, 852.543893360763036 ], [ 466.481712862649317, 855.114927499203645 ], [ 468.270091288108915, 858.691684353171809 ], [ 483.173244841230883, 861.672315062778239 ], [ 484.961623270122175, 856.605242856548898 ], [ 496.884146110077779, 860.48006278218952 ], [ 487.644190906913309, 900.122451232259323 ], [ 433.396711973853996, 892.670874453667352 ], [ 434.588964257493728, 849.153666081007486 ] ] ] } },
{ "type": "Feature", "properties": { "feature_type": "building", "subtype": "no-damage", "uid": "94e9950a-a58a-4ad6-aeea-e66959479f1e" }, "geometry": { "type": "Polygon", "coordinates": [ [ [ 484.373910885754015, 817.150515064640445 ], [ 492.125152621878726, 818.273883426366069 ], [ 492.125152623785311, 815.577799346226129 ], [ 501.673783740400324, 816.027146692746669 ], [ 500.213404862937011, 843.774345363521206 ], [ 482.576521501069294, 841.302934954099555 ], [ 484.373910885754015, 817.150515064640445 ] ] ] } },
{ "type": "Feature", "properties": { "feature_type": "building", "subtype": "major-damage", "uid": "62477659-488e-453e-a57a-57cb4cea8160" }, "geometry": { "type": "Polygon", "coordinates": [ [ [ 524.030949918907368, 1022.985446179869996 ], [ 490.522103764584983, 1000.155048507275978 ], [ 506.119012253115784, 922.170506087401577 ], [ 516.39014710767799, 918.746794468834196 ], [ 514.107672694790494, 904.671535594535044 ], [ 516.770559505673987, 900.106586768761645 ], [ 523.617982743065568, 901.247823974950848 ], [ 525.139632351064051, 917.605557263661808 ], [ 547.583964076605184, 919.127206873947671 ], [ 549.105613680536521, 931.680816142028107 ], [ 554.811799715424399, 933.582878149292924 ], [ 560.517985743957297, 967.439581928836787 ], [ 559.376748537767753, 974.287005166988479 ], [ 551.007675694157115, 971.243705952517644 ], [ 550.62726328955182, 962.113808303004589 ], [ 543.77984005495648, 959.450921488563267 ], [ 536.932416819090122, 960.592158695769172 ], [ 538.454066426580312, 981.895253208249301 ], [ 521.335508330432162, 978.47154159171555 ], [ 520.955095929385834, 982.275665611329259 ], [ 543.399427651113911, 1002.817935321716959 ], [ 526.376413430589309, 1022.985444543822041 ], [ 524.030949918907368, 1022.985446179869996 ] ] ] } },
{ "type": "Feature", "properties": { "feature_type": "building", "subtype": "no-damage", "uid": "58362580-bbf9-4655-868f-d9d55da9ce8f" }, "geometry": { "type": "Polygon", "coordinates": [ [ [ 346.7969298176655, 773.057654195696728 ], [ 347.497550461871413, 773.057654197730358 ], [ 363.845365544053777, 776.560757429434602 ], [ 361.509963387931123, 797.812917031853544 ], [ 345.39568852772868, 795.010434446896852 ], [ 346.40508825417578, 780.863835087901066 ], [ 346.7969298176655, 773.057654195696728 ] ] ] } },
{ "type": "Feature", "properties": { "feature_type": "building", "subtype": "no-damage", "uid": "6e27cb21-2461-41f9-943f-210cae3be6b3" }, "geometry": { "type": "Polygon", "coordinates": [ [ [ 364.866915823654722, 788.748543339739513 ], [ 367.114928558355018, 786.602986692026661 ], [ 368.049089423778298, 785.902366044262294 ], [ 372.252813299054196, 784.501124752800706 ], [ 377.624238253853093, 784.501124752800706 ], [ 381.594421917952616, 787.537147554017906 ], [ 385.564605578366127, 795.944595310921613 ], [ 390.468950103059001, 795.711055094661219 ], [ 393.271432691321422, 794.776894229619643 ], [ 397.942236996449083, 792.207951858889714 ], [ 405.415523890474788, 793.842733368645213 ], [ 411.487569490750502, 800.848939834087446 ], [ 408.918627125357887, 809.022847371680314 ], [ 404.4813630312795, 816.729674483870099 ], [ 396.540995707020727, 817.19675491232374 ], [ 388.133547950622187, 814.16073211314017 ], [ 385.331065364647714, 805.753284358270093 ], [ 375.989456746003384, 809.723468017411165 ], [ 369.450330717146926, 808.555766942209971 ], [ 366.180767701447621, 807.621606079202024 ], [ 361.509963388693677, 801.082480051364655 ], [ 363.378285115218773, 792.20795186194016 ], [ 364.866915823654722, 788.748543339739513 ] ] ] } },
{ "type": "Feature", "properties": { "feature_type": "building", "subtype": "no-damage", "uid": "f3e83197-f608-4cd3-8dd7-75c6a13e7c18" }, "geometry": { "type": "Polygon", "coordinates": [ [ [ 396.132120349004481, 818.65412635150642 ], [ 397.81717290150749, 818.991136866226725 ], [ 409.050856572531984, 826.742378597010315 ], [ 406.579446164761691, 840.335135841712031 ], [ 397.704836064623123, 844.716272471049706 ], [ 385.347784024373482, 840.559809513447021 ], [ 382.314689432054195, 830.337157374258481 ], [ 384.898436678106975, 823.596947170349836 ], [ 396.132120349004481, 818.65412635150642 ] ] ] } },
{ "type": "Feature", "properties": { "feature_type": "building", "subtype": "destroyed", "uid": "f6beb69a-6cd9-4bae-a33b-4c391c537559" }, "geometry": { "type": "Polygon", "coordinates": [ [ [ 781.393298518860547, 957.893726958355728 ], [ 798.167990237523441, 965.635892366399389 ], [ 802.612566672336129, 958.610594128102093 ], [ 829.996892469770387, 972.517817174001266 ], [ 820.677619292806071, 999.041902369204081 ], [ 774.654747141697499, 977.822634213448509 ], [ 774.081253410780846, 976.532273311769018 ], [ 781.966792254225766, 958.610594126068463 ], [ 781.393298518860547, 957.893726958355728 ] ] ] } },
{ "type": "Feature", "properties": { "feature_type": "building", "subtype": "destroyed", "uid": "f343d451-7aa7-4588-ace8-d35754a58f83" }, "geometry": { "type": "Polygon", "coordinates": [ [ [ 815.015995641603013, 932.252356709750188 ], [ 793.997376253148786, 929.916954558331099 ], [ 795.165077326062601, 914.036219904481186 ], [ 815.483076072344488, 916.605162275211114 ], [ 815.015995641603013, 932.252356709750188 ] ] ] } },
{ "type": "Feature", "properties": { "feature_type": "building", "subtype": "no-damage", "uid": "ffb83e10-cae8-4994-bdc4-7a8a3d3e7d81" }, "geometry": { "type": "Polygon", "coordinates": [ [ [ 575.816408872343231, 888.455372471557894 ], [ 577.902850365407971, 859.841317647947335 ], [ 582.075733361705716, 859.543254574241246 ], [ 584.758301001166046, 843.74591181119149 ], [ 604.728526761281955, 845.534290235125127 ], [ 598.469202271411064, 883.090237189588947 ], [ 600.853706839198821, 883.686363327849676 ], [ 600.853706840978248, 888.455372470541079 ], [ 619.03555417258417, 889.647624750113096 ], [ 623.208437167102488, 861.331633003258958 ], [ 627.083257094269698, 861.331633002242143 ], [ 628.275509374350577, 853.283930081322183 ], [ 656.591501126553567, 856.264560793979172 ], [ 653.056214544984755, 885.271021751236958 ], [ 641.345182881119513, 885.271021749203328 ], [ 638.417424969728813, 902.837569248045156 ], [ 641.711152620742382, 903.569508722715 ], [ 641.162198013723014, 910.888903510086038 ], [ 642.992046710058048, 911.437858119393127 ], [ 640.247273664792829, 933.944997096914108 ], [ 615.910285993724642, 933.213057621227449 ], [ 575.470629788654719, 929.553360226525115 ], [ 578.581372568712823, 891.309522454631065 ], [ 575.816408872343231, 888.455372471557894 ] ] ] } },
{ "type": "Feature", "properties": { "feature_type": "building", "subtype": "no-damage", "uid": "6614938d-b4c7-4b8f-953d-5a4569e0705f" }, "geometry": { "type": "Polygon", "coordinates": [ [ [ 520.446326824711605, 877.698690291492767 ], [ 555.251232649893836, 879.968575454733241 ], [ 554.999023190107778, 884.256136316598258 ], [ 562.06088813605902, 885.138869432585807 ], [ 562.186992870654876, 882.364565343164031 ], [ 571.266533519552922, 884.003926854016072 ], [ 571.644847716858294, 887.156545133244094 ], [ 570.257695670748717, 891.696315458708227 ], [ 568.618334161802522, 895.35335266513448 ], [ 564.961296960077789, 900.271437184472006 ], [ 549.07210081700714, 899.640913529033128 ], [ 549.954833939477112, 896.866609442661684 ], [ 538.100989198614116, 895.479457397442388 ], [ 538.605408122889116, 898.884285141286341 ], [ 528.76923908675235, 897.623237826341324 ], [ 528.390924892751627, 890.183058684231355 ], [ 519.689698432643127, 881.481832228193298 ], [ 520.446326824711605, 877.698690291492767 ] ] ] } },
{ "type": "Feature", "properties": { "feature_type": "building", "subtype": "no-damage", "uid": "2dbaedef-f965-481c-b157-ae6edb8b2386" }, "geometry": { "type": "Polygon", "coordinates": [ [ [ 321.172274056293475, 902.757626362855262 ], [ 333.764158510152924, 908.738771480647756 ], [ 353.911173639174876, 984.290078201742176 ], [ 276.156287132500779, 1008.529455779505042 ], [ 268.915953571811315, 992.16000598857886 ], [ 267.341968015460225, 969.809411082910515 ], [ 326.209027839057512, 949.977193066589621 ], [ 315.505926054624297, 920.071467487795076 ], [ 321.172274056293475, 902.757626362855262 ] ] ] } },
{ "type": "Feature", "properties": { "feature_type": "building", "subtype": "no-damage", "uid": "f1ab073d-4e6b-4b85-9c81-dc78faffa867" }, "geometry": { "type": "Polygon", "coordinates": [ [ [ 533.828196866425174, 419.818252474554185 ], [ 584.64902458983795, 420.746486775078381 ], [ 584.416966017503, 437.454704105203291 ], [ 581.400204552999867, 438.382938403693913 ], [ 580.7040288338344, 446.96910564337901 ], [ 541.950246959282936, 482.474067476249388 ], [ 503.196465085875388, 484.5625946448028 ], [ 509.462046589123077, 445.80881277331622 ], [ 524.545853901597752, 447.66528136623009 ], [ 534.060255442064772, 439.543231275790276 ], [ 533.828196866425174, 419.818252474554185 ] ] ] } }
]
}
