{
"type": "FeatureCollection",
"name": "socal-fire_00000616_post_disaster",
"features": [
{ "type": "Feature", "properties": { "feature_type": "building", "subtype": "no-damage", "uid": "46110bf4-bd4e-49a8-ae35-6975be05a64b" }, "geometry": { "type": "Polygon", "coordinates": [ [ [ 555.099869512479131, 183.335118600418809 ], [ 565.021756877375765, 181.994323012767012 ], [ 565.289915998210859, 180.117209187003908 ], [ 599.61428309218968, 189.234619197271996 ], [ 593.446623382125267, 262.173899279417128 ], [ 573.602848653857336, 262.173899281450815 ], [ 576.820758069052886, 219.268440406430614 ], [ 555.636187747285931, 210.151030398196099 ], [ 556.976983338624223, 201.033620386911196 ], [ 555.636187749573764, 198.888347442600889 ], [ 555.099869512479131, 183.335118600418809 ] ] ] } },
{ "type": "Feature", "properties": { "feature_type": "building", "subtype": "no-damage", "uid": "4009bbb3-3e84-42d8-8f67-5bfd18475f8d" }, "geometry": { "type": "Polygon", "coordinates": [ [ [ 596.941043224746977, 244.162215227120498 ], [ 609.710966174539976, 241.5824328114401 ], [ 609.195009693005204, 253.191453679459698 ], [ 630.09124725382128, 252.4175189540438 ], [ 629.575290771396794, 271.894876187295608 ], [ 617.579302540410595, 273.700723877560108 ], [ 606.873205519934231, 260.543833562776001 ], [ 596.425086742195276, 259.253942352393778 ], [ 596.941043224746977, 244.162215227120498 ] ] ] } },
{ "type": "Feature", "properties": { "feature_type": "building", "subtype": "no-damage", "uid": "d3ff9fb1-12ff-47cb-a657-b96e5b4d4e2b" }, "geometry": { "type": "Polygon", "coordinates": [ [ [ 640.487183339203511, 254.893656335396713 ], [ 652.66953964474078, 253.576644845723507 ], [ 652.99879251881157, 241.888167846911614 ], [ 673.90634996021447, 243.205179338618393 ], [ 673.741723524259442, 283.209403426412678 ], [ 640.157930463861703, 282.221644805090477 ], [ 640.487183339203511, 254.893656335396713 ] ] ] } },
{ "type": "Feature", "properties": { "feature_type": "building", "subtype": "no-damage", "uid": "c8b954d3-9a34-4627-b66a-4980b40e33ec" }, "geometry": { "type": "Polygon", "coordinates": [ [ [ 683.333645151603491, 253.000220080699705 ], [ 701.836624291456474, 253.268379196196406 ], [ 702.64110164392082, 241.469378008590894 ], [ 721.144080783138179, 244.150969189995493 ], [ 717.121694012555054, 296.710156309327715 ], [ 683.065486033818843, 292.687769540271177 ], [ 683.333645151603491, 253.000220080699705 ] ] ] } },
{ "type": "Feature", "properties": { "feature_type": "building", "subtype": "no-damage", "uid": "19d0c322-481a-4065-bf90-449520fc4ebe" }, "geometry": { "type": "Polygon", "coordinates": [ [ [ 889.390506524794887, 329.861681517004627 ], [ 906.160586886969782, 329.177188436572521 ], [ 906.845079964097522, 336.022119198187283 ], [ 914.374503804367805, 334.995379585165324 ], [ 922.246174179515947, 340.813570732741312 ], [ 920.877188023735357, 352.107706486151926 ], [ 904.791600735256452, 352.449953024842728 ], [ 904.107107661941768, 365.455321471707578 ], [ 917.112476104998336, 363.74408878435429 ], [ 912.663271113709243, 390.781565289072319 ], [ 896.235437282853468, 390.0970722106739 ], [ 897.262176899307633, 382.225401834003378 ], [ 882.545575760508427, 382.225401835020193 ], [ 884.941301528421718, 338.417844966989492 ], [ 889.732753060308255, 338.417844966989492 ], [ 889.390506524794887, 329.861681517004627 ] ] ] } },
{ "type": "Feature", "properties": { "feature_type": "building", "subtype": "no-damage", "uid": "1b63edaf-fe13-4908-accc-724086596161" }, "geometry": { "type": "Polygon", "coordinates": [ [ [ 919.632742915347535, 361.812483306742479 ], [ 933.499982167584449, 361.602373619995319 ], [ 935.390969341192204, 352.777766822369472 ], [ 954.300841050833242, 354.668753994959673 ], [ 948.627879538017169, 392.908716789755715 ], [ 916.270987939974134, 390.597510246721413 ], [ 919.632742915347535, 361.812483306742479 ] ] ] } },
{ "type": "Feature", "properties": { "feature_type": "building", "subtype": "no-damage", "uid": "a21e0159-d368-447e-90bc-d6a7545defdb" }, "geometry": { "type": "Polygon", "coordinates": [ [ [ 956.731909226455741, 357.564486592763274 ], [ 981.919754021118592, 360.198509581261021 ], [ 985.376909187358592, 362.997158997325016 ], [ 979.121104600223703, 401.025865848575791 ], [ 951.463863254161197, 399.873480793586509 ], [ 956.731909226455741, 357.564486592763274 ] ] ] } },
{ "type": "Feature", "properties": { "feature_type": "building", "subtype": "no-damage", "uid": "dc33d7bc-dc7e-4ce7-916d-4632a82fca7a" }, "geometry": { "type": "Polygon", "coordinates": [ [ [ 965.609549337817612, 276.070006710431983 ], [ 974.190641109977719, 277.410802301134424 ], [ 979.821982589048503, 254.617277275464005 ], [ 997.788643491298444, 257.835186689895693 ], [ 992.96177936761535, 315.221237930875589 ], [ 963.196117277882649, 311.19885116385268 ], [ 962.123480806489738, 292.159553787674895 ], [ 965.609549337817612, 276.070006710431983 ] ] ] } },
{ "type": "Feature", "properties": { "feature_type": "building", "subtype": "no-damage", "uid": "99fd5863-541a-4cf5-be87-5f490a0ca3da" }, "geometry": { "type": "Polygon", "coordinates": [ [ [ 803.956632294460405, 246.257822286873989 ], [ 822.244389972778436, 225.265120375315291 ], [ 833.568292677041654, 235.955518030698812 ], [ 830.875896230059993, 238.806290737038609 ], [ 846.3967698633287, 253.535283061939992 ], [ 836.102312857292418, 265.651067074560672 ], [ 821.068959200283302, 249.680287667681398 ], [ 814.224028440572397, 256.182971891622174 ], [ 803.956632294460405, 246.257822286873989 ] ] ] } },
{ "type": "Feature", "properties": { "feature_type": "building", "subtype": "no-damage", "uid": "221678d8-ec81-48f5-bce8-b87de44fb247" }, "geometry": { "type": "Polygon", "coordinates": [ [ [ 827.205203410165382, 207.0930285993052 ], [ 848.617397454422758, 191.098377626357603 ], [ 853.132016683898655, 175.490694015101212 ], [ 864.225081064413985, 179.618345879579607 ], [ 866.159917876174973, 208.25393068742909 ], [ 853.647973163654001, 206.835050357838895 ], [ 836.105452743299907, 218.702049465291196 ], [ 827.205203410165382, 207.0930285993052 ] ] ] } },
{ "type": "Feature", "properties": { "feature_type": "building", "subtype": "no-damage", "uid": "d75474c7-de5b-437e-8e7a-04832d1ca95b" }, "geometry": { "type": "Polygon", "coordinates": [ [ [ 677.181385989732576, 178.10940980523651 ], [ 720.674090927804286, 184.412700375114497 ], [ 721.094310297994184, 190.085661891868597 ], [ 725.296504013620279, 190.085661888818208 ], [ 722.565078097853302, 217.18981134600449 ], [ 701.343999844414611, 215.298824175447805 ], [ 700.083341728760729, 204.583230203198099 ], [ 675.290398816506013, 201.851804288703107 ], [ 677.181385989732576, 178.10940980523651 ] ] ] } },
{ "type": "Feature", "properties": { "feature_type": "building", "subtype": "no-damage", "uid": "498a0333-0d03-4e00-9ce0-c54d5d975d37" }, "geometry": { "type": "Polygon", "coordinates": [ [ [ 742.160046755021312, 174.089635416050896 ], [ 771.995622127476281, 181.233364728850404 ], [ 773.67649961281154, 178.081719443911396 ], [ 784.181983896284351, 181.653584101327993 ], [ 781.870777353630615, 187.956874671206009 ], [ 785.442642009650399, 189.217532785588304 ], [ 772.415841495378345, 218.212669411297696 ], [ 764.641783126274504, 214.8509144396115 ], [ 758.338492557029667, 226.196837468035596 ], [ 739.848840212494565, 218.422779097028098 ], [ 742.790375816279948, 210.648720729070988 ], [ 729.553465614498009, 204.345430155125797 ], [ 742.160046755021312, 174.089635416050896 ] ] ] } },
{ "type": "Feature", "properties": { "feature_type": "building", "subtype": "no-damage", "uid": "e0e2eb54-59ff-4479-ba7c-e1ea06ff70b7" }, "geometry": { "type": "Polygon", "coordinates": [ [ [ 750.120210170593964, 157.5201700520185 ], [ 761.843906921024654, 162.270288564296209 ], [ 763.562034890860559, 158.732966269758094 ], [ 769.727082319176361, 160.855359646480906 ], [ 769.019617863064695, 161.967089512657509 ], [ 776.094262450745305, 165.100146399926587 ], [ 770.232414078516854, 179.249435582146191 ], [ 745.066892605913154, 168.13213693969999 ], [ 750.120210170593964, 157.5201700520185 ] ] ] } },
{ "type": "Feature", "properties": { "feature_type": "building", "subtype": "no-damage", "uid": "e9be8f34-1b5f-478d-a193-a0d209da7570" }, "geometry": { "type": "Polygon", "coordinates": [ [ [ 702.093784777029327, 138.79479093057941 ], [ 723.82305030513146, 140.108653498865209 ], [ 723.317718548205789, 152.640881058109898 ], [ 725.844377333469538, 155.167539842101689 ], [ 722.610254093110939, 183.365051852944191 ], [ 691.683950595647502, 178.109601583868198 ], [ 693.90741032418839, 159.513392943043186 ], [ 700.982054911233604, 156.885667814606109 ], [ 702.093784777029327, 138.79479093057941 ] ] ] } },
{ "type": "Feature", "properties": { "feature_type": "building", "subtype": "no-damage", "uid": "947f8cf9-49bf-4595-ae19-3ee430e3fbd8" }, "geometry": { "type": "Polygon", "coordinates": [ [ [ 590.534081053563455, 105.935668249088593 ], [ 605.282832542778578, 107.544622956304494 ], [ 605.014673424358421, 125.779442981924802 ], [ 612.523128727540552, 127.656556801587001 ], [ 612.791287843545774, 137.310285050983111 ], [ 618.95894755983818, 142.137149172630814 ], [ 624.32212991832796, 137.310285053016713 ], [ 643.093268176855304, 158.76301448696799 ], [ 633.439539926438783, 165.735151554959486 ], [ 624.590289033189379, 158.226696251907214 ], [ 616.813674617179458, 164.126196845710012 ], [ 605.819150779364804, 153.936150367353889 ], [ 600.455968417951681, 157.690378016846495 ], [ 596.165422532252819, 154.204309482850704 ], [ 596.969899886242388, 152.595354774617988 ], [ 583.025625750000017, 144.014263002461092 ], [ 584.634580458868868, 114.248600905748802 ], [ 591.338558409840857, 115.3212373799375 ], [ 590.534081053563455, 105.935668249088593 ] ] ] } },
{ "type": "Feature", "properties": { "feature_type": "building", "subtype": "no-damage", "uid": "9f5b85f7-8c88-43e4-a4c0-09aecea43226" }, "geometry": { "type": "Polygon", "coordinates": [ [ [ 768.394889088040145, 126.367616205490407 ], [ 790.24629640400849, 135.612442372543399 ], [ 788.985638288100517, 137.713539232897688 ], [ 799.281012887622296, 140.865184515803094 ], [ 807.895510001300295, 150.530230059400793 ], [ 801.172000057925402, 163.136811201190511 ], [ 760.410721030536706, 144.437049174236392 ], [ 768.394889088040145, 126.367616205490407 ] ] ] } },
{ "type": "Feature", "properties": { "feature_type": "building", "subtype": "no-damage", "uid": "982d26fd-8026-48a5-8665-cc875453c27c" }, "geometry": { "type": "Polygon", "coordinates": [ [ [ 802.69838224340549, 175.714242695617088 ], [ 806.27024689713744, 175.083913641476414 ], [ 806.690466272157209, 167.309855268435314 ], [ 822.028473327176471, 168.990732756312013 ], [ 822.658802380554903, 191.472469124379387 ], [ 802.068053181765549, 190.632030382474596 ], [ 802.69838224340549, 175.714242695617088 ] ] ] } },
{ "type": "Feature", "properties": { "feature_type": "building", "subtype": "no-damage", "uid": "0b0204f1-38c9-4424-8545-5e7456fe8957" }, "geometry": { "type": "Polygon", "coordinates": [ [ [ 888.115778132392052, 196.216472370377204 ], [ 896.840979271180913, 197.533483863100798 ], [ 895.688594213267947, 213.83150108390339 ], [ 886.469513765470197, 213.502248210468309 ], [ 888.115778132392052, 196.216472370377204 ] ] ] } },
{ "type": "Feature", "properties": { "feature_type": "building", "subtype": "no-damage", "uid": "9d1327bd-2816-4c74-8bca-59e163ba34e6" }, "geometry": { "type": "Polygon", "coordinates": [ [ [ 902.845492977558933, 191.949178683010103 ], [ 913.052332042866169, 193.76006948588639 ], [ 913.052332045916614, 196.887971782503087 ], [ 918.81425732239029, 195.900213162197787 ], [ 918.649630887070771, 193.266190175733698 ], [ 920.295895252975924, 192.443057994179611 ], [ 920.625148128826027, 188.656649954759899 ], [ 931.325866504031978, 189.809035009749095 ], [ 931.161240067568542, 187.175012025318694 ], [ 949.270148091126998, 187.998144205855994 ], [ 949.434774526192314, 208.741075211931701 ], [ 945.319113612192041, 209.070328089434014 ], [ 945.648366487787939, 214.009121183843007 ], [ 942.685090626235365, 214.009121184859794 ], [ 942.84971706193619, 214.832253367430809 ], [ 933.136757307925677, 214.832253367430809 ], [ 933.13675730741727, 213.185989003305707 ], [ 929.350349264183137, 213.350615437989603 ], [ 928.856469953140618, 209.564207399586707 ], [ 911.241441241514394, 209.070328087400412 ], [ 910.582935497948597, 214.173747623611007 ], [ 902.186987232849106, 214.338374056261301 ], [ 902.845492977558933, 191.949178683010103 ] ] ] } },
{ "type": "Feature", "properties": { "feature_type": "building", "subtype": "no-damage", "uid": "1623b421-fcb6-46e3-bf1b-511d942f0a72" }, "geometry": { "type": "Polygon", "coordinates": [ [ [ 916.062513604993569, 218.690610234134112 ], [ 936.174447452952677, 219.763246702222006 ], [ 935.638129217891674, 238.802544079416606 ], [ 962.454041010849096, 271.517956470996694 ], [ 960.308768071749114, 286.803026193614812 ], [ 953.872949238943079, 292.166208553373622 ], [ 941.537629811696661, 290.557253842090518 ], [ 928.934151270224334, 276.076661477147582 ], [ 910.967490365305252, 276.344820591627524 ], [ 916.062513604993569, 218.690610234134112 ] ] ] } },
{ "type": "Feature", "properties": { "feature_type": "building", "subtype": "no-damage", "uid": "d8ccd7b3-36c3-461f-b805-267d118313bd" }, "geometry": { "type": "Polygon", "coordinates": [ [ [ 785.469493021200151, 0.007598150460295 ], [ 788.561164266749188, 1.557539986557252 ], [ 786.679434797369481, 6.347396806056831 ], [ 792.324623196103175, 7.03166206293491 ], [ 796.603320134274099, 10.70825914627207 ], [ 797.114480012808258, 30.98094615738237 ], [ 801.512106618351822, 39.26062965947736 ], [ 787.017534402900765, 67.134807001184626 ], [ 778.097797649133099, 62.674938626145419 ], [ 773.080445729245639, 80.514412126302275 ], [ 746.321235477348182, 73.267126014957029 ], [ 755.240972227175689, 38.145662563938139 ], [ 740.746400010326511, 30.898376455643319 ], [ 750.312124350240083, 0.008036122347992 ], [ 785.469493021200151, 0.007598150460295 ] ] ] } },
{ "type": "Feature", "properties": { "feature_type": "building", "subtype": "no-damage", "uid": "e655d189-0e68-4bca-a661-8f6ad8257024" }, "geometry": { "type": "Polygon", "coordinates": [ [ [ 879.432435928038331, 80.126290488227255 ], [ 926.628440687120815, 84.148677256266964 ], [ 930.114509222643051, 135.098909670416901 ], [ 874.069253566752309, 130.003886427171693 ], [ 879.432435928038331, 80.126290488227255 ] ] ] } },
{ "type": "Feature", "properties": { "feature_type": "building", "subtype": "no-damage", "uid": "f69f1467-e334-4634-bc5d-e3683f188ce1" }, "geometry": { "type": "Polygon", "coordinates": [ [ [ 991.889999214280351, 128.500000458047509 ], [ 991.592191333621713, 131.530460547236089 ], [ 1011.100244004180013, 133.926186311971094 ], [ 1008.362271698974041, 158.910183590645005 ], [ 960.105509831503696, 153.776485518417104 ], [ 965.619999211659547, 125.270000457762507 ], [ 991.889999214280351, 128.500000458047509 ] ] ] } },
{ "type": "Feature", "properties": { "feature_type": "building", "subtype": "no-damage", "uid": "cceb3126-86ad-4345-8ea0-5a8a86c590e2" }, "geometry": { "type": "Polygon", "coordinates": [ [ [ 1006.308792473183985, 100.386025583312204 ], [ 1004.939806318546971, 111.680161336722904 ], [ 993.645670561954489, 110.653421724717603 ], [ 991.93999921571401, 128.000000459980413 ], [ 965.719999212366133, 124.780000457338303 ], [ 968.319426747884904, 111.337914803116107 ], [ 972.084138665986416, 110.995668262391604 ], [ 974.822110971065513, 95.59457404977509 ], [ 1006.308792473183985, 100.386025583312204 ] ] ] } },
{ "type": "Feature", "properties": { "feature_type": "building", "subtype": "no-damage", "uid": "e1d693be-71a6-474b-9235-f71d55f8cbb1" }, "geometry": { "type": "Polygon", "coordinates": [ [ [ 1022.815818050705047, 65.696519724028931 ], [ 1013.418765375323005, 63.872851911819062 ], [ 1011.707532684283024, 69.006549980996553 ], [ 1008.627313842800959, 68.664303443322538 ], [ 1006.916081150616947, 79.273946125452426 ], [ 1000.755643467907021, 79.616192662109626 ], [ 1000.755643466636002, 86.803369961398474 ], [ 977.482878878357042, 85.092137273028385 ], [ 978.509618493158882, 23.487760419511751 ], [ 1008.627313843564025, 28.621458491739681 ], [ 1009.654053458874046, 24.172253496893401 ], [ 1022.815889873128981, 24.800249134194409 ], [ 1022.815818050705047, 65.696519724028931 ] ] ] } },
{ "type": "Feature", "properties": { "feature_type": "building", "subtype": "no-damage", "uid": "d830ae9b-9f94-4b37-9e0b-33063cbadfbb" }, "geometry": { "type": "Polygon", "coordinates": [ [ [ 1022.81590936996497, 14.27560548436259 ], [ 995.527564515970539, 11.43556327382249 ], [ 996.350429400871349, 0.003713928519315 ], [ 1022.815936470512042, 0.003074254944378 ], [ 1022.81590936996497, 14.27560548436259 ] ] ] } },
{ "type": "Feature", "properties": { "feature_type": "building", "subtype": "no-damage", "uid": "d03ffa2b-176a-4b98-a738-dea6316e7bcd" }, "geometry": { "type": "Polygon", "coordinates": [ [ [ 988.929274960492535, 219.811231911564988 ], [ 1007.839146670641981, 223.803315937391886 ], [ 1006.368378869130993, 246.074942620745702 ], [ 986.407958729311986, 244.394065134902604 ], [ 988.929274960492535, 219.811231911564988 ] ] ] } },
{ "type": "Feature", "properties": { "feature_type": "building", "subtype": "no-damage", "uid": "fb3708d0-239b-47dc-ad7e-1d3a8999e807" }, "geometry": { "type": "Polygon", "coordinates": [ [ [ 628.961957419765781, 0.009087635775751 ], [ 625.461223402737232, 12.142366791542671 ], [ 598.567183635719971, 9.621050564811643 ], [ 594.755306106502871, 0.009255107547737 ], [ 628.961957419765781, 0.009087635775751 ] ] ] } },
{ "type": "Feature", "properties": { "feature_type": "building", "subtype": "no-damage", "uid": "6e5ca6dc-cb50-45b9-9429-198374317d86" }, "geometry": { "type": "Polygon", "coordinates": [ [ [ 684.557108494068984, 0.008694475752217 ], [ 681.828741467711552, 2.73706150032929 ], [ 664.331515256899479, 2.687430936725683 ], [ 664.121405572821345, 6.049185909428687 ], [ 641.429559518125529, 4.578418106265545 ], [ 640.938863926401496, 0.009015593721162 ], [ 684.557108494068984, 0.008694475752217 ] ] ] } },
{ "type": "Feature", "properties": { "feature_type": "building", "subtype": "no-damage", "uid": "1c301e7a-360d-4d93-9111-e1db21dccd2c" }, "geometry": { "type": "Polygon", "coordinates": [ [ [ 731.799299168814173, 142.006180959522112 ], [ 740.794204431490471, 134.931536370445912 ], [ 752.012569427791732, 149.687223657976489 ], [ 739.985673621527894, 160.602389597296593 ], [ 729.777972141111604, 151.809617033682514 ], [ 731.799299168814173, 142.006180959522112 ] ] ] } },
{ "type": "Feature", "properties": { "feature_type": "building", "subtype": "no-damage", "uid": "2c8a4932-45d6-4251-b58f-c918db34e6d0" }, "geometry": { "type": "Polygon", "coordinates": [ [ [ 892.787257720313733, 9.803485488109796 ], [ 941.53270480444337, 14.005679202717539 ], [ 936.06985297430731, 82.711546425369164 ], [ 923.883491207405768, 80.400339879284488 ], [ 922.622833093022905, 74.307158996153689 ], [ 907.074716351002166, 70.104965286630005 ], [ 910.226361635433932, 38.37840274337519 ], [ 906.024167920824652, 34.59642840022822 ], [ 906.864606666542727, 27.872918461939889 ], [ 890.055831808613902, 25.35160223114163 ], [ 892.787257720313733, 9.803485488109796 ] ] ] } },
{ "type": "Feature", "properties": { "feature_type": "building", "subtype": "no-damage", "uid": "f65a262b-686f-4f47-9cad-d311417f8c42" }, "geometry": { "type": "Polygon", "coordinates": [ [ [ 611.418490537908042, 226.215239271791489 ], [ 616.556375279369831, 211.502205695176286 ], [ 631.97002949663738, 217.807791510820493 ], [ 633.604811006139357, 239.059951114256307 ], [ 620.993639374210829, 239.29349133356709 ], [ 618.424697001065056, 229.718342501462189 ], [ 611.418490537908042, 226.215239271791489 ] ] ] } }
]
}
