{
"type": "FeatureCollection",
"name": "socal-fire_00000011_post_disaster",
"features": [
{ "type": "Feature", "properties": { "feature_type": "building", "subtype": "no-damage", "uid": "5d51388e-9abe-4f24-bf35-114d29762443" }, "geometry": { "type": "Polygon", "coordinates": [ [ [ 589.565976684855286, 43.01800625160751 ], [ 594.660999925634201, 35.241391831682733 ], [ 610.482387886064203, 17.27473092893381 ], [ 630.326162614646705, 36.045869185643433 ], [ 635.153026739812162, 33.096118890500129 ], [ 645.879391456030021, 47.04039302344551 ], [ 618.25900230675586, 79.487646290366513 ], [ 603.778409936218623, 66.616008632081375 ], [ 598.951545812960603, 68.224963340002788 ], [ 595.733636397624764, 61.789144508317129 ], [ 596.80627287228549, 54.280689205022938 ], [ 591.979408749027471, 53.744370968710058 ], [ 583.934635210687816, 59.643871566117298 ], [ 582.057521385117639, 55.085166558983651 ], [ 593.32020433904745, 48.649347727297993 ], [ 589.565976686126874, 43.554324486903162 ], [ 589.565976684855286, 43.01800625160751 ] ] ] } },
{ "type": "Feature", "properties": { "feature_type": "building", "subtype": "no-damage", "uid": "72e9635a-fb0f-48c2-bc4e-e35f2c96da7e" }, "geometry": { "type": "Polygon", "coordinates": [ [ [ 653.922328145393067, 115.269735934567194 ], [ 667.337196701589505, 82.7644775047699 ], [ 659.597849457982193, 80.055705971072683 ], [ 663.862938907303032, 64.373488010280241 ], [ 674.589303624919694, 63.300851536637239 ], [ 672.980348918396203, 67.85955654478812 ], [ 690.410691583188054, 71.345625074209849 ], [ 689.338055111833228, 77.7814439058955 ], [ 691.751487175496777, 78.854080377504033 ], [ 694.164919235345678, 74.02721625679149 ], [ 709.986307195648465, 80.19487596777762 ], [ 708.377352485946062, 82.340148910994685 ], [ 715.349489553439525, 86.898853918128339 ], [ 712.667898371492356, 109.960538061272104 ], [ 706.768397779295356, 109.960538061272104 ], [ 698.991783356060637, 123.636653075552402 ], [ 689.338055112850498, 119.882425424413896 ], [ 691.751487173208034, 115.055561299632501 ], [ 680.220645101375908, 112.373970120102499 ], [ 671.103235088502743, 127.927198963003804 ], [ 654.477369776146134, 117.737152481196901 ], [ 653.922328145393067, 115.269735934567194 ] ] ] } },
{ "type": "Feature", "properties": { "feature_type": "building", "subtype": "no-damage", "uid": "d38dcca6-79fb-4947-a990-7b21842f33fd" }, "geometry": { "type": "Polygon", "coordinates": [ [ [ 736.103858797837688, 85.550151282959973 ], [ 759.43370206271004, 84.209355691669145 ], [ 758.897383825633938, 76.700900391426657 ], [ 772.841657961383817, 76.432741270727135 ], [ 774.182453552420952, 91.449651877315503 ], [ 781.959067972858406, 93.326765702884742 ], [ 782.495386208662921, 115.583972490033304 ], [ 768.551112074693151, 116.120290729397894 ], [ 769.891907662551489, 123.092427796379198 ], [ 742.807836748954742, 124.165064269005001 ], [ 742.807836747683154, 116.9247680833586 ], [ 734.226744973793302, 116.656608962659107 ], [ 734.76306320896208, 86.890946871199091 ], [ 736.103858797837688, 85.550151282959973 ] ] ] } },
{ "type": "Feature", "properties": { "feature_type": "building", "subtype": "no-damage", "uid": "895ab247-fcc1-4cb8-9b93-99ed13cc3519" }, "geometry": { "type": "Polygon", "coordinates": [ [ [ 821.462635978079561, 0.006992603381909 ], [ 820.955159860436993, 4.37442516149048 ], [ 811.796932283278238, 5.148359886130564 ], [ 810.894008441636629, 9.791968233971062 ], [ 767.166696507841834, 10.17893559476525 ], [ 767.194410084431411, 0.007740298043817 ], [ 821.462635978079561, 0.006992603381909 ] ] ] } },
{ "type": "Feature", "properties": { "feature_type": "building", "subtype": "no-damage", "uid": "c8b2c525-4f2f-48f3-aa22-f2084dc4a0ab" }, "geometry": { "type": "Polygon", "coordinates": [ [ [ 823.210094685197646, 102.279384279763605 ], [ 813.002393204207237, 101.976185225106306 ], [ 812.699194150821199, 83.986374695562674 ], [ 818.561042523191986, 84.289573747168333 ], [ 818.561042527260952, 82.672512127415274 ], [ 824.928222657902779, 81.863981320081834 ], [ 826.378416163631869, 82.46475385173639 ], [ 826.502508105940024, 87.118201793701957 ], [ 833.997041814243403, 87.203074892074767 ], [ 834.384009176054974, 75.207086663713795 ], [ 863.019593981013486, 75.723043145450873 ], [ 863.406561342952273, 119.579344199912001 ], [ 860.310822442991594, 119.192376836066103 ], [ 861.342735410535283, 126.9317240824669 ], [ 836.079045428075233, 126.305463646360195 ], [ 836.395797955256057, 114.031303374826805 ], [ 825.15108338084201, 113.6353627218908 ], [ 825.626212165891275, 102.311460017403903 ], [ 823.210094685197646, 102.279384279763605 ] ] ] } },
{ "type": "Feature", "properties": { "feature_type": "building", "subtype": "no-damage", "uid": "ae40ab90-8544-4325-9521-172214099473" }, "geometry": { "type": "Polygon", "coordinates": [ [ [ 888.816182248163841, 89.806826645357575 ], [ 894.233725322045871, 89.677837525431912 ], [ 894.233725322172972, 86.969065990717468 ], [ 904.939822343017909, 86.582098627888811 ], [ 905.068811462562053, 89.161881040643138 ], [ 932.930461545423213, 88.645924557888833 ], [ 933.059450666874795, 94.450434992180831 ], [ 940.669808787759052, 94.321445868186245 ], [ 941.572732632325256, 133.276160334955506 ], [ 930.737646493716284, 134.308073300464201 ], [ 930.221690008164273, 125.794791327388793 ], [ 912.292202225067967, 126.181758696320799 ], [ 913.06613694970838, 145.788105046070797 ], [ 894.620692684366077, 146.175072406865013 ], [ 893.975747075963795, 106.962379700244398 ], [ 887.78426928201884, 106.317434099598898 ], [ 887.526291041277318, 90.064804886226113 ], [ 888.816182248163841, 89.806826645357575 ] ] ] } },
{ "type": "Feature", "properties": { "feature_type": "building", "subtype": "no-damage", "uid": "f1799713-82e1-4d87-ae2b-a95498acf3d5" }, "geometry": { "type": "Polygon", "coordinates": [ [ [ 938.256131836465102, 0.004897941813739 ], [ 936.602329246193904, 7.342935513927393 ], [ 904.484038181116262, 7.084957271024388 ], [ 903.28204903359574, 0.005594731089776 ], [ 938.256131836465102, 0.004897941813739 ] ] ] } },
{ "type": "Feature", "properties": { "feature_type": "building", "subtype": "no-damage", "uid": "583c61d9-bb03-4ce3-8970-e018f9db0b2a" }, "geometry": { "type": "Polygon", "coordinates": [ [ [ 1022.821719213769029, 71.81825672084851 ], [ 1005.612644545611033, 70.141253325143438 ], [ 1007.083412341470989, 42.406774813078222 ], [ 1014.437251344423998, 43.877542610717931 ], [ 1015.067580399574013, 23.707012788940059 ], [ 1022.821801475868028, 24.253116359158039 ], [ 1022.821719213769029, 71.81825672084851 ] ] ] } },
{ "type": "Feature", "properties": { "feature_type": "building", "subtype": "no-damage", "uid": "b302af2a-970d-4324-a55b-1b684c4ceeb4" }, "geometry": { "type": "Polygon", "coordinates": [ [ [ 1022.821619864954982, 137.151267335763606 ], [ 1006.453083285938988, 137.796572117276099 ], [ 1005.612644545357057, 91.362331579038297 ], [ 1022.82169129097997, 89.16614091091536 ], [ 1022.821619864954982, 137.151267335763606 ] ] ] } },
{ "type": "Feature", "properties": { "feature_type": "building", "subtype": "no-damage", "uid": "0e81719d-c000-4fb2-8454-cc6136fd836d" }, "geometry": { "type": "Polygon", "coordinates": [ [ [ 1022.821539340417985, 199.872979719856602 ], [ 1010.994510768680016, 197.690540754720388 ], [ 1011.488390080568024, 175.959851126265988 ], [ 1007.208102730284963, 176.289103999501492 ], [ 1008.048806048694019, 158.72546028902579 ], [ 1014.749771088336956, 159.283874044543694 ], [ 1014.377495250476954, 150.969713720439501 ], [ 1022.821601197969017, 150.729769535711398 ], [ 1022.821539340417985, 199.872979719856602 ] ] ] } },
{ "type": "Feature", "properties": { "feature_type": "building", "subtype": "no-damage", "uid": "3ecfeed4-833a-466f-a13f-74514dbcd1f3" }, "geometry": { "type": "Polygon", "coordinates": [ [ [ 1022.821474750325024, 261.127540785929682 ], [ 1009.148715592451026, 258.55804491807362 ], [ 1008.66199220106796, 237.956698090624087 ], [ 1019.429319600144026, 237.402381174479189 ], [ 1019.171419846677054, 232.230070718818808 ], [ 1018.798360306272002, 224.232745233583898 ], [ 1009.916057558716034, 224.382148201599307 ], [ 1009.271111955526976, 214.449985903238286 ], [ 1022.821522936774045, 214.245600848138707 ], [ 1022.821474750325024, 261.127540785929682 ] ] ] } },
{ "type": "Feature", "properties": { "feature_type": "building", "subtype": "no-damage", "uid": "090ff6c8-15fb-4988-9a9a-bf30449c5c27" }, "geometry": { "type": "Polygon", "coordinates": [ [ [ 1022.821390209624951, 377.605545519309317 ], [ 1009.851895018992991, 388.882104556846684 ], [ 992.954320200134703, 370.178682050645307 ], [ 1003.402438977949032, 358.956628544889895 ], [ 994.244211409818604, 357.795726456403884 ], [ 991.27746163067377, 357.408759095609696 ], [ 991.922407235388505, 354.184031075089308 ], [ 985.343962077470337, 353.668074592335017 ], [ 988.1817227337649, 346.444683832757278 ], [ 993.47027668136343, 347.089629433402877 ], [ 994.631178768451377, 343.73591229702572 ], [ 999.145797993698238, 345.15479262332849 ], [ 999.618989179973141, 346.498454592804308 ], [ 1005.468214694192056, 346.994349931614124 ], [ 1005.35997994488298, 349.086036137301392 ], [ 1005.466264911383973, 350.701324813700182 ], [ 1022.821414034490999, 336.919147263734999 ], [ 1022.821390209624951, 377.605545519309317 ] ] ] } },
{ "type": "Feature", "properties": { "feature_type": "building", "subtype": "no-damage", "uid": "e60dfb81-57cd-41d1-988d-c03b4a2a07d5" }, "geometry": { "type": "Polygon", "coordinates": [ [ [ 716.807443175579579, 364.585594061564677 ], [ 718.121305746524968, 349.627774071473993 ], [ 723.376756013141062, 350.335238528272214 ], [ 723.275689659299815, 336.388082050654418 ], [ 770.574742068889122, 336.489148400172326 ], [ 770.069410311126603, 341.239266913982419 ], [ 787.250690031311024, 341.441399614035618 ], [ 784.926163950435352, 367.415451896895377 ], [ 780.47924449191612, 367.819717302088009 ], [ 778.862182870382071, 387.325523105935588 ], [ 757.638249100685812, 385.102063374833392 ], [ 757.132917342033238, 388.032987559682113 ], [ 735.908983571574026, 387.931921210164091 ], [ 734.494054656959634, 378.734883244321907 ], [ 729.54180344055078, 370.952774193093376 ], [ 723.679955064238243, 375.500759999729723 ], [ 715.998912365448291, 372.468769462311172 ], [ 716.807443175579579, 364.585594061564677 ] ] ] } },
{ "type": "Feature", "properties": { "feature_type": "building", "subtype": "no-damage", "uid": "8f0dc4a3-a9f6-47e3-808c-807a898152a5" }, "geometry": { "type": "Polygon", "coordinates": [ [ [ 598.918952909283576, 409.45260984617488 ], [ 600.232815475651478, 399.143842013255778 ], [ 606.903194661078032, 403.085429716680721 ], [ 607.711725471590739, 399.042775664755027 ], [ 614.887436417195659, 388.329742426643179 ], [ 628.935659247644708, 394.899055259242402 ], [ 625.095137894880168, 405.106756742643597 ], [ 633.180446001660243, 408.644079036807113 ], [ 636.919900995115881, 395.707586071661979 ], [ 649.66231193890269, 403.790259743722004 ], [ 647.438852210088044, 410.258506225785879 ], [ 652.89643517866466, 413.290496768290495 ], [ 648.449515722052752, 425.822724329260211 ], [ 650.672975453664776, 426.83338783868129 ], [ 647.337785859807127, 436.030425809609824 ], [ 632.683164920678905, 432.796302565017527 ], [ 634.502359246208016, 426.226989732418417 ], [ 636.624752623978679, 425.418458918981514 ], [ 636.826885324286309, 423.397131899121973 ], [ 632.076766815051315, 422.083269331991914 ], [ 629.752240736082967, 429.966444729686714 ], [ 614.895487095884164, 417.939548927496389 ], [ 603.980321153644695, 413.189430416737991 ], [ 598.918952909283576, 409.45260984617488 ] ] ] } },
{ "type": "Feature", "properties": { "feature_type": "building", "subtype": "no-damage", "uid": "550f7734-b750-4c1b-9105-f7446a51bbd5" }, "geometry": { "type": "Polygon", "coordinates": [ [ [ 694.515000758179895, 421.329712296880928 ], [ 712.403744941139053, 420.319048782373613 ], [ 713.21227575127034, 427.191560672681817 ], [ 724.834906149545418, 426.88836161497278 ], [ 724.531707093743535, 422.239309456783985 ], [ 741.40978775990618, 422.138243106248808 ], [ 739.186328034906296, 460.038124841780927 ], [ 727.563697635359631, 458.926394979790075 ], [ 727.159432228132346, 463.070115379199308 ], [ 709.776019807131775, 462.766916326576393 ], [ 709.877086157921326, 459.633859437605622 ], [ 680.769976986838742, 459.027461327273613 ], [ 686.02542724976729, 426.484096210797418 ], [ 693.100071841658178, 426.281963506675311 ], [ 693.40327089428115, 421.430778647416219 ], [ 694.515000758179895, 421.329712296880928 ] ] ] } },
{ "type": "Feature", "properties": { "feature_type": "building", "subtype": "no-damage", "uid": "5ac6d2dc-4d62-4fb6-b031-07f6a25ff6b1" }, "geometry": { "type": "Polygon", "coordinates": [ [ [ 767.309121497614228, 410.044682990903823 ], [ 813.700648904243394, 404.528527004447312 ], [ 813.700648904751915, 432.148916151672893 ], [ 796.806624471314194, 434.026029978259373 ], [ 798.683738297138689, 446.629508520931211 ], [ 803.510602423702835, 446.897667639596193 ], [ 803.510602420523924, 461.378260007837298 ], [ 770.404843403936297, 462.902336864873803 ], [ 767.309121497614228, 410.044682990903823 ] ] ] } },
{ "type": "Feature", "properties": { "feature_type": "building", "subtype": "no-damage", "uid": "88029541-f18f-4fec-aec0-0c9dd84cc341" }, "geometry": { "type": "Polygon", "coordinates": [ [ [ 917.939696791297365, 470.404175351980086 ], [ 942.312420334562148, 457.167265152878088 ], [ 944.413517191549317, 460.318910438039495 ], [ 957.230208018650387, 454.225729553529675 ], [ 959.961633933712847, 458.217813583977886 ], [ 970.257008530674398, 454.435839241377323 ], [ 980.762492818662395, 477.337794980759384 ], [ 973.618763501014769, 481.329879009172998 ], [ 979.291725017970293, 495.827447321118882 ], [ 977.610847532990761, 507.383480031681984 ], [ 943.783188133474141, 519.149622433144373 ], [ 926.764303592652936, 488.683718007543916 ], [ 927.814852020955755, 483.851195235877981 ], [ 926.764303594178728, 479.018672468281125 ], [ 923.192438934592019, 482.170317751407993 ], [ 917.519477420688304, 471.874943152671619 ], [ 917.939696791297365, 470.404175351980086 ] ] ] } },
{ "type": "Feature", "properties": { "feature_type": "building", "subtype": "no-damage", "uid": "61d878d3-d7cf-4774-8f0e-ded37e2764fb" }, "geometry": { "type": "Polygon", "coordinates": [ [ [ 862.272618781485107, 510.31543348431029 ], [ 869.836567466435781, 507.794117257605421 ], [ 868.99612872674345, 504.642471971426687 ], [ 886.645342323732621, 497.498742657851722 ], [ 890.427316667352329, 509.47499474207541 ], [ 901.142910636194529, 505.272801026831416 ], [ 912.698943349052229, 531.956731110848523 ], [ 888.326219809983627, 541.621776653163124 ], [ 897.150826607778868, 562.212525850635984 ], [ 883.493697040095412, 567.675377678723862 ], [ 861.642289724554189, 511.996310970814818 ], [ 862.272618781485107, 510.31543348431029 ] ] ] } },
{ "type": "Feature", "properties": { "feature_type": "building", "subtype": "no-damage", "uid": "65731014-f1d7-41b3-9dd7-7aea8e08c2c9" }, "geometry": { "type": "Polygon", "coordinates": [ [ [ 807.219002861313356, 525.296109266352801 ], [ 826.825875014943222, 520.242791701954275 ], [ 827.937604877824697, 526.913170885088562 ], [ 847.645543381354059, 521.859853320690036 ], [ 862.224424477557477, 573.081975249956145 ], [ 818.782647366454626, 587.026249377815361 ], [ 817.173692657006541, 578.176998492385451 ], [ 809.128919122100115, 579.517794080624526 ], [ 804.302054996426023, 566.37799730163988 ], [ 813.151305888726824, 562.355610529801879 ], [ 803.497577641193402, 533.394425790268087 ], [ 810.201555591038868, 532.85810755802413 ], [ 806.983646174685873, 526.15412960665617 ], [ 807.219002861313356, 525.296109266352801 ] ] ] } },
{ "type": "Feature", "properties": { "feature_type": "building", "subtype": "no-damage", "uid": "3c751c5a-f333-481e-98cf-f11855e1b165" }, "geometry": { "type": "Polygon", "coordinates": [ [ [ 754.261306556331647, 539.94756112459072 ], [ 768.089927230575086, 539.94756112459072 ], [ 768.089927230702187, 543.898595604433467 ], [ 785.869582375635332, 543.733969166289967 ], [ 790.808375476204333, 600.694716218731969 ], [ 747.017743349343846, 609.090664486744799 ], [ 745.865358292510564, 603.657992078868347 ], [ 735.49389278787703, 605.139630007919322 ], [ 733.353749113879871, 578.305520848892797 ], [ 742.902082432118391, 578.305520848892797 ], [ 744.383720362314421, 571.391210510948099 ], [ 741.255818067593168, 571.555836950108869 ], [ 737.798662898237694, 540.441440435969753 ], [ 754.261306556331647, 539.94756112459072 ] ] ] } },
{ "type": "Feature", "properties": { "feature_type": "building", "subtype": "no-damage", "uid": "309d8b34-523c-4a8e-8cce-7ca68e31a8bd" }, "geometry": { "type": "Polygon", "coordinates": [ [ [ 858.361901565483322, 621.748947689721717 ], [ 880.95017307788271, 605.663360402161288 ], [ 879.238940389252548, 601.556401946195706 ], [ 888.479596918740071, 594.369224646221596 ], [ 903.196198054107526, 584.101828504273271 ], [ 920.650771492351396, 607.716839628109597 ], [ 917.228306111276311, 611.13930500943718 ], [ 925.099976487418303, 634.754316138359627 ], [ 901.827211898981773, 654.2623688052131 ], [ 900.458225748942255, 649.813163810911419 ], [ 886.083871149622496, 662.134039180842478 ], [ 857.677408489573509, 630.989604217678561 ], [ 858.019655029944261, 623.802426919738878 ], [ 858.361901565483322, 621.748947689721717 ] ] ] } },
{ "type": "Feature", "properties": { "feature_type": "building", "subtype": "no-damage", "uid": "c08317e7-3070-48ce-b93f-a9e612f09ad7" }, "geometry": { "type": "Polygon", "coordinates": [ [ [ 671.962746523754618, 534.366527233445481 ], [ 676.477365746585519, 535.785407559748251 ], [ 677.509278713874892, 533.59259250778814 ], [ 691.053136390505642, 536.688331407365695 ], [ 691.053136389997007, 537.97822261476017 ], [ 701.501255170100421, 540.171037666720281 ], [ 700.340353087971494, 548.426341392823701 ], [ 715.303091091160127, 551.651069410292394 ], [ 712.723884823604635, 582.769008843871802 ], [ 708.100969885263908, 582.763835492354588 ], [ 702.496036156788023, 597.038401739266192 ], [ 685.84109837044673, 596.839386372822673 ], [ 685.970087488337981, 590.647908580788112 ], [ 670.749371240847495, 590.776897704782755 ], [ 662.88103487515275, 589.100039132525239 ], [ 670.233414761526092, 534.279662817246162 ], [ 671.962746523754618, 534.366527233445481 ] ] ] } },
{ "type": "Feature", "properties": { "feature_type": "building", "subtype": "no-damage", "uid": "b8dba4a8-57b8-44cb-a7a2-3a457e2705a4" }, "geometry": { "type": "Polygon", "coordinates": [ [ [ 563.576796876498065, 530.097446415783679 ], [ 572.773834843107807, 509.075645344752786 ], [ 584.800730649373122, 516.049223585596224 ], [ 592.481773347018702, 495.633820624897226 ], [ 634.626441833152398, 514.533228314343887 ], [ 630.684854133667159, 523.730266285272251 ], [ 633.211512917647838, 524.841996147263103 ], [ 628.057129001948624, 542.427541271614132 ], [ 620.578219002957667, 539.496617083713659 ], [ 613.099309009052945, 557.486427615291745 ], [ 562.262934307332671, 534.645432224454453 ], [ 563.576796876498065, 530.097446415783679 ] ] ] } },
{ "type": "Feature", "properties": { "feature_type": "building", "subtype": "no-damage", "uid": "36c8518a-166a-4983-98ad-858d2bcc72d2" }, "geometry": { "type": "Polygon", "coordinates": [ [ [ 566.406049739012701, 565.047496146940034 ], [ 588.72116762552298, 567.627278561728872 ], [ 589.366113232653674, 564.273561425351659 ], [ 599.427264651199721, 565.692441750637272 ], [ 598.91130816806367, 570.594028340363479 ], [ 629.868697144781891, 573.947745479792388 ], [ 628.57880593929417, 589.684418207359158 ], [ 623.290251988516729, 590.587342052942176 ], [ 624.064186711758452, 610.193688405743842 ], [ 619.291589245261434, 608.774808078423803 ], [ 618.388665400186596, 617.546068289316054 ], [ 569.630777756483099, 609.16177544023526 ], [ 571.565614567321404, 590.587342053959333 ], [ 566.019082374912273, 589.684418207359158 ], [ 565.890093255495231, 572.657854271380756 ], [ 566.406049739012701, 565.047496146940034 ] ] ] } },
{ "type": "Feature", "properties": { "feature_type": "building", "subtype": "no-damage", "uid": "105c2965-8e80-4851-bbc3-f86a7c0247e5" }, "geometry": { "type": "Polygon", "coordinates": [ [ [ 586.811659113387918, 625.196325035528048 ], [ 602.806310087044722, 625.841270639225172 ], [ 602.548331848337739, 630.35588986612288 ], [ 628.604134239396103, 632.806683155899805 ], [ 629.120090722023519, 658.475518188948172 ], [ 623.831536769211652, 658.604507307856579 ], [ 623.960525891044654, 667.504756640708933 ], [ 613.512407111068455, 668.536669605200359 ], [ 612.609483263704874, 677.049951575223986 ], [ 579.20130099135929, 673.696234435795191 ], [ 580.749170440640228, 660.152376758153991 ], [ 568.495203967844191, 658.088550828153984 ], [ 570.172062541119772, 641.964910731655095 ], [ 575.847583850148567, 642.609856334335063 ], [ 575.331627367394049, 630.484878985031287 ], [ 586.295702631523454, 631.903759313368482 ], [ 586.940648234966716, 625.970259761185275 ], [ 586.811659113387918, 625.196325035528048 ] ] ] } },
{ "type": "Feature", "properties": { "feature_type": "building", "subtype": "no-damage", "uid": "1cd5edf1-04e9-4999-875c-60685c49af50" }, "geometry": { "type": "Polygon", "coordinates": [ [ [ 604.528802257555185, 904.815882362637922 ], [ 604.738911943368294, 905.236101734264025 ], [ 612.723079995494913, 911.539392300517989 ], [ 619.656699626185059, 899.773249904141835 ], [ 644.239532850049613, 916.371915075235506 ], [ 635.204816366186947, 932.760470558481757 ], [ 632.683500138463387, 929.188605901694245 ], [ 619.236480255957417, 948.518696986323334 ], [ 604.108582881859888, 940.114309556852618 ], [ 582.257175572676374, 926.247070301328677 ], [ 574.483117202802532, 918.683121619179133 ], [ 592.132330798647331, 894.100288392275388 ], [ 594.653647028532419, 895.991275560523945 ], [ 600.326608543071984, 886.536339706056992 ], [ 611.252312196710136, 893.890178704427854 ], [ 604.528802257555185, 904.815882362637922 ] ] ] } },
{ "type": "Feature", "properties": { "feature_type": "building", "subtype": "no-damage", "uid": "ff88c089-3aad-4417-9b80-f0401a64fa14" }, "geometry": { "type": "Polygon", "coordinates": [ [ [ 599.014532755570144, 1022.985147379014052 ], [ 575.163196982254021, 1006.806708544540015 ], [ 575.583416354261772, 1001.553966403282971 ], [ 588.400107182379998, 984.114862490971063 ], [ 593.232629953539686, 987.686727147758575 ], [ 597.224713980683873, 980.542997835200708 ], [ 605.629101406852783, 975.710475065569312 ], [ 646.180270746541623, 1002.39440514653495 ], [ 641.135870583946712, 1022.984923801396008 ], [ 599.014532755570144, 1022.985147379014052 ] ] ] } },
{ "type": "Feature", "properties": { "feature_type": "building", "subtype": "no-damage", "uid": "eb2c240f-6065-46ca-839e-354d24ad6b39" }, "geometry": { "type": "Polygon", "coordinates": [ [ [ 642.850911941695472, 986.975036342581006 ], [ 650.917607331772388, 977.097450148568896 ], [ 662.112205020130773, 984.176386922622669 ], [ 655.033268243784505, 996.029490355030362 ], [ 642.850911941695472, 986.975036342581006 ] ] ] } },
{ "type": "Feature", "properties": { "feature_type": "building", "subtype": "no-damage", "uid": "d3f03406-e275-46f1-94d8-0d80de76c324" }, "geometry": { "type": "Polygon", "coordinates": [ [ [ 270.362350116028722, 1022.983931086862981 ], [ 274.61973449547969, 1007.98451919013803 ], [ 290.259245967559991, 1012.758685852560006 ], [ 291.411631022867482, 1008.972277810860987 ], [ 304.910998823621014, 1012.923312290703961 ], [ 304.753923035578907, 1022.984304256716996 ], [ 270.362350116028722, 1022.983931086862981 ] ] ] } },
{ "type": "Feature", "properties": { "feature_type": "building", "subtype": "no-damage", "uid": "dc73572c-75ca-429b-a84d-b0e9b38751fd" }, "geometry": { "type": "Polygon", "coordinates": [ [ [ 319.843589517334919, 911.515152616105865 ], [ 335.709251368014293, 911.257174372185546 ], [ 335.838240487558608, 915.513815357197473 ], [ 367.493637430337685, 916.715569074301129 ], [ 364.755665127079908, 947.175510964861587 ], [ 352.907969309579073, 945.23917418791541 ], [ 352.551932209704887, 953.632252422825559 ], [ 320.263615175139023, 955.73167441614612 ], [ 320.263615174630388, 911.924117541663236 ], [ 319.843589517334919, 911.515152616105865 ] ] ] } },
{ "type": "Feature", "properties": { "feature_type": "building", "subtype": "no-damage", "uid": "2d3b7a44-5955-463d-9713-ef96ad80b3f8" }, "geometry": { "type": "Polygon", "coordinates": [ [ [ 162.966334262250797, 975.51701708149244 ], [ 168.72711628612069, 965.309315598091302 ], [ 206.381169419795498, 928.373020316686961 ], [ 228.284947854759309, 955.41049682185087 ], [ 207.065662497231187, 974.918549492773309 ], [ 216.648565565055009, 985.870438709359632 ], [ 193.375800972422496, 1006.747477532609992 ], [ 184.819637523549488, 991.688629860057858 ], [ 173.867748304668993, 996.137834851307844 ], [ 165.653831389809199, 977.314275258075099 ], [ 162.966334262250797, 975.51701708149244 ] ] ] } },
{ "type": "Feature", "properties": { "feature_type": "building", "subtype": "no-damage", "uid": "d57de3ed-7f65-4bc7-a45d-3133f20e3d21" }, "geometry": { "type": "Polygon", "coordinates": [ [ [ 119.225553391546796, 904.67348996945816 ], [ 131.411915162479886, 889.125373226412421 ], [ 134.353450758523707, 891.436579768321621 ], [ 139.396083218039593, 883.242302025681283 ], [ 144.648825360825697, 884.082740766899065 ], [ 146.119593158720505, 888.074824798364375 ], [ 174.484400728239308, 908.035244939415406 ], [ 154.734090273499902, 940.602246219077529 ], [ 145.279154417502298, 934.298955650789139 ], [ 128.050160188070492, 931.987749109897209 ], [ 120.696321192874706, 934.298955650789139 ], [ 113.3424821905584, 924.844019796322186 ], [ 119.225553391546796, 904.67348996945816 ] ] ] } },
{ "type": "Feature", "properties": { "feature_type": "building", "subtype": "no-damage", "uid": "ad8c43b3-6e39-49c4-865f-25213e5b77f8" }, "geometry": { "type": "Polygon", "coordinates": [ [ [ 36.977275070832071, 819.420736173049022 ], [ 59.860349755495008, 803.616598263850278 ], [ 71.38420031645326, 821.23162697533553 ], [ 81.097160071945325, 813.494184454810693 ], [ 77.804631343530815, 807.073753430279567 ], [ 92.291757758523573, 797.854672981721023 ], [ 103.980234754700902, 818.103724679089964 ], [ 100.852332460233995, 824.194902831402942 ], [ 103.321729008865503, 827.487431562740312 ], [ 57.884832515826922, 860.741971751384199 ], [ 43.562332533764497, 837.365017759804232 ], [ 47.677993448319803, 835.389500519374224 ], [ 37.141901510120121, 820.079241918502703 ], [ 36.977275070832071, 819.420736173049022 ] ] ] } },
{ "type": "Feature", "properties": { "feature_type": "building", "subtype": "no-damage", "uid": "039bff47-1a41-47f1-8c3f-69ba0580507b" }, "geometry": { "type": "Polygon", "coordinates": [ [ [ 41.263768811802841, 733.810895603548943 ], [ 79.621728535488657, 715.043481831162012 ], [ 86.536038871402411, 729.859861121671656 ], [ 91.474831965613618, 727.225838136805237 ], [ 105.468079073295996, 749.450407073586916 ], [ 80.444860714508806, 766.406930040635643 ], [ 75.176814748460671, 762.785148434028315 ], [ 48.013452709191462, 777.272274851302541 ], [ 45.379429728901208, 771.674976011385866 ], [ 47.354946965263288, 768.711700151249374 ], [ 35.501843533739638, 744.676240414215727 ], [ 39.288251573533451, 743.02997604803852 ], [ 36.324975715302863, 737.103424330817347 ], [ 41.263768811802841, 733.810895603548943 ] ] ] } },
{ "type": "Feature", "properties": { "feature_type": "building", "subtype": "no-damage", "uid": "94e35e1c-0ad1-4ba0-9538-b14bf9f39204" }, "geometry": { "type": "Polygon", "coordinates": [ [ [ 19.996560789422571, 676.256916147423908 ], [ 33.344175773606118, 671.123218078484228 ], [ 31.632943083704379, 666.331766542794526 ], [ 42.242585760052513, 660.171328858846323 ], [ 44.638311529805861, 666.674013082148008 ], [ 64.488610734242755, 657.091110014837682 ], [ 76.467239569658332, 680.706121141725703 ], [ 69.622308804075132, 684.470833062406655 ], [ 70.991294960472345, 688.920038053656754 ], [ 44.980558066616389, 703.294392653604973 ], [ 47.034037295235983, 707.401351111604981 ], [ 31.975189618989059, 716.642007641596365 ], [ 23.076779630635372, 703.636639192958455 ], [ 12.124890410610391, 708.770337263932674 ], [ 7.333438877842852, 699.529680731906751 ], [ 13.151630024220831, 696.107215357699829 ], [ 10.41365772363319, 691.315763824044666 ], [ 16.91634194337793, 688.235544978001599 ], [ 14.52061617616766, 678.310395374389486 ], [ 19.996560789422571, 676.256916147423908 ] ] ] } },
{ "type": "Feature", "properties": { "feature_type": "building", "subtype": "no-damage", "uid": "6c4b0925-ec0d-4144-b341-093f6a261e4c" }, "geometry": { "type": "Polygon", "coordinates": [ [ [ 113.203096351655304, 607.295614389129469 ], [ 159.298498589639308, 585.400298324566052 ], [ 171.645481332669391, 612.234407485627003 ], [ 173.456372136482514, 610.917395992685101 ], [ 181.029188217595987, 626.886160341044729 ], [ 125.385452657940405, 651.909378700836442 ], [ 111.886084859730005, 628.697051144348393 ], [ 119.458900939317601, 622.935125859167442 ], [ 113.038469912367304, 608.283373010870378 ], [ 113.203096351655304, 607.295614389129469 ] ] ] } },
{ "type": "Feature", "properties": { "feature_type": "building", "subtype": "no-damage", "uid": "cc537b2b-28f2-4c36-8d60-d271790ae216" }, "geometry": { "type": "Polygon", "coordinates": [ [ [ 83.68619080864427, 561.570892986919034 ], [ 92.720907291362579, 557.368699273709581 ], [ 103.856720637171506, 580.900984068496314 ], [ 116.673411462365195, 575.228022558664406 ], [ 105.747707807455598, 551.065408702369496 ], [ 131.5911991449276, 539.299266303958802 ], [ 136.843941287205013, 555.687821787205053 ], [ 144.617999661020605, 551.695737760825864 ], [ 152.602167717852012, 571.446048214029361 ], [ 146.088767457643797, 572.496596644111833 ], [ 146.088767459551093, 574.597693499190768 ], [ 142.096683430245406, 583.002080927644215 ], [ 103.856720636154293, 601.911952641664357 ], [ 89.149042635590476, 581.951532498578899 ], [ 86.83783609240858, 584.68295841313136 ], [ 82.425532691349346, 561.570892984884495 ], [ 83.68619080864427, 561.570892986919034 ] ] ] } },
{ "type": "Feature", "properties": { "feature_type": "building", "subtype": "no-damage", "uid": "e89f76b3-0032-4ddc-a85a-d1b4883166a3" }, "geometry": { "type": "Polygon", "coordinates": [ [ [ 392.310862983825928, 785.060541731028934 ], [ 391.615012997376311, 781.489569855814125 ], [ 391.197503006752584, 778.495733779417606 ], [ 416.981501837700876, 778.08840466201309 ], [ 415.640706244374996, 839.228683555906287 ], [ 384.534248564787219, 837.083410613706405 ], [ 371.930770019693114, 822.066500009152492 ], [ 373.539724729904094, 784.524223495733281 ], [ 392.310862983825928, 785.060541731028934 ] ] ] } },
{ "type": "Feature", "properties": { "feature_type": "building", "subtype": "no-damage", "uid": "10b7bf67-dc94-4a18-a46c-c09c7486c4f4" }, "geometry": { "type": "Polygon", "coordinates": [ [ [ 392.446852087921116, 906.608912039393658 ], [ 397.266463532498221, 904.963444381210934 ], [ 407.141618763555414, 904.543225007550404 ], [ 409.242715619652472, 909.79596715084233 ], [ 428.362697016698121, 904.753334695397939 ], [ 428.782916389850186, 908.535309035964019 ], [ 436.136755387970595, 906.013992807224554 ], [ 450.003994645790385, 949.296588059283749 ], [ 407.796058174797906, 962.890332162637151 ], [ 395.578018925873607, 923.492211329396582 ], [ 392.446852087921116, 906.608912039393658 ] ] ] } },
{ "type": "Feature", "properties": { "feature_type": "building", "subtype": "no-damage", "uid": "8155a1d9-a132-47bf-886f-95019d63d8b9" }, "geometry": { "type": "Polygon", "coordinates": [ [ [ 473.963975218429596, 913.942992686415892 ], [ 477.986361984039092, 905.361900911513203 ], [ 456.265473429759197, 896.512650018962631 ], [ 459.751541964141722, 884.445489711586447 ], [ 462.969451380621877, 886.322603539190141 ], [ 471.818702274702787, 869.69673822264599 ], [ 481.665831298406601, 874.174881133907775 ], [ 488.101650127298115, 858.353493173358743 ], [ 514.381243691638474, 870.420653480734813 ], [ 526.448403995587682, 891.068905563013686 ], [ 503.190633522413918, 929.244482583060289 ], [ 473.963975218429596, 913.942992686415892 ] ] ] } },
{ "type": "Feature", "properties": { "feature_type": "building", "subtype": "no-damage", "uid": "8a8faa1a-6cd1-4f3f-8765-04743a45dfd4" }, "geometry": { "type": "Polygon", "coordinates": [ [ [ 462.828427447207787, 788.019197015193868 ], [ 497.15279454607321, 784.533128482720485 ], [ 497.152794546836219, 790.443348274521668 ], [ 504.227439134403824, 790.443348269435546 ], [ 504.530638191095704, 779.326049632234572 ], [ 516.254334940796184, 779.629248684857544 ], [ 516.794706632007887, 798.016840246111769 ], [ 518.671820459866922, 803.648181719767877 ], [ 523.766843697594027, 802.843704368858766 ], [ 522.962366345158784, 821.078524391289989 ], [ 518.135502223935191, 820.810365270590523 ], [ 517.867343101328288, 824.832752042428524 ], [ 461.553928331425084, 830.732252633732401 ], [ 459.408655390622812, 811.961114376005526 ], [ 463.699201274007521, 811.961114377022682 ], [ 461.822087450598872, 788.631271115213963 ], [ 462.828427447207787, 788.019197015193868 ] ] ] } },
{ "type": "Feature", "properties": { "feature_type": "building", "subtype": "no-damage", "uid": "57d84c03-3948-428c-a166-4f135a26ff22" }, "geometry": { "type": "Polygon", "coordinates": [ [ [ 465.377794698317018, 706.132061044204079 ], [ 477.564156470903072, 706.9724997874564 ], [ 477.984375840240602, 700.669209216116315 ], [ 509.921048068074583, 701.089428584690722 ], [ 509.080609322787382, 715.79710658550141 ], [ 518.535545178276493, 715.376887214892577 ], [ 516.644558011044182, 745.002352898257982 ], [ 474.202401495349307, 745.422572268866929 ], [ 468.319330300464173, 743.321475410736298 ], [ 466.638452812687376, 727.773358672776794 ], [ 462.85647846983062, 726.932919927490161 ], [ 462.016039728358123, 711.174693501683009 ], [ 463.486807528923123, 711.174693500665853 ], [ 464.117136584073819, 705.711841674612515 ], [ 465.377794698317018, 706.132061044204079 ] ] ] } },
{ "type": "Feature", "properties": { "feature_type": "building", "subtype": "no-damage", "uid": "3ca4cb1d-3bc1-4799-bff6-1489a8d284ca" }, "geometry": { "type": "Polygon", "coordinates": [ [ [ 474.582425354339421, 655.730541476940516 ], [ 469.31437938892708, 655.236662167596023 ], [ 468.655873639404092, 641.901920803085659 ], [ 495.325356366658184, 638.280139198512757 ], [ 495.489982802640327, 636.13999552299083 ], [ 499.770270151524585, 635.481489777537149 ], [ 500.593402336139491, 638.280139198512757 ], [ 511.294120711211292, 639.43252425636274 ], [ 513.269637950498009, 670.053041457088398 ], [ 501.910413825521687, 671.205426514938381 ], [ 502.898172447644583, 688.32657591402733 ], [ 476.722569031388275, 691.289851774163708 ], [ 474.747051792991726, 656.059794348141509 ], [ 474.582425354339421, 655.730541476940516 ] ] ] } },
{ "type": "Feature", "properties": { "feature_type": "building", "subtype": "no-damage", "uid": "a1a32bbf-351f-4839-b6f6-0c058dbe47d7" }, "geometry": { "type": "Polygon", "coordinates": [ [ [ 438.216937542288008, 594.637911135040895 ], [ 450.893173158426578, 594.308658260788206 ], [ 449.246908794664421, 567.639175538888026 ], [ 489.580385754076474, 565.16977899216522 ], [ 490.238891501564979, 564.511273245694269 ], [ 506.883446464838983, 564.63691868446665 ], [ 503.573632864556316, 613.899204213720623 ], [ 450.234667412591079, 616.533227198587156 ], [ 450.399293848954585, 611.100554794779555 ], [ 438.875443289649411, 609.783543301837653 ], [ 438.216937542288008, 594.637911135040895 ] ] ] } },
{ "type": "Feature", "properties": { "feature_type": "building", "subtype": "no-damage", "uid": "5a508df0-5280-4a53-a64a-6c8ad190a04f" }, "geometry": { "type": "Polygon", "coordinates": [ [ [ 485.300931577934421, 480.523193682037288 ], [ 490.718474648256176, 482.071063128265678 ], [ 494.330170030589784, 472.267889951864902 ], [ 497.425908929660409, 473.557781159259321 ], [ 498.8447892557096, 467.88225985099632 ], [ 507.745038588566501, 470.333053144842211 ], [ 523.223733079595831, 475.750596211219374 ], [ 521.804852751003523, 482.458030494146101 ], [ 533.026906252949971, 487.359617080820726 ], [ 522.191820109763512, 517.156103970817412 ], [ 520.127994179762368, 515.737223642480103 ], [ 516.387309677375811, 524.76646209729256 ], [ 503.230419364591114, 517.930038697491909 ], [ 498.973778376906921, 524.50848385642405 ], [ 477.690573455397214, 516.25318012828609 ], [ 486.332844546876686, 496.130877292730077 ], [ 481.947214440283972, 494.583007842432721 ], [ 486.074866302701992, 480.781171922905799 ], [ 485.300931577934421, 480.523193682037288 ] ] ] } },
{ "type": "Feature", "properties": { "feature_type": "building", "subtype": "no-damage", "uid": "b20130a1-2dea-423c-a432-b1a4646fa6fe" }, "geometry": { "type": "Polygon", "coordinates": [ [ [ 430.371714401454483, 439.121843483495581 ], [ 453.693889517687921, 449.207108394384591 ], [ 451.592792657775988, 455.300289279911624 ], [ 468.611677198978725, 461.813689537064704 ], [ 452.643341087859085, 502.574968559367221 ], [ 442.558076173913378, 500.053652333679509 ], [ 437.725553402372213, 512.870343160138077 ], [ 407.679868345966611, 502.574968559367221 ], [ 409.99107489131012, 481.563999990268087 ], [ 428.480727233840696, 438.071295052395897 ], [ 430.371714401454483, 439.121843483495581 ] ] ] } },
{ "type": "Feature", "properties": { "feature_type": "building", "subtype": "no-damage", "uid": "8bac561e-6a94-4c46-8a13-579bc5f001ca" }, "geometry": { "type": "Polygon", "coordinates": [ [ [ 342.323323074578582, 446.426369296391613 ], [ 362.493852904504593, 406.085309641646177 ], [ 396.951841359934917, 424.574961980988576 ], [ 384.555369901790016, 448.107246780861601 ], [ 391.278879843742402, 452.729659866714428 ], [ 370.478020960954382, 488.658416118368223 ], [ 332.448167851405003, 464.70591194992079 ], [ 341.692994022098105, 447.056698355865194 ], [ 342.323323074578582, 446.426369296391613 ] ] ] } },
{ "type": "Feature", "properties": { "feature_type": "building", "subtype": "no-damage", "uid": "35026928-8175-4cc4-950d-82516a3a137b" }, "geometry": { "type": "Polygon", "coordinates": [ [ [ 294.202472591109711, 409.01217247736048 ], [ 311.488248432292778, 383.659701242298922 ], [ 325.152242664832272, 393.866540312598204 ], [ 327.127759904881827, 385.799844917820678 ], [ 335.359081733610878, 391.891023070133713 ], [ 331.737300128400477, 398.64070697196928 ], [ 341.285633450835007, 403.744126503558675 ], [ 344.907415053756722, 397.48832191411941 ], [ 352.644857573140996, 403.744126504575888 ], [ 346.059800111353013, 414.280218447093489 ], [ 342.602644943777477, 412.798580519059726 ], [ 320.542702444873896, 447.864011507955524 ], [ 289.592932366701007, 425.804069008300189 ], [ 294.5317254666341, 410.823063278629718 ], [ 294.202472591109711, 409.01217247736048 ] ] ] } },
{ "type": "Feature", "properties": { "feature_type": "building", "subtype": "no-damage", "uid": "d34b502f-49d0-4ec6-93f6-025fc9375023" }, "geometry": { "type": "Polygon", "coordinates": [ [ [ 243.986861763739114, 369.956410025178684 ], [ 240.62510679301721, 365.544106626156179 ], [ 250.500262018479589, 353.147635169289174 ], [ 254.492346050582711, 354.198183600388916 ], [ 268.779804675705577, 340.330944339778796 ], [ 275.083095246031576, 345.793796167866617 ], [ 276.553863048631115, 343.272479942178791 ], [ 294.203076647146077, 355.879061082824478 ], [ 287.059347328989872, 364.283448511277925 ], [ 298.615380045153586, 374.999042480623189 ], [ 277.394301791502301, 397.690888535209524 ], [ 245.037410192296306, 370.166519714043488 ], [ 243.986861763739114, 369.956410025178684 ] ] ] } },
{ "type": "Feature", "properties": { "feature_type": "building", "subtype": "no-damage", "uid": "0292dc88-7b43-4d0a-863b-bc87653d960d" }, "geometry": { "type": "Polygon", "coordinates": [ [ [ 153.303613013815408, 327.566281049489021 ], [ 169.731446839720292, 307.715981844299279 ], [ 190.608485664506787, 326.539541434480384 ], [ 195.399937197783004, 320.036857210161372 ], [ 188.555006436268712, 313.534172986859687 ], [ 198.822402577967893, 299.502064926264779 ], [ 200.533635269395489, 297.790832234583775 ], [ 206.351826416790686, 300.186558007006226 ], [ 219.357194862002189, 311.480693759894223 ], [ 222.437413703342088, 316.956638371239023 ], [ 206.694072951312506, 339.887156417385711 ], [ 184.790294514695688, 364.528907160299525 ], [ 154.330352627807287, 340.913896033411504 ], [ 153.303613015976993, 327.908527588842503 ], [ 153.303613013815408, 327.566281049489021 ] ] ] } },
{ "type": "Feature", "properties": { "feature_type": "building", "subtype": "no-damage", "uid": "1e8ff79a-da9f-46ec-aac8-e869898999e7" }, "geometry": { "type": "Polygon", "coordinates": [ [ [ 174.510178897555505, 437.354356839111688 ], [ 173.169383307535611, 433.063810951660287 ], [ 175.850974489482809, 427.968787710248307 ], [ 180.141520377572107, 425.823514764996787 ], [ 182.554952435386497, 424.750878294405481 ], [ 189.527089503897201, 429.309583299504709 ], [ 190.599725973471806, 433.600129188990479 ], [ 197.571863039948113, 427.968787708213824 ], [ 205.884795701021801, 436.013561247820917 ], [ 215.806683062134198, 444.862812143423128 ], [ 219.829069831812689, 452.639426561313485 ], [ 198.108181276261206, 466.047382457946014 ], [ 201.05793157776381, 471.946883054336013 ], [ 189.258930384850601, 479.991656587839714 ], [ 162.4124238637784, 445.107569947461172 ], [ 174.510178897555505, 437.354356839111688 ] ] ] } },
{ "type": "Feature", "properties": { "feature_type": "building", "subtype": "no-damage", "uid": "cabb315e-a6b6-4ee1-8d98-9fa1c447ed58" }, "geometry": { "type": "Polygon", "coordinates": [ [ [ -0.000000750590724, 396.172592686985411 ], [ 31.49771756255884, 379.644026472182588 ], [ 39.839596899858037, 393.28821706018158 ], [ 37.370200349700738, 395.42836073672072 ], [ 52.680458951470037, 418.969941166444187 ], [ 24.20008542574319, 435.597211260257609 ], [ 18.27353370979063, 424.073360701085278 ], [ 8.725200388500456, 427.036636559187173 ], [ 5.268045219780653, 416.171291745468693 ], [ -0.00000075262519, 409.824221066274788 ], [ -0.000000750590724, 396.172592686985411 ] ] ] } },
{ "type": "Feature", "properties": { "feature_type": "building", "subtype": "no-damage", "uid": "20980d96-0685-4de6-bcf9-ab259529e2dd" }, "geometry": { "type": "Polygon", "coordinates": [ [ [ -0.000000754532501, 336.038985739624479 ], [ 1.965243804613177, 335.18388917487232 ], [ 7.191660434052142, 346.903732528226328 ], [ 11.784572021336251, 344.528088605523976 ], [ 18.67393940022794, 359.098704671206917 ], [ 21.999840893157149, 357.277377662615095 ], [ 29.364337057098151, 370.726274489724176 ], [ -0.000000753006652, 384.396053797076092 ], [ -0.000000754532501, 336.038985739624479 ] ] ] } },
{ "type": "Feature", "properties": { "feature_type": "building", "subtype": "no-damage", "uid": "84656a47-4bd8-4af0-92a0-091058ab6668" }, "geometry": { "type": "Polygon", "coordinates": [ [ [ -0.000000751735111, 173.809293738509808 ], [ 4.72121591009241, 175.801209761991913 ], [ 8.359604557971792, 170.545759493471195 ], [ 12.402258608500871, 172.466020170933291 ], [ 20.386500362456911, 156.39647031376569 ], [ 58.488514799968847, 173.577750034958598 ], [ 49.897874937969327, 189.546233537522113 ], [ 42.722163996687613, 186.211043945446306 ], [ 38.578443591935802, 199.652868667336406 ], [ 32.514462517858767, 216.02561757610971 ], [ 9.370268067520573, 206.929645961819887 ], [ 9.976666175564047, 203.493390015139909 ], [ -0.00000075046357, 195.527377958298388 ], [ -0.000000751735111, 173.809293738509808 ] ] ] } },
{ "type": "Feature", "properties": { "feature_type": "building", "subtype": "no-damage", "uid": "130e4aa3-6c91-45a0-b690-fa71cd334e6b" }, "geometry": { "type": "Polygon", "coordinates": [ [ [ 308.939245207512386, 529.607246267950131 ], [ 311.790017914756618, 527.310790477869546 ], [ 309.810314644862217, 523.747324592290397 ], [ 315.274295669877517, 520.025482445536795 ], [ 318.521009031965093, 524.539205900196862 ], [ 332.069990783062792, 515.823061476394741 ], [ 334.495583211803591, 520.067848234476969 ], [ 338.133971858284326, 516.833724990901942 ], [ 349.554469554217292, 536.541663491751024 ], [ 346.11821361071452, 538.866189572371241 ], [ 354.181328214220798, 555.766804298403372 ], [ 306.114132825442198, 581.186194280981113 ], [ 283.661011798639379, 543.676113377961087 ], [ 309.021907069172812, 529.705201798218013 ], [ 308.939245207512386, 529.607246267950131 ] ] ] } },
{ "type": "Feature", "properties": { "feature_type": "building", "subtype": "no-damage", "uid": "8e73d39f-b9e1-4c37-9d49-fb4d20888566" }, "geometry": { "type": "Polygon", "coordinates": [ [ [ -0.000000753642423, 16.856732636511389 ], [ 28.270004940663039, 19.651664407952069 ], [ 28.05989525434126, 74.700402056387432 ], [ -0.000000751226495, 72.179085828665208 ], [ -0.000000753642423, 16.856732636511389 ] ] ] } },
{ "type": "Feature", "properties": { "feature_type": "building", "subtype": "no-damage", "uid": "2f5145e2-3c99-410a-af0d-5288ca93cb20" }, "geometry": { "type": "Polygon", "coordinates": [ [ [ 117.896869698253894, 0.005584912757853 ], [ 132.813631387255214, 2.796125753639842 ], [ 132.155125643835589, 8.558051035769047 ], [ 151.087165851323988, 7.570292414028194 ], [ 147.794637115534613, 34.569028013232703 ], [ 129.685729096094292, 35.062907321560047 ], [ 129.356476222477198, 39.837073980931173 ], [ 98.242079711119572, 37.2030509991164 ], [ 99.559091203680637, 24.85606825634688 ], [ 103.052055615693405, 0.005296050149289 ], [ 117.896869698253894, 0.005584912757853 ] ] ] } },
{ "type": "Feature", "properties": { "feature_type": "building", "subtype": "no-damage", "uid": "70ecebb1-8176-4da9-a8d6-7c3c1bc0bfa7" }, "geometry": { "type": "Polygon", "coordinates": [ [ [ 111.053168193651203, 122.033158458791704 ], [ 109.980531725983894, 126.323704344208593 ], [ 120.1705782079231, 131.418727587655212 ], [ 114.807395847843196, 142.949569661770113 ], [ 84.237256398083773, 128.200818170795088 ], [ 113.198441138903803, 77.786903996039015 ], [ 154.226786187614692, 104.066497556042805 ], [ 142.427784997117413, 126.055545227577994 ], [ 118.025305262416197, 111.574952860354202 ], [ 111.053168193651203, 122.033158458791704 ] ] ] } },
{ "type": "Feature", "properties": { "feature_type": "building", "subtype": "no-damage", "uid": "fd7fa6b5-5749-4727-b168-b326fb82871f" }, "geometry": { "type": "Polygon", "coordinates": [ [ [ 161.341800310173511, 159.001157558161708 ], [ 161.341800312462198, 153.568485150285113 ], [ 175.499673854855104, 133.813312763277992 ], [ 183.401742812637394, 127.228255299585996 ], [ 189.822173838697694, 123.771100134174006 ], [ 202.663035888656708, 132.331674835244314 ], [ 200.687518652803192, 133.648686325134491 ], [ 211.388237030926689, 142.867766773692892 ], [ 213.36375426601731, 140.233743789843686 ], [ 223.241340462323194, 148.629692054804906 ], [ 195.913351993302513, 188.140036830853603 ], [ 190.151426711933311, 189.950927631105486 ], [ 181.426225572079204, 186.164519593475291 ], [ 169.24386926630271, 173.982163282745887 ], [ 166.939099152636089, 165.750841454911097 ], [ 161.177173872792707, 159.659663302598091 ], [ 161.341800310173511, 159.001157558161708 ] ] ] } },
{ "type": "Feature", "properties": { "feature_type": "building", "subtype": "no-damage", "uid": "c8453247-b4a2-4596-b3d6-f83ef7122f97" }, "geometry": { "type": "Polygon", "coordinates": [ [ [ 293.057829983004922, 877.017706071336647 ], [ 259.148126981105577, 878.579337132469277 ], [ 258.255766375016208, 873.002083349976033 ], [ 262.494479250094628, 866.086288656632746 ], [ 279.672420903869977, 863.85538714261827 ], [ 280.11860120685111, 853.370150028479316 ], [ 265.840831523152588, 855.154871239894305 ], [ 267.625552733805591, 863.186116687701769 ], [ 259.371217130879586, 863.855387144652695 ], [ 255.578684561579706, 858.27813335707333 ], [ 249.109070172104111, 856.493412147692652 ], [ 246.208898203298901, 822.360618994765332 ], [ 249.555250470889206, 819.237356876569038 ], [ 287.034395898799175, 814.775553846505545 ], [ 288.819117111613878, 816.114094755321162 ], [ 290.82692847204089, 821.468258391600784 ], [ 288.596026957262325, 822.583709144030536 ], [ 266.510101975526311, 824.145340205163166 ], [ 266.510101973746089, 825.483881113978669 ], [ 293.504010289419227, 825.037700809344756 ], [ 294.396370893092694, 830.3918644395211 ], [ 296.181092101711272, 851.362338666781739 ], [ 311.128132241852427, 852.477789424297612 ], [ 313.359033758919679, 855.154871239894305 ], [ 311.797402699312215, 875.456075013255827 ], [ 308.227960275590192, 877.463886374953404 ], [ 302.204526190367289, 876.794615921054174 ], [ 300.419804979841388, 876.57152576873716 ], [ 298.635083770587073, 872.332812893025107 ], [ 295.511821649719082, 872.778993199693559 ], [ 295.958001951301526, 874.786804556304901 ], [ 293.057829983004922, 877.017706071336647 ] ] ] } },
{ "type": "Feature", "properties": { "feature_type": "building", "subtype": "no-damage", "uid": "68a64754-bb28-477d-bcda-98c9f8d4144f" }, "geometry": { "type": "Polygon", "coordinates": [ [ [ 221.659279739197501, 131.2218929040624 ], [ 214.400505703997709, 127.797942884545506 ], [ 213.167883699234295, 124.784866873270602 ], [ 216.591833713666801, 116.567386831516103 ], [ 219.604909729902289, 116.019554835107201 ], [ 228.233263771765195, 120.950042854666805 ], [ 228.918053775414592, 121.360916855788105 ], [ 228.09630576833959, 130.674060900532908 ], [ 225.494103759710612, 131.769724906574794 ], [ 224.535397753279, 131.769724906574794 ], [ 221.659279739197501, 131.2218929040624 ] ] ] } },
{ "type": "Feature", "properties": { "feature_type": "building", "subtype": "un-classified", "uid": "d7d46a92-ab4b-49e2-afb0-7bc4665d397b" }, "geometry": { "type": "Polygon", "coordinates": [ [ [ 780.355044735509068, 201.383389466994089 ], [ 751.283816830097408, 200.293218422976707 ], [ 750.193645783790657, 199.566437722557112 ], [ 750.920426479505977, 187.574556212935107 ], [ 781.445215782070136, 189.028117608688092 ], [ 780.355044735509068, 201.383389466994089 ] ] ] } }
]
}
