{
"type": "FeatureCollection",
"name": "socal-fire_00000365_post_disaster",
"features": [
{ "type": "Feature", "properties": { "feature_type": "building", "subtype": "no-damage", "uid": "c06aef49-4dd9-4c1f-ac75-8b4e69e547f6" }, "geometry": { "type": "Polygon", "coordinates": [ [ [ 347.628246496588417, 370.320489343669522 ], [ 340.383426672811709, 364.086574612339689 ], [ 330.105891572847895, 352.96661860474552 ], [ 351.334898497002484, 333.422453503756515 ], [ 360.938496868924688, 343.699988600281927 ], [ 368.183316688886919, 351.113292604666583 ], [ 347.628246496588417, 370.320489343669522 ] ] ] } },
{ "type": "Feature", "properties": { "feature_type": "building", "subtype": "no-damage", "uid": "c3b255d4-42ee-435c-98a3-3f095e64251b" }, "geometry": { "type": "Polygon", "coordinates": [ [ [ 328.459233519864085, 383.468895323745699 ], [ 337.700057082680814, 390.86155417755549 ], [ 327.667162927167112, 404.062730691898423 ], [ 318.29432760413539, 396.406048314352688 ], [ 328.459233519864085, 383.468895323745699 ] ] ] } },
{ "type": "Feature", "properties": { "feature_type": "building", "subtype": "no-damage", "uid": "4bb8b5d2-0095-4acc-8669-89537b885601" }, "geometry": { "type": "Polygon", "coordinates": [ [ [ 303.933836843614984, 413.687250272707217 ], [ 278.765098877273715, 448.112265346152185 ], [ 261.572285617281011, 434.545476003192107 ], [ 287.591309465180586, 400.570221718197502 ], [ 303.933836843614984, 413.687250272707217 ] ] ] } },
{ "type": "Feature", "properties": { "feature_type": "building", "subtype": "no-damage", "uid": "e5663add-c71d-4551-b78b-8ba89523679e" }, "geometry": { "type": "Polygon", "coordinates": [ [ [ 48.97924974785888, 657.385432880371127 ], [ 78.344648461813506, 623.628946507820615 ], [ 71.209131016122328, 618.140086936718831 ], [ 81.956394210145362, 604.929120795747963 ], [ 90.70086636274155, 612.345365083339289 ], [ 103.318959520079702, 597.831306516724794 ], [ 118.687766320266206, 612.376784386349755 ], [ 100.300086752462704, 632.685564802274826 ], [ 65.420693022833362, 673.883430901773295 ], [ 48.97924974785888, 657.385432880371127 ] ] ] } },
{ "type": "Feature", "properties": { "feature_type": "building", "subtype": "no-damage", "uid": "457b1873-9b33-4dad-b309-90f668083556" }, "geometry": { "type": "Polygon", "coordinates": [ [ [ 165.499052330928492, 514.002708029874498 ], [ 150.953574463711988, 530.743729727533378 ], [ 150.130245524765712, 531.29261568606762 ], [ 129.821465107558708, 514.826036964624222 ], [ 137.780311486855709, 506.592747604919794 ], [ 141.896956165947103, 509.337177394539708 ], [ 148.758030632371003, 500.555002077318079 ], [ 157.540205949978514, 506.592747607971489 ], [ 165.499052330928492, 514.002708029874498 ] ] ] } },
{ "type": "Feature", "properties": { "feature_type": "building", "subtype": "no-damage", "uid": "e818a18d-7e78-4408-9a09-fcf8d355aa3e" }, "geometry": { "type": "Polygon", "coordinates": [ [ [ 130.095908083901492, 545.838093553658268 ], [ 150.404688502634286, 562.853558228549787 ], [ 134.431398838087091, 581.240450783977622 ], [ 116.263745857251706, 565.104305457943155 ], [ 130.095908083901492, 545.838093553658268 ] ] ] } },
{ "type": "Feature", "properties": { "feature_type": "building", "subtype": "no-damage", "uid": "25584ac8-79e3-4e42-9b93-cabb0e665acc" }, "geometry": { "type": "Polygon", "coordinates": [ [ [ 957.652930468820159, 236.800818409517404 ], [ 948.664632906587826, 227.941509966452287 ], [ 972.920291567274717, 199.385186206713911 ], [ 996.573949613663558, 219.383124756452588 ], [ 985.177187102181392, 234.005386095405697 ], [ 990.983084985945879, 234.005386097440208 ], [ 991.19811824275564, 234.005386095405697 ], [ 991.757173869434496, 267.50732055841371 ], [ 978.941222708103396, 268.195673634158197 ], [ 958.943129994674564, 269.915939672359627 ], [ 958.728096739899229, 251.423079745418903 ], [ 947.976433992361422, 251.638113003245707 ], [ 947.54636748522671, 236.585785156776694 ], [ 957.652930468820159, 236.800818409517404 ] ] ] } },
{ "type": "Feature", "properties": { "feature_type": "building", "subtype": "no-damage", "uid": "68ccd9f5-ea53-45a7-9771-59365a41332a" }, "geometry": { "type": "Polygon", "coordinates": [ [ [ 982.991480488582283, 321.086386116538279 ], [ 988.046005948258312, 315.694892296277374 ], [ 992.763563041752036, 320.075481025493673 ], [ 986.024195761717692, 326.983332483847391 ], [ 986.529648311309188, 327.99423757692648 ], [ 984.339353941995228, 330.184531944077776 ], [ 977.26301830061027, 323.276680482672418 ], [ 980.632701942089739, 319.570028480480119 ], [ 982.991480488582283, 321.086386116538279 ] ] ] } },
{ "type": "Feature", "properties": { "feature_type": "building", "subtype": "no-damage", "uid": "859223c8-e04e-4fc3-8db3-4031cd69438c" }, "geometry": { "type": "Polygon", "coordinates": [ [ [ 926.613256066375925, 349.991743828895494 ], [ 929.315946683538755, 349.653907504802021 ], [ 931.916208071194433, 356.967142662316519 ], [ 930.799999212469288, 360.470000459982487 ], [ 928.567534402857632, 361.125291916307503 ], [ 929.623628520689408, 364.557597810321511 ], [ 916.686475536433591, 369.045997825727 ], [ 908.501746096789248, 347.132044806343401 ], [ 924.13999921439256, 342.220000464301791 ], [ 926.613256066375925, 349.991743828895494 ] ] ] } },
{ "type": "Feature", "properties": { "feature_type": "building", "subtype": "no-damage", "uid": "61e45982-e715-499d-a9f2-79843fbdb776" }, "geometry": { "type": "Polygon", "coordinates": [ [ [ 940.316581503726297, 353.732633065549294 ], [ 941.768710917207272, 353.864644829960412 ], [ 942.824805041015225, 362.049374272270825 ], [ 932.527887355662074, 364.821621341177888 ], [ 932.395875589470847, 364.425586043876024 ], [ 930.879999215196221, 360.63000046085881 ], [ 931.238808636468434, 360.745168945010391 ], [ 932.443724860969496, 356.958289386363617 ], [ 929.652492427725747, 349.107948174139892 ], [ 926.963689228693852, 349.444048574018723 ], [ 924.475169682717592, 341.620000459998607 ], [ 924.475169683099011, 340.663468311548627 ], [ 925.927299097978675, 339.871397723047892 ], [ 925.399252040080114, 338.023233012138576 ], [ 934.772087366163419, 334.986962410340425 ], [ 940.316581503726297, 353.732633065549294 ] ] ] } },
{ "type": "Feature", "properties": { "feature_type": "building", "subtype": "un-classified", "uid": "4ac0042c-f188-4f42-8699-b5e94de9f756" }, "geometry": { "type": "Polygon", "coordinates": [ [ [ 840.371676564006634, 545.403741178448968 ], [ 845.586093156988341, 503.688408422409509 ], [ 855.466040385815859, 505.060623319762612 ], [ 856.014926344350556, 500.395092682393226 ], [ 863.424886767147427, 501.218421617143008 ], [ 857.661584218937037, 547.050399047948531 ], [ 840.371676564006634, 545.403741178448968 ] ] ] } },
{ "type": "Feature", "properties": { "feature_type": "building", "subtype": "un-classified", "uid": "b33f0542-94f2-4324-8d22-9daad24d34bd" }, "geometry": { "type": "Polygon", "coordinates": [ [ [ 835.157259971024814, 555.283688408670173 ], [ 821.983996991752633, 555.283688405618477 ], [ 822.532882949778582, 534.42602203421086 ], [ 834.882816992647577, 534.97490798765898 ], [ 835.157259971024814, 555.283688408670173 ] ] ] } },
{ "type": "Feature", "properties": { "feature_type": "building", "subtype": "no-damage", "uid": "eca5d6fd-08b6-4c20-8b7d-329ff5a94b69" }, "geometry": { "type": "Polygon", "coordinates": [ [ [ 832.585909720910308, 512.063202334421248 ], [ 833.286442748043214, 504.007072519663495 ], [ 840.64203953351057, 504.357339033039011 ], [ 839.646673253011613, 512.978768614930232 ], [ 832.585909720910308, 512.063202334421248 ] ] ] } },
{ "type": "Feature", "properties": { "feature_type": "building", "subtype": "un-classified", "uid": "500cacec-a955-4706-9096-a9150e39f0c2" }, "geometry": { "type": "Polygon", "coordinates": [ [ [ 854.22027057070909, 473.146159646577928 ], [ 849.919605472914668, 483.89782239652618 ], [ 838.307809704876945, 479.597157292884901 ], [ 842.608474805468859, 468.630461292230279 ], [ 854.22027057070909, 473.146159646577928 ] ] ] } },
{ "type": "Feature", "properties": { "feature_type": "building", "subtype": "no-damage", "uid": "642bee96-83b5-4da9-8a8d-324943ba983c" }, "geometry": { "type": "Polygon", "coordinates": [ [ [ 836.599666410283362, 604.687863640037108 ], [ 833.031907692651089, 599.199004064866358 ], [ 846.205170664039656, 589.593499813912217 ], [ 849.498486410415353, 594.807916403712397 ], [ 836.599666410283362, 604.687863640037108 ] ] ] } },
{ "type": "Feature", "properties": { "feature_type": "building", "subtype": "no-damage", "uid": "99c00a3d-7d76-4947-96f0-f52bb6b051f3" }, "geometry": { "type": "Polygon", "coordinates": [ [ [ 31.580414642602321, 632.027119628971263 ], [ 38.894434093423421, 603.303373403714318 ], [ 46.93012001090861, 605.068393393614656 ], [ 46.672141767242543, 607.648175807386224 ], [ 52.21867396346623, 609.454023500586572 ], [ 46.672141771820087, 636.670727975794534 ], [ 36.095033869756541, 634.735891164702934 ], [ 31.580414642602321, 632.027119628971263 ] ] ] } },
{ "type": "Feature", "properties": { "feature_type": "building", "subtype": "no-damage", "uid": "097cbce0-009f-4588-964f-c2ed0bf9f7ab" }, "geometry": { "type": "Polygon", "coordinates": [ [ [ 1022.816236134037013, 638.754062692275966 ], [ 1013.532541478068993, 646.572150399307247 ], [ 1009.528494632348952, 640.832545861918788 ], [ 1020.743871820918002, 631.652171084406632 ], [ 1022.816234669220989, 635.537704514894699 ], [ 1022.816236134037013, 638.754062692275966 ] ] ] } }
]
}
