{
"type": "FeatureCollection",
"name": "socal-fire_00000911_post_disaster",
"features": [
{ "type": "Feature", "properties": { "feature_type": "building", "subtype": "no-damage", "uid": "5c858477-3573-48c4-95da-186b3d933d20" }, "geometry": { "type": "Polygon", "coordinates": [ [ [ 946.299264772283323, 933.413220620265747 ], [ 948.52723731572712, 883.124697581842383 ], [ 987.357615864872855, 885.352670119690856 ], [ 986.721052283356926, 893.62799669668982 ], [ 997.542633190235279, 894.264560281257445 ], [ 995.951224233775292, 904.449577603821126 ], [ 994.359815276297923, 904.449577601786586 ], [ 994.996378861882931, 907.63239551852098 ], [ 991.813560948199893, 907.63239551852098 ], [ 991.176997360453242, 914.952876722737642 ], [ 966.351017634030654, 913.361467761318636 ], [ 966.351017630597426, 938.187447493332797 ], [ 946.299264772410538, 937.232602119533226 ], [ 946.299264772283323, 933.413220620265747 ] ] ] } },
{ "type": "Feature", "properties": { "feature_type": "building", "subtype": "no-damage", "uid": "d8574e83-8eca-45df-8b62-b1bd13595eeb" }, "geometry": { "type": "Polygon", "coordinates": [ [ [ 864.862514331925013, 1022.982046541568025 ], [ 866.713281495759816, 1015.993699060181029 ], [ 863.498202838041038, 1012.013125485422961 ], [ 865.641588607988524, 1006.807760037910043 ], [ 866.713281496141349, 958.428481199356384 ], [ 897.098431875778942, 960.033488666674998 ], [ 897.365162568689698, 981.813696714376533 ], [ 893.078391027014391, 982.579191636629048 ], [ 892.772193058062498, 987.784557077021418 ], [ 904.254616832596071, 987.937656061878783 ], [ 904.254616834884928, 995.745704232639923 ], [ 908.04944321869425, 996.288313920824635 ], [ 906.72220538025897, 1022.981283944192 ], [ 864.862514331925013, 1022.982046541568025 ] ] ] } },
{ "type": "Feature", "properties": { "feature_type": "building", "subtype": "no-damage", "uid": "ae76420a-fdad-4a3d-8398-0e9d20da4d78" }, "geometry": { "type": "Polygon", "coordinates": [ [ [ 789.003795993709332, 1021.185842940984003 ], [ 783.268007422909477, 995.250103305133621 ], [ 817.433356748932852, 989.514314732935759 ], [ 821.423470538653419, 1015.200672257039969 ], [ 789.003795993709332, 1021.185842940984003 ] ] ] } },
{ "type": "Feature", "properties": { "feature_type": "building", "subtype": "no-damage", "uid": "de23f7fd-22b2-4f3e-9c4b-84a0b772997a" }, "geometry": { "type": "Polygon", "coordinates": [ [ [ 710.516765575166573, 946.968941572545759 ], [ 706.999612194356928, 947.359736390516332 ], [ 707.195009603215112, 940.130032216352447 ], [ 703.482458815073301, 939.543839985327509 ], [ 703.873253632026604, 935.440494376290872 ], [ 700.551497660710993, 936.222084016301096 ], [ 701.919279534798193, 924.10744459003854 ], [ 704.264048452540464, 924.302841999023826 ], [ 704.264048454575004, 922.348867898998151 ], [ 722.810707692149663, 923.632052914656697 ], [ 718.528059390613407, 947.555133801536272 ], [ 710.516765575166573, 946.968941572545759 ] ] ] } },
{ "type": "Feature", "properties": { "feature_type": "building", "subtype": "no-damage", "uid": "9cc4587c-49a7-4a48-8ff8-baa936a555d5" }, "geometry": { "type": "Polygon", "coordinates": [ [ [ 704.264048454575004, 922.348867898998151 ], [ 706.999612194484143, 907.694062139650441 ], [ 724.780776515528373, 909.648036239676003 ], [ 722.810707692149663, 923.632052914656697 ], [ 704.264048454575004, 922.348867898998151 ] ] ] } },
{ "type": "Feature", "properties": { "feature_type": "building", "subtype": "no-damage", "uid": "db3a9046-7bd5-403e-9ee2-6a00770511ad" }, "geometry": { "type": "Polygon", "coordinates": [ [ [ 732.888106483073329, 911.337789010133065 ], [ 735.49078920314264, 892.047317064585513 ], [ 755.852954035065295, 894.649999785798968 ], [ 755.546756065859086, 899.242969294899694 ], [ 754.015766229746191, 898.783672346431104 ], [ 752.94407334464529, 911.490887991938735 ], [ 732.888106483073329, 911.337789010133065 ] ] ] } },
{ "type": "Feature", "properties": { "feature_type": "building", "subtype": "no-damage", "uid": "e4980aec-cd24-4d38-a2fa-5140b7187f33" }, "geometry": { "type": "Polygon", "coordinates": [ [ [ 596.207504340714536, 992.367072303466784 ], [ 596.012106933891005, 973.608920935082438 ], [ 637.631755286695466, 974.390510572040853 ], [ 635.873178594892011, 992.953264533474453 ], [ 596.207504340714536, 992.367072303466784 ] ] ] } },
{ "type": "Feature", "properties": { "feature_type": "building", "subtype": "no-damage", "uid": "5e0591b1-b944-4edd-8505-2739d320c733" }, "geometry": { "type": "Polygon", "coordinates": [ [ [ 596.012106933891005, 973.608920935082438 ], [ 598.552273265323379, 956.218551429595209 ], [ 617.896616864480961, 958.367922942675136 ], [ 615.747245353180915, 973.804318345084994 ], [ 596.012106933891005, 973.608920935082438 ] ] ] } },
{ "type": "Feature", "properties": { "feature_type": "building", "subtype": "no-damage", "uid": "da8b6849-8bdd-4790-a582-03dd4163aca2" }, "geometry": { "type": "Polygon", "coordinates": [ [ [ 431.069238106569117, 961.530921816724913 ], [ 437.054408790641219, 936.09394640233279 ], [ 477.204928805060092, 946.567995101778251 ], [ 468.975319116416017, 971.506206293695072 ], [ 431.069238106569117, 961.530921816724913 ] ] ] } },
{ "type": "Feature", "properties": { "feature_type": "building", "subtype": "no-damage", "uid": "b0c12bf6-5194-4f12-b588-784db3dda07e" }, "geometry": { "type": "Polygon", "coordinates": [ [ [ 235.227388649680989, 902.956753743140666 ], [ 235.726152877369714, 877.270396221071451 ], [ 267.148298970750886, 877.270396219036911 ], [ 266.649534750183022, 879.514835224753028 ], [ 276.126055001754708, 882.008656344249857 ], [ 281.612461461571286, 889.490119701723188 ], [ 289.093924816756726, 889.490119701723188 ], [ 301.563030415260016, 913.929566665061316 ], [ 289.592689042665313, 919.914737350022733 ], [ 276.874201338646515, 906.198721196858969 ], [ 234.4792423176211, 905.201192748856784 ], [ 235.227388649680989, 902.956753743140666 ] ] ] } },
{ "type": "Feature", "properties": { "feature_type": "building", "subtype": "no-damage", "uid": "e97d0af7-9531-49df-afa6-df77c3d46adb" }, "geometry": { "type": "Polygon", "coordinates": [ [ [ 316.97015585217531, 678.777361797689878 ], [ 339.913310147073616, 678.029215459399325 ], [ 365.599667669654821, 656.582353833964248 ], [ 399.016870663491318, 689.99955682932216 ], [ 381.560122828282374, 709.2019794429375 ], [ 363.604610771106991, 695.984727514283577 ], [ 355.375001081191272, 703.216808760010622 ], [ 342.407131264281873, 710.199507890939685 ], [ 337.668871136143707, 705.960011992271006 ], [ 317.219537962650008, 705.960011988201927 ], [ 316.97015585217531, 678.777361797689878 ] ] ] } },
{ "type": "Feature", "properties": { "feature_type": "building", "subtype": "no-damage", "uid": "6983173b-bbeb-40dc-80f9-13596ef5aeaf" }, "geometry": { "type": "Polygon", "coordinates": [ [ [ 716.632278801423013, 854.900408686029209 ], [ 709.597972037260661, 836.92384695968974 ], [ 725.620559668535975, 823.83222048239702 ], [ 739.29837837443938, 840.636397750755691 ], [ 716.632278801423013, 854.900408686029209 ] ] ] } },
{ "type": "Feature", "properties": { "feature_type": "building", "subtype": "no-damage", "uid": "2351f2af-7ee5-4ee5-a309-af72250acda6" }, "geometry": { "type": "Polygon", "coordinates": [ [ [ 612.13947364527769, 859.926810842311852 ], [ 650.04555465118267, 861.921867735264414 ], [ 647.801115643431672, 886.860078924129539 ], [ 611.391327306478388, 886.111932588890795 ], [ 609.89503463434778, 873.892209106204518 ], [ 612.13947364527769, 859.926810842311852 ] ] ] } },
{ "type": "Feature", "properties": { "feature_type": "building", "subtype": "no-damage", "uid": "8dff6694-fc85-49fb-baa2-eebfa6c9292d" }, "geometry": { "type": "Polygon", "coordinates": [ [ [ 577.672494577428665, 944.242514030919892 ], [ 575.178673458567232, 932.272172657945248 ], [ 594.879860297712185, 930.027733650194591 ], [ 596.625535077647214, 941.249928684878682 ], [ 577.672494577428665, 944.242514030919892 ] ] ] } },
{ "type": "Feature", "properties": { "feature_type": "building", "subtype": "no-damage", "uid": "35d077a7-0bd8-4a5e-b6c6-c2c2e46934f8" }, "geometry": { "type": "Polygon", "coordinates": [ [ [ 238.780124049940412, 1022.983292184184052 ], [ 240.269712108790998, 1015.196808806587001 ], [ 252.670729790180388, 1017.34019457831505 ], [ 251.243698940354591, 1022.983453200282042 ], [ 238.780124049940412, 1022.983292184184052 ] ] ] } },
{ "type": "Feature", "properties": { "feature_type": "building", "subtype": "no-damage", "uid": "457f2fdc-4f28-43d1-bccf-8c67f9f9f29d" }, "geometry": { "type": "Polygon", "coordinates": [ [ [ 711.366134456305076, 1022.984114380191045 ], [ 714.273199235330139, 1011.257889517307035 ], [ 724.824659378267484, 1011.648684336294991 ], [ 724.107362991252103, 1022.983986305239 ], [ 711.366134456305076, 1022.984114380191045 ] ] ] } },
{ "type": "Feature", "properties": { "feature_type": "building", "subtype": "no-damage", "uid": "2912bb7a-5a82-4c95-ab32-adb0bf1dc89c" }, "geometry": { "type": "Polygon", "coordinates": [ [ [ 781.005024152546412, 868.877519639862157 ], [ 809.005902302093091, 868.877519639862157 ], [ 809.436685044625847, 874.046912528891198 ], [ 831.837387566552025, 875.770043492918148 ], [ 830.114256602143428, 917.125186609219327 ], [ 794.359289115746037, 917.986752091232802 ], [ 793.497723638055845, 898.170746012043878 ], [ 781.005024153817999, 897.739963272563045 ], [ 781.005024152546412, 868.877519639862157 ] ] ] } },
{ "type": "Feature", "properties": { "feature_type": "building", "subtype": "no-damage", "uid": "e525b519-3004-46f4-b42a-222fb7613395" }, "geometry": { "type": "Polygon", "coordinates": [ [ [ 327.936963963817675, 945.993665152880794 ], [ 342.556654130118773, 945.065430856187959 ], [ 341.628419831518499, 954.347773820064049 ], [ 347.197825610277221, 959.453062447296702 ], [ 357.408402867287009, 953.419539523371213 ], [ 368.547214424550077, 973.144518318683254 ], [ 343.252829851875504, 986.603915616150971 ], [ 327.472846812292175, 962.701882487247303 ], [ 327.936963963817675, 945.993665152880794 ] ] ] } },
{ "type": "Feature", "properties": { "feature_type": "building", "subtype": "no-damage", "uid": "20badabc-3bf2-498e-bdb5-3ff023d3bbab" }, "geometry": { "type": "Polygon", "coordinates": [ [ [ 341.116893180651118, 840.833433221301561 ], [ 348.542767553685678, 840.833433222318831 ], [ 351.327470443764412, 843.386077538478276 ], [ 348.774826124044182, 850.115776188229461 ], [ 339.26042458726522, 850.347834760113756 ], [ 338.796307438664428, 843.386077538478276 ], [ 341.116893180651118, 840.833433221301561 ] ] ] } },
{ "type": "Feature", "properties": { "feature_type": "building", "subtype": "no-damage", "uid": "943eb380-7a97-4dc1-8aa5-96fed09217bf" }, "geometry": { "type": "Polygon", "coordinates": [ [ [ 346.691498362023822, 867.066450896402216 ], [ 354.762201158778907, 868.075288746918432 ], [ 354.762201162339409, 871.227907026093817 ], [ 352.870630193892907, 875.893782084603799 ], [ 345.304346315783619, 874.380525307303742 ], [ 346.691498362023822, 867.066450896402216 ] ] ] } }
]
}
