{
"type": "FeatureCollection",
"name": "socal-fire_00000040_post_disaster",
"features": [
{ "type": "Feature", "properties": { "feature_type": "building", "subtype": "no-damage", "uid": "0c3baf76-bb58-46ec-8b7d-1a7461c0e42c" }, "geometry": { "type": "Polygon", "coordinates": [ [ [ -0.000000709901408, 81.632292638463611 ], [ 16.398847185650698, 98.795351808105636 ], [ -0.000000710410025, 114.207078403749406 ], [ -0.000000709901408, 81.632292638463611 ] ] ] } },
{ "type": "Feature", "properties": { "feature_type": "building", "subtype": "no-damage", "uid": "8bed4951-f8af-4d39-89cd-251b7ab3eaa0" }, "geometry": { "type": "Polygon", "coordinates": [ [ [ -0.000000709392792, 71.277669415426317 ], [ -0.000000711935874, 40.804482733445383 ], [ 15.924419622088321, 31.34728686620279 ], [ 32.036679249958972, 46.408746952539957 ], [ 29.584813653023041, 49.2108790575097 ], [ 30.63561319556608, 50.611945114063502 ], [ 43.245207683321993, 63.221539600668599 ], [ 18.726551733035731, 89.141261608767692 ], [ -0.000000709392792, 71.277669415426317 ] ] ] } },
{ "type": "Feature", "properties": { "feature_type": "building", "subtype": "no-damage", "uid": "815b52f8-2036-4293-a583-7d814c0771b1" }, "geometry": { "type": "Polygon", "coordinates": [ [ [ 69.111747128508554, 0.004499307568781 ], [ 76.633227906797245, 7.23006334047283 ], [ 72.117529551811572, 11.53072843597632 ], [ 79.428660221673326, 19.271925618054929 ], [ 55.344935666751162, 42.065450642533619 ], [ 40.292607817222773, 25.507890009586689 ], [ 43.303073388908608, 22.067357933183899 ], [ 38.787375034177238, 16.261460051202491 ], [ 48.893938015863377, 6.369930319337666 ], [ 48.463871507330047, 5.5097973012542 ], [ 43.521637365357243, 0.003933791180884 ], [ 69.111747128508554, 0.004499307568781 ] ] ] } },
{ "type": "Feature", "properties": { "feature_type": "building", "subtype": "no-damage", "uid": "13a9b601-333a-4928-abd8-54e4c114e200" }, "geometry": { "type": "Polygon", "coordinates": [ [ [ 107.426759860753506, 0.005286508504714 ], [ 100.6931731868345, 6.16283733533539 ], [ 93.790941997707549, 0.005014532979476 ], [ 107.426759860753506, 0.005286508504714 ] ] ] } },
{ "type": "Feature", "properties": { "feature_type": "building", "subtype": "no-damage", "uid": "4d7d6eba-dbf5-45e3-9970-2804abd6eadb" }, "geometry": { "type": "Polygon", "coordinates": [ [ [ 137.804852530709809, 21.346996447392922 ], [ 145.857570206705986, 29.92776118598815 ], [ 153.118217289750788, 23.195161164405711 ], [ 155.230405534315196, 25.571372936010871 ], [ 158.662711429093804, 22.007055274534189 ], [ 174.3721114841656, 36.396337678748552 ], [ 145.197511379564389, 69.531290733085612 ], [ 119.851252465136696, 42.732902405063463 ], [ 133.844499575107903, 29.531725890720619 ], [ 131.468287798542491, 27.287525881492009 ], [ 137.804852530709809, 21.346996447392922 ] ] ] } },
{ "type": "Feature", "properties": { "feature_type": "building", "subtype": "no-damage", "uid": "ecb082df-08b6-4d0f-9911-9292496e50a2" }, "geometry": { "type": "Polygon", "coordinates": [ [ [ 193.541515049331309, 43.637453092908608 ], [ 224.036232804782486, 66.739511997077514 ], [ 212.683221001597587, 81.78885322843314 ], [ 214.399373946316587, 83.372994409503249 ], [ 210.439020989570395, 88.785476778837634 ], [ 207.798785687361686, 86.805300304534455 ], [ 204.498491558774305, 91.029676787049013 ], [ 191.165303274164586, 81.392817933165617 ], [ 180.208326768790414, 96.442159161469547 ], [ 163.574844354321812, 82.71293558337922 ], [ 179.680279705678487, 62.119100218278213 ], [ 179.548267940122997, 57.630700199820978 ], [ 188.525067970302814, 45.485617804835229 ], [ 191.165303275181799, 47.465794282190103 ], [ 193.541515049331309, 43.637453092908608 ] ] ] } }
]
}
