{
"type": "FeatureCollection",
"name": "socal-fire_00000925_post_disaster",
"features": [
{ "type": "Feature", "properties": { "feature_type": "building", "subtype": "no-damage", "uid": "dac495b5-2bc9-4295-9bd7-2f3c1e63ddab" }, "geometry": { "type": "Polygon", "coordinates": [ [ [ 122.487673350381797, 7.178975684571407 ], [ 133.957648467110005, 10.351521996434739 ], [ 128.588723942089189, 28.410631755302241 ], [ 118.338958941718701, 26.214253541509649 ], [ 122.487673350381797, 7.178975684571407 ] ] ] } },
{ "type": "Feature", "properties": { "feature_type": "building", "subtype": "no-damage", "uid": "8c3d341c-2d94-45dc-bb28-949c8561b904" }, "geometry": { "type": "Polygon", "coordinates": [ [ [ 111.389999365882005, 1006.730000364289026 ], [ 80.876362398523511, 1018.087607775216952 ], [ 81.984075405197473, 1022.980598378353989 ], [ 65.102247595763473, 1022.980239618745031 ], [ 61.372604637417957, 1009.674222074922 ], [ 70.742056893432476, 1006.232382467621051 ], [ 67.682643910477964, 994.568370472897755 ], [ 101.189999364630793, 981.900000362969308 ], [ 111.389999365882005, 1006.730000364289026 ] ] ] } },
{ "type": "Feature", "properties": { "feature_type": "building", "subtype": "no-damage", "uid": "8a9af8e1-96a3-4a9c-b1ce-bbd05bbe25b9" }, "geometry": { "type": "Polygon", "coordinates": [ [ [ 138.431569124722614, 996.671716898225668 ], [ 111.389999365882005, 1006.730000364289026 ], [ 101.189999364630793, 981.900000362969308 ], [ 128.870903556470694, 971.431559797342175 ], [ 138.431569124722614, 996.671716898225668 ] ] ] } },
{ "type": "Feature", "properties": { "feature_type": "building", "subtype": "no-damage", "uid": "b0addfea-0501-4f6e-92a7-0ecc85251529" }, "geometry": { "type": "Polygon", "coordinates": [ [ [ 778.607373984997935, 978.662030248337601 ], [ 791.050542915736173, 978.662030246303061 ], [ 792.224426772736024, 1002.609261012766979 ], [ 777.903043666474559, 1002.139707468186998 ], [ 778.607373984997935, 978.662030248337601 ] ] ] } },
{ "type": "Feature", "properties": { "feature_type": "building", "subtype": "no-damage", "uid": "33252c36-34fe-47d4-b3d1-014a6d02abfb" }, "geometry": { "type": "Polygon", "coordinates": [ [ [ 105.499487265474301, 861.876923494884068 ], [ 126.532951514178706, 861.494496871172373 ], [ 127.297804759694799, 893.809546495462996 ], [ 104.925847330161005, 894.383186430013325 ], [ 105.499487265474301, 861.876923494884068 ] ] ] } },
{ "type": "Feature", "properties": { "feature_type": "building", "subtype": "no-damage", "uid": "1f4877ac-dc1f-4f86-b3c0-417a5f58e1d7" }, "geometry": { "type": "Polygon", "coordinates": [ [ [ 99.367245654557919, 831.505930139729912 ], [ 98.984819029065974, 860.379140157736288 ], [ 71.067675564231521, 858.849433668993129 ], [ 71.641315500307769, 831.123503518052757 ], [ 70.90999936354801, 830.990000364068692 ], [ 71.075299191920351, 829.510607947571771 ], [ 99.479999366957514, 828.550000364670268 ], [ 99.367245654557919, 831.505930139729912 ] ] ] } },
{ "type": "Feature", "properties": { "feature_type": "building", "subtype": "no-damage", "uid": "36b07580-6633-4009-b69c-ffbda7196710" }, "geometry": { "type": "Polygon", "coordinates": [ [ [ 101.004525519598005, 802.277857124756565 ], [ 99.479999366957514, 828.550000364670268 ], [ 71.075299191920351, 829.510607947571771 ], [ 70.90999936354801, 830.990000364068692 ], [ 58.06517039160228, 828.63773046697861 ], [ 58.830023639534389, 813.340665556150043 ], [ 70.876462254283041, 811.810959067406884 ], [ 82.349260939186195, 801.867866874300148 ], [ 82.349260937024511, 799.740000366541381 ], [ 101.004525519598005, 802.277857124756565 ] ] ] } },
{ "type": "Feature", "properties": { "feature_type": "building", "subtype": "no-damage", "uid": "6d0da4d6-929d-4b96-8955-53b77e0baf52" }, "geometry": { "type": "Polygon", "coordinates": [ [ [ 95.925406045729986, 788.10050845221474 ], [ 102.617871947460898, 788.674148386764955 ], [ 101.661805387291494, 802.059080188190592 ], [ 101.004525519598005, 802.277857124756565 ], [ 82.349260937024511, 799.740000366541381 ], [ 82.349260937151669, 788.865361697603589 ], [ 86.938380410629733, 788.291721763053374 ], [ 86.938380412155638, 783.893815603593453 ], [ 96.88147260551797, 783.320175669043124 ], [ 95.925406045729986, 788.10050845221474 ] ] ] } },
{ "type": "Feature", "properties": { "feature_type": "building", "subtype": "no-damage", "uid": "36451001-ff1c-4cea-9662-07b304f042ee" }, "geometry": { "type": "Polygon", "coordinates": [ [ [ 108.364481813994402, 801.698859173898427 ], [ 131.310079184817994, 802.272499112517721 ], [ 131.310079184563705, 803.993418910064861 ], [ 139.341038263054912, 804.184632220903495 ], [ 140.679531443629998, 817.378350710473114 ], [ 126.529746400119905, 824.453243229811278 ], [ 105.878708768769201, 823.879603297295603 ], [ 108.364481813994402, 801.698859173898427 ] ] ] } },
{ "type": "Feature", "properties": { "feature_type": "building", "subtype": "no-damage", "uid": "a4a8a8c3-1fb0-4b5d-b8d7-2a2c905010d9" }, "geometry": { "type": "Polygon", "coordinates": [ [ [ 115.439374339055604, 781.239034857203819 ], [ 138.9586116402333, 780.856608233492125 ], [ 140.297104818901005, 795.771246521626267 ], [ 136.281625278320206, 795.962459832464788 ], [ 135.325558722601301, 801.316432555272968 ], [ 115.248161024656596, 800.742792616653674 ], [ 115.439374339055604, 781.239034857203819 ] ] ] } },
{ "type": "Feature", "properties": { "feature_type": "building", "subtype": "no-damage", "uid": "d80c1ca5-8813-4dcf-afa9-02a2f05acbb7" }, "geometry": { "type": "Polygon", "coordinates": [ [ [ 116.586654204468701, 761.161637161169097 ], [ 138.002545081971192, 761.352850472007617 ], [ 137.811331770369691, 778.370835185469673 ], [ 138.9586116402333, 780.856608233492125 ], [ 115.439374339055604, 781.239034857203819 ], [ 116.586654204468701, 761.161637161169097 ] ] ] } },
{ "type": "Feature", "properties": { "feature_type": "building", "subtype": "no-damage", "uid": "a6452135-64d9-400d-8152-537005b8f069" }, "geometry": { "type": "Polygon", "coordinates": [ [ [ 157.241688998813913, 841.682456213295723 ], [ 152.46135620953811, 825.046898120493552 ], [ 153.226209458614591, 806.881633543017301 ], [ 149.210729916634989, 791.20214200745977 ], [ 149.210729919941201, 786.613022533092135 ], [ 149.97558316393139, 782.215116372614943 ], [ 149.975583161515402, 770.551104378909258 ], [ 152.843782833631309, 768.256544639690901 ], [ 154.373489326825194, 760.225585561073558 ], [ 195.293137962254292, 752.194626485508024 ], [ 199.308617500800608, 771.315957622263568 ], [ 200.647110681502795, 782.979969613934713 ], [ 204.853803530633286, 800.571594264998907 ], [ 205.809870088895394, 810.514686458105643 ], [ 207.722003203893593, 817.015939046962558 ], [ 212.119909367041714, 831.165724087673311 ], [ 157.241688998813913, 841.682456213295723 ] ] ] } },
{ "type": "Feature", "properties": { "feature_type": "building", "subtype": "no-damage", "uid": "4650e715-7e35-4146-9ebf-26d14f16bbc3" }, "geometry": { "type": "Polygon", "coordinates": [ [ [ 235.298774467952597, 778.71109209681515 ], [ 207.572844317008503, 782.726571631546108 ], [ 202.983724843530496, 771.253772949696213 ], [ 200.689165106855, 763.03160055820581 ], [ 201.262805042295497, 755.191854794496066 ], [ 201.454018351481011, 750.793948631984335 ], [ 242.756093614818099, 745.05754928953354 ], [ 249.257346199352497, 750.602735321145815 ], [ 253.464039051534911, 750.602735319111275 ], [ 255.376172164117094, 754.809428169767102 ], [ 261.49499813231489, 753.662148300666558 ], [ 261.686211443789375, 758.442481085872714 ], [ 264.936837735929373, 759.780974268863702 ], [ 267.04018415871451, 774.31318593125161 ], [ 260.347718263087074, 775.460465800352154 ], [ 257.670731900665373, 777.563812222628258 ], [ 250.404626069851986, 777.372598913824163 ], [ 235.298774467952597, 778.71109209681515 ] ] ] } },
{ "type": "Feature", "properties": { "feature_type": "building", "subtype": "no-damage", "uid": "10cc7025-de61-462e-a5ac-5c3eaaea0c54" }, "geometry": { "type": "Polygon", "coordinates": [ [ [ 303.393079683600376, 553.276213447604619 ], [ 348.938552071639322, 535.597378773083506 ], [ 356.879045609315881, 552.676930918023572 ], [ 308.791734298167626, 570.84835192207413 ], [ 303.393079683600376, 553.276213447604619 ] ] ] } },
{ "type": "Feature", "properties": { "feature_type": "building", "subtype": "no-damage", "uid": "c5482890-44d5-4da9-b957-ca95502fa507" }, "geometry": { "type": "Polygon", "coordinates": [ [ [ 433.483753959706121, 532.042365706319174 ], [ 458.742873911601009, 519.360762532527247 ], [ 462.949566761367294, 523.185028760488649 ], [ 476.908138493021625, 508.652817097083528 ], [ 492.587630030870002, 520.890469023304945 ], [ 493.734909897681916, 523.949882007912038 ], [ 508.840761498945426, 533.51054757425527 ], [ 490.101856983610276, 557.029784876574354 ], [ 476.908138495437584, 548.616399176279856 ], [ 478.055418362376486, 543.262426456523372 ], [ 474.613578757617688, 542.115146588440211 ], [ 465.435339810915877, 542.879999830777138 ], [ 464.861699878908723, 541.923933278618847 ], [ 440.386396019596077, 552.249452092385468 ], [ 433.483753959706121, 532.042365706319174 ] ] ] } },
{ "type": "Feature", "properties": { "feature_type": "building", "subtype": "no-damage", "uid": "20a6b750-0841-4492-b5ac-5306844ee77e" }, "geometry": { "type": "Polygon", "coordinates": [ [ [ 419.209624527422079, 1002.573695511700976 ], [ 430.74581325835311, 1001.524951082390999 ], [ 432.843302120152316, 1006.768673230975992 ], [ 434.568277701836223, 1012.461857279289006 ], [ 434.341508448682703, 1020.102709555353044 ], [ 418.760162629473314, 1019.803068288528038 ], [ 419.209624527422079, 1002.573695511700976 ] ] ] } },
{ "type": "Feature", "properties": { "feature_type": "building", "subtype": "no-damage", "uid": "6305fd37-30ae-48b2-8dd6-aba65f44d135" }, "geometry": { "type": "Polygon", "coordinates": [ [ [ 282.651548682057523, 804.579974380742669 ], [ 310.668007027713827, 800.834458559162613 ], [ 310.817827659346221, 812.670288555518368 ], [ 313.214957784791522, 822.558450324123442 ], [ 284.749037539914809, 826.453786774538344 ], [ 282.651548682057523, 804.579974380742669 ] ] ] } },
{ "type": "Feature", "properties": { "feature_type": "building", "subtype": "no-damage", "uid": "ab87758d-48eb-4ba2-aa95-7b15ea8ac03f" }, "geometry": { "type": "Polygon", "coordinates": [ [ [ 563.705100180291652, 887.181870007339626 ], [ 623.332911375786807, 847.032477134981605 ], [ 638.836142288759447, 874.461270285676278 ], [ 636.796605425729695, 879.087683386418007 ], [ 638.14499112072042, 894.81884983725763 ], [ 631.103421379577298, 902.759343379129405 ], [ 569.095849033846093, 894.393147324872984 ], [ 563.705100180291652, 887.181870007339626 ] ] ] } },
{ "type": "Feature", "properties": { "feature_type": "building", "subtype": "no-damage", "uid": "a65c1c1f-20c6-405f-9533-ca6bc07883ea" }, "geometry": { "type": "Polygon", "coordinates": [ [ [ 637.131473112282492, 869.044121125014044 ], [ 626.99716760553838, 847.819443559878778 ], [ 630.247793897551219, 845.5248838247295 ], [ 628.144447476037726, 835.008151697072549 ], [ 644.780005565281726, 827.742045865878595 ], [ 645.162432189883589, 825.638699440550681 ], [ 675.565348701596236, 813.401047509242972 ], [ 689.469020110701422, 846.856687331737021 ], [ 639.179919213662743, 870.375924633038721 ], [ 637.131473112282492, 869.044121125014044 ] ] ] } },
{ "type": "Feature", "properties": { "feature_type": "building", "subtype": "no-damage", "uid": "ec6c95d1-fb5e-463d-8b64-98b1ef0f2eca" }, "geometry": { "type": "Polygon", "coordinates": [ [ [ 695.049988336543606, 880.756923666566422 ], [ 697.929039697411099, 881.424739581161703 ], [ 699.076319568927829, 910.680376222879772 ], [ 638.652913166543726, 904.943976878394324 ], [ 631.103421379577298, 902.759343379129405 ], [ 638.14499112072042, 894.81884983725763 ], [ 636.796605425729695, 879.087683386418007 ], [ 638.068174732994066, 877.417830321827637 ], [ 647.811410783922383, 877.65260709055724 ], [ 649.572236571520307, 867.557205887680198 ], [ 657.906811986164939, 866.852875567249725 ], [ 658.044292017924022, 876.711766579178629 ], [ 695.049988336543606, 880.756923666566422 ] ] ] } },
{ "type": "Feature", "properties": { "feature_type": "building", "subtype": "no-damage", "uid": "434a3cdc-9c7c-4b53-8a8b-c49b094cdc52" }, "geometry": { "type": "Polygon", "coordinates": [ [ [ 699.649959500680666, 874.541060372662173 ], [ 714.373384476706519, 868.613447717338204 ], [ 719.727357197099423, 877.026833416615432 ], [ 754.719393181272949, 860.964915260398016 ], [ 766.574618488616352, 894.618458066662356 ], [ 712.843677987836031, 914.313429140002654 ], [ 698.885106257834877, 879.321393153799249 ], [ 699.649959500680666, 874.541060372662173 ] ] ] } },
{ "type": "Feature", "properties": { "feature_type": "building", "subtype": "no-damage", "uid": "ccbeb28d-c98d-4eeb-a108-dd22430d8a93" }, "geometry": { "type": "Polygon", "coordinates": [ [ [ 692.362993747983069, 800.711587148054946 ], [ 731.944149210339447, 797.652174167516819 ], [ 730.605656026076758, 816.582291993433728 ], [ 703.453365811844833, 822.318691335884637 ], [ 692.362993747983069, 800.711587148054946 ] ] ] } },
{ "type": "Feature", "properties": { "feature_type": "building", "subtype": "no-damage", "uid": "09bee7f6-2f4a-4a0b-9070-c3c513994594" }, "geometry": { "type": "Polygon", "coordinates": [ [ [ 716.264657674907085, 830.923290350069465 ], [ 745.137867693807266, 823.274757896181086 ], [ 740.931174841752181, 810.463466030323048 ], [ 761.19978584888247, 805.491919935295641 ], [ 769.995598177085981, 838.954249428686808 ], [ 737.680548551900984, 847.75006175371027 ], [ 734.812348877114687, 853.67767440598243 ], [ 723.721976818720805, 857.119514008197598 ], [ 716.264657674907085, 830.923290350069465 ] ] ] } },
{ "type": "Feature", "properties": { "feature_type": "building", "subtype": "no-damage", "uid": "f4465814-6381-4705-8862-f26e920e3fef" }, "geometry": { "type": "Polygon", "coordinates": [ [ [ 551.578660575551226, 659.370879834766015 ], [ 588.020221827728164, 648.78102442794102 ], [ 595.183947545651563, 657.502081825087998 ], [ 586.151423815761177, 666.223139216131472 ], [ 559.988251632836295, 671.829533255337992 ], [ 551.578660575551226, 659.370879834766015 ] ] ] } },
{ "type": "Feature", "properties": { "feature_type": "building", "subtype": "no-damage", "uid": "af9ea4cc-6d27-4c4d-b739-eecb09ab5be7" }, "geometry": { "type": "Polygon", "coordinates": [ [ [ 772.806955823688781, 755.374771100448697 ], [ 793.675200300148617, 749.145444388636747 ], [ 799.904527012088579, 759.112367123873696 ], [ 801.77332502138529, 765.030227495313852 ], [ 777.167484516667855, 772.816885886604609 ], [ 772.806955823688781, 755.374771100448697 ] ] ] } },
{ "type": "Feature", "properties": { "feature_type": "building", "subtype": "no-damage", "uid": "c387a6e2-a2f3-48a9-9ffb-18987d66a6e6" }, "geometry": { "type": "Polygon", "coordinates": [ [ [ 804.576522040607415, 722.047873198460366 ], [ 815.166377450104164, 720.490541524067794 ], [ 817.658108134676581, 744.784915692606432 ], [ 802.396257692591917, 746.342247368016274 ], [ 804.576522040607415, 722.047873198460366 ] ] ] } },
{ "type": "Feature", "properties": { "feature_type": "building", "subtype": "un-classified", "uid": "770428e0-5f4e-4d9c-a206-bf279d64e402" }, "geometry": { "type": "Polygon", "coordinates": [ [ [ 745.538233634749986, 694.427899547862012 ], [ 784.097551542668043, 672.961887516220031 ], [ 796.023113783699955, 694.825418288114861 ], [ 753.886127201424983, 705.955943045714662 ], [ 745.538233634749986, 694.427899547862012 ] ] ] } },
{ "type": "Feature", "properties": { "feature_type": "building", "subtype": "no-damage", "uid": "3be38919-92fb-4263-bf9c-bec75daeebd3" }, "geometry": { "type": "Polygon", "coordinates": [ [ [ 1000.473078609985009, 451.994874070713706 ], [ 1022.835284267956013, 486.756095818426502 ], [ 1022.835283974474009, 489.788183305306006 ], [ 1009.218490918183988, 504.069829186263576 ], [ 984.96984769891958, 467.895623725590212 ], [ 1000.473078609985009, 451.994874070713706 ] ] ] } },
{ "type": "Feature", "properties": { "feature_type": "building", "subtype": "un-classified", "uid": "9a38bc7c-4841-480d-bdb7-7e065d34131e" }, "geometry": { "type": "Polygon", "coordinates": [ [ [ 894.985768718273334, 12.32265061840139 ], [ 905.880260145818511, 0.005277262589145 ], [ 905.892064682267232, 0.005277034721302 ], [ 915.828019656520723, 7.351104521339401 ], [ 902.44308786017973, 20.353609697018729 ], [ 894.985768718273334, 12.32265061840139 ] ] ] } },
{ "type": "Feature", "properties": { "feature_type": "building", "subtype": "no-damage", "uid": "8c81ef9d-72f5-4e6e-8c5e-cfe65050546b" }, "geometry": { "type": "Polygon", "coordinates": [ [ [ 565.995234298870514, 230.869509991530492 ], [ 567.716154097689468, 226.089177208358905 ], [ 588.367191730311674, 206.394206134001308 ], [ 594.486017696220756, 201.422660036939391 ], [ 600.987270284569945, 209.071192493879607 ], [ 595.824510872599603, 214.998805145134412 ], [ 597.545430677013542, 218.823071372078601 ], [ 600.222417035874855, 221.117631109262391 ], [ 602.899403397152128, 218.249431440580111 ], [ 619.917388110235038, 235.26741615302501 ], [ 594.103591070474408, 260.316359946121679 ], [ 588.749618355930807, 257.448160273370377 ], [ 565.995234298870514, 230.869509991530492 ] ] ] } },
{ "type": "Feature", "properties": { "feature_type": "building", "subtype": "no-damage", "uid": "b48eda8b-00b5-4dd6-b931-7f8e3a81da64" }, "geometry": { "type": "Polygon", "coordinates": [ [ [ 452.457155243783404, 145.95068570219189 ], [ 459.932347296865089, 116.049917493429405 ], [ 475.817130404942873, 120.410446191494302 ], [ 470.833669039104109, 143.147488679536792 ], [ 479.554726434217685, 137.229628307079395 ], [ 494.816576872233327, 165.261598502094813 ], [ 484.226721464008222, 172.113857881425702 ], [ 480.800591773960775, 175.228521237331591 ], [ 490.144581839645411, 194.539434038251812 ], [ 464.292875994040514, 208.55541913321639 ], [ 444.047564187134185, 170.867992538249496 ], [ 415.704127655939487, 164.950132167826609 ], [ 422.55638703794159, 147.508017378618888 ], [ 449.653958226214286, 151.868546074649288 ], [ 452.457155243783404, 145.95068570219189 ] ] ] } },
{ "type": "Feature", "properties": { "feature_type": "building", "subtype": "no-damage", "uid": "1e300346-3356-4ef7-95b2-e083c6f20591" }, "geometry": { "type": "Polygon", "coordinates": [ [ [ 481.304859294643109, 85.536404803060421 ], [ 493.290509923141315, 78.045373162952131 ], [ 497.485487645468083, 85.836046071920009 ], [ 494.189433722726392, 87.933534931557233 ], [ 497.335667013200009, 92.57797454750883 ], [ 497.036025745103302, 97.37223479839885 ], [ 499.582976503579687, 100.518468088363306 ], [ 501.081182832618822, 99.319903028183987 ], [ 511.868268399666022, 115.051069476989099 ], [ 510.819523966795373, 118.796585298569099 ], [ 519.209479407761478, 127.486182001908503 ], [ 518.827243297715768, 129.686730626518312 ], [ 526.185393071364615, 137.780695375369305 ], [ 526.338079427358593, 139.756765263704011 ], [ 529.783953981223931, 145.74959057680789 ], [ 522.292922341369035, 150.244209560872804 ], [ 514.951711328314332, 142.902998557737504 ], [ 492.328795768724717, 108.594073631901594 ], [ 478.844938811696011, 87.469364400590862 ], [ 481.304859294643109, 85.536404803060421 ] ] ] } },
{ "type": "Feature", "properties": { "feature_type": "building", "subtype": "no-damage", "uid": "9cf41e51-4d7c-4c77-9005-cc582f7c1436" }, "geometry": { "type": "Polygon", "coordinates": [ [ [ 530.178527044875864, 158.625695848518291 ], [ 539.767047545894229, 152.183408634668211 ], [ 547.85736172054385, 164.618521165691305 ], [ 537.369917420703246, 170.761167110681811 ], [ 530.178527044875864, 158.625695848518291 ] ] ] } },
{ "type": "Feature", "properties": { "feature_type": "building", "subtype": "no-damage", "uid": "03cd64f6-0390-4c7d-b9d4-a5277e547e61" }, "geometry": { "type": "Polygon", "coordinates": [ [ [ 548.906106148455251, 154.730359395051693 ], [ 551.902518807804995, 141.546143702561011 ], [ 553.550545770892541, 135.703139020326404 ], [ 560.292474247372297, 131.65798193700769 ], [ 570.929739178972341, 146.340403954468201 ], [ 554.599290197023606, 158.326054584745094 ], [ 548.906106148455251, 154.730359395051693 ] ] ] } },
{ "type": "Feature", "properties": { "feature_type": "building", "subtype": "un-classified", "uid": "7e1c25af-9988-439f-9892-c3ea7edc28b2" }, "geometry": { "type": "Polygon", "coordinates": [ [ [ 303.2520865955006, 329.712931687427385 ], [ 305.432350943515985, 310.402018889559088 ], [ 351.840834935890427, 312.270816900254317 ], [ 348.72617157947542, 331.270263366906306 ], [ 303.2520865955006, 329.712931687427385 ] ] ] } },
{ "type": "Feature", "properties": { "feature_type": "building", "subtype": "no-damage", "uid": "b5d560ff-0e7b-4b1d-8290-553d280f016b" }, "geometry": { "type": "Polygon", "coordinates": [ [ [ 327.243582611997795, 469.988492812920015 ], [ 319.388787647704021, 448.628962651277789 ], [ 337.716642562482093, 442.427808730198706 ], [ 345.158027264446616, 463.098321789950774 ], [ 327.243582611997795, 469.988492812920015 ] ] ] } },
{ "type": "Feature", "properties": { "feature_type": "building", "subtype": "no-damage", "uid": "f4288d2d-e6b2-4474-93fb-a1b81325e27d" }, "geometry": { "type": "Polygon", "coordinates": [ [ [ 352.745081986423997, 366.452875616667484 ], [ 389.470124644677128, 392.074998404289317 ], [ 380.50238167195829, 401.469776756563078 ], [ 389.043089266519416, 410.010484352776189 ], [ 370.253532553958223, 430.935217964261028 ], [ 359.15061268002421, 421.113404228361674 ], [ 360.85875420346332, 418.978227328545472 ], [ 364.275037237625611, 412.14566125157512 ], [ 334.38256065723391, 380.545043154233724 ], [ 352.745081986423997, 366.452875616667484 ] ] ] } },
{ "type": "Feature", "properties": { "feature_type": "building", "subtype": "no-damage", "uid": "9f12b01a-8e5f-4b2b-a2f9-8e78ff9692cf" }, "geometry": { "type": "Polygon", "coordinates": [ [ [ 321.00556088609062, 849.980945913615756 ], [ 335.857309627836514, 846.268008728879181 ], [ 337.713778220967981, 857.174761707135644 ], [ 322.165853756448087, 860.191523173167411 ], [ 321.00556088609062, 849.980945913615756 ] ] ] } },
{ "type": "Feature", "properties": { "feature_type": "building", "subtype": "no-damage", "uid": "fd6650ce-4fca-46b9-8500-4b73c9d761d4" }, "geometry": { "type": "Polygon", "coordinates": [ [ [ 353.957878406354496, 844.411540134476354 ], [ 367.649334277107073, 841.394778669461857 ], [ 369.273744297464077, 850.909180209291321 ], [ 355.582288422388217, 853.925941673288548 ], [ 353.957878406354496, 844.411540134476354 ] ] ] } },
{ "type": "Feature", "properties": { "feature_type": "building", "subtype": "no-damage", "uid": "85e1c761-9504-4f90-a685-689d825ddf91" }, "geometry": { "type": "Polygon", "coordinates": [ [ [ 385.489703714289305, 838.08928621638438 ], [ 398.832876280693711, 835.010092548202465 ], [ 400.372473119108179, 845.103005131086206 ], [ 387.542499494900085, 846.984734597122724 ], [ 385.489703714289305, 838.08928621638438 ] ] ] } },
{ "type": "Feature", "properties": { "feature_type": "building", "subtype": "no-damage", "uid": "d93b7d29-ed69-40fb-a17b-d985da7029cd" }, "geometry": { "type": "Polygon", "coordinates": [ [ [ 401.227804693885901, 835.694357804972697 ], [ 414.742043574864397, 832.273031507897031 ], [ 416.623773040646824, 840.826347257707084 ], [ 404.478064677659574, 843.221275668101498 ], [ 401.227804693885901, 835.694357804972697 ] ] ] } },
{ "type": "Feature", "properties": { "feature_type": "building", "subtype": "no-damage", "uid": "fc52649f-3772-4cb0-92c4-2c0f287e2172" }, "geometry": { "type": "Polygon", "coordinates": [ [ [ 396.761687541210108, 736.611464196680458 ], [ 388.407578870592374, 727.561179807740587 ], [ 387.711403150997285, 704.123263826674702 ], [ 389.567871740822682, 704.355322399576266 ], [ 387.711403150870183, 693.912686564071237 ], [ 450.83133529864898, 674.18770776774204 ], [ 453.616038187964818, 679.98917212080039 ], [ 460.577795411127113, 678.364762101333667 ], [ 465.451025470290688, 697.161506601987412 ], [ 396.761687541210108, 736.611464196680458 ] ] ] } },
{ "type": "Feature", "properties": { "feature_type": "building", "subtype": "no-damage", "uid": "10e68753-c499-4886-bc01-6589cca3ca67" }, "geometry": { "type": "Polygon", "coordinates": [ [ [ 489.121000022481212, 669.082419138474847 ], [ 504.900983064480386, 671.635063451582482 ], [ 499.331577281271109, 688.343280787983645 ], [ 488.65688287388042, 680.45328926456898 ], [ 489.121000022481212, 669.082419138474847 ] ] ] } },
{ "type": "Feature", "properties": { "feature_type": "building", "subtype": "no-damage", "uid": "8ef014c8-6451-4b0e-8c0a-d0a626b858cc" }, "geometry": { "type": "Polygon", "coordinates": [ [ [ 253.878488523600993, 742.11536829819886 ], [ 260.892207437413674, 732.193522032813803 ], [ 274.406446319282281, 735.614848327854929 ], [ 273.380048430312115, 747.247357748898708 ], [ 259.52367691459051, 748.958020896419271 ], [ 253.878488523600993, 742.11536829819886 ] ] ] } }
]
}
