{
"type": "FeatureCollection",
"name": "socal-fire_00000165_post_disaster",
"features": [
{ "type": "Feature", "properties": { "feature_type": "building", "subtype": "no-damage", "uid": "827e3deb-d493-4701-af5f-69177cc608e6" }, "geometry": { "type": "Polygon", "coordinates": [ [ [ 87.074025624011753, 161.189803046691907 ], [ 112.400269441513004, 174.879664563820711 ], [ 101.106133689114998, 194.045470695935393 ], [ 93.918956389696362, 189.596265705156412 ], [ 80.913587939395001, 209.446564909568792 ], [ 64.4857541134961, 199.179168769180194 ], [ 87.074025624011753, 161.189803046691907 ] ] ] } },
{ "type": "Feature", "properties": { "feature_type": "building", "subtype": "no-damage", "uid": "4b84805d-6e70-43ea-b7a1-7721417920c2" }, "geometry": { "type": "Polygon", "coordinates": [ [ [ 213.268630468190992, 91.658432997156467 ], [ 223.190517832833308, 88.708682697204651 ], [ 222.386040478589592, 86.563409751877586 ], [ 234.453200789195307, 82.80918210238508 ], [ 232.576086961652095, 78.518636217831826 ], [ 235.257678142040902, 77.982317980737449 ], [ 234.185041667343398, 76.909681507565523 ], [ 248.129315801679297, 71.814658267370703 ], [ 258.051203168736492, 102.116638596093296 ], [ 220.777085770991789, 113.915639785732395 ], [ 213.268630468190992, 91.658432997156467 ] ] ] } },
{ "type": "Feature", "properties": { "feature_type": "building", "subtype": "no-damage", "uid": "2ced364e-0be9-4c66-90f3-931df24a1d0e" }, "geometry": { "type": "Polygon", "coordinates": [ [ [ 170.036580136811608, 222.067481712521413 ], [ 196.37680999027711, 222.561361021657206 ], [ 189.462499653094113, 259.108429934315609 ], [ 163.945401985123311, 256.309780516217984 ], [ 170.036580136811608, 222.067481712521413 ] ] ] } },
{ "type": "Feature", "properties": { "feature_type": "building", "subtype": "no-damage", "uid": "3cbc8a55-ce32-4619-a7a8-f57c6bf06624" }, "geometry": { "type": "Polygon", "coordinates": [ [ [ 181.215471117868901, 270.475500788846489 ], [ 197.393916916572692, 269.635062043891423 ], [ 196.973697544094989, 273.627146073785525 ], [ 200.545562200368892, 273.627146074802283 ], [ 200.125342829543513, 292.116798416025972 ], [ 181.84580017734811, 292.326908101756317 ], [ 181.215471117868901, 270.475500788846489 ] ] ] } },
{ "type": "Feature", "properties": { "feature_type": "building", "subtype": "destroyed", "uid": "82cfad75-27bd-4a07-b9a6-f3e448ca7b4f" }, "geometry": { "type": "Polygon", "coordinates": [ [ [ 164.704309441432599, 396.690159683573825 ], [ 191.788380357004513, 397.76279615979621 ], [ 186.961516234592494, 435.305072669973413 ], [ 175.966992395125487, 435.305072667939726 ], [ 175.966992395760997, 428.869253840093108 ], [ 155.318740311724099, 427.260299130843521 ], [ 155.586899433321804, 391.326977326865403 ], [ 165.24062767890851, 391.595136445412493 ], [ 164.704309441432599, 396.690159683573825 ] ] ] } },
{ "type": "Feature", "properties": { "feature_type": "building", "subtype": "destroyed", "uid": "9b79d69c-9dc7-45da-a10a-2647aa4aa374" }, "geometry": { "type": "Polygon", "coordinates": [ [ [ 222.821074973934486, 495.29873055413708 ], [ 245.857003952603492, 494.294740359983791 ], [ 246.759927798117388, 515.448956160224952 ], [ 223.670875186870092, 516.867836486764645 ], [ 222.821074973934486, 495.29873055413708 ] ] ] } },
{ "type": "Feature", "properties": { "feature_type": "building", "subtype": "destroyed", "uid": "b72f0591-6973-4066-a86c-8d5be4689253" }, "geometry": { "type": "Polygon", "coordinates": [ [ [ 279.234011448826891, 547.81330304007713 ], [ 291.840592589985704, 548.023412723773959 ], [ 292.470921646287422, 560.209774495119518 ], [ 317.894193613699883, 559.159226069518013 ], [ 318.52452267305199, 581.640962434534913 ], [ 306.968489961180978, 580.590414007916593 ], [ 307.388709329210315, 593.407104834419783 ], [ 279.160928712767316, 592.371172951734138 ], [ 279.234011448826891, 547.81330304007713 ] ] ] } },
{ "type": "Feature", "properties": { "feature_type": "building", "subtype": "destroyed", "uid": "107f56ed-9637-4448-b80a-277492ee736d" }, "geometry": { "type": "Polygon", "coordinates": [ [ [ 460.6028256100617, 599.851636952066997 ], [ 482.055555042877018, 604.142182838653866 ], [ 477.228690919829376, 635.24864052403484 ], [ 456.580438839478518, 632.835208461177444 ], [ 457.653075309981716, 627.740185218949023 ], [ 454.971484133024603, 626.667548749844286 ], [ 460.6028256100617, 599.851636952066997 ] ] ] } },
{ "type": "Feature", "properties": { "feature_type": "building", "subtype": "no-damage", "uid": "5fd0e1d3-f962-4716-9851-6a3663611b07" }, "geometry": { "type": "Polygon", "coordinates": [ [ [ 77.15614498399384, 791.349248278647224 ], [ 103.435738546974306, 794.030839454967804 ], [ 105.849170608180302, 776.064178558062736 ], [ 127.570059163101703, 782.49999738590941 ], [ 120.329762976051896, 824.064660670227227 ], [ 99.949670011197853, 820.310433017684318 ], [ 96.999919713024369, 839.886048628922822 ], [ 69.111371447403059, 834.7910253866944 ], [ 77.15614498399384, 791.349248278647224 ] ] ] } },
{ "type": "Feature", "properties": { "feature_type": "building", "subtype": "destroyed", "uid": "621dedc2-a192-4958-beef-3375dc9eb18a" }, "geometry": { "type": "Polygon", "coordinates": [ [ [ 286.963362064633827, 151.584929675675397 ], [ 305.032795037453809, 163.981401130717813 ], [ 297.468846352301, 174.907104789714708 ], [ 292.426213896168008, 171.755459503758914 ], [ 287.383581437111616, 177.638530705226486 ], [ 273.936561555954313, 168.183594847359103 ], [ 286.963362064633827, 151.584929675675397 ] ] ] } },
{ "type": "Feature", "properties": { "feature_type": "building", "subtype": "destroyed", "uid": "8bd1722f-03cc-4f0d-a61f-a27f9a78e193" }, "geometry": { "type": "Polygon", "coordinates": [ [ [ 303.359194860419791, 133.755158338123891 ], [ 311.227531229722217, 137.495842838877593 ], [ 304.907064310997896, 149.362841948363609 ], [ 296.909738823504313, 145.622157447609794 ], [ 303.359194860419791, 133.755158338123891 ] ] ] } },
{ "type": "Feature", "properties": { "feature_type": "building", "subtype": "destroyed", "uid": "751978e6-df32-4bbb-872a-7607c5e5328b" }, "geometry": { "type": "Polygon", "coordinates": [ [ [ 249.061562593670089, 431.296540799747618 ], [ 263.514050829058988, 429.881611883966002 ], [ 264.322581640292526, 450.195948494244874 ], [ 249.162628943072491, 450.398081195337284 ], [ 249.061562593670089, 431.296540799747618 ] ] ] } },
{ "type": "Feature", "properties": { "feature_type": "building", "subtype": "destroyed", "uid": "feceb5f6-0db2-49d5-8339-7c2076be92ab" }, "geometry": { "type": "Polygon", "coordinates": [ [ [ 290.680855792465877, 391.780513008153775 ], [ 324.928734558778501, 392.20073238063128 ], [ 323.24785707509551, 418.044223720384878 ], [ 288.579758937194924, 415.73301717836739 ], [ 290.680855792465877, 391.780513008153775 ] ] ] } },
{ "type": "Feature", "properties": { "feature_type": "building", "subtype": "destroyed", "uid": "3e40bf5e-0527-427f-8b56-3f0363ab674c" }, "geometry": { "type": "Polygon", "coordinates": [ [ [ 324.24066037873132, 437.878950814710777 ], [ 345.157071578773525, 439.756064639457122 ], [ 345.15707157839222, 428.493381681828282 ], [ 351.324731293794798, 428.493381683861912 ], [ 350.252094822401887, 473.275954382611417 ], [ 323.168023907592612, 473.54411349912499 ], [ 324.24066037873132, 437.878950814710777 ] ] ] } },
{ "type": "Feature", "properties": { "feature_type": "building", "subtype": "no-damage", "uid": "d8711519-f30f-4f88-a58c-e556358cbc4e" }, "geometry": { "type": "Polygon", "coordinates": [ [ [ 373.849608611693782, 481.598015966712921 ], [ 383.394803546969285, 480.56610299881379 ], [ 383.523792665923111, 486.886569914231075 ], [ 389.586281341020197, 486.628591671747984 ], [ 389.457292218126213, 501.075373196914313 ], [ 374.23657597274962, 501.075373194880626 ], [ 373.849608611693782, 481.598015966712921 ] ] ] } },
{ "type": "Feature", "properties": { "feature_type": "building", "subtype": "destroyed", "uid": "aa545e70-427c-4065-9a94-43d206df08ea" }, "geometry": { "type": "Polygon", "coordinates": [ [ [ 383.814305686856926, 527.65311074401427 ], [ 406.774369179912981, 527.395132501531066 ], [ 406.258412693929586, 538.617186004809128 ], [ 383.814305684314775, 539.649098971691387 ], [ 383.814305686856926, 536.811338313527813 ], [ 379.041708220744283, 536.811338314544628 ], [ 378.783729977752728, 530.361882277885798 ], [ 383.427338325038477, 530.748849640593676 ], [ 383.814305686856926, 527.65311074401427 ] ] ] } },
{ "type": "Feature", "properties": { "feature_type": "building", "subtype": "destroyed", "uid": "fef0452e-8c56-4716-a7d8-5a26d80f60f6" }, "geometry": { "type": "Polygon", "coordinates": [ [ [ 345.130926898205018, 537.471362246212152 ], [ 355.636411182313282, 537.471362246212152 ], [ 355.426301493151072, 547.976846529681097 ], [ 381.690012205773314, 547.346517473506765 ], [ 380.639463776993921, 542.513994702724631 ], [ 411.445491209276895, 544.552301748631521 ], [ 412.996355374909797, 557.221672699784563 ], [ 377.067599122880608, 556.591343644626932 ], [ 378.328257234467173, 571.08891195900685 ], [ 374.336173206350907, 579.703409070902239 ], [ 355.006082123596684, 580.123628442363042 ], [ 354.795972438882984, 564.995731070791976 ], [ 358.577946780379079, 564.995731070791976 ], [ 358.577946778853914, 557.431782387548537 ], [ 346.181475323552718, 557.221672702834894 ], [ 345.130926898205018, 537.471362246212152 ] ] ] } },
{ "type": "Feature", "properties": { "feature_type": "building", "subtype": "no-damage", "uid": "1db41c04-9997-44da-b109-f300751f1810" }, "geometry": { "type": "Polygon", "coordinates": [ [ [ 327.982457758710723, 232.393334858025099 ], [ 371.054943324940211, 225.459715228922391 ], [ 375.257137039676593, 255.085180910806002 ], [ 350.254084442835278, 262.649129599133573 ], [ 347.522658527195404, 254.034632483170896 ], [ 333.865528957384299, 255.925619653727608 ], [ 327.982457758710723, 232.393334858025099 ] ] ] } },
{ "type": "Feature", "properties": { "feature_type": "building", "subtype": "destroyed", "uid": "5fe77183-f28d-44a1-928d-9146b9629dc3" }, "geometry": { "type": "Polygon", "coordinates": [ [ [ 320.661941447188212, 321.545737099601922 ], [ 332.399951435563878, 313.161444252453805 ], [ 337.817494509028506, 322.8356283069337 ], [ 326.337462763517294, 330.961942915665873 ], [ 320.661941447188212, 321.545737099601922 ] ] ] } },
{ "type": "Feature", "properties": { "feature_type": "building", "subtype": "destroyed", "uid": "878a61ac-b2ff-48a2-a56d-b2940d5bebcb" }, "geometry": { "type": "Polygon", "coordinates": [ [ [ 356.222973822350014, 333.550629042336084 ], [ 367.445027329699428, 329.164998936391328 ], [ 372.733581279761722, 344.901671665838876 ], [ 359.705680084689106, 348.513367045351117 ], [ 356.222973822350014, 333.550629042336084 ] ] ] } },
{ "type": "Feature", "properties": { "feature_type": "building", "subtype": "destroyed", "uid": "14f81429-0fa3-4054-8417-33cde35281ec" }, "geometry": { "type": "Polygon", "coordinates": [ [ [ 394.870048637193179, 338.397010152836401 ], [ 421.210278488243773, 326.543906719340612 ], [ 418.576255502033007, 318.641837764015577 ], [ 456.111083043145015, 304.31933778077331 ], [ 457.098841662433927, 309.42275731800072 ], [ 467.799560040563108, 304.977843529677102 ], [ 475.866255431210504, 322.922125114604796 ], [ 464.671657741657384, 326.708533156058081 ], [ 472.573726700035706, 345.640573362307919 ], [ 437.508295710323409, 360.456952651635675 ], [ 435.038899163372207, 353.542642315599323 ], [ 416.765364699028908, 359.469194032347218 ], [ 413.308209534695322, 350.250113585315376 ], [ 401.455106100432488, 354.365774499187012 ], [ 394.870048637193179, 338.397010152836401 ] ] ] } },
{ "type": "Feature", "properties": { "feature_type": "building", "subtype": "destroyed", "uid": "49feda65-77c6-4e66-8da4-c388ab37b48d" }, "geometry": { "type": "Polygon", "coordinates": [ [ [ 527.576949774171908, 470.364985860808076 ], [ 536.962518904897252, 466.610758208265111 ], [ 541.253064793646445, 477.873441163860321 ], [ 530.526700071328605, 483.236623524635888 ], [ 527.576949774171908, 470.364985860808076 ] ] ] } },
{ "type": "Feature", "properties": { "feature_type": "building", "subtype": "destroyed", "uid": "9ef1739b-83d2-470e-8e6c-2e8643d05df2" }, "geometry": { "type": "Polygon", "coordinates": [ [ [ 474.461826696742094, 239.84625696359609 ], [ 478.664020412876596, 242.997902252602302 ], [ 499.044659925172823, 223.457701478659487 ], [ 494.002027468150118, 217.994849651703106 ], [ 505.137840807289081, 204.547829768008796 ], [ 510.810802320232199, 210.851120336869997 ], [ 519.425299437469107, 199.92541668092349 ], [ 530.140893403876134, 212.952217194173812 ], [ 522.997164091328159, 220.726275563147709 ], [ 529.510564351260427, 227.239675822823301 ], [ 518.584860690988421, 238.165379480803409 ], [ 512.911899180714386, 237.324940735848287 ], [ 479.294349465238213, 270.312161389418122 ], [ 463.115903668059616, 251.82250904819449 ], [ 474.461826696742094, 239.84625696359609 ] ] ] } },
{ "type": "Feature", "properties": { "feature_type": "building", "subtype": "destroyed", "uid": "b989549f-3f0e-4099-9ae4-62bdb838409a" }, "geometry": { "type": "Polygon", "coordinates": [ [ [ 435.69687227607551, 216.63164042149441 ], [ 445.574458470616605, 220.911927772083487 ], [ 445.739084908732309, 222.887445010660599 ], [ 447.385349274764621, 224.204456502367407 ], [ 448.537734328864474, 222.228939263790409 ], [ 461.049343507709978, 228.484743856006986 ], [ 456.604429719638972, 234.0820426993198 ], [ 433.392102163427012, 221.735059957704891 ], [ 435.69687227607551, 216.63164042149441 ] ] ] } },
{ "type": "Feature", "properties": { "feature_type": "building", "subtype": "no-damage", "uid": "b2e80e01-19cb-4fc8-997c-693f77030804" }, "geometry": { "type": "Polygon", "coordinates": [ [ [ 308.132882410640093, 204.085384636850989 ], [ 331.66516720991018, 199.252861865052097 ], [ 334.396593121864214, 220.263830430973087 ], [ 310.023869583103988, 221.10426917694511 ], [ 308.132882410640093, 204.085384636850989 ] ] ] } },
{ "type": "Feature", "properties": { "feature_type": "building", "subtype": "destroyed", "uid": "5817eff7-de9f-4267-b920-f4e8b2b341cd" }, "geometry": { "type": "Polygon", "coordinates": [ [ [ 392.739203757860992, 102.732791737149 ], [ 431.097163475697698, 108.494717018196098 ], [ 430.603284165290574, 119.524688271154602 ], [ 425.993743942408628, 119.030808961001995 ], [ 424.347479576122112, 135.82270549399081 ], [ 390.269807206969688, 133.024056067758693 ], [ 392.739203757860992, 102.732791737149 ] ] ] } },
{ "type": "Feature", "properties": { "feature_type": "building", "subtype": "destroyed", "uid": "5ec260b8-7376-4e61-a027-afe190aac8ab" }, "geometry": { "type": "Polygon", "coordinates": [ [ [ 356.26240713123002, 182.801192854831811 ], [ 355.421968388943696, 142.250023522085712 ], [ 365.927452673560424, 143.720791319147992 ], [ 367.398220473292326, 177.128231340111398 ], [ 382.105898470866123, 179.64954757192649 ], [ 385.677763128538174, 147.71287534497489 ], [ 406.478622015091617, 148.973533462407687 ], [ 404.377525159312086, 194.35722557101991 ], [ 402.696647671688993, 194.567335255733497 ], [ 355.421968388943696, 194.777444940447111 ], [ 356.26240713123002, 182.801192854831811 ] ] ] } },
{ "type": "Feature", "properties": { "feature_type": "building", "subtype": "destroyed", "uid": "f423c4ad-d92e-4d94-aa82-cc250be4ba92" }, "geometry": { "type": "Polygon", "coordinates": [ [ [ 569.721372328629172, 385.921933597791224 ], [ 574.764004782093025, 382.770288307768226 ], [ 575.604443526794284, 373.945681514209582 ], [ 589.681792467176592, 371.634474970158522 ], [ 590.102011839654324, 380.459081768801184 ], [ 594.094095867897749, 384.661275484425687 ], [ 600.607496125160765, 384.241056109914496 ], [ 601.237825181081234, 404.621695622711627 ], [ 570.141591697548051, 406.302573110588298 ], [ 569.721372328629172, 385.921933597791224 ] ] ] } },
{ "type": "Feature", "properties": { "feature_type": "building", "subtype": "destroyed", "uid": "f5edbca9-64d7-4095-a3bb-2aa194e9999a" }, "geometry": { "type": "Polygon", "coordinates": [ [ [ 517.482978847640084, 370.956623109473128 ], [ 538.131230931803998, 358.621303680705921 ], [ 547.248640942711063, 375.247168997076813 ], [ 535.7177988694541, 380.074033118724401 ], [ 540.008344758838803, 389.727761364053322 ], [ 529.281980038935899, 394.286466373254598 ], [ 517.482978847640084, 370.956623109473128 ] ] ] } },
{ "type": "Feature", "properties": { "feature_type": "building", "subtype": "destroyed", "uid": "94a979f1-f3ea-4c52-9ecf-19e607a75164" }, "geometry": { "type": "Polygon", "coordinates": [ [ [ 530.683860887802325, 348.486603375806283 ], [ 540.616023185404515, 343.84299502839508 ], [ 545.904577136102262, 353.388189964683875 ], [ 536.617360442928771, 357.644830950404014 ], [ 530.683860887802325, 348.486603375806283 ] ] ] } },
{ "type": "Feature", "properties": { "feature_type": "building", "subtype": "destroyed", "uid": "3565c137-55ac-4148-bb09-0c48daf0ccdc" }, "geometry": { "type": "Polygon", "coordinates": [ [ [ 233.303903362498488, 773.238922881867438 ], [ 241.592457917406307, 773.446136744627893 ], [ 240.349174736521491, 782.356332891118768 ], [ 233.303903363006896, 781.527477434992761 ], [ 233.303903362498488, 773.238922881867438 ] ] ] } },
{ "type": "Feature", "properties": { "feature_type": "building", "subtype": "destroyed", "uid": "686ec4a5-ec45-45a6-8097-03ce60834f56" }, "geometry": { "type": "Polygon", "coordinates": [ [ [ 229.36683995161809, 791.473742899353283 ], [ 235.583255867100007, 791.680956765164183 ], [ 237.448180638427203, 795.618020175915944 ], [ 237.448180639316888, 798.519014273882135 ], [ 229.159626086188496, 798.726228135625774 ], [ 229.36683995161809, 791.473742899353283 ] ] ] } },
{ "type": "Feature", "properties": { "feature_type": "building", "subtype": "no-damage", "uid": "3bee055a-5c64-4574-b500-f71ca7b263b9" }, "geometry": { "type": "Polygon", "coordinates": [ [ [ 72.922418568042573, 279.89117839005678 ], [ 88.671094552274937, 280.378250843017327 ], [ 88.021664614909227, 288.171410093436521 ], [ 70.811771270523678, 287.846695127168687 ], [ 70.649413785864496, 281.027680782670586 ], [ 72.922418568042573, 279.89117839005678 ] ] ] } },
{ "type": "Feature", "properties": { "feature_type": "building", "subtype": "no-damage", "uid": "f7afa7b5-7345-4d55-8534-ba33a2dc76e7" }, "geometry": { "type": "Polygon", "coordinates": [ [ [ 70.616399083950611, 126.505291527678693 ], [ 72.239973929144284, 127.154721467331996 ], [ 72.56468889490381, 127.804151404951597 ], [ 72.889403867399707, 128.940653794514986 ], [ 72.727046380452705, 131.700731027619213 ], [ 72.07761644105338, 133.486663356835891 ], [ 71.265829023604141, 134.460808264790586 ], [ 68.83046675397064, 134.298450780131503 ], [ 66.557461973317771, 132.837233422266593 ], [ 64.7715296433378, 130.564228638055795 ], [ 65.096244616596309, 127.966508886560305 ], [ 66.07038952035704, 126.830006496996901 ], [ 67.531606880001831, 126.342934046069999 ], [ 70.616399083950611, 126.505291527678693 ] ] ] } },
{ "type": "Feature", "properties": { "feature_type": "building", "subtype": "no-damage", "uid": "fa63bb8d-aee2-4f52-89b3-526e79d099d2" }, "geometry": { "type": "Polygon", "coordinates": [ [ [ 207.358555497539811, 47.985099333246367 ], [ 214.818254595940004, 48.399527062834593 ], [ 214.611040730891602, 55.652012295039839 ], [ 211.917260502929707, 55.85922615881713 ], [ 213.367757550769397, 60.625145027728493 ], [ 207.772983224713187, 64.14778071397609 ], [ 204.664775264239609, 57.516937068018663 ], [ 205.286416859384786, 50.471665696540271 ], [ 207.358555497539811, 47.985099333246367 ] ] ] } },
{ "type": "Feature", "properties": { "feature_type": "building", "subtype": "destroyed", "uid": "2f65ec60-e2d5-4a9e-baa3-e3251054c123" }, "geometry": { "type": "Polygon", "coordinates": [ [ [ 424.113475464639521, 302.673583815961706 ], [ 426.548837729951515, 308.518453254538713 ], [ 415.183813823636683, 313.876250237104728 ], [ 407.065939600718707, 306.570163442696526 ], [ 411.611949165074918, 301.699438911057428 ], [ 419.080393444780498, 304.459516142127995 ], [ 424.113475464639521, 302.673583815961706 ] ] ] } },
{ "type": "Feature", "properties": { "feature_type": "building", "subtype": "destroyed", "uid": "4537b730-4bbc-4751-9fdf-79cea4a48338" }, "geometry": { "type": "Polygon", "coordinates": [ [ [ 374.245249002693186, 269.609613944360717 ], [ 376.939029233705526, 276.033243723490386 ], [ 370.929827177425523, 277.898168499519727 ], [ 366.992763764384392, 274.582746673998884 ], [ 368.857688539016181, 269.816827810171674 ], [ 374.245249002693186, 269.609613944360717 ] ] ] } },
{ "type": "Feature", "properties": { "feature_type": "building", "subtype": "destroyed", "uid": "8ab89867-a4ec-4bf0-aaa3-7331a9010ac3" }, "geometry": { "type": "Polygon", "coordinates": [ [ [ 587.435035068658408, 456.023527799048111 ], [ 594.875214213313143, 452.492595323913122 ], [ 598.784460878764207, 460.058879201381274 ], [ 591.722595931541946, 463.211497481626225 ], [ 587.435035068658408, 456.023527799048111 ] ] ] } },
{ "type": "Feature", "properties": { "feature_type": "building", "subtype": "destroyed", "uid": "5ecffaf2-9b95-413b-a1bf-ccb43e760ee8" }, "geometry": { "type": "Polygon", "coordinates": [ [ [ 385.499648186742775, 374.583252934714608 ], [ 394.887921186279414, 375.542638496825816 ], [ 393.722953004369117, 386.369989834695673 ], [ 383.854987224539286, 385.205021653802703 ], [ 385.499648186742775, 374.583252934714608 ] ] ] } },
{ "type": "Feature", "properties": { "feature_type": "building", "subtype": "destroyed", "uid": "114f9afe-c47b-4d13-b3e8-0b07a488a3dd" }, "geometry": { "type": "Polygon", "coordinates": [ [ [ 412.350364916909086, 375.774495176567086 ], [ 413.611412232871373, 383.466883780242483 ], [ 411.845945995430384, 386.619502061504193 ], [ 404.405766851411215, 386.115083137356521 ], [ 403.396929001844285, 380.188160766672922 ], [ 404.910185774923605, 375.522285710934511 ], [ 412.350364916909086, 375.774495176567086 ] ] ] } },
{ "type": "Feature", "properties": { "feature_type": "building", "subtype": "destroyed", "uid": "62ab4e3b-9e66-4360-be9c-1404964f9486" }, "geometry": { "type": "Polygon", "coordinates": [ [ [ 240.50846404879789, 441.474895253572299 ], [ 245.426548563815913, 448.536760202825576 ], [ 243.913291792643093, 449.545598055188293 ], [ 248.074747922201794, 457.23798665886369 ], [ 238.742997807670889, 458.120719779935314 ], [ 236.220903182863992, 453.959263648344574 ], [ 229.915666623134513, 453.959263647327816 ], [ 229.032933503079391, 455.094206227931181 ], [ 222.8538016724805, 459.255662360538793 ], [ 221.214440164551206, 455.22031096023909 ], [ 222.349382747188713, 446.519084506234719 ], [ 240.50846404879789, 441.474895253572299 ] ] ] } },
{ "type": "Feature", "properties": { "feature_type": "building", "subtype": "destroyed", "uid": "f3490e73-6db7-4ae1-9007-7bc1c2f874f1" }, "geometry": { "type": "Polygon", "coordinates": [ [ [ 163.027499774902708, 352.062961851478519 ], [ 163.957104372734989, 380.322941545039328 ], [ 150.198956363607891, 380.137020621507304 ], [ 149.920074984156514, 351.412238634368691 ], [ 163.027499774902708, 352.062961851478519 ] ] ] } }
]
}
