{
"type": "FeatureCollection",
"name": "socal-fire_00000355_post_disaster",
"features": [
{ "type": "Feature", "properties": { "feature_type": "building", "subtype": "no-damage", "uid": "55443df4-cee0-4192-b17a-76ac00c35dff" }, "geometry": { "type": "Polygon", "coordinates": [ [ [ 370.931973300281925, 208.955453716609895 ], [ 366.53955857832301, 231.961509378128397 ], [ 346.373169440680215, 228.2407815784793 ], [ 350.180358588294382, 205.474106089788506 ], [ 370.931973300281925, 208.955453716609895 ] ] ] } },
{ "type": "Feature", "properties": { "feature_type": "building", "subtype": "no-damage", "uid": "829b9193-b4ed-4704-991e-887260b51697" }, "geometry": { "type": "Polygon", "coordinates": [ [ [ 295.813857875189512, 179.054448161571912 ], [ 325.87371943002239, 184.317205903676609 ], [ 323.974798696217817, 198.981498048638997 ], [ 331.71541399082048, 200.722287920185408 ], [ 329.470974984501709, 215.685214633038612 ], [ 321.241365295937726, 214.438304072871205 ], [ 318.90728569887051, 230.728012105873091 ], [ 282.836520064074591, 224.413588545055006 ], [ 281.977884661783094, 226.538070499051287 ], [ 249.659231190750404, 220.625516912537989 ], [ 252.411902412861792, 201.470434255879013 ], [ 290.807279654169179, 207.95436916284919 ], [ 291.915297165391792, 202.875173845594105 ], [ 299.305207441167624, 204.223105478243212 ], [ 300.432160942656481, 198.237934793712299 ], [ 296.912057513896798, 197.581429012564712 ], [ 293.051718657054778, 196.861599183547412 ], [ 295.813857875189512, 179.054448161571912 ] ] ] } },
{ "type": "Feature", "properties": { "feature_type": "building", "subtype": "no-damage", "uid": "90d95c13-a4c0-4c73-a86f-6cdab59ac90c" }, "geometry": { "type": "Polygon", "coordinates": [ [ [ 134.567400017499608, 86.771053016760249 ], [ 146.92195356188779, 93.774436140800105 ], [ 139.949494080647412, 104.973935798827398 ], [ 127.533093254976393, 97.984145743355654 ], [ 134.567400017499608, 86.771053016760249 ] ] ] } },
{ "type": "Feature", "properties": { "feature_type": "building", "subtype": "no-damage", "uid": "0e38a9ca-5def-400e-80e2-4653b6ee1bac" }, "geometry": { "type": "Polygon", "coordinates": [ [ [ 483.562245659869575, 164.368053260809603 ], [ 472.239778410609972, 191.522079231264996 ], [ 451.78575719056721, 183.02701516391781 ], [ 449.866444235298502, 183.866714583317588 ], [ 446.987474799916015, 183.50684340473731 ], [ 444.348419484307726, 182.187315747569613 ], [ 442.669020645761407, 180.987745150606798 ], [ 442.069235348551274, 178.828518079125388 ], [ 423.816247182271582, 172.033333385404489 ], [ 432.000595452161178, 152.909908768179093 ], [ 431.929999193594483, 152.880000469017403 ], [ 435.899999196519616, 144.670000474407914 ], [ 483.562245659869575, 164.368053260809603 ] ] ] } },
{ "type": "Feature", "properties": { "feature_type": "building", "subtype": "no-damage", "uid": "dde507c3-9d2e-4512-8c80-2ecf1891a245" }, "geometry": { "type": "Polygon", "coordinates": [ [ [ 437.729667694664727, 138.905509944530991 ], [ 435.054482029415112, 144.316300400232109 ], [ 435.439999195017378, 144.470000472295311 ], [ 431.4699991975599, 152.690000471537189 ], [ 419.937701569591297, 148.031029848070688 ], [ 418.25361274876451, 150.174415617765305 ], [ 413.04824730731201, 147.877930862995214 ], [ 414.273039173674988, 145.734545092283412 ], [ 398.734106337020023, 139.223791737179795 ], [ 406.270058412152878, 125.610374470646704 ], [ 437.729667694664727, 138.905509944530991 ] ] ] } },
{ "type": "Feature", "properties": { "feature_type": "building", "subtype": "no-damage", "uid": "5283f2a2-b936-45f7-ab44-49bb9736ff3c" }, "geometry": { "type": "Polygon", "coordinates": [ [ [ 855.321124200052736, 313.342186705838628 ], [ 850.206473860468691, 336.403501742974015 ], [ 831.673616929050354, 331.997928018060179 ], [ 837.374459499692307, 309.109868710509772 ], [ 855.321124200052736, 313.342186705838628 ] ] ] } },
{ "type": "Feature", "properties": { "feature_type": "building", "subtype": "no-damage", "uid": "72d8a8bc-f22f-4838-8a4e-c06934c83398" }, "geometry": { "type": "Polygon", "coordinates": [ [ [ 790.140629748753099, 453.089301228986812 ], [ 789.900715628597482, 455.968270664749298 ], [ 783.902862644288916, 456.088227722919783 ], [ 783.902862639965633, 455.128571247383888 ], [ 779.944279667697515, 455.008614190230674 ], [ 779.944279669986258, 449.970417674848989 ], [ 774.186340800492758, 449.850460615661291 ], [ 774.666169038260932, 439.654110539951319 ], [ 775.745782575273779, 439.77406759812169 ], [ 776.345567874518451, 428.738018098942973 ], [ 794.219169780336188, 429.817631634683721 ], [ 793.139556243450556, 452.609472992236078 ], [ 790.140629750279004, 452.969344171833598 ], [ 790.140629748753099, 453.089301228986812 ] ] ] } },
{ "type": "Feature", "properties": { "feature_type": "building", "subtype": "no-damage", "uid": "5c1374c5-e4e5-4df4-9a82-109a607e03be" }, "geometry": { "type": "Polygon", "coordinates": [ [ [ 694.185459377096208, 401.700138675966514 ], [ 712.538889520936436, 405.658721653573082 ], [ 711.819147164411334, 409.137476386291212 ], [ 715.177944839977954, 409.857218742434384 ], [ 713.498546002830494, 419.093912344643002 ], [ 709.060134791141195, 418.254212931346615 ], [ 707.740607134099946, 425.931464753943203 ], [ 690.106919342334322, 422.212795898780826 ], [ 693.945545255160482, 402.539838099435201 ], [ 694.185459377096208, 401.700138675966514 ] ] ] } },
{ "type": "Feature", "properties": { "feature_type": "building", "subtype": "no-damage", "uid": "fc596618-7417-4594-8a06-21caf1ac5021" }, "geometry": { "type": "Polygon", "coordinates": [ [ [ 615.613585226908867, 423.052495317163391 ], [ 621.851352334424746, 395.102500392162199 ], [ 633.727101250720693, 397.74155570751492 ], [ 634.206929488107335, 395.702285690135 ], [ 640.684610715651729, 397.261727468729816 ], [ 641.044481898173899, 395.462371571759718 ], [ 650.041261378960144, 397.981469827924684 ], [ 652.560359637033685, 390.184260941054276 ], [ 656.039114366701938, 391.263874478829507 ], [ 663.476452072834263, 393.3031444951921 ], [ 679.310783963559857, 397.621598648327279 ], [ 675.592115112210308, 414.055715837399077 ], [ 667.315077988330586, 412.136402881241281 ], [ 662.516795596916495, 435.647986596971407 ], [ 626.049849426848596, 427.250992410093716 ], [ 626.409720603776009, 425.211722394748278 ], [ 615.613585226908867, 423.052495317163391 ] ] ] } },
{ "type": "Feature", "properties": { "feature_type": "building", "subtype": "no-damage", "uid": "9ab5b194-17a4-423e-97d9-aa977f35cd76" }, "geometry": { "type": "Polygon", "coordinates": [ [ [ 485.217344071721413, 371.905590445718019 ], [ 489.711484506823126, 353.733631305691006 ], [ 503.97549544243418, 358.032374329462982 ], [ 505.147879906203116, 353.342836487105217 ], [ 507.29725141745439, 354.124426125294121 ], [ 508.27423846786138, 348.653298641695528 ], [ 517.848711560349216, 350.802670152564303 ], [ 534.652888833172597, 354.906015765517623 ], [ 533.089709552216277, 359.986348432564682 ], [ 536.997657750919529, 361.15873288832239 ], [ 538.278011614218826, 356.85998986760211 ], [ 573.006313899810721, 365.443076240907317 ], [ 569.322562452266084, 382.74089125632031 ], [ 572.300966218969165, 383.862318686379012 ], [ 570.725291527826357, 392.03152368579498 ], [ 569.362428670719282, 400.629009730287407 ], [ 546.677848641025093, 395.657882248409919 ], [ 546.56404087295391, 393.326921097551917 ], [ 543.569900436912576, 393.025805896363181 ], [ 543.092463691560852, 394.962484842990591 ], [ 535.880760206322748, 393.479706549069306 ], [ 536.71218289461558, 388.877453448629922 ], [ 534.910445138678142, 388.530965420402708 ], [ 536.49587302259954, 375.884228276700924 ], [ 532.503517318233776, 374.445756778224393 ], [ 527.03238983666688, 405.513944984481384 ], [ 512.768378898894184, 402.778381244207878 ], [ 510.032815154677621, 398.675035633289099 ], [ 505.734072134082226, 397.307253759592072 ], [ 502.021521341874575, 395.744074480162396 ], [ 498.895162782504997, 394.767087427085698 ], [ 503.193905801956021, 376.985923109713497 ], [ 485.412741482794615, 372.100987855519577 ], [ 485.217344071721413, 371.905590445718019 ] ] ] } },
{ "type": "Feature", "properties": { "feature_type": "building", "subtype": "no-damage", "uid": "348906ba-b833-4e30-8fd9-c28cab5a6ccb" }, "geometry": { "type": "Polygon", "coordinates": [ [ [ 95.932104676367132, 164.549412143550597 ], [ 96.56866825874036, 147.043913613990497 ], [ 106.511184165117797, 146.911769739508713 ], [ 106.5893339947702, 142.331732714613906 ], [ 123.582360885672799, 141.929618623741192 ], [ 126.945634245481401, 136.618764326034011 ], [ 120.439802612168904, 132.084669418499686 ], [ 132.048677023889496, 111.717693304855999 ], [ 136.430021777127308, 114.579170891991396 ], [ 140.729119865789897, 107.503900421624706 ], [ 147.572943014027089, 111.399411512207294 ], [ 150.676572796450387, 105.667280728343897 ], [ 154.814236086136191, 108.531816855061805 ], [ 158.951899375949012, 103.121026400378099 ], [ 185.819283045232595, 121.087490989384605 ], [ 170.091762072376213, 148.317040780516493 ], [ 164.680971622267208, 144.815941074604495 ], [ 154.002074984778204, 162.62875031012311 ], [ 134.44420143785851, 150.54501331888531 ], [ 132.8637635615585, 156.252143399958186 ], [ 127.442002023615004, 156.274085567235005 ], [ 126.487156652407506, 164.867693933147592 ], [ 97.205231841113601, 163.912848559270287 ], [ 95.932104676367132, 164.549412143550597 ] ] ] } },
{ "type": "Feature", "properties": { "feature_type": "building", "subtype": "no-damage", "uid": "5383b68a-c82b-43a1-a472-5392b3ca998f" }, "geometry": { "type": "Polygon", "coordinates": [ [ [ 159.659132484741406, 0.006462409389133 ], [ 158.87565630549409, 9.33434460651578 ], [ 165.877855712235487, 9.97090818774431 ], [ 165.899797879003813, 21.077857641896969 ], [ 171.925209749931014, 21.747334470989099 ], [ 170.015519001285497, 59.94114943930353 ], [ 139.77874881776691, 59.304585859092242 ], [ 140.733594190881689, 39.252832998514677 ], [ 149.963766142859299, 39.571114791163403 ], [ 149.645484350464812, 29.70437925669037 ], [ 135.9593673199671, 28.749533882813111 ], [ 136.914212697278003, 14.108571476919311 ], [ 145.189539272453402, 14.108571476919311 ], [ 143.279848523934987, 12.835444314462251 ], [ 141.688439568955488, 11.88059893651606 ], [ 141.051875985819294, 8.061217442024255 ], [ 142.006721357535497, 5.196681318358008 ], [ 144.234693897049794, 4.241835945497981 ], [ 145.826102853682187, 4.241835944480749 ], [ 146.78094822921301, 4.241835944480749 ], [ 146.93461996396519, 0.006241302629381 ], [ 159.659132484741406, 0.006462409389133 ] ] ] } },
{ "type": "Feature", "properties": { "feature_type": "building", "subtype": "no-damage", "uid": "e3c4722b-2c2f-4346-8780-0cd4c2237673" }, "geometry": { "type": "Polygon", "coordinates": [ [ [ 819.755895277519471, 469.860580024795524 ], [ 820.194134127067286, 457.969007784021585 ], [ 816.024503657437435, 457.170897753604891 ], [ 816.979349034494021, 438.392272060570576 ], [ 833.530002187387822, 438.073990271990795 ], [ 833.889873368384201, 450.330244791986274 ], [ 847.195061116021293, 450.540126537268975 ], [ 847.240286866695783, 455.402222166393585 ], [ 852.437559217714238, 455.81329546073249 ], [ 860.858003317779321, 455.966394440721785 ], [ 866.631308494065593, 455.696336309977823 ], [ 866.631308494955647, 450.486980138498609 ], [ 881.867245094119767, 451.243500778914779 ], [ 880.635707314287515, 464.726481971742828 ], [ 885.163201577477821, 465.041003516194621 ], [ 886.96255747635621, 467.320187652966979 ], [ 888.989401565007938, 469.598320931191779 ], [ 888.671119774012027, 480.040786245172512 ], [ 885.643029815373097, 482.554734244058807 ], [ 880.234986074645235, 481.918509814381594 ], [ 880.115029011642832, 488.20096686701072 ], [ 877.489667685804193, 488.28414563989088 ], [ 877.444441939961735, 492.364499357165187 ], [ 865.994744912455189, 492.157727161625985 ], [ 865.853729752674894, 496.956121683128572 ], [ 834.621051616081331, 496.766771222421823 ], [ 835.116600039310015, 492.544642292597075 ], [ 832.115859861335139, 492.040646400678497 ], [ 832.149300655842922, 479.979698727257016 ], [ 825.665272773146739, 479.479743490904127 ], [ 825.286642788596396, 470.340408262563415 ], [ 819.755895277519471, 469.860580024795524 ] ] ] } },
{ "type": "Feature", "properties": { "feature_type": "building", "subtype": "no-damage", "uid": "6ed76054-d9a7-4fed-8117-772b731ba744" }, "geometry": { "type": "Polygon", "coordinates": [ [ [ -0.000000809081616, 126.867770390830302 ], [ 27.041009695929539, 137.55766037511151 ], [ 14.9274666534514, 164.304739407647986 ], [ 17.223951407205419, 166.14192721431229 ], [ 11.18138673251997, 181.048099811219402 ], [ -0.00000080704715, 176.338254994311711 ], [ -0.000000809081616, 126.867770390830302 ] ] ] } }
]
}
