{
"type": "FeatureCollection",
"name": "socal-fire_00000717_post_disaster",
"features": [
{ "type": "Feature", "properties": { "feature_type": "building", "subtype": "no-damage", "uid": "9cadaf88-dc46-446d-9d54-d0a585887870" }, "geometry": { "type": "Polygon", "coordinates": [ [ [ 435.708591201069623, 892.415050480926084 ], [ 433.46415219482202, 865.48178239984486 ], [ 464.387534069241212, 863.736107612744377 ], [ 465.385062517450876, 891.16813992059997 ], [ 435.708591201069623, 892.415050480926084 ] ] ] } },
{ "type": "Feature", "properties": { "feature_type": "building", "subtype": "no-damage", "uid": "b30de0b2-2d0e-4c8b-bca5-9bc09573709f" }, "geometry": { "type": "Polygon", "coordinates": [ [ [ 433.46415219482202, 865.48178239984486 ], [ 432.973027463364815, 847.847293204330867 ], [ 453.685152934494795, 847.651895792806044 ], [ 454.075947751697413, 864.260675652427608 ], [ 433.46415219482202, 865.48178239984486 ] ] ] } },
{ "type": "Feature", "properties": { "feature_type": "building", "subtype": "no-damage", "uid": "98cc6f16-2a9a-470a-a538-1460e3292eaa" }, "geometry": { "type": "Polygon", "coordinates": [ [ [ 454.075947751697413, 864.260675652427608 ], [ 453.685152934494795, 847.651895792806044 ], [ 463.650420846629004, 848.433485432804218 ], [ 464.387534069241212, 863.736107612744377 ], [ 454.075947751697413, 864.260675652427608 ] ] ] } },
{ "type": "Feature", "properties": { "feature_type": "building", "subtype": "no-damage", "uid": "310a927e-b79a-4652-a4f6-759f24f5f1ca" }, "geometry": { "type": "Polygon", "coordinates": [ [ [ 435.708591201069623, 892.415050480926084 ], [ 424.845278375517807, 893.195379886939691 ], [ 421.852693028854787, 866.012729690946003 ], [ 433.46415219482202, 865.48178239984486 ], [ 435.708591201069623, 892.415050480926084 ] ] ] } },
{ "type": "Feature", "properties": { "feature_type": "building", "subtype": "un-classified", "uid": "c82ff4ec-b8ed-4f7d-9200-4aad892a64fb" }, "geometry": { "type": "Polygon", "coordinates": [ [ [ 515.241572150176125, 908.95288372583093 ], [ 514.977108912119888, 914.506611638201662 ], [ 501.22502075092541, 917.415707215512384 ], [ 500.960557514521383, 911.333052832875865 ], [ 515.241572150176125, 908.95288372583093 ] ] ] } }
]
}
