{
"type": "FeatureCollection",
"name": "socal-fire_00001284_post_disaster",
"features": [
{ "type": "Feature", "properties": { "feature_type": "building", "subtype": "un-classified", "uid": "de2c2c8d-f517-401e-ba90-fa21fc36afa2" }, "geometry": { "type": "Polygon", "coordinates": [ [ [ 414.387648101456989, 712.08394844397435 ], [ 407.899869896527775, 711.956737106610376 ], [ 408.535926583347873, 706.105015588883475 ], [ 414.133225430925393, 706.105015585831552 ], [ 415.150916130219116, 708.903665008856933 ], [ 414.896493454473728, 712.08394844499162 ], [ 414.387648101456989, 712.08394844397435 ] ] ] } },
{ "type": "Feature", "properties": { "feature_type": "building", "subtype": "un-classified", "uid": "8065fc4e-06ef-4042-a934-b2f43bb2d622" }, "geometry": { "type": "Polygon", "coordinates": [ [ [ 417.186297523719873, 712.338371117685028 ], [ 417.186297524482825, 708.013185648326157 ], [ 421.638694330697604, 708.267608322036949 ], [ 421.893117009494915, 712.465582455049002 ], [ 417.186297523719873, 712.338371117685028 ] ] ] } },
{ "type": "Feature", "properties": { "feature_type": "building", "subtype": "un-classified", "uid": "a450f2c0-27d9-4943-a44a-868e3bd5eeda" }, "geometry": { "type": "Polygon", "coordinates": [ [ [ 438.557802198840818, 710.048567045132927 ], [ 438.557802202274218, 706.613860935287562 ], [ 445.808848429607281, 706.613860938339485 ], [ 445.681637092497624, 710.430201055190423 ], [ 438.557802198840818, 710.048567045132927 ] ] ] } }
]
}
