{
"type": "FeatureCollection",
"name": "socal-fire_00000155_post_disaster",
"features": [
{ "type": "Feature", "properties": { "feature_type": "building", "subtype": "un-classified", "uid": "cd901a1c-7f54-4999-8b09-3e85a9731518" }, "geometry": { "type": "Polygon", "coordinates": [ [ [ 894.72693419035545, 861.228525368502119 ], [ 894.68062036388767, 858.903027402210114 ], [ 901.297243082279465, 858.376885332888151 ], [ 901.297243080245039, 863.960208345945603 ], [ 894.00719183662784, 864.347408920605517 ], [ 893.748293280489179, 861.34848242768976 ], [ 894.72693419035545, 861.228525368502119 ] ] ] } }
]
}
