{
"type": "FeatureCollection",
"name": "socal-fire_00000453_post_disaster",
"features": [
{ "type": "Feature", "properties": { "feature_type": "building", "subtype": "no-damage", "uid": "769685ed-283e-442c-83da-69352625c35d" }, "geometry": { "type": "Polygon", "coordinates": [ [ [ 556.28149583519496, 491.407760180889625 ], [ 550.02737438446411, 483.881676107463079 ], [ 548.26619537095246, 488.284623644481712 ], [ 543.961091113569296, 487.697563970981207 ], [ 539.362457021088062, 484.566579056152079 ], [ 537.709514936762162, 480.848534468839318 ], [ 538.513636851481692, 477.008707216962705 ], [ 506.144334060945084, 473.727625584900295 ], [ 508.277014539946094, 454.624341271521985 ], [ 529.957735633921516, 456.996977146461177 ], [ 540.317201029467583, 448.709404829417281 ], [ 556.095796317234999, 435.999186725760524 ], [ 560.165698554642063, 440.603092076734811 ], [ 567.469006845955278, 434.342567053730079 ], [ 565.707827831808117, 432.092171649151908 ], [ 569.328029138595639, 429.450403124500383 ], [ 570.991364876029024, 431.407268695378775 ], [ 575.437599456708085, 428.344236474690376 ], [ 586.314577130668113, 441.925730504267278 ], [ 585.690199270233165, 448.669011419535025 ], [ 583.817065682192037, 450.167518286205222 ], [ 591.080420678693486, 459.428882441992414 ], [ 591.465333295768232, 463.939959158673673 ], [ 556.28149583519496, 491.407760180889625 ] ] ] } },
{ "type": "Feature", "properties": { "feature_type": "building", "subtype": "no-damage", "uid": "dc15ce8b-ee7b-44ef-af3a-1f62b6023780" }, "geometry": { "type": "Polygon", "coordinates": [ [ [ 519.265029869731165, 338.21835826762981 ], [ 568.964840350804707, 341.531678966714196 ], [ 566.645515861775266, 356.44162211361089 ], [ 562.669531025236552, 355.447625901648621 ], [ 561.6755348142907, 365.718920071250579 ], [ 515.951709167213835, 358.098282462136183 ], [ 519.265029869731165, 338.21835826762981 ] ] ] } },
{ "type": "Feature", "properties": { "feature_type": "building", "subtype": "no-damage", "uid": "4dadc987-c916-48ca-996a-3a7731c5db21" }, "geometry": { "type": "Polygon", "coordinates": [ [ [ 598.442855068334893, 321.580575309652772 ], [ 637.124349699014715, 315.349998994696193 ], [ 639.72042316777538, 336.378194063394517 ], [ 636.60513500495756, 337.157016099586485 ], [ 637.383957048267575, 340.531911607715699 ], [ 601.558143225560229, 345.983665885463495 ], [ 599.740891800236682, 336.118586716302389 ], [ 597.144818331349029, 336.637801409469716 ], [ 596.106388948827203, 327.81115162562628 ], [ 599.221677107831852, 327.032329587400625 ], [ 598.442855068334893, 321.580575309652772 ] ] ] } },
{ "type": "Feature", "properties": { "feature_type": "building", "subtype": "no-damage", "uid": "91d4b0de-c195-4726-b6a7-413036a2fdc5" }, "geometry": { "type": "Polygon", "coordinates": [ [ [ 625.474519545915314, 86.033798581156788 ], [ 625.822752467080136, 83.529157771226338 ], [ 634.721432846821926, 84.015780466446429 ], [ 634.058768703395117, 89.317093583354577 ], [ 640.685410105379447, 89.317093582337776 ], [ 639.743850584322558, 96.937731189418471 ], [ 633.953895319676917, 96.809808270451953 ], [ 627.983870855953114, 144.957979555476697 ], [ 559.638396786615544, 143.940933811951993 ], [ 560.408377110706283, 123.537133464443301 ], [ 602.107252661835787, 123.5371334634265 ], [ 602.514070958940806, 120.485996230818799 ], [ 604.344753299726335, 118.248495588353506 ], [ 607.192481385307929, 117.028040693480094 ], [ 609.570580190609348, 115.853684870882901 ], [ 612.221236747539137, 85.371134443576892 ], [ 625.474519545915314, 86.033798581156788 ] ] ] } },
{ "type": "Feature", "properties": { "feature_type": "building", "subtype": "no-damage", "uid": "f46c5188-eada-46fa-a5cb-e481279f15a2" }, "geometry": { "type": "Polygon", "coordinates": [ [ [ 559.638396786615544, 143.940933811951993 ], [ 627.983870855953114, 144.957979555476697 ], [ 630.919723414264922, 120.959953755713698 ], [ 633.232292006366606, 120.959953755713698 ], [ 632.584959514709567, 149.14704647583801 ], [ 559.561075017606868, 147.926591581981398 ], [ 559.638396786615544, 143.940933811951993 ] ] ] } },
{ "type": "Feature", "properties": { "feature_type": "building", "subtype": "no-damage", "uid": "ceca2bc0-87e9-484b-82a2-e7337783d402" }, "geometry": { "type": "Polygon", "coordinates": [ [ [ 526.770988620236608, 60.404812927183492 ], [ 541.568607370297855, 65.33735251583127 ], [ 537.674497171923235, 75.462039024966714 ], [ 522.357663728186253, 70.78910679154545 ], [ 526.770988620236608, 60.404812927183492 ] ] ] } },
{ "type": "Feature", "properties": { "feature_type": "building", "subtype": "no-damage", "uid": "2e787191-1aa9-4d7c-b4f2-acd321900610" }, "geometry": { "type": "Polygon", "coordinates": [ [ [ 537.983845790806868, 0.009458185996659 ], [ 530.815845677866946, 17.226812279206811 ], [ 501.331213390844425, 5.592335756753158 ], [ 503.558702732164193, 0.00947478034721 ], [ 537.983845790806868, 0.009458185996659 ] ] ] } },
{ "type": "Feature", "properties": { "feature_type": "building", "subtype": "no-damage", "uid": "93fcd115-6695-4edc-8213-384bc0f4f077" }, "geometry": { "type": "Polygon", "coordinates": [ [ [ 177.013119627540192, 30.741915668720971 ], [ 192.411980245662306, 25.5795686440024 ], [ 197.157252002660186, 39.191006047438329 ], [ 190.413971088915105, 41.688517493244312 ], [ 199.951585652283995, 68.071409429017805 ], [ 167.916931110039513, 79.546509564611213 ], [ 161.382499090907601, 64.565128834714173 ], [ 163.613768562367909, 63.608870487115688 ], [ 158.580998023146094, 51.250896049336028 ], [ 181.166837169829307, 42.164638921451058 ], [ 177.013119627540192, 30.741915668720971 ] ] ] } },
{ "type": "Feature", "properties": { "feature_type": "building", "subtype": "no-damage", "uid": "3594c617-79d1-4d01-bf32-f0076b92bc72" }, "geometry": { "type": "Polygon", "coordinates": [ [ [ 131.917302293326713, 128.343435705281792 ], [ 138.04043128509781, 131.051905565655289 ], [ 143.125660010349293, 119.864402370614599 ], [ 154.719981507329095, 125.356449395002599 ], [ 143.803042033825392, 145.870907963223488 ], [ 138.610895102405095, 143.274834495353588 ], [ 137.053251024936287, 145.870907960173099 ], [ 130.822674708198008, 142.755619801169587 ], [ 132.120711441370787, 139.640331645216492 ], [ 126.928564508552398, 137.044258180397009 ], [ 131.917302293326713, 128.343435705281792 ] ] ] } },
{ "type": "Feature", "properties": { "feature_type": "building", "subtype": "no-damage", "uid": "300825d0-d208-4d68-80e5-4ba6d2de8d58" }, "geometry": { "type": "Polygon", "coordinates": [ [ [ 151.198555650916404, 140.770872828538899 ], [ 165.511945779041014, 124.9535233592526 ], [ 164.435669709769996, 123.975090573813304 ], [ 167.273124789883497, 121.039792217495602 ], [ 168.44724413205509, 122.116068280156895 ], [ 174.415684126490504, 115.071352224587699 ], [ 195.197685215320405, 131.916717743933788 ], [ 187.547618459187305, 141.160548410609806 ], [ 191.053899056415588, 144.666829008980699 ], [ 175.913141932662114, 161.720102817884509 ], [ 151.198555650916404, 140.770872828538899 ] ] ] } },
{ "type": "Feature", "properties": { "feature_type": "building", "subtype": "no-damage", "uid": "e0da34d9-51ea-41a6-940b-7d275ac668f1" }, "geometry": { "type": "Polygon", "coordinates": [ [ [ 124.814683728745294, 212.617829222347211 ], [ 133.561277136584607, 198.582597944013713 ], [ 163.055603745839591, 215.262148160392087 ], [ 145.155598631785011, 245.163293066995095 ], [ 126.238547770392202, 234.382608167533988 ], [ 136.205596075647293, 218.109876246735212 ], [ 124.814683728745294, 212.617829222347211 ] ] ] } },
{ "type": "Feature", "properties": { "feature_type": "building", "subtype": "no-damage", "uid": "9937cde9-0254-4070-bb44-879a3497dab0" }, "geometry": { "type": "Polygon", "coordinates": [ [ [ 24.608256588830081, 295.460038951835202 ], [ 77.048940588066074, 304.805903425795407 ], [ 76.270118549967208, 308.180798929857417 ], [ 88.21205649243727, 309.738443010375875 ], [ 83.539124254692823, 335.69917766365478 ], [ 72.89522304298066, 334.141533589236985 ], [ 71.856793661221417, 338.035643786466323 ], [ 63.030143876230852, 336.737607048972393 ], [ 62.770536531807842, 340.11250255710172 ], [ 42.261556152329049, 337.256821745190223 ], [ 43.5595928874084, 332.324282160609584 ], [ 19.156502309936339, 327.651349921087501 ], [ 24.608256588830081, 295.460038951835202 ] ] ] } },
{ "type": "Feature", "properties": { "feature_type": "building", "subtype": "no-damage", "uid": "b395d285-4c3b-4668-bbd1-09a0a9ef271d" }, "geometry": { "type": "Polygon", "coordinates": [ [ [ 238.652636298027801, 317.328573586790185 ], [ 211.913079604733895, 278.387471607380405 ], [ 231.643237940775606, 265.40710428328299 ], [ 243.226552264969087, 281.789658659276483 ], [ 255.26750647531901, 273.974146715967208 ], [ 272.141984001735921, 296.559985864167174 ], [ 238.652636298027801, 317.328573586790185 ] ] ] } },
{ "type": "Feature", "properties": { "feature_type": "building", "subtype": "no-damage", "uid": "ff6b9190-57ae-4df9-bed9-5363f8046439" }, "geometry": { "type": "Polygon", "coordinates": [ [ [ 111.507407187712602, 362.902020243358379 ], [ 136.119914221539602, 345.205424277354382 ], [ 141.815370391812991, 351.714517047300774 ], [ 147.510826566280912, 347.849743213365684 ], [ 171.716515296647799, 380.191797907681803 ], [ 151.528745618613897, 394.430438338380725 ], [ 146.906830287053594, 387.258500755795581 ], [ 152.80375674565289, 382.955338205837677 ], [ 146.428701112745813, 373.870883931106107 ], [ 128.841099362972301, 386.609711478057193 ], [ 111.507407187712602, 362.902020243358379 ] ] ] } },
{ "type": "Feature", "properties": { "feature_type": "building", "subtype": "no-damage", "uid": "97bb430a-c627-4d9d-b5b1-a33544ad95a0" }, "geometry": { "type": "Polygon", "coordinates": [ [ [ 132.087864244529413, 384.23707559701711 ], [ 139.210512879623593, 378.987560553651974 ], [ 141.953034472142406, 382.363942011645918 ], [ 134.96000241513849, 387.733591628059798 ], [ 132.087864244529413, 384.23707559701711 ] ] ] } },
{ "type": "Feature", "properties": { "feature_type": "building", "subtype": "no-damage", "uid": "8bf9be5e-dce4-4838-bc37-df6cf93f2298" }, "geometry": { "type": "Polygon", "coordinates": [ [ [ 173.904564089903886, 401.512354038042815 ], [ 196.349357072805986, 381.430928802533685 ], [ 203.768736560808691, 387.833262553364023 ], [ 210.8798867459451, 380.793423241874223 ], [ 218.529953501315589, 388.602866388169275 ], [ 215.183049296921411, 391.790394201634797 ], [ 216.51720585834201, 402.787365165462575 ], [ 194.229734097740788, 423.358006795216511 ], [ 188.466961085599905, 417.928122288320708 ], [ 190.060724991951986, 416.015605596174225 ], [ 173.904564089903886, 401.512354038042815 ] ] ] } },
{ "type": "Feature", "properties": { "feature_type": "building", "subtype": "no-damage", "uid": "66c302c7-e01f-48cb-8ab7-dd4c2ca36484" }, "geometry": { "type": "Polygon", "coordinates": [ [ [ 220.782225399783187, 491.524873803261073 ], [ 232.724163337550493, 493.082517883779587 ], [ 234.506600210957089, 482.122811128473472 ], [ 247.262174746239111, 482.957831365493007 ], [ 247.002567396604888, 486.332726871588477 ], [ 250.637070251064898, 486.59233421969742 ], [ 251.675499636128791, 477.765684438904373 ], [ 269.848013896481177, 480.102150556631784 ], [ 268.549977164325128, 491.784481151369903 ], [ 271.405657973314419, 492.044088496428287 ], [ 269.558408246653528, 509.208171667836609 ], [ 266.213511041004381, 508.918566019788614 ], [ 264.041345301977117, 524.629738587981137 ], [ 255.310002490843004, 523.456577427454931 ], [ 255.050395139429412, 526.571865584424927 ], [ 237.916310268716586, 524.495006812772658 ], [ 238.695132308722009, 519.822074577317721 ], [ 228.570445793100589, 518.264430497815965 ], [ 229.608875181087797, 510.995424792457584 ], [ 218.445759281800605, 509.178173366880628 ], [ 220.782225399783187, 491.524873803261073 ] ] ] } },
{ "type": "Feature", "properties": { "feature_type": "building", "subtype": "no-damage", "uid": "361d886b-a42c-4a62-9079-3d37030dbaf9" }, "geometry": { "type": "Polygon", "coordinates": [ [ [ 324.662146528545009, 416.705964128767221 ], [ 338.525656772451612, 404.220218859447186 ], [ 356.748920617041279, 421.449486492449182 ], [ 360.393573384154422, 418.467497865713483 ], [ 371.327531691213323, 428.407459957882679 ], [ 365.69488650131882, 433.377441010576604 ], [ 389.642820091958527, 437.667616286950704 ], [ 392.758108251090277, 440.523297098862201 ], [ 393.277322945401693, 436.369579551490574 ], [ 397.431040486419874, 432.735076701353421 ], [ 406.006035650268018, 442.854285027967023 ], [ 398.058928419827623, 449.691662517078385 ], [ 393.938034529873903, 445.071266339083479 ], [ 392.064900943739303, 446.444897632853326 ], [ 398.433555137257883, 453.687680838705774 ], [ 392.652064321508703, 458.61711667473088 ], [ 388.128960948656982, 453.710699464307083 ], [ 376.648441238743374, 463.512516429107791 ], [ 388.76137176559979, 476.249824823257825 ], [ 377.345152686103916, 486.221101732031116 ], [ 372.974507652128807, 481.350954404168192 ], [ 370.227245057979019, 482.849461271855205 ], [ 359.238194680871516, 482.724585703022115 ], [ 326.047808933639885, 451.278567220696004 ], [ 328.597831188480484, 448.887921361867882 ], [ 337.522909068729177, 441.87536016512621 ], [ 329.235336750029887, 432.472153111589989 ], [ 334.901575942024124, 426.761881161083295 ], [ 324.662146528545009, 416.705964128767221 ] ] ] } },
{ "type": "Feature", "properties": { "feature_type": "building", "subtype": "no-damage", "uid": "4df3dd73-8722-45f7-9d9b-04c4e040b27d" }, "geometry": { "type": "Polygon", "coordinates": [ [ [ 807.274512465234693, 351.712053623079214 ], [ 821.731601230492402, 339.117164396005421 ], [ 821.412848447239185, 335.292131015779489 ], [ 823.484741530186852, 332.263979593241572 ], [ 828.903538813588625, 330.829592076927895 ], [ 836.075476398210071, 331.626474029531721 ], [ 837.669240305197604, 334.495249064192592 ], [ 837.289700122459408, 337.791889342751006 ], [ 855.881824244005657, 359.058202139653588 ], [ 870.460435318431905, 348.124243831454919 ], [ 881.725725692247238, 362.371522837721216 ], [ 868.257268728014537, 372.410501201964507 ], [ 876.824311161845799, 384.352439143794527 ], [ 868.516876073454455, 390.842622806859993 ], [ 873.189808313995059, 397.332806470942273 ], [ 865.401587916864628, 402.524953400581296 ], [ 863.409833993948382, 415.322465087820774 ], [ 862.718057858582029, 422.483847703586207 ], [ 872.685106162947477, 423.500893452194873 ], [ 870.854423823432967, 435.298624090096723 ], [ 863.735103606936946, 434.078169196240083 ], [ 861.701012114548575, 443.841808349126097 ], [ 835.257822743494899, 439.570216221645012 ], [ 841.501023772042231, 398.017289077207522 ], [ 823.44738216458029, 374.335460612693112 ], [ 826.634909982495515, 372.104191141741978 ], [ 807.274512465234693, 351.712053623079214 ] ] ] } },
{ "type": "Feature", "properties": { "feature_type": "building", "subtype": "no-damage", "uid": "af16adb9-79b3-4a6e-b294-69ad6150db00" }, "geometry": { "type": "Polygon", "coordinates": [ [ [ 818.685343706474555, 293.621336498386825 ], [ 852.81254690382832, 297.597321335051106 ], [ 851.155886551870594, 316.814581388927309 ], [ 816.697351287760284, 312.838596549212525 ], [ 818.685343706474555, 293.621336498386825 ] ] ] } },
{ "type": "Feature", "properties": { "feature_type": "building", "subtype": "no-damage", "uid": "42b61135-e47a-4ea9-aeb9-f1b57c466530" }, "geometry": { "type": "Polygon", "coordinates": [ [ [ 811.436915183652559, 312.365205759010905 ], [ 841.134650938917957, 315.619752146017674 ], [ 840.524423490718391, 331.282256619888187 ], [ 810.419869436822751, 328.6379376848937 ], [ 811.436915183652559, 312.365205759010905 ] ] ] } },
{ "type": "Feature", "properties": { "feature_type": "building", "subtype": "no-damage", "uid": "61a3721e-495c-4cb2-8234-6a61b7e8e405" }, "geometry": { "type": "Polygon", "coordinates": [ [ [ 871.806113846226822, 57.814696673555758 ], [ 886.168640526579452, 61.9191696620505 ], [ 881.69363924952745, 75.750991799203405 ], [ 884.744776483788655, 76.971446690009529 ], [ 879.252729459906845, 93.040769463526871 ], [ 903.259610951656555, 99.464001713397479 ], [ 901.934282669887011, 105.096646901637598 ], [ 908.892256136594142, 107.747303461108501 ], [ 903.922275089999289, 124.645239023795298 ], [ 891.662988502823168, 122.325914535656395 ], [ 890.337660221562032, 128.952555930774793 ], [ 834.011208342698524, 112.054620367071195 ], [ 842.294510092319115, 83.560062359622563 ], [ 849.915147696733584, 85.548054778463126 ], [ 854.885128745997577, 67.324790934515676 ], [ 867.27233825417386, 70.63811163360009 ], [ 871.806113846226822, 57.814696673555758 ] ] ] } },
{ "type": "Feature", "properties": { "feature_type": "building", "subtype": "no-damage", "uid": "0f8cdf19-5dde-4e68-a300-93485576a855" }, "geometry": { "type": "Polygon", "coordinates": [ [ [ 2.751168029431013, 674.268305328418364 ], [ 5.304460813676124, 664.274598051569114 ], [ 18.836397192226041, 666.811836122458885 ], [ 18.413524182275079, 670.194820219351186 ], [ 34.482698632224128, 674.000677326702657 ], [ 30.654828730316449, 693.688037066719858 ], [ 33.630644112608749, 694.589046347300155 ], [ 31.892798177091951, 701.875337584347221 ], [ 30.154952242846171, 701.336784687135037 ], [ 27.558878778279929, 712.759507934781141 ], [ 22.567193754867368, 711.461471199320954 ], [ 21.328302457982701, 716.653618132010365 ], [ 34.568277133498484, 719.509298941888233 ], [ 24.82880808128062, 770.518723031284139 ], [ 17.709487863640689, 768.688040689482591 ], [ 18.523124462680521, 764.213039407602423 ], [ -0.000000822091447, 759.738038128772587 ], [ 7.148117567169433, 720.549638513879358 ], [ -0.000000821201738, 718.47774543385583 ], [ -0.000000818151306, 674.443890515617454 ], [ 2.751168029431013, 674.268305328418364 ] ] ] } },
{ "type": "Feature", "properties": { "feature_type": "building", "subtype": "no-damage", "uid": "4c165261-23e3-4900-9850-83a2e34b1fa9" }, "geometry": { "type": "Polygon", "coordinates": [ [ [ 54.009318081404928, 667.366885480839642 ], [ 73.739476418463411, 667.626492828948471 ], [ 72.701047033145329, 686.318221779919327 ], [ 53.230496042543457, 685.2797923946016 ], [ 54.009318081404928, 667.366885480839642 ] ] ] } },
{ "type": "Feature", "properties": { "feature_type": "building", "subtype": "no-damage", "uid": "8eeb43d2-a4bd-4381-8bad-ffb9648f4cb5" }, "geometry": { "type": "Polygon", "coordinates": [ [ [ 63.807687572805612, 709.277525288825245 ], [ 79.22611374964977, 711.930882841185394 ], [ 76.676091499257737, 728.187274696468648 ], [ 79.544866531377735, 728.506027480357261 ], [ 78.191290645263379, 736.143492813329431 ], [ 72.821641029101613, 735.1444882311431 ], [ 73.071392176681897, 736.642995102897316 ], [ 72.951257603633039, 738.002403397112403 ], [ 72.322138740041922, 739.070957264509389 ], [ 71.383201447557241, 740.000412555384059 ], [ 69.949502866372839, 740.514137847557095 ], [ 68.575871565866208, 750.379308079233624 ], [ 76.794442252070112, 751.757821654633858 ], [ 71.576864783854816, 783.169034290976356 ], [ 65.90195462362783, 782.092758227298191 ], [ 65.804111345007612, 782.679817895714677 ], [ 65.314894950762607, 783.658250685221105 ], [ 63.847245771840598, 784.245310355671222 ], [ 62.477439875224761, 784.245310355671222 ], [ 61.303320531273712, 783.951780520954571 ], [ 60.520574302566153, 782.973347732464958 ], [ 60.129201189483389, 782.386288062014842 ], [ 60.227044465053183, 781.114325439825393 ], [ 46.704100226214713, 779.117506575406082 ], [ 48.073906129058521, 768.941805603990929 ], [ 46.60625695089913, 768.452589210762994 ], [ 44.942921212830171, 766.397880357578401 ], [ 43.4752720364502, 764.636701345211236 ], [ 43.083898921969308, 763.266895449866979 ], [ 42.986055643094893, 761.212186593631941 ], [ 45.001273459371099, 748.802870199183872 ], [ 41.016863692156463, 748.005988244546529 ], [ 43.407509553781679, 732.38710194992268 ], [ 46.276284587045588, 732.865231120671524 ], [ 53.129469390828781, 733.980865857163849 ], [ 54.404480515961247, 731.430843602324217 ], [ 56.016427942995762, 729.873446737973268 ], [ 58.033770461989477, 729.047684018342807 ], [ 60.779536148995447, 728.24331578987551 ], [ 63.807687572805612, 709.277525288825245 ] ] ] } },
{ "type": "Feature", "properties": { "feature_type": "building", "subtype": "no-damage", "uid": "51dd4894-1b4b-498f-965e-a4fd2fad3964" }, "geometry": { "type": "Polygon", "coordinates": [ [ [ 81.180569844851092, 768.58375969395604 ], [ 92.34368574934939, 770.401011120549811 ], [ 88.968790244142269, 789.871562109746378 ], [ 106.418680658198994, 792.636230166880068 ], [ 108.452772145884694, 780.838499522877441 ], [ 114.148228319844094, 782.058954418767598 ], [ 109.266408742509597, 815.621464006940187 ], [ 73.466398518848933, 809.926007834253937 ], [ 81.180569844851092, 768.58375969395604 ] ] ] } },
{ "type": "Feature", "properties": { "feature_type": "building", "subtype": "no-damage", "uid": "c1ccf81c-f3a4-4d75-b197-785a12ec4b95" }, "geometry": { "type": "Polygon", "coordinates": [ [ [ 98.404130786453251, 632.020246836546335 ], [ 125.9290872335703, 635.798182031390752 ], [ 123.770267121449095, 650.909922826020306 ], [ 97.324720733506638, 648.211397682342749 ], [ 98.404130786453251, 632.020246836546335 ] ] ] } },
{ "type": "Feature", "properties": { "feature_type": "building", "subtype": "no-damage", "uid": "97bb8335-f4d9-46cc-a40d-8fb085dd94f5" }, "geometry": { "type": "Polygon", "coordinates": [ [ [ 229.302234436995491, 768.166913658070371 ], [ 233.92148718569041, 768.519968121678517 ], [ 233.776848774490389, 770.393101702982563 ], [ 241.164270386970003, 771.142355143435339 ], [ 240.664768097147686, 775.138373458961951 ], [ 246.159293288243504, 775.887626893313836 ], [ 244.910537565085804, 784.504041393952889 ], [ 261.743627685869114, 786.730420355241336 ], [ 260.705198296483672, 795.297462789959013 ], [ 279.13731990456381, 797.893536256812126 ], [ 273.910358417032285, 831.495280355044883 ], [ 232.397810187952302, 824.59701482608466 ], [ 233.455951979793014, 817.232702157800531 ], [ 221.638889611621494, 815.530470101799096 ], [ 220.600460224778203, 823.617722648514587 ], [ 216.321867110097003, 823.203671126682025 ], [ 214.918667207368912, 831.895589137350498 ], [ 200.226211624320996, 829.693854790764249 ], [ 204.245197391274502, 797.752294961211874 ], [ 207.2356099773788, 798.021758511628832 ], [ 209.831683445376797, 778.551207520398748 ], [ 222.033228731888613, 779.849244255858935 ], [ 226.552835430790395, 772.533194819399 ], [ 228.718551320834507, 772.639476631969956 ], [ 229.302234436995491, 768.166913658070371 ] ] ] } },
{ "type": "Feature", "properties": { "feature_type": "building", "subtype": "no-damage", "uid": "9b538e79-b48f-46f0-a16c-c7b5e75d02d9" }, "geometry": { "type": "Polygon", "coordinates": [ [ [ 340.422591103662512, 774.385172366900179 ], [ 362.953171855868788, 776.0418327164424 ], [ 356.326530453884516, 828.7236318274106 ], [ 334.45861384586749, 826.072975267939682 ], [ 340.422591103662512, 774.385172366900179 ] ] ] } },
{ "type": "Feature", "properties": { "feature_type": "building", "subtype": "no-damage", "uid": "4ec95f18-528b-487c-a292-a808b73db1d1" }, "geometry": { "type": "Polygon", "coordinates": [ [ [ 300.823882475956282, 818.864564296267304 ], [ 321.571615676355123, 821.102064935682165 ], [ 321.368206530853001, 824.966838767583681 ], [ 337.234120151502395, 827.204339405981727 ], [ 336.21707440708758, 835.137296214015578 ], [ 357.778444206145025, 837.781615151043752 ], [ 354.39179954804149, 866.206278649781552 ], [ 337.179149342738413, 864.649340960871655 ], [ 337.081306065770491, 866.606206531750104 ], [ 337.004643298128713, 868.465228825406484 ], [ 336.153293569153618, 869.813854216381742 ], [ 334.429413600479222, 871.196781353169285 ], [ 332.514909047997776, 872.286178659307552 ], [ 330.333117141398418, 872.630128782973884 ], [ 328.275410991348792, 872.28917595896803 ], [ 325.829329028512518, 871.408586450750818 ], [ 323.774620178377518, 870.136623828561369 ], [ 323.187560503351619, 868.473288093416386 ], [ 322.600500832011619, 865.929362849037375 ], [ 322.991873946111127, 863.581124162152946 ], [ 313.342790009559224, 862.785274666927762 ], [ 313.661542788236716, 858.800864898824784 ], [ 294.376999509772816, 856.728971817784441 ], [ 283.650870840947618, 856.334615855065181 ], [ 285.888371482778211, 832.128927124198981 ], [ 294.228146588428501, 833.145972869757202 ], [ 292.309398732138902, 851.259910606516542 ], [ 295.337550157982719, 851.578663388371524 ], [ 296.712213911673473, 837.06238290097258 ], [ 298.784106988393091, 837.540512070704608 ], [ 300.823882475956282, 818.864564296267304 ] ] ] } },
{ "type": "Feature", "properties": { "feature_type": "building", "subtype": "no-damage", "uid": "a818e96a-ba68-4743-9a22-0d5c12839611" }, "geometry": { "type": "Polygon", "coordinates": [ [ [ 374.229105763384609, 851.338121823436381 ], [ 376.343470825976681, 839.074804484530773 ], [ 404.675962616615379, 844.1492806252935 ], [ 401.292978524424598, 856.835470978725652 ], [ 374.229105763384609, 851.338121823436381 ] ] ] } },
{ "type": "Feature", "properties": { "feature_type": "building", "subtype": "no-damage", "uid": "7017bc2b-559e-41fb-83c7-1119cde2429d" }, "geometry": { "type": "Polygon", "coordinates": [ [ [ 416.012147930414926, 848.893362668019336 ], [ 425.574731378186812, 850.965255751093309 ], [ 423.502838297908283, 860.049710024808178 ], [ 414.099631243097519, 858.296569724606002 ], [ 416.012147930414926, 848.893362668019336 ] ] ] } },
{ "type": "Feature", "properties": { "feature_type": "building", "subtype": "no-damage", "uid": "49d80546-9422-4d4b-9f46-8cfa5ad9d6f1" }, "geometry": { "type": "Polygon", "coordinates": [ [ [ 366.602958865472885, 885.237291344236837 ], [ 377.918682608363611, 891.931099756073195 ], [ 397.521978671097486, 895.596756741304262 ], [ 403.737657913204202, 871.690298130653446 ], [ 414.894005262371195, 873.44343842577166 ], [ 414.415876090986728, 875.769523225576222 ], [ 421.269060894134384, 877.109095415069987 ], [ 420.950308112279288, 878.862235712221718 ], [ 425.890976226203122, 879.818494055753035 ], [ 423.659706757157721, 890.974841407457802 ], [ 431.309773510113189, 892.887358101638029 ], [ 427.303990622808385, 914.071290368330551 ], [ 399.753248139888683, 910.259384691379978 ], [ 398.525865534406307, 915.359429193941537 ], [ 362.77792548575411, 911.693772207693655 ], [ 366.602958865472885, 885.237291344236837 ] ] ] } },
{ "type": "Feature", "properties": { "feature_type": "building", "subtype": "no-damage", "uid": "f3e47ce0-75ae-4649-9145-9b5eda820a24" }, "geometry": { "type": "Polygon", "coordinates": [ [ [ 454.417115154709393, 886.738210264835402 ], [ 516.707544292384682, 896.346840287706186 ], [ 510.41223496071558, 927.82338692595772 ], [ 447.459141687239708, 917.883424833788581 ], [ 454.417115154709393, 886.738210264835402 ] ] ] } },
{ "type": "Feature", "properties": { "feature_type": "building", "subtype": "no-damage", "uid": "897abfbe-4292-489b-b917-96c4ca4c1b22" }, "geometry": { "type": "Polygon", "coordinates": [ [ [ 532.512637911293382, 912.997369820855852 ], [ 554.134807804971615, 915.890011587667118 ], [ 558.153130208948824, 895.919074642450028 ], [ 585.985024082895166, 901.551719829673402 ], [ 575.382397842338492, 953.239522728679276 ], [ 526.345251500243307, 944.293556846438719 ], [ 532.512637911293382, 912.997369820855852 ] ] ] } },
{ "type": "Feature", "properties": { "feature_type": "building", "subtype": "no-damage", "uid": "127deee0-333b-4b35-bfb8-accfa11e05af" }, "geometry": { "type": "Polygon", "coordinates": [ [ [ 631.775223011042499, 878.648953671684694 ], [ 642.419124216399609, 880.466205096244948 ], [ 640.082658099433843, 900.975185471775944 ], [ 627.421043552102674, 899.995901526305147 ], [ 628.140720158107683, 894.384770852545898 ], [ 622.748111318171254, 893.505717859172478 ], [ 624.765824655061351, 881.764241825604245 ], [ 630.937255533605025, 882.802671214989118 ], [ 631.775223011042499, 878.648953671684694 ] ] ] } },
{ "type": "Feature", "properties": { "feature_type": "building", "subtype": "no-damage", "uid": "757b70e6-9d8c-4d9b-8c66-ddfea247c91b" }, "geometry": { "type": "Polygon", "coordinates": [ [ [ 705.859561459127121, 905.841586698212268 ], [ 751.252055030423321, 911.142899818170804 ], [ 748.601398471587004, 928.703499520471155 ], [ 703.540236966793032, 923.40218640152932 ], [ 705.859561459127121, 905.841586698212268 ] ] ] } },
{ "type": "Feature", "properties": { "feature_type": "building", "subtype": "no-damage", "uid": "00f75daa-7a9b-46ec-8295-0d0c618ba625" }, "geometry": { "type": "Polygon", "coordinates": [ [ [ 738.621166385819606, 855.235776585128178 ], [ 761.151747136246513, 856.561104863338414 ], [ 759.826418855493785, 869.483055591394532 ], [ 737.958502244299325, 868.157727315217926 ], [ 738.621166385819606, 855.235776585128178 ] ] ] } },
{ "type": "Feature", "properties": { "feature_type": "building", "subtype": "no-damage", "uid": "fe045887-2e66-40dd-ae55-bd5ecba77936" }, "geometry": { "type": "Polygon", "coordinates": [ [ [ 777.60309238428772, 864.986826783751553 ], [ 792.141103791832393, 867.323292903512538 ], [ 789.804637673341517, 885.495807161316179 ], [ 775.266626267830475, 883.938163084864755 ], [ 777.60309238428772, 864.986826783751553 ] ] ] } },
{ "type": "Feature", "properties": { "feature_type": "building", "subtype": "no-damage", "uid": "1c5489a4-25e1-449c-8e55-cac9c12b77fe" }, "geometry": { "type": "Polygon", "coordinates": [ [ [ 772.648640044452122, 889.651470123784634 ], [ 793.396373242690288, 891.075334168989912 ], [ 792.37932749789411, 908.365111833313335 ], [ 772.038412594981651, 907.348066088771816 ], [ 772.648640044452122, 889.651470123784634 ] ] ] } },
{ "type": "Feature", "properties": { "feature_type": "building", "subtype": "no-damage", "uid": "a2b1152e-8cf5-4c00-b8f4-ea02c2d7f00c" }, "geometry": { "type": "Polygon", "coordinates": [ [ [ 802.784699839462519, 873.974413628720981 ], [ 818.101533289173403, 875.532057705172292 ], [ 817.063103901313184, 890.070069108771463 ], [ 802.005877801744987, 888.772032377378537 ], [ 802.784699839462519, 873.974413628720981 ] ] ] } },
{ "type": "Feature", "properties": { "feature_type": "building", "subtype": "no-damage", "uid": "fe3d6300-69d7-4c2d-861f-96dfb7abd0fc" }, "geometry": { "type": "Polygon", "coordinates": [ [ [ 821.345123291564164, 883.589783593488846 ], [ 833.549672234709874, 883.793192739753408 ], [ 833.3462630818359, 903.727289347205897 ], [ 821.345123294106202, 903.523880193823629 ], [ 821.345123291564164, 883.589783593488846 ] ] ] } },
{ "type": "Feature", "properties": { "feature_type": "building", "subtype": "no-damage", "uid": "56d87fb4-298b-498a-a45d-9bbc1d168503" }, "geometry": { "type": "Polygon", "coordinates": [ [ [ 865.609192275731743, 879.460754055249481 ], [ 882.490415922314696, 874.107004242605626 ], [ 885.803736624450721, 887.691619110275269 ], [ 908.996981516525011, 892.330268089603464 ], [ 904.976563498369387, 918.693384233798838 ], [ 895.630699023643047, 917.65495484746441 ], [ 897.447950451254314, 908.568697718562589 ], [ 869.118409657894631, 903.769938169295415 ], [ 870.135455403961714, 891.768798379028226 ], [ 865.609192275731743, 879.460754055249481 ] ] ] } },
{ "type": "Feature", "properties": { "feature_type": "building", "subtype": "no-damage", "uid": "94836fa0-8dc3-4326-9c27-a96b7b8bb6f6" }, "geometry": { "type": "Polygon", "coordinates": [ [ [ 306.631503692565786, 305.258475442032875 ], [ 315.883504386919014, 279.442268158252318 ], [ 327.582646038212488, 284.10392394479112 ], [ 326.362191144863914, 287.155061178415679 ], [ 332.261056466104776, 289.595970970195992 ], [ 334.020427935152782, 285.527787991013213 ], [ 346.09287860427969, 289.392561819864227 ], [ 334.339180716118221, 315.863029307943805 ], [ 325.548554548874506, 312.581204806189021 ], [ 327.582646039483507, 306.682339484187708 ], [ 319.649689229413013, 303.834611397844526 ], [ 317.208779440046726, 309.733476719845783 ], [ 306.631503692565786, 305.258475442032875 ] ] ] } },
{ "type": "Feature", "properties": { "feature_type": "building", "subtype": "no-damage", "uid": "bab21040-370f-4769-8e44-35759732eee4" }, "geometry": { "type": "Polygon", "coordinates": [ [ [ 336.562673263749502, 315.841643960959175 ], [ 361.584766616621607, 329.069884391670882 ], [ 355.687840154971923, 339.748102573643678 ], [ 330.984499588403423, 326.201109358026713 ], [ 336.562673263749502, 315.841643960959175 ] ] ] } },
{ "type": "Feature", "properties": { "feature_type": "building", "subtype": "no-damage", "uid": "d12ca939-b17a-4c56-ac44-1d765f33c3e1" }, "geometry": { "type": "Polygon", "coordinates": [ [ [ 88.666283200689421, 363.506042931446984 ], [ 96.716925143149126, 369.174691807308875 ], [ 92.065322012843851, 374.672040960564516 ], [ 83.843380349303018, 368.987337369823024 ], [ 88.666283200689421, 363.506042931446984 ] ] ] } },
{ "type": "Feature", "properties": { "feature_type": "building", "subtype": "no-damage", "uid": "c85a577b-3a3f-4170-9641-7e080548fd89" }, "geometry": { "type": "Polygon", "coordinates": [ [ [ 271.368420141116417, 198.299090916037613 ], [ 281.971046375063793, 202.937739892315392 ], [ 276.669733256755478, 215.197026476690809 ], [ 266.729771162676172, 211.221041637992812 ], [ 271.368420141116417, 198.299090916037613 ] ] ] } },
{ "type": "Feature", "properties": { "feature_type": "building", "subtype": "no-damage", "uid": "16b26531-f5c1-4bdc-af55-4f25adb34173" }, "geometry": { "type": "Polygon", "coordinates": [ [ [ 979.703439393627036, 891.31564576693404 ], [ 998.284568251273981, 892.314693131430317 ], [ 997.647062687818106, 899.486630720116295 ], [ 1003.384612752439011, 899.964759891881954 ], [ 1004.181494708984019, 884.505249987168895 ], [ 1020.27851017487103, 885.62088472366122 ], [ 1017.728487919266968, 937.736964501021589 ], [ 1012.301509050613049, 956.584264202143004 ], [ 977.713770588987927, 954.175697248000233 ], [ 974.557811399386992, 941.697208399402029 ], [ 975.643975455960003, 920.203995796604318 ], [ 979.703439393627036, 891.31564576693404 ] ] ] } },
{ "type": "Feature", "properties": { "feature_type": "building", "subtype": "no-damage", "uid": "75d77ea0-0f39-46ee-86c5-bb847631b330" }, "geometry": { "type": "Polygon", "coordinates": [ [ [ 783.118147758136047, 804.504559647076462 ], [ 803.962524320206285, 805.288816917740178 ], [ 803.962524320079183, 821.23727132660224 ], [ 793.79636593820635, 821.079704284214699 ], [ 793.636989548295674, 828.729771039582261 ], [ 784.871288058466121, 828.729771039582261 ], [ 784.871288057449306, 826.657877961592362 ], [ 781.046254677857519, 826.498501568631241 ], [ 781.365007458950004, 820.772038723822106 ], [ 778.814985209320525, 820.442198724571995 ], [ 779.133737987108361, 813.429637527830323 ], [ 782.628931365543394, 813.429637527830323 ], [ 783.118147758136047, 804.504559647076462 ] ] ] } },
{ "type": "Feature", "properties": { "feature_type": "building", "subtype": "no-damage", "uid": "504645b1-303a-45e1-9977-c2c236be6844" }, "geometry": { "type": "Polygon", "coordinates": [ [ [ 751.157544061990052, 810.286955651853987 ], [ 762.757519768581574, 811.415718085520666 ], [ 761.995138632987846, 818.574527970931513 ], [ 750.67941489187649, 817.14014045156739 ], [ 751.157544061990052, 810.286955651853987 ] ] ] } },
{ "type": "Feature", "properties": { "feature_type": "building", "subtype": "no-damage", "uid": "4164f19a-4ff3-416f-886b-b8b7267ad2a4" }, "geometry": { "type": "Polygon", "coordinates": [ [ [ 719.356910777834059, 828.454726074937753 ], [ 746.753028781327544, 827.084920176542937 ], [ 748.024991401483931, 847.827695236395925 ], [ 720.628873399261352, 849.491030971540908 ], [ 719.356910777834059, 828.454726074937753 ] ] ] } },
{ "type": "Feature", "properties": { "feature_type": "building", "subtype": "no-damage", "uid": "5f654e55-06bf-4907-9485-ae46f0a1edfb" }, "geometry": { "type": "Polygon", "coordinates": [ [ [ 828.663918979668665, 836.722932939443808 ], [ 843.524112105250538, 837.597061945679229 ], [ 843.0246098140301, 849.95974362011134 ], [ 828.414167836918182, 849.335365758659805 ], [ 828.663918979668665, 836.722932939443808 ] ] ] } },
{ "type": "Feature", "properties": { "feature_type": "building", "subtype": "no-damage", "uid": "2c6c4ba6-3d41-4be3-a54a-8c295e97b38f" }, "geometry": { "type": "Polygon", "coordinates": [ [ [ 4.204699622071496, 207.149102876328811 ], [ 11.060150257829511, 183.304057190325608 ], [ 32.520691372113731, 194.928516962163201 ], [ 42.654835787118252, 173.169912774816396 ], [ 54.875421704465978, 179.131174199113389 ], [ 36.69357436930116, 220.561941074133699 ], [ 4.204699622071496, 207.149102876328811 ] ] ] } },
{ "type": "Feature", "properties": { "feature_type": "building", "subtype": "no-damage", "uid": "501faa4d-1cac-44c5-95dd-f3728953bbbc" }, "geometry": { "type": "Polygon", "coordinates": [ [ [ 463.158748824600877, 716.773053589747747 ], [ 469.03705959674619, 681.646562388093116 ], [ 527.390047027510491, 688.671860624356782 ], [ 522.658723719359159, 726.379073632420955 ], [ 463.158748824600877, 716.773053589747747 ] ] ] } },
{ "type": "Feature", "properties": { "feature_type": "building", "subtype": "no-damage", "uid": "d60753c9-19bc-4a81-bd50-2106593378f0" }, "geometry": { "type": "Polygon", "coordinates": [ [ [ 746.526505645455586, 723.894302395535874 ], [ 779.061526307396434, 725.785873363886139 ], [ 776.539431682462464, 745.962630364367442 ], [ 772.882394478831088, 746.59315402183995 ], [ 773.639022865307197, 757.31205617751948 ], [ 771.369137699015482, 760.212464998232463 ], [ 763.298434902988902, 760.969093384962434 ], [ 763.928958554487849, 756.807637251338065 ], [ 755.858255757952861, 754.159437898291458 ], [ 755.858255758588371, 748.358620260932639 ], [ 744.508829945177922, 749.745772301067973 ], [ 746.526505645455586, 723.894302395535874 ] ] ] } },
{ "type": "Feature", "properties": { "feature_type": "building", "subtype": "no-damage", "uid": "4d3b570b-d304-4354-a0e4-1692c9a98ff9" }, "geometry": { "type": "Polygon", "coordinates": [ [ [ 548.834856541646104, 833.330571829569521 ], [ 557.901371233414352, 833.330571829569521 ], [ 557.559238604721031, 843.936683358969731 ], [ 548.321657598478964, 842.91028546755183 ], [ 548.834856541646104, 833.330571829569521 ] ] ] } }
]
}
