{
"type": "FeatureCollection",
"name": "socal-fire_00001174_post_disaster",
"features": [
{ "type": "Feature", "properties": { "feature_type": "building", "subtype": "no-damage", "uid": "d1fd3e21-01a5-42c9-8d20-3ceec5310e85" }, "geometry": { "type": "Polygon", "coordinates": [ [ [ 165.620321309934212, 87.079778513058514 ], [ 191.341629299974613, 89.748970850106502 ], [ 193.525513943756096, 91.932855490711134 ], [ 190.128360054290795, 109.1612787668181 ], [ 189.643052357084997, 111.102509559709404 ], [ 166.105629008411114, 111.345163407422703 ], [ 162.223167423900804, 103.337586390177606 ], [ 163.921744368824108, 89.02100929883197 ], [ 165.620321309934212, 87.079778513058514 ] ] ] } },
{ "type": "Feature", "properties": { "feature_type": "building", "subtype": "no-damage", "uid": "e73d2964-6492-4767-be3e-a0951cee9199" }, "geometry": { "type": "Polygon", "coordinates": [ [ [ 610.380068610879903, 16.484840825655759 ], [ 626.617625725693529, 23.18841944987382 ], [ 627.809373038543526, 25.273977245995699 ], [ 620.509920754026211, 44.192965813552881 ], [ 617.679520894761822, 45.086776297459863 ], [ 602.335774261821143, 38.532166083836813 ], [ 601.292995360710052, 34.063113667352482 ], [ 608.443479229548302, 17.229682893883489 ], [ 610.380068610879903, 16.484840825655759 ] ] ] } },
{ "type": "Feature", "properties": { "feature_type": "building", "subtype": "no-damage", "uid": "445ece33-b3f1-4c3f-b587-33ebf76c3f8e" }, "geometry": { "type": "Polygon", "coordinates": [ [ [ 626.591485976172521, 29.34246130343293 ], [ 635.686915792246168, 32.261981982553749 ], [ 636.248362078070954, 34.002465468776244 ], [ 633.777998421052303, 40.964399399430349 ], [ 630.409320712840554, 41.75042419706854 ], [ 624.177266950825015, 38.213312602104018 ], [ 623.728109925419062, 37.146564660345859 ], [ 626.535341349839769, 29.62318444450236 ], [ 626.591485976172521, 29.34246130343293 ] ] ] } },
{ "type": "Feature", "properties": { "feature_type": "building", "subtype": "no-damage", "uid": "25ccc117-cbd3-410e-a924-d61cae0491e7" }, "geometry": { "type": "Polygon", "coordinates": [ [ [ 668.259073346620653, 10.441100523077299 ], [ 679.233515380719496, 10.532554208081329 ], [ 681.61131115942851, 12.453081564694379 ], [ 680.513866951963905, 23.51897728647041 ], [ 678.593339595351608, 24.524967807278941 ], [ 667.984712294023666, 24.524967809312631 ], [ 666.521453354042364, 22.604440450665901 ], [ 666.88726808897411, 11.812905779834599 ], [ 668.259073346620653, 10.441100523077299 ] ] ] } },
{ "type": "Feature", "properties": { "feature_type": "building", "subtype": "no-damage", "uid": "6427a3de-2aea-42fb-a940-ab9379e67eda" }, "geometry": { "type": "Polygon", "coordinates": [ [ [ 666.799658540783298, 26.02612004686161 ], [ 677.906393436642361, 26.02612004686161 ], [ 679.196207811428053, 26.814339941385001 ], [ 678.336331562545411, 37.204511292889748 ], [ 669.594256353560468, 36.702916816313063 ], [ 669.235974585575832, 50.962531294337033 ], [ 667.086283956314901, 52.610627438633102 ], [ 648.885569999960808, 52.897252853529253 ], [ 647.094161147581758, 51.320813064482493 ], [ 647.380786564638584, 30.54047035842245 ], [ 649.172195417398939, 29.465625043918681 ], [ 665.86812593830382, 30.11053223302768 ], [ 666.011438646260217, 26.599370877670768 ], [ 666.799658540783298, 26.02612004686161 ] ] ] } },
{ "type": "Feature", "properties": { "feature_type": "building", "subtype": "no-damage", "uid": "bd2679a8-3bad-4066-a48d-d48993ec1997" }, "geometry": { "type": "Polygon", "coordinates": [ [ [ 604.589371184995798, 75.756918656946524 ], [ 626.07356851012014, 75.186541737230968 ], [ 631.587212069487009, 77.468049417110052 ], [ 631.967463350144612, 100.853503141717596 ], [ 629.115578753220234, 102.374508263331805 ], [ 606.300501941599805, 103.515262102762904 ], [ 603.448617344802528, 101.043628786368103 ], [ 603.068366063127996, 76.897672495360808 ], [ 604.589371184995798, 75.756918656946524 ] ] ] } },
{ "type": "Feature", "properties": { "feature_type": "building", "subtype": "no-damage", "uid": "4e871cad-9613-4e63-8da5-4dfdef6c9a62" }, "geometry": { "type": "Polygon", "coordinates": [ [ [ 637.095303681140194, 89.536050720958471 ], [ 646.22133440306834, 89.155799443859678 ], [ 645.650957487166124, 75.466753361534572 ], [ 648.50284208701396, 72.424743117289452 ], [ 665.424024049966761, 72.424743119323139 ], [ 668.846285573724458, 76.607507198932012 ], [ 669.226536852348318, 100.943589129505497 ], [ 666.564777893846212, 104.555976286348297 ], [ 639.947188283657283, 105.126353209114399 ], [ 637.285429322358823, 102.274468606469199 ], [ 636.144675480258911, 90.486678925907583 ], [ 637.095303681140194, 89.536050720958471 ] ] ] } },
{ "type": "Feature", "properties": { "feature_type": "building", "subtype": "no-damage", "uid": "2bd529cb-7314-41fe-9bfa-e6eba681235f" }, "geometry": { "type": "Polygon", "coordinates": [ [ [ 673.942588725982432, 100.287795923079102 ], [ 707.311513436847008, 98.947080194168066 ], [ 711.035723785991991, 102.969227369715796 ], [ 710.192554870739741, 113.135796849766507 ], [ 704.368862493084521, 117.2609122842793 ], [ 677.434285260411002, 117.018258433515498 ], [ 672.823862130473231, 113.621104549260394 ], [ 673.551823674502543, 101.731065952333594 ], [ 673.942588725982432, 100.287795923079102 ] ] ] } },
{ "type": "Feature", "properties": { "feature_type": "building", "subtype": "no-damage", "uid": "3e68b653-f921-4739-8a18-d5f976083fa2" }, "geometry": { "type": "Polygon", "coordinates": [ [ [ 726.6056576968748, 74.261810617333254 ], [ 747.759172469615919, 73.963873791059015 ], [ 749.248856611028032, 75.155621099206542 ], [ 749.844730265101589, 98.692630498927286 ], [ 747.163298815288158, 101.820967186500596 ], [ 720.944857968813039, 104.055493396268005 ], [ 716.475805550423729, 100.927156706660995 ], [ 716.475805549406914, 85.434441659052482 ], [ 722.285573693020638, 81.85919972647514 ], [ 726.15875245835332, 81.263326071892948 ], [ 725.413910384405995, 75.006652686577837 ], [ 726.6056576968748, 74.261810617333254 ] ] ] } },
{ "type": "Feature", "properties": { "feature_type": "building", "subtype": "no-damage", "uid": "91255373-a448-4334-9116-a10ce6d21ce0" }, "geometry": { "type": "Polygon", "coordinates": [ [ [ 796.406082810207522, 64.237496760110048 ], [ 811.182904279329819, 64.12438825626306 ], [ 814.605165801435078, 67.166398496440792 ], [ 814.795291437188098, 94.164239385009054 ], [ 810.992778637475794, 98.156877828102225 ], [ 800.725994076116876, 98.347003466651614 ], [ 795.212350512682633, 94.354365024575301 ], [ 793.881471032668969, 66.025644655992821 ], [ 796.406082810207522, 64.237496760110048 ] ] ] } },
{ "type": "Feature", "properties": { "feature_type": "building", "subtype": "no-damage", "uid": "eae98cb3-75d0-465f-afaf-c952f8c02a5f" }, "geometry": { "type": "Polygon", "coordinates": [ [ [ 817.772666698956982, 56.783538340909409 ], [ 833.230589728919199, 56.874992025913443 ], [ 835.702223051032888, 58.015745866361407 ], [ 834.941720486540021, 71.514666312170817 ], [ 831.709584606924295, 75.317179109596665 ], [ 820.11192056326388, 75.127053471047276 ], [ 816.499533404897079, 73.606048352483668 ], [ 816.689659040395895, 57.63549458621209 ], [ 817.772666698956982, 56.783538340909409 ] ] ] } },
{ "type": "Feature", "properties": { "feature_type": "building", "subtype": "no-damage", "uid": "88049171-57d9-4338-b67b-bdfd1d3e69da" }, "geometry": { "type": "Polygon", "coordinates": [ [ [ 812.168620720311083, 7.716763282818926 ], [ 820.534170365460909, 7.829052544127554 ], [ 824.071281959407315, 10.187126938058981 ], [ 824.12742658726529, 18.32809806974619 ], [ 822.106219959211444, 19.73171378017755 ], [ 811.045728151457979, 19.787858409815019 ], [ 809.529823181752249, 18.44038732495374 ], [ 809.529823183277472, 9.120378997317671 ], [ 812.168620720311083, 7.716763282818926 ] ] ] } },
{ "type": "Feature", "properties": { "feature_type": "building", "subtype": "no-damage", "uid": "79f1fcc9-5128-45ec-8b41-d476fe1a5bc7" }, "geometry": { "type": "Polygon", "coordinates": [ [ [ 851.582753034877442, 0.006020587811356 ], [ 852.222680146475909, 15.49845342330555 ], [ 851.399596995421462, 16.32153657308918 ], [ 843.443126518281701, 16.23008289113568 ], [ 842.802950731388478, 15.49845342025502 ], [ 842.894404415375561, 12.38902817994328 ], [ 843.62603388612888, 12.11466712696487 ], [ 843.351672831243945, 5.347094537334034 ], [ 841.614052842860133, 4.249650331521461 ], [ 840.700849666656381, 0.006197518843597 ], [ 851.582753034877442, 0.006020587811356 ] ] ] } },
{ "type": "Feature", "properties": { "feature_type": "building", "subtype": "no-damage", "uid": "d345a38b-04fa-4fc4-b31f-b828725deccb" }, "geometry": { "type": "Polygon", "coordinates": [ [ [ 861.092729310260097, 0.005861265484203 ], [ 860.727872724996587, 2.237669290921226 ], [ 881.213497863381349, 1.323132456133565 ], [ 881.945127336549717, 2.329122978975795 ], [ 883.316932589747466, 21.900211281055011 ], [ 880.939136814978838, 23.454923901719301 ], [ 853.86884645303337, 23.272016531711241 ], [ 852.679948567809788, 21.625850228076601 ], [ 852.588494880136636, 9.371056616500814 ], [ 853.960300137656077, 9.096695566572938 ], [ 853.411939360965221, 0.005990283796282 ], [ 861.092729310260097, 0.005861265484203 ] ] ] } },
{ "type": "Feature", "properties": { "feature_type": "building", "subtype": "no-damage", "uid": "97b1d223-a734-41e1-9cca-8c80a67da759" }, "geometry": { "type": "Polygon", "coordinates": [ [ [ 924.751633754337945, 0.004681807633708 ], [ 925.634955755213809, 26.848585671753149 ], [ 922.965763416260188, 28.789816459560289 ], [ 889.722186112284589, 28.547162613880719 ], [ 887.780955319521013, 21.752854845370411 ], [ 889.236878411138491, 19.083662506288729 ], [ 896.031186185111892, 17.627739410857568 ], [ 894.922533958053236, 0.005258945475584 ], [ 924.751633754337945, 0.004681807633708 ] ] ] } },
{ "type": "Feature", "properties": { "feature_type": "building", "subtype": "no-damage", "uid": "8bbdf22b-a657-4cbb-acde-1131684f4496" }, "geometry": { "type": "Polygon", "coordinates": [ [ [ 968.872644317643562, 10.969040106618079 ], [ 983.702444243334753, 10.588788828502439 ], [ 986.744454486816153, 18.764191354255011 ], [ 997.201364686088823, 20.855573392534168 ], [ 1001.954505687953997, 24.467960551410631 ], [ 1001.194003127146971, 48.043539920668678 ], [ 1000.43350056811903, 55.078188602922737 ], [ 988.455585247487534, 55.078188602922737 ], [ 986.554328845597638, 48.804042478933631 ], [ 975.336916079544267, 46.332409160505136 ], [ 969.062769961404229, 38.157006635769427 ], [ 968.112141757472386, 13.44067343013079 ], [ 968.872644317643562, 10.969040106618079 ] ] ] } },
{ "type": "Feature", "properties": { "feature_type": "building", "subtype": "no-damage", "uid": "e8e0e12b-119d-4f77-8266-41fc0c776fb0" }, "geometry": { "type": "Polygon", "coordinates": [ [ [ 968.986172267389179, 61.562708258224319 ], [ 976.222852582657197, 61.21254630564443 ], [ 977.156617786062384, 62.263032159316708 ], [ 977.39005908608749, 69.266271174307988 ], [ 975.872690629314889, 71.017080932123193 ], [ 971.203864618771604, 71.367242881652544 ], [ 969.453054863880425, 70.316757026963415 ], [ 968.986172262559194, 62.613194108846059 ], [ 968.986172267389179, 61.562708258224319 ] ] ] } },
{ "type": "Feature", "properties": { "feature_type": "building", "subtype": "no-damage", "uid": "458d3e72-e821-4877-af88-ef6ffd7a3e0f" }, "geometry": { "type": "Polygon", "coordinates": [ [ [ 957.54754853883162, 60.162060456039541 ], [ 963.733743000554909, 59.928619150930132 ], [ 965.367832104289619, 61.329266956165448 ], [ 965.484552758496648, 69.616433127904713 ], [ 964.55078755572697, 71.834125482719742 ], [ 957.897710487852464, 71.834125480686055 ], [ 956.963945288641867, 70.200036376442412 ], [ 956.963945289150274, 61.212546307678117 ], [ 957.54754853883162, 60.162060456039541 ] ] ] } },
{ "type": "Feature", "properties": { "feature_type": "building", "subtype": "no-damage", "uid": "a5c56660-c059-4c64-b039-a6ff58199711" }, "geometry": { "type": "Polygon", "coordinates": [ [ [ 931.332754786214196, 83.536505360991114 ], [ 943.354981765724119, 83.536505360991114 ], [ 943.9385850168037, 87.855169422133841 ], [ 947.556925173166746, 87.971890070621171 ], [ 947.556925173166746, 85.170594464217913 ], [ 956.544415243325943, 85.637477065285125 ], [ 960.04603475437932, 89.489258524343811 ], [ 972.301703033405943, 89.956141122360478 ], [ 978.011139840834403, 99.468839269665466 ], [ 977.821014200759805, 108.404744353683 ], [ 974.208627039850967, 111.636880235460694 ], [ 933.901991350265348, 110.496126393995795 ], [ 930.669855470268317, 108.404744354699801 ], [ 930.479729825617937, 85.58966754574044 ], [ 931.332754786214196, 83.536505360991114 ] ] ] } },
{ "type": "Feature", "properties": { "feature_type": "building", "subtype": "no-damage", "uid": "fe39b895-5376-4526-8b75-dd95c5d6fbc7" }, "geometry": { "type": "Polygon", "coordinates": [ [ [ 841.396106492537911, 62.797090403336639 ], [ 863.384425468300833, 61.248617236204282 ], [ 866.791066440769896, 66.203731372248058 ], [ 867.410455708029417, 90.979302053483778 ], [ 865.552287904217337, 98.102278621885915 ], [ 843.254274292028299, 100.889530324554499 ], [ 838.6088547903787, 99.341057156405284 ], [ 840.157327955731034, 65.274647472375378 ], [ 841.396106492537911, 62.797090403336639 ] ] ] } },
{ "type": "Feature", "properties": { "feature_type": "building", "subtype": "no-damage", "uid": "0c71b711-c2b6-4622-bb16-b520394fd9b4" }, "geometry": { "type": "Polygon", "coordinates": [ [ [ 1022.846696584300048, 59.244884697956543 ], [ 1016.501667580934054, 57.66868740915897 ], [ 1013.58982139159798, 43.352110317813278 ], [ 1014.075129092362999, 23.21184085186087 ], [ 1016.744321430934974, 20.542648514812871 ], [ 1022.846761990314008, 19.726734928728149 ], [ 1022.846696584300048, 59.244884697956543 ] ] ] } },
{ "type": "Feature", "properties": { "feature_type": "building", "subtype": "no-damage", "uid": "777f4362-1b2d-4e97-a3d9-11dd3ad15f49" }, "geometry": { "type": "Polygon", "coordinates": [ [ [ 1022.846587030181013, 134.52268346338289 ], [ 1010.102745211520983, 131.346886500836092 ], [ 1006.825440108269049, 111.385119037760106 ], [ 1007.272345349967964, 98.722803855518052 ], [ 1009.804808386517038, 95.892403991168436 ], [ 1015.763544940091037, 96.935182887704102 ], [ 1016.210450183696025, 88.890888539659286 ], [ 1017.471133359100008, 87.905948817520226 ], [ 1022.84665388367398, 87.008462223320549 ], [ 1022.846587030181013, 134.52268346338289 ] ] ] } }
]
}
