{
"type": "FeatureCollection",
"name": "socal-fire_00000869_post_disaster",
"features": [
{ "type": "Feature", "properties": { "feature_type": "building", "subtype": "no-damage", "uid": "c8b0a279-9601-45c5-bc4b-2f3cced2f352" }, "geometry": { "type": "Polygon", "coordinates": [ [ [ 313.778308404467623, 1022.984169710976971 ], [ 325.850475040916194, 1012.88104126652695 ], [ 333.797380434142326, 1022.984351405929033 ], [ 313.778308404467623, 1022.984169710976971 ] ] ] } },
{ "type": "Feature", "properties": { "feature_type": "building", "subtype": "no-damage", "uid": "f817f280-2575-476d-ac1d-5bc6cb9e4618" }, "geometry": { "type": "Polygon", "coordinates": [ [ [ 435.968590164762873, 846.826767178949694 ], [ 446.094476644135284, 846.48923762517154 ], [ 447.444594842723802, 849.864533120245824 ], [ 447.444594844884591, 854.927476364890936 ], [ 444.406828900030575, 856.615124111411205 ], [ 437.318708362588723, 856.615124111411205 ], [ 435.631060613145621, 852.227239971271956 ], [ 435.968590164762873, 846.826767178949694 ] ] ] } },
{ "type": "Feature", "properties": { "feature_type": "building", "subtype": "no-damage", "uid": "afca6f90-d782-43ba-b6bf-31a2c171848e" }, "geometry": { "type": "Polygon", "coordinates": [ [ [ 312.836850556019385, 930.862029474919382 ], [ 315.530630782791718, 928.582676971607157 ], [ 319.882121927938385, 929.204318564806158 ], [ 320.08933579030429, 932.519740385032605 ], [ 319.053266470467122, 935.835162206275868 ], [ 318.017197151011089, 937.078445391657169 ], [ 314.494561466004882, 936.456803800491798 ], [ 312.836850555002627, 934.591879021911495 ], [ 312.836850556019385, 930.862029474919382 ] ] ] } }
]
}
