{
"type": "FeatureCollection",
"name": "socal-fire_00000188_post_disaster",
"features": [
{ "type": "Feature", "properties": { "feature_type": "building", "subtype": "no-damage", "uid": "c2696621-0bda-46fb-b3a7-c60ba778e886" }, "geometry": { "type": "Polygon", "coordinates": [ [ [ 553.398895303290715, 250.803985388540212 ], [ 555.703665414922966, 262.821715258074278 ], [ 545.990705661592528, 264.138726751016122 ], [ 544.179814860068063, 252.285623319625614 ], [ 553.398895303290715, 250.803985388540212 ] ] ] } },
{ "type": "Feature", "properties": { "feature_type": "building", "subtype": "no-damage", "uid": "317a2dcb-6335-4e2d-825d-39ab1dfe3fe4" }, "geometry": { "type": "Polygon", "coordinates": [ [ [ 556.502551252504531, 292.961031078688791 ], [ 565.72163170195779, 293.125657518866774 ], [ 565.227752392231537, 304.320255203786417 ], [ 556.831804127520286, 303.826375895459023 ], [ 556.502551253776119, 293.290283951924323 ], [ 556.502551252504531, 292.961031078688791 ] ] ] } },
{ "type": "Feature", "properties": { "feature_type": "building", "subtype": "no-damage", "uid": "8f91bbd8-cb9b-4bb4-aedf-d3e33e8d31dd" }, "geometry": { "type": "Polygon", "coordinates": [ [ [ 569.837292615877345, 321.770657484248602 ], [ 586.299936273462663, 321.276778170835087 ], [ 586.793815582553179, 334.611519534328181 ], [ 567.53252250297362, 335.599278156068976 ], [ 567.36789606902596, 321.770657481196906 ], [ 569.837292615877345, 321.770657484248602 ] ] ] } },
{ "type": "Feature", "properties": { "feature_type": "building", "subtype": "no-damage", "uid": "b8e7cf11-0eba-4b62-baa1-6f40b8d7e08d" }, "geometry": { "type": "Polygon", "coordinates": [ [ [ 423.841813595105407, 266.689615186185279 ], [ 473.723623876824888, 273.768551958204625 ], [ 471.418853762904007, 286.280161137083326 ], [ 422.524802103942989, 279.036597925903095 ], [ 423.512560723141291, 267.348120932656172 ], [ 423.841813595105407, 266.689615186185279 ] ] ] } },
{ "type": "Feature", "properties": { "feature_type": "building", "subtype": "no-damage", "uid": "3589f09e-540c-4b64-a40b-6a23a7290ea5" }, "geometry": { "type": "Polygon", "coordinates": [ [ [ 410.074046962847092, 300.381460044731 ], [ 422.505208169218974, 302.301720719141372 ], [ 420.787080196641114, 312.307289494351494 ], [ 409.26551615322461, 309.578498013624881 ], [ 410.276179661374613, 301.392123557203774 ], [ 410.074046962847092, 300.381460044731 ] ] ] } },
{ "type": "Feature", "properties": { "feature_type": "building", "subtype": "no-damage", "uid": "bbb03630-dd01-46a0-b905-41c69ed8a843" }, "geometry": { "type": "Polygon", "coordinates": [ [ [ 253.404627507269794, 355.077574686543812 ], [ 325.9139166055798, 310.960477102714492 ], [ 352.558896334126075, 347.651924596675826 ], [ 275.681577776630775, 393.516233964381684 ], [ 253.841430454002108, 356.824786470420406 ], [ 253.404627507269794, 355.077574686543812 ] ] ] } },
{ "type": "Feature", "properties": { "feature_type": "building", "subtype": "no-damage", "uid": "5236f9dd-0964-44f6-bd19-45110b8672bf" }, "geometry": { "type": "Polygon", "coordinates": [ [ [ 364.029359186672991, 336.136740916717713 ], [ 374.348488847104989, 335.749773552871773 ], [ 374.864445330495414, 347.874750906244515 ], [ 363.384413584628476, 348.390707388998919 ], [ 362.997446220273787, 336.394719157586223 ], [ 364.029359186672991, 336.136740916717713 ] ] ] } },
{ "type": "Feature", "properties": { "feature_type": "building", "subtype": "destroyed", "uid": "57e56d73-3233-4a1e-a2c2-588f8dc12c3a" }, "geometry": { "type": "Polygon", "coordinates": [ [ [ 200.415331731182903, 389.373201589769906 ], [ 208.702772538651999, 386.543343756473575 ], [ 223.357393476890195, 386.03801199972861 ], [ 226.288317662249113, 407.666211176005277 ], [ 217.596611453147403, 408.373675633820824 ], [ 217.394478748643706, 410.091803605126188 ], [ 202.335592406611511, 413.123794145596378 ], [ 200.617464434287911, 389.979599697050219 ], [ 200.415331731182903, 389.373201589769906 ] ] ] } },
{ "type": "Feature", "properties": { "feature_type": "building", "subtype": "destroyed", "uid": "454d84e9-758f-4583-be5b-d58e4deb8cd7" }, "geometry": { "type": "Polygon", "coordinates": [ [ [ 156.056923438631287, 284.430066739436882 ], [ 170.001197574254007, 280.943998204929073 ], [ 168.124083746522103, 272.362906429009115 ], [ 183.94547170504481, 267.804201426961583 ], [ 185.554426413729914, 272.631065548691424 ], [ 206.470837616210304, 266.999724070966522 ], [ 211.029542617751503, 285.502703209010974 ], [ 195.476313780437209, 289.256930860149509 ], [ 196.280791129820699, 296.229067926113487 ], [ 159.274832854348602, 305.078318819681272 ], [ 156.056923438885491, 286.30718056195451 ], [ 156.056923438631287, 284.430066739436882 ] ] ] } },
{ "type": "Feature", "properties": { "feature_type": "building", "subtype": "no-damage", "uid": "e2ddfdbb-1ca9-4edb-afa5-f46798a64899" }, "geometry": { "type": "Polygon", "coordinates": [ [ [ 469.265781868501676, 104.431545517266699 ], [ 514.584672801105853, 89.682794030360625 ], [ 519.94785515902413, 106.844977576097094 ], [ 473.556327756463872, 119.180297007224397 ], [ 469.533940987421317, 104.967863752562295 ], [ 469.265781868501676, 104.431545517266699 ] ] ] } },
{ "type": "Feature", "properties": { "feature_type": "building", "subtype": "destroyed", "uid": "fc615dd4-6a2c-49f9-8395-7bdbbe221d45" }, "geometry": { "type": "Polygon", "coordinates": [ [ [ 505.100766008513915, 37.837357215426501 ], [ 523.590418349010065, 33.635163504251501 ], [ 528.212831434483746, 50.654048043919637 ], [ 539.138535088630533, 48.552951185789063 ], [ 546.912593460411586, 78.178416870171745 ], [ 516.02646966189775, 84.691817122238675 ], [ 505.310875694327081, 39.518234702948192 ], [ 505.100766008513915, 37.837357215426501 ] ] ] } },
{ "type": "Feature", "properties": { "feature_type": "building", "subtype": "no-damage", "uid": "c6f53e90-9919-4fe4-ab06-d681aad4acd4" }, "geometry": { "type": "Polygon", "coordinates": [ [ [ 440.874987516561418, 136.861288398525403 ], [ 449.388269483919089, 137.248255760336804 ], [ 448.743323882128891, 145.245581244554501 ], [ 440.359031029483617, 143.310744433462901 ], [ 440.230041911083674, 137.506234000188101 ], [ 440.874987516561418, 136.861288398525403 ] ] ] } },
{ "type": "Feature", "properties": { "feature_type": "building", "subtype": "un-classified", "uid": "f5d9872a-ec03-4b3d-875a-d36f1242ef5a" }, "geometry": { "type": "Polygon", "coordinates": [ [ [ 483.727371091184011, 135.004279052039294 ], [ 487.258416749389426, 134.79156545752511 ], [ 487.386044903122581, 140.619917926665693 ], [ 481.898034185914014, 140.960259676057404 ], [ 481.472606997521211, 134.961736329677905 ], [ 483.727371091184011, 135.004279052039294 ] ] ] } },
{ "type": "Feature", "properties": { "feature_type": "building", "subtype": "destroyed", "uid": "d5ea155f-f40c-4d2e-b843-f639f50be224" }, "geometry": { "type": "Polygon", "coordinates": [ [ [ 194.239874842046504, 248.001747122093605 ], [ 201.031040227854703, 247.793854304140098 ], [ 201.100337832228689, 254.654317296607502 ], [ 199.645088108333113, 254.44642447865391 ], [ 200.188717134918107, 264.720284629081505 ], [ 198.231752069048611, 264.890455501234328 ], [ 198.146666631954986, 267.230305036821392 ], [ 194.828334571951189, 267.06013415958239 ], [ 192.998997663883898, 265.528596284776825 ], [ 193.211711259669698, 263.784344817491387 ], [ 194.913420005357409, 263.82688753578401 ], [ 194.402907382541201, 248.426423347073609 ], [ 194.239874842046504, 248.001747122093605 ] ] ] } },
{ "type": "Feature", "properties": { "feature_type": "building", "subtype": "no-damage", "uid": "1034070d-5e02-4b0f-a3e5-84278499bad6" }, "geometry": { "type": "Polygon", "coordinates": [ [ [ 43.41140496569254, 793.476198480546373 ], [ 50.48686551187869, 795.24506361995293 ], [ 51.901957622946938, 791.972663117035154 ], [ 59.419634450170342, 795.156620361660202 ], [ 55.793460923997799, 803.647173017384375 ], [ 50.398422253331603, 801.524534854979265 ], [ 49.956205971531418, 802.851183706991037 ], [ 41.288766800488872, 800.640102287310356 ], [ 42.792302165018043, 793.653084997131828 ], [ 43.41140496569254, 793.476198480546373 ] ] ] } },
{ "type": "Feature", "properties": { "feature_type": "building", "subtype": "un-classified", "uid": "cbbab8b3-74b7-4be8-a404-dd50233049b9" }, "geometry": { "type": "Polygon", "coordinates": [ [ [ 910.461370385812984, 348.127635837583625 ], [ 917.088348691624333, 347.69544160232698 ], [ 917.232413440863638, 349.712348044374892 ], [ 919.393384627065757, 349.856412790816819 ], [ 919.825578866137221, 357.491844318665983 ], [ 911.325758858233939, 357.491844317648713 ], [ 910.461370386830254, 349.280153807083877 ], [ 910.461370385812984, 348.127635837583625 ] ] ] } },
{ "type": "Feature", "properties": { "feature_type": "building", "subtype": "un-classified", "uid": "c9636c1a-3477-46e5-8fba-6fab0b2206be" }, "geometry": { "type": "Polygon", "coordinates": [ [ [ 900.131722103120637, 378.707915814292278 ], [ 899.11913345424739, 384.783447699899114 ], [ 894.393719764380194, 386.471095450139387 ], [ 888.655717423605211, 383.433329503775781 ], [ 890.3433651699047, 378.370386264244189 ], [ 900.131722103120637, 378.707915814292278 ] ] ] } },
{ "type": "Feature", "properties": { "feature_type": "building", "subtype": "un-classified", "uid": "b1753c88-5ee6-49f5-99d4-14c11456a3ed" }, "geometry": { "type": "Polygon", "coordinates": [ [ [ 161.377590884191108, 72.60472967100759 ], [ 169.319634779099687, 73.13419926578986 ], [ 167.73122600339849, 80.546773569345305 ], [ 160.848121292460206, 77.899425602554572 ], [ 161.377590884191108, 72.60472967100759 ] ] ] } }
]
}
