{
"type": "FeatureCollection",
"name": "socal-fire_00001097_post_disaster",
"features": [
{ "type": "Feature", "properties": { "feature_type": "building", "subtype": "no-damage", "uid": "c6b07dd4-b4d1-446b-bb13-3c68288d1150" }, "geometry": { "type": "Polygon", "coordinates": [ [ [ 1022.828959044441035, 126.360720035170104 ], [ 1000.772173384132998, 127.149762702717794 ], [ 1000.361558441671946, 96.596580731233445 ], [ 1022.829003981109963, 95.790811710605013 ], [ 1022.828959044441035, 126.360720035170104 ] ] ] } },
{ "type": "Feature", "properties": { "feature_type": "building", "subtype": "destroyed", "uid": "51467b68-d8ce-4e2f-9319-e11196c424f9" }, "geometry": { "type": "Polygon", "coordinates": [ [ [ 301.954099229302813, 167.261532791878608 ], [ 307.088345716672677, 165.519775317825889 ], [ 311.914204118001919, 168.186697063347594 ], [ 312.16819666387488, 180.251343066420588 ], [ 301.754502224868588, 179.997350515209092 ], [ 301.954099229302813, 167.261532791878608 ] ] ] } },
{ "type": "Feature", "properties": { "feature_type": "building", "subtype": "destroyed", "uid": "1eb0b578-0419-4797-a25f-07ed8a8b0aac" }, "geometry": { "type": "Polygon", "coordinates": [ [ [ 356.97368963295952, 626.140300380143572 ], [ 358.678097610531097, 614.887246098319224 ], [ 383.365246979796723, 618.653333757393398 ], [ 381.680679490313992, 629.883783691518602 ], [ 356.97368963295952, 626.140300380143572 ] ] ] } },
{ "type": "Feature", "properties": { "feature_type": "building", "subtype": "un-classified", "uid": "58499ec5-4d9d-4c9a-a5e1-038309487b21" }, "geometry": { "type": "Polygon", "coordinates": [ [ [ 256.187756343942681, 222.099025287942908 ], [ 256.773673553971491, 212.332070603242101 ], [ 265.190256106680124, 213.002749486176612 ], [ 264.346271754177621, 222.943009640191406 ], [ 256.187756343942681, 222.099025287942908 ] ] ] } },
{ "type": "Feature", "properties": { "feature_type": "building", "subtype": "destroyed", "uid": "bff602fc-41c3-4967-b18b-72228feb30b2" }, "geometry": { "type": "Polygon", "coordinates": [ [ [ 364.665362135180885, 199.962641211014301 ], [ 367.386758236780679, 169.553653793613393 ], [ 374.986312451088509, 170.143180845637204 ], [ 374.806642118077889, 171.708827826464614 ], [ 395.092515740776491, 173.274474804241493 ], [ 395.081037564655617, 176.50885295332759 ], [ 402.334440594732996, 176.826984663217587 ], [ 402.525319618836591, 174.345557314280398 ], [ 409.460590934702623, 174.472810000066687 ], [ 409.396964595241286, 177.781379804072799 ], [ 417.194503563634782, 177.843246595813611 ], [ 416.080351828322478, 200.5154905627559 ], [ 395.486713482309426, 200.377278222786799 ], [ 395.36775330869051, 202.714647233181694 ], [ 364.665362135180885, 199.962641211014301 ] ] ] } },
{ "type": "Feature", "properties": { "feature_type": "building", "subtype": "un-classified", "uid": "76812358-aa1c-4a67-894f-96c5cadf4c62" }, "geometry": { "type": "Polygon", "coordinates": [ [ [ 380.952918711655684, 87.51738343224541 ], [ 390.923617887126113, 87.434980960266017 ], [ 391.088422829305273, 96.334447993017079 ], [ 381.035321185541591, 96.246198638826186 ], [ 380.952918711655684, 87.51738343224541 ] ] ] } }
]
}
