{
"type": "FeatureCollection",
"name": "socal-fire_00000670_post_disaster",
"features": [
{ "type": "Feature", "properties": { "feature_type": "building", "subtype": "no-damage", "uid": "9c038a10-b338-45e2-b75b-7254f515534d" }, "geometry": { "type": "Polygon", "coordinates": [ [ [ 653.043958866071193, 867.425913725204396 ], [ 670.127276701074948, 840.167972767444439 ], [ 701.907272381619123, 861.647732693719831 ], [ 733.059204902851889, 858.381804283204588 ], [ 753.031613253852697, 873.706545279662009 ], [ 735.82268278581671, 901.718162024933349 ], [ 717.608851273868936, 889.533736802144404 ], [ 709.192804987237537, 901.466936762429555 ], [ 653.043958866071193, 867.425913725204396 ] ] ] } },
{ "type": "Feature", "properties": { "feature_type": "building", "subtype": "no-damage", "uid": "9562fd83-adaa-498f-ab5c-f5e1ff23bb79" }, "geometry": { "type": "Polygon", "coordinates": [ [ [ 750.978264270010186, 975.397577591354434 ], [ 771.595202276927807, 966.525134235361975 ], [ 797.797372017870316, 1022.982997729082967 ], [ 770.174865140873067, 1022.983364239250022 ], [ 750.978264270010186, 975.397577591354434 ] ] ] } },
{ "type": "Feature", "properties": { "feature_type": "building", "subtype": "no-damage", "uid": "dcb762ed-6030-4baf-8e48-b67b764b0d2b" }, "geometry": { "type": "Polygon", "coordinates": [ [ [ 782.662838147709408, 957.437953020361533 ], [ 799.067596491849372, 952.550212202410535 ], [ 806.233263497564622, 970.551890890650839 ], [ 789.720202137808883, 975.825208005058016 ], [ 782.662838147709408, 957.437953020361533 ] ] ] } },
{ "type": "Feature", "properties": { "feature_type": "building", "subtype": "destroyed", "uid": "b2e8f799-e33e-4b13-be71-509f919a2035" }, "geometry": { "type": "Polygon", "coordinates": [ [ [ 963.30601809541588, 762.818484272891055 ], [ 982.826511638875218, 760.222005449023754 ], [ 988.104579790056846, 804.887827195907448 ], [ 967.629720917608893, 808.028142976696699 ], [ 967.001657763129401, 803.254862991158461 ], [ 956.952647272384525, 803.882926149961236 ], [ 954.566007280378017, 781.523877805431084 ], [ 964.866243031083627, 780.393364126706956 ], [ 963.30601809541588, 762.818484272891055 ] ] ] } },
{ "type": "Feature", "properties": { "feature_type": "building", "subtype": "no-damage", "uid": "b67bf86c-0a54-456b-9256-8c87e7589536" }, "geometry": { "type": "Polygon", "coordinates": [ [ [ 829.51994012985665, 681.359855672139474 ], [ 812.591565394582858, 661.183595089206278 ], [ 832.275722063795683, 645.534690539074973 ], [ 849.007255229053385, 664.234639371938215 ], [ 829.51994012985665, 681.359855672139474 ] ] ] } },
{ "type": "Feature", "properties": { "feature_type": "building", "subtype": "major-damage", "uid": "83343052-d76d-4384-ba17-0b87fe4849f7" }, "geometry": { "type": "Polygon", "coordinates": [ [ [ 218.261034638906011, 887.806379168357466 ], [ 241.399643225062789, 879.253210406530684 ], [ 247.805887416368193, 898.471942967219775 ], [ 222.934586446923589, 908.018502932192746 ], [ 218.261034638906011, 887.806379168357466 ] ] ] } },
{ "type": "Feature", "properties": { "feature_type": "building", "subtype": "no-damage", "uid": "14ce4509-7cc6-42aa-b915-c5192d843a5e" }, "geometry": { "type": "Polygon", "coordinates": [ [ [ 377.051863906296774, 198.589937760762211 ], [ 387.282350898410186, 198.589937757710402 ], [ 392.192984655306077, 297.621051875656576 ], [ 381.144058704388328, 298.439490833316597 ], [ 377.051863906296774, 198.589937760762211 ] ] ] } },
{ "type": "Feature", "properties": { "feature_type": "building", "subtype": "no-damage", "uid": "95e704d3-230c-4a3c-8fe9-c3390a74a670" }, "geometry": { "type": "Polygon", "coordinates": [ [ [ 389.488154789241605, 319.045845404829208 ], [ 403.562326805441216, 318.160058353363127 ], [ 405.498644656174179, 426.006356052256592 ], [ 391.175962863680581, 426.006356053273919 ], [ 389.488154789241605, 319.045845404829208 ] ] ] } },
{ "type": "Feature", "properties": { "feature_type": "building", "subtype": "no-damage", "uid": "21aa23dc-c4f5-4d8c-be6b-d233bee9a9c1" }, "geometry": { "type": "Polygon", "coordinates": [ [ [ 417.615156045253684, 315.762799232338921 ], [ 432.055971816758017, 299.871859704174028 ], [ 442.267259955697625, 309.478929609707222 ], [ 428.430662417852773, 324.463541791134219 ], [ 417.615156045253684, 315.762799232338921 ] ] ] } },
{ "type": "Feature", "properties": { "feature_type": "building", "subtype": "no-damage", "uid": "6f19ceaf-8cfb-4b4a-9bb7-a3e34349a1ec" }, "geometry": { "type": "Polygon", "coordinates": [ [ [ 233.382775995507188, 380.623836781244108 ], [ 219.637752218982087, 375.671585567756892 ], [ 220.850548431135792, 371.729997863634821 ], [ 216.807894381468088, 370.517201653007191 ], [ 217.616425189824895, 367.283078411442375 ], [ 235.505169371226714, 372.639595029489328 ], [ 233.382775995507188, 380.623836781244108 ] ] ] } },
{ "type": "Feature", "properties": { "feature_type": "building", "subtype": "destroyed", "uid": "f909473f-e943-4b5d-9662-55b5e489e44e" }, "geometry": { "type": "Polygon", "coordinates": [ [ [ 1021.976697162340997, 898.086564312547807 ], [ 1016.871408532565056, 906.208614406829497 ], [ 987.167911052506042, 886.94775275935524 ], [ 992.041141107982185, 880.914229834412595 ], [ 1021.976697162340997, 898.086564312547807 ] ] ] } },
{ "type": "Feature", "properties": { "feature_type": "building", "subtype": "no-damage", "uid": "a04587d0-271d-4303-b212-99ce5c5a5d37" }, "geometry": { "type": "Polygon", "coordinates": [ [ [ 952.709778322454781, 847.68651426460724 ], [ 944.58772822931644, 833.530941244365749 ], [ 952.245661172709561, 828.193594042196992 ], [ 961.5280041353152, 841.188874189792273 ], [ 952.709778322454781, 847.68651426460724 ] ] ] } },
{ "type": "Feature", "properties": { "feature_type": "building", "subtype": "no-damage", "uid": "6ec5b372-a803-4e40-8329-87a21e6055e7" }, "geometry": { "type": "Polygon", "coordinates": [ [ [ 320.593385118019626, 14.10229154409368 ], [ 336.673618725111282, 24.024137814565069 ], [ 330.515231386839275, 29.669326209622799 ], [ 315.974594613330225, 20.602811514437601 ], [ 320.593385118019626, 14.10229154409368 ] ] ] } },
{ "type": "Feature", "properties": { "feature_type": "building", "subtype": "destroyed", "uid": "fd1a5205-2002-4117-a327-636b1cb0483d" }, "geometry": { "type": "Polygon", "coordinates": [ [ [ 346.063001256887787, 639.799677572048381 ], [ 361.173262603319927, 654.280344697199439 ], [ 356.451305932472508, 659.317098476587717 ], [ 339.767059027311007, 645.151228464555857 ], [ 346.063001256887787, 639.799677572048381 ] ] ] } }
]
}
