{
"type": "FeatureCollection",
"name": "socal-fire_00000682_post_disaster",
"features": [
{ "type": "Feature", "properties": { "feature_type": "building", "subtype": "destroyed", "uid": "c38d9d94-6ea4-4c6f-a669-6b7f83767e7a" }, "geometry": { "type": "Polygon", "coordinates": [ [ [ 476.183931562978387, 807.182386980596789 ], [ 498.139744440040204, 773.43548941423569 ], [ 535.545944162946626, 796.611069672587973 ], [ 514.68124429129, 831.207154949823689 ], [ 476.183931562978387, 807.182386980596789 ] ] ] } },
{ "type": "Feature", "properties": { "feature_type": "building", "subtype": "destroyed", "uid": "4ef34cc0-6550-4424-a421-083bc8f5d01c" }, "geometry": { "type": "Polygon", "coordinates": [ [ [ 629.087965986888548, 673.580657806286808 ], [ 631.030177619962501, 659.244882193012359 ], [ 662.388218900824995, 662.859337824115073 ], [ 660.958227828731879, 677.577301959815145 ], [ 629.087965986888548, 673.580657806286808 ] ] ] } },
{ "type": "Feature", "properties": { "feature_type": "building", "subtype": "destroyed", "uid": "3bde233d-bf94-448d-bda9-cc34c2c410dd" }, "geometry": { "type": "Polygon", "coordinates": [ [ [ 678.473427522484258, 677.993910984879221 ], [ 679.993122054295782, 666.714702566702044 ], [ 700.345775516203503, 669.624390066781189 ], [ 699.006652167345806, 680.783751291250837 ], [ 678.473427522484258, 677.993910984879221 ] ] ] } },
{ "type": "Feature", "properties": { "feature_type": "building", "subtype": "destroyed", "uid": "6f923c1e-0f0f-43b8-8611-8de36396d5bc" }, "geometry": { "type": "Polygon", "coordinates": [ [ [ 373.228251489504089, 918.026687378902693 ], [ 386.338986012824307, 907.489918461112779 ], [ 392.260009227518481, 914.397778882219995 ], [ 378.773234125736224, 925.417460977957944 ], [ 373.228251489504089, 918.026687378902693 ] ] ] } },
{ "type": "Feature", "properties": { "feature_type": "building", "subtype": "destroyed", "uid": "1d1e358d-8ca3-4e73-90cb-9d9ef355c792" }, "geometry": { "type": "Polygon", "coordinates": [ [ [ 0.848507282297346, 1011.456950588622021 ], [ 3.638347587905324, 998.177310737166749 ], [ 12.1194621145284, 1000.074402145825047 ], [ 9.218028196706271, 1013.577229217641047 ], [ 0.848507282297346, 1011.456950588622021 ] ] ] } },
{ "type": "Feature", "properties": { "feature_type": "building", "subtype": "destroyed", "uid": "f7893fd5-4612-493c-a0e8-9d31498f7fe1" }, "geometry": { "type": "Polygon", "coordinates": [ [ [ 13.55822185998052, 995.507979967855476 ], [ 13.922235793408269, 995.459134512032847 ], [ 23.73766911103014, 994.243865605041265 ], [ 24.13686312244036, 1000.098711081661008 ], [ 14.223545208475359, 1001.030163772834044 ], [ 13.55822185998052, 995.507979967855476 ] ] ] } },
{ "type": "Feature", "properties": { "feature_type": "building", "subtype": "destroyed", "uid": "3af6e4fe-da97-4691-8bcd-e84876debc54" }, "geometry": { "type": "Polygon", "coordinates": [ [ [ 481.167400957319217, 922.779949000449847 ], [ 480.186810432302082, 931.899440893026735 ], [ 466.46999936474748, 930.370000360744598 ], [ 467.949999367362523, 921.40000035972696 ], [ 481.167400957319217, 922.779949000449847 ] ] ] } },
{ "type": "Feature", "properties": { "feature_type": "building", "subtype": "destroyed", "uid": "f044ed47-afb9-46e8-b31b-310808400010" }, "geometry": { "type": "Polygon", "coordinates": [ [ [ 467.459999366902878, 921.350000360790318 ], [ 465.969999366102115, 930.310000361207017 ], [ 453.808925273624482, 928.957669313398469 ], [ 454.700303993019816, 920.015903207939573 ], [ 467.459999366902878, 921.350000360790318 ] ] ] } },
{ "type": "Feature", "properties": { "feature_type": "building", "subtype": "minor-damage", "uid": "7dcf1b7e-1a6b-41dc-8320-a1abe8e1c6c1" }, "geometry": { "type": "Polygon", "coordinates": [ [ [ 455.797078065810808, 226.400004871757886 ], [ 465.189174619039306, 223.470360078984498 ], [ 468.463483508129514, 234.327279029111509 ], [ 458.726722861887879, 237.515421892343909 ], [ 455.797078065810808, 226.400004871757886 ] ] ] } },
{ "type": "Feature", "properties": { "feature_type": "building", "subtype": "destroyed", "uid": "a958eae6-a7ec-4c16-b4da-3c881037cbaf" }, "geometry": { "type": "Polygon", "coordinates": [ [ [ 461.879696991822186, 203.963504698862408 ], [ 462.516948993280607, 192.320018993042311 ], [ 471.434955137820907, 192.558841748030204 ], [ 470.869859227338395, 204.425855898925988 ], [ 461.879696991822186, 203.963504698862408 ] ] ] } },
{ "type": "Feature", "properties": { "feature_type": "building", "subtype": "destroyed", "uid": "469e01fc-f905-44ac-b510-f3bd2e2594fe" }, "geometry": { "type": "Polygon", "coordinates": [ [ [ 333.123802103069124, 394.420883551547774 ], [ 346.906709027763782, 388.692922232693888 ], [ 356.930641333975075, 414.647746959195388 ], [ 343.505731990564584, 420.375708277032516 ], [ 333.123802103069124, 394.420883551547774 ] ] ] } },
{ "type": "Feature", "properties": { "feature_type": "building", "subtype": "destroyed", "uid": "7aaee65f-0736-4e5c-bb43-27e9cb5f335b" }, "geometry": { "type": "Polygon", "coordinates": [ [ [ 734.385957513943481, 724.692586081903187 ], [ 738.824212853815084, 721.535218043154146 ], [ 746.075630433502624, 731.588319692768209 ], [ 741.625896918018384, 734.719613648321911 ], [ 734.385957513943481, 724.692586081903187 ] ] ] } },
{ "type": "Feature", "properties": { "feature_type": "building", "subtype": "destroyed", "uid": "76353982-87f6-4700-9c1b-6733f2970672" }, "geometry": { "type": "Polygon", "coordinates": [ [ [ 795.850476290840788, 774.449299359306565 ], [ 807.873961268674634, 767.526686794795182 ], [ 812.246137625567826, 774.935096729668089 ], [ 799.90091892619148, 781.963819687615683 ], [ 795.850476290840788, 774.449299359306565 ] ] ] } },
{ "type": "Feature", "properties": { "feature_type": "building", "subtype": "destroyed", "uid": "3adcd8ae-148d-40ac-a607-70c5df9551b1" }, "geometry": { "type": "Polygon", "coordinates": [ [ [ 503.841944947977424, 762.889551186024391 ], [ 510.752561844109778, 747.962618695101469 ], [ 520.427425494627755, 752.800050521823891 ], [ 513.824726178782157, 767.217867296623581 ], [ 503.841944947977424, 762.889551186024391 ] ] ] } },
{ "type": "Feature", "properties": { "feature_type": "building", "subtype": "destroyed", "uid": "e8f37bf4-dd34-46c7-9017-dd3eafce2cce" }, "geometry": { "type": "Polygon", "coordinates": [ [ [ 541.157930682772758, 790.146403402656119 ], [ 548.13888353866173, 776.721494059749375 ], [ 561.563792884232953, 784.597440875461302 ], [ 554.224842441848409, 798.201349007993485 ], [ 541.157930682772758, 790.146403402656119 ] ] ] } },
{ "type": "Feature", "properties": { "feature_type": "building", "subtype": "destroyed", "uid": "c82f8977-4e95-4b99-b04d-ac181530ae09" }, "geometry": { "type": "Polygon", "coordinates": [ [ [ 431.216310702630381, 674.571956557847102 ], [ 436.835414637767485, 671.309190989942181 ], [ 443.757222329791716, 685.070403895915206 ], [ 437.24742700173158, 688.943320106401302 ], [ 430.381019679720282, 675.170585046904534 ], [ 431.216310702630381, 674.571956557847102 ] ] ] } },
{ "type": "Feature", "properties": { "feature_type": "building", "subtype": "destroyed", "uid": "06b25a01-cca5-4d2e-9665-6fbbfb031861" }, "geometry": { "type": "Polygon", "coordinates": [ [ [ 497.633896469125489, 662.893425802164757 ], [ 504.588536211426401, 656.402428708890739 ], [ 522.670599546060657, 674.948134690400025 ], [ 513.861389203957174, 681.670953107235391 ], [ 496.570389477439107, 664.015528069414245 ], [ 497.633896469125489, 662.893425802164757 ] ] ] } },
{ "type": "Feature", "properties": { "feature_type": "building", "subtype": "destroyed", "uid": "b9a7411c-3b12-495e-a94b-20e629558ca6" }, "geometry": { "type": "Polygon", "coordinates": [ [ [ 611.070429095167583, 690.010203324135773 ], [ 627.013627750916839, 692.548755279973648 ], [ 626.011150365948197, 700.682147085859697 ], [ 610.216673593202927, 698.334319460476877 ], [ 611.070429095167583, 690.010203324135773 ] ] ] } },
{ "type": "Feature", "properties": { "feature_type": "building", "subtype": "destroyed", "uid": "024fb7b0-ea4c-4959-89dd-330e0fdbea62" }, "geometry": { "type": "Polygon", "coordinates": [ [ [ 297.837490156328727, 554.605010793654515 ], [ 320.885093509497779, 555.296242089012367 ], [ 320.718843721054384, 568.483864595902105 ], [ 297.743714115650675, 567.452328164585197 ], [ 297.837490156328727, 554.605010793654515 ] ] ] } },
{ "type": "Feature", "properties": { "feature_type": "building", "subtype": "destroyed", "uid": "22eccb09-544f-49f8-9757-59ac31b3f319" }, "geometry": { "type": "Polygon", "coordinates": [ [ [ 638.105363545274031, 685.08097579455557 ], [ 639.503464361569286, 675.305737033179525 ], [ 658.368753567822523, 677.507406938755935 ], [ 656.944143624666367, 687.652356511303537 ], [ 638.105363545274031, 685.08097579455557 ] ] ] } },
{ "type": "Feature", "properties": { "feature_type": "building", "subtype": "destroyed", "uid": "3cdfbe5d-ddce-42fc-84d1-d7aa04b48a26" }, "geometry": { "type": "Polygon", "coordinates": [ [ [ 675.902233118944082, 683.606763120716778 ], [ 675.906844972725139, 683.175017167927422 ], [ 686.098278411342676, 683.746215553004504 ], [ 686.233247977655992, 682.620309427189682 ], [ 699.034765107283647, 683.509660128520977 ], [ 698.408482525787576, 695.891424249358238 ], [ 675.339576885044153, 694.57855970299795 ], [ 675.902233118944082, 683.606763120716778 ] ] ] } }
]
}
