{
"type": "FeatureCollection",
"name": "socal-fire_00001148_post_disaster",
"features": [
{ "type": "Feature", "properties": { "feature_type": "building", "subtype": "no-damage", "uid": "e5ac78cf-fa9e-4300-a551-c4f974cbf8a7" }, "geometry": { "type": "Polygon", "coordinates": [ [ [ 452.967666812756022, 929.406086237826344 ], [ 463.193882993608213, 974.324331506153044 ], [ 456.624570161002907, 976.850990287143077 ], [ 459.858693401533174, 988.372554335778659 ], [ 455.742895765286676, 993.965799744374976 ], [ 451.088662692248988, 995.687879123919174 ], [ 417.693551030171989, 1006.37109502951796 ], [ 412.377023837851823, 1015.918844597219049 ], [ 404.422169228867688, 1021.352436431231013 ], [ 395.586456053792574, 1022.746951500818 ], [ 385.117660530478076, 1014.466999843427971 ], [ 382.085669990240717, 1010.222213088720991 ], [ 379.862210260962115, 1010.525412141829975 ], [ 380.973940127063088, 1016.993658627469017 ], [ 369.553442428196888, 1017.802189433724948 ], [ 366.218252834850887, 1019.116052000245986 ], [ 362.478797839393792, 1020.73311362394395 ], [ 358.43614378866738, 1020.328848217764971 ], [ 356.616949460482886, 1019.31818470435303 ], [ 355.808418653464514, 1010.222213086688043 ], [ 338.930337984916378, 1011.738208357314988 ], [ 338.121807177135224, 1004.966762821617976 ], [ 344.590053660738022, 1005.371028222712994 ], [ 344.224808634705482, 997.661862293340164 ], [ 346.210279752635813, 997.910046183510531 ], [ 345.713911972040989, 990.836805313655532 ], [ 354.305190763492874, 990.198687933239626 ], [ 359.371273130712382, 992.903137918037714 ], [ 360.437816788179987, 992.788865382895892 ], [ 360.072230856595127, 987.089374368948256 ], [ 376.119718684630527, 986.343364615901578 ], [ 377.069976253385221, 989.748454239286502 ], [ 382.238275285060979, 989.219201993232218 ], [ 382.529963139879726, 987.614918772027522 ], [ 385.884373510968317, 986.156479480392932 ], [ 388.801252090550179, 986.54539662387981 ], [ 389.773544948123003, 989.41366056090817 ], [ 392.544579601820772, 989.121972701767845 ], [ 394.051633537534599, 985.475874478782544 ], [ 396.871282827685889, 982.802069111463879 ], [ 400.954912845354215, 981.586703036796507 ], [ 405.087157500111516, 982.072849466663456 ], [ 406.496982144869378, 983.531288757281118 ], [ 407.226201790432185, 984.843884117311745 ], [ 413.317554365720184, 980.451429170374013 ], [ 419.149875786500672, 979.768923469863466 ], [ 424.113553588126422, 977.287084570193656 ], [ 435.654104479518082, 975.363659419848204 ], [ 427.256020989144417, 935.566299538322937 ], [ 452.754599099104212, 929.152060942171829 ], [ 452.967666812756022, 929.406086237826344 ] ] ] } },
{ "type": "Feature", "properties": { "feature_type": "building", "subtype": "no-damage", "uid": "44ce21a4-9628-4387-822b-56cb07ed5d06" }, "geometry": { "type": "Polygon", "coordinates": [ [ [ -0.000000585956939, 979.575675774447745 ], [ -0.000000587482206, 954.569066813523364 ], [ 23.935955225184429, 939.864307045843589 ], [ 34.500505441068213, 959.48076990599543 ], [ 9.707375190483827, 971.389301319159358 ], [ 12.436166676087391, 977.251149692479657 ], [ -0.000000585956939, 979.575675774447745 ] ] ] } },
{ "type": "Feature", "properties": { "feature_type": "building", "subtype": "no-damage", "uid": "aeb05e1e-0518-4741-b4ac-bfba289701ae" }, "geometry": { "type": "Polygon", "coordinates": [ [ [ 250.468965596781203, 782.943655734482718 ], [ 250.933748885729614, 782.955516161837068 ], [ 267.396392544902824, 822.46586093990129 ], [ 239.409898329405308, 833.98971149877184 ], [ 229.594590598370701, 817.111019823047855 ], [ 238.649044609943587, 812.666106035096163 ], [ 229.959695397916903, 790.940981221294123 ], [ 250.468965596781203, 782.943655734482718 ] ] ] } },
{ "type": "Feature", "properties": { "feature_type": "building", "subtype": "no-damage", "uid": "a4a058c4-7818-4167-b4f2-47e39d1c28e9" }, "geometry": { "type": "Polygon", "coordinates": [ [ [ 239.93746740436589, 739.561192371362608 ], [ 256.564737499720309, 734.128519963527197 ], [ 263.64367427254308, 744.49998546773088 ], [ 195.817582401549203, 767.383060152722692 ], [ 192.854306543169997, 754.871450969900934 ], [ 239.93746740436589, 739.561192371362608 ] ] ] } },
{ "type": "Feature", "properties": { "feature_type": "building", "subtype": "no-damage", "uid": "83bea794-e4c6-44d9-884d-2adc8bf85836" }, "geometry": { "type": "Polygon", "coordinates": [ [ [ 198.938673568752392, 704.358224044354188 ], [ 199.413802349570801, 704.279035913010262 ], [ 203.610773280673811, 714.969433569194962 ], [ 185.001562548571087, 721.462860293639551 ], [ 182.229977972252613, 710.059769460443704 ], [ 198.938673568752392, 704.358224044354188 ] ] ] } },
{ "type": "Feature", "properties": { "feature_type": "building", "subtype": "no-damage", "uid": "e2251e10-10a5-423b-9bac-e5ed601f1c5b" }, "geometry": { "type": "Polygon", "coordinates": [ [ [ 205.641434647671105, 600.961189458803915 ], [ 213.827809104990195, 599.040928783014465 ], [ 216.354467887758801, 610.360360130594472 ], [ 206.854230865443895, 611.775289047135402 ], [ 205.035036541199787, 600.759056756731525 ], [ 205.641434647671105, 600.961189458803915 ] ] ] } },
{ "type": "Feature", "properties": { "feature_type": "building", "subtype": "no-damage", "uid": "f4fdc120-59fa-498f-beda-a359ade6d3ba" }, "geometry": { "type": "Polygon", "coordinates": [ [ [ 173.193329802908494, 547.153214944503475 ], [ 182.693566825350501, 546.546816831168144 ], [ 189.060746956137592, 550.185205480674654 ], [ 192.8002019524844, 553.116129663775837 ], [ 195.023661683415412, 556.8555846653353 ], [ 195.225794383708291, 562.414233983513213 ], [ 195.2257943824373, 573.228333573878331 ], [ 192.294870199337112, 577.776319381694066 ], [ 188.353282495960798, 580.707243570896253 ], [ 179.257310880332795, 582.425371543596384 ], [ 172.384798994237713, 581.616840734289781 ], [ 169.352808453110498, 580.404044516770796 ], [ 166.118685212326, 577.169921277510298 ], [ 164.905888996841099, 575.653926007899486 ], [ 163.389893725705605, 570.196343035673522 ], [ 161.469633055001111, 564.334494661336407 ], [ 163.187761024014492, 557.461982771552698 ], [ 164.703756292099513, 553.823594126113676 ], [ 165.815486157437903, 551.195868996121135 ], [ 166.624016968269586, 550.185205480674654 ], [ 168.544277641643305, 548.77027656006635 ], [ 169.35280845590691, 548.669210206996354 ], [ 171.677334531772999, 547.961745751776448 ], [ 173.193329802908494, 547.153214944503475 ] ] ] } },
{ "type": "Feature", "properties": { "feature_type": "building", "subtype": "no-damage", "uid": "866e15df-8b9e-41e4-9000-9b403338ad18" }, "geometry": { "type": "Polygon", "coordinates": [ [ [ 313.981530690416889, 386.544050932658479 ], [ 328.631334882906287, 403.01518213729338 ], [ 323.801186284345306, 423.847859306936016 ], [ 297.358416533671516, 415.592555577105713 ], [ 305.931537265576878, 399.036456279519427 ], [ 305.123006454491076, 388.525555747347198 ], [ 313.511513611975886, 386.201029667412911 ], [ 313.981530690416889, 386.544050932658479 ] ] ] } },
{ "type": "Feature", "properties": { "feature_type": "building", "subtype": "minor-damage", "uid": "076c9a13-e90a-4587-bec8-ee80a78a939e" }, "geometry": { "type": "Polygon", "coordinates": [ [ [ 308.867885874747401, 425.597738543778917 ], [ 321.637808828423886, 431.144270731062079 ], [ 310.361467448743213, 461.513743544144802 ], [ 297.334666932373125, 455.000343285957399 ], [ 307.209822160851672, 425.584987289014123 ], [ 308.867885874747401, 425.597738543778917 ] ] ] } },
{ "type": "Feature", "properties": { "feature_type": "building", "subtype": "no-damage", "uid": "59432afe-44d4-4ddd-bee4-9c623dd30198" }, "geometry": { "type": "Polygon", "coordinates": [ [ [ 157.842913999767205, 437.414303424122807 ], [ 198.345497913237608, 459.858410436611791 ], [ 180.418337538194208, 496.507857418841297 ], [ 163.189343309592687, 484.951824706736886 ], [ 165.71065953947371, 480.539521305110895 ], [ 139.657058515122486, 463.52063676818409 ], [ 156.675943053568403, 437.677145424954574 ], [ 157.842913999767205, 437.414303424122807 ] ] ] } },
{ "type": "Feature", "properties": { "feature_type": "building", "subtype": "no-damage", "uid": "578081cc-038d-4e1e-a859-3344fddafa95" }, "geometry": { "type": "Polygon", "coordinates": [ [ [ 610.393554804105179, 740.648208090288108 ], [ 620.259939626775008, 741.398441045732852 ], [ 620.501063058936779, 737.042620998037137 ], [ 700.406898689185709, 738.541875804825736 ], [ 699.605041190545762, 767.648196278941782 ], [ 661.75538327359061, 767.654869594819615 ], [ 661.72746050667638, 772.375572933179683 ], [ 647.621368173223118, 771.978825572637447 ], [ 647.346612636366103, 769.817536839918375 ], [ 609.885923064348844, 768.666555774683047 ], [ 610.393554804105179, 740.648208090288108 ] ] ] } },
{ "type": "Feature", "properties": { "feature_type": "building", "subtype": "no-damage", "uid": "8a8bb0a3-8ebf-4335-852f-64f37e802a17" }, "geometry": { "type": "Polygon", "coordinates": [ [ [ 154.86844074210461, 576.973364351516238 ], [ 162.987086124464099, 574.882934705528783 ], [ 169.852676311602494, 592.949449744489471 ], [ 158.746447227754487, 595.555380593311838 ], [ 154.465275118758598, 577.56204855596161 ], [ 154.86844074210461, 576.973364351516238 ] ] ] } },
{ "type": "Feature", "properties": { "feature_type": "building", "subtype": "no-damage", "uid": "24b29eb4-3aa1-4325-a7fe-35020aa6c847" }, "geometry": { "type": "Polygon", "coordinates": [ [ [ 415.510691082717983, 772.238678844304218 ], [ 419.667771240909019, 771.804357037014597 ], [ 421.280966529303612, 772.300724818372146 ], [ 422.708023898291003, 773.541644269223866 ], [ 423.514621538293909, 776.457804980250671 ], [ 423.57666751439541, 777.264402618728468 ], [ 422.832115842359315, 779.125781799073479 ], [ 421.280966525744589, 780.987160975351117 ], [ 419.171403462856404, 781.607620699760105 ], [ 416.503426642509282, 781.297390836538739 ], [ 414.455909549875685, 780.180563332805946 ], [ 413.649311904026092, 778.877597908903113 ], [ 413.277036067753784, 776.892126784489847 ], [ 413.090898154447814, 775.403023446518318 ], [ 413.339082041058987, 774.410287884820036 ], [ 413.897495794959013, 773.293460377019755 ], [ 415.200461216827478, 772.362770789389401 ], [ 415.510691082717983, 772.238678844304218 ] ] ] } },
{ "type": "Feature", "properties": { "feature_type": "building", "subtype": "no-damage", "uid": "52b44483-ccac-4625-b952-80cf4d4ce3f0" }, "geometry": { "type": "Polygon", "coordinates": [ [ [ 578.372212266385304, 750.806661185642042 ], [ 570.3315515978544, 749.583082394448638 ], [ 568.933175826921911, 746.087142970992886 ], [ 568.583581883839202, 741.192827780798439 ], [ 566.835612176052223, 740.318842926459752 ], [ 567.709597030390569, 730.53021254607097 ], [ 572.429115251393341, 727.558664040099188 ], [ 599.697442733544563, 731.404197400409657 ], [ 599.697442735959612, 733.152167111120775 ], [ 610.884448884226799, 733.676558024537485 ], [ 611.234042824386052, 734.550542878876172 ], [ 611.377164648162989, 739.340454708266975 ], [ 609.312443445318536, 740.114725157856356 ], [ 608.796263142541989, 748.270373904309281 ], [ 608.021992693080051, 748.889790265404372 ], [ 603.737696198388448, 748.734936174876339 ], [ 603.169897872045453, 747.805811634759038 ], [ 603.376369992240939, 745.947562551473879 ], [ 581.02576298375061, 744.966819981180606 ], [ 580.767672832235235, 747.186395273663948 ], [ 579.786930261560997, 747.599339512021402 ], [ 579.322367993790408, 748.941408297613975 ], [ 578.372212266385304, 750.806661185642042 ] ] ] } },
{ "type": "Feature", "properties": { "feature_type": "building", "subtype": "no-damage", "uid": "42a4708d-e804-49b1-98d6-b32476f4dad9" }, "geometry": { "type": "Polygon", "coordinates": [ [ [ 237.844455939066108, 574.485586137406472 ], [ 217.097071863080714, 561.769447511193675 ], [ 215.981621102417591, 556.41528388156587 ], [ 226.689948370566697, 542.137514194084815 ], [ 230.928661247409906, 542.137514192051071 ], [ 234.721193819581202, 544.368415709310739 ], [ 234.275013514146593, 539.906612678858892 ], [ 277.331412725097209, 481.233902878851495 ], [ 282.239396052338918, 483.018624086354805 ], [ 292.055362715465492, 490.157508932637427 ], [ 293.393903619567311, 493.950041503030604 ], [ 271.084888489050797, 522.282490722606212 ], [ 285.585748323142923, 536.337170258768083 ], [ 285.585748325303712, 539.014252075615673 ], [ 260.153471071743411, 574.262495986087174 ], [ 262.161282430819426, 576.270307349993914 ], [ 254.130036986253486, 587.201724764636083 ], [ 246.098791538510113, 590.771167184726892 ], [ 235.836644575414311, 581.624470979621719 ], [ 237.844455939066108, 574.485586137406472 ] ] ] } },
{ "type": "Feature", "properties": { "feature_type": "building", "subtype": "no-damage", "uid": "5cbb14e8-7bd8-402b-89a9-2403569fb0ba" }, "geometry": { "type": "Polygon", "coordinates": [ [ [ 233.523680378918812, 638.629087760929792 ], [ 226.830975840615508, 619.443334745442485 ], [ 227.054065991426199, 616.320072626973342 ], [ 256.725056121067212, 606.057925665272023 ], [ 260.740678841125714, 609.181187783741166 ], [ 262.302309903156072, 615.204621868343565 ], [ 260.96376899397012, 618.104793836510339 ], [ 252.040162940060299, 622.343506712592443 ], [ 255.832695515282097, 632.605653674293762 ], [ 254.047974304347605, 635.505825639410091 ], [ 237.093122799770896, 640.413808970466789 ], [ 233.523680378918812, 638.629087760929792 ] ] ] } },
{ "type": "Feature", "properties": { "feature_type": "building", "subtype": "no-damage", "uid": "d5ae4efa-e1cb-4f20-aeae-fdac80e2f995" }, "geometry": { "type": "Polygon", "coordinates": [ [ [ 124.831221162123398, 487.715280734224109 ], [ 133.754827214380811, 472.098970137810682 ], [ 140.670621907943598, 470.314248930307485 ], [ 164.767076193114008, 488.665452332038114 ], [ 164.630118194512789, 494.965520364298982 ], [ 160.521378171396606, 507.154782415730722 ], [ 168.601900212163997, 514.550514456122301 ], [ 168.738858213053192, 514.550514454088557 ], [ 168.191026208606701, 519.481002478982646 ], [ 165.177950193493587, 524.548448502477981 ], [ 143.812502096092203, 517.56359046704199 ], [ 140.114636078694105, 513.454850446974774 ], [ 144.634250098630986, 504.415622407097828 ], [ 124.775340005290701, 490.856780346265623 ], [ 124.831221162123398, 487.715280734224109 ] ] ] } },
{ "type": "Feature", "properties": { "feature_type": "building", "subtype": "no-damage", "uid": "189b661f-149a-4efc-a124-7fec9c093c53" }, "geometry": { "type": "Polygon", "coordinates": [ [ [ 302.391068769324193, 314.047913600730112 ], [ 300.473656763612382, 323.498015644545774 ], [ 297.597538747354918, 325.689343650638477 ], [ 279.519082663540075, 318.430569616983007 ], [ 278.149502653885804, 316.102283607204697 ], [ 280.751704670017375, 308.569593573296004 ], [ 279.245166663668385, 306.789139567074585 ], [ 279.656040662395583, 299.530365531385428 ], [ 282.395200676111585, 298.434701525288517 ], [ 286.914814695158782, 299.667323529986675 ], [ 288.0104787016366, 300.489071531762988 ], [ 288.147436702398579, 306.652181563388979 ], [ 301.569320767929526, 311.993543589171281 ], [ 302.391068769324193, 314.047913600730112 ] ] ] } }
]
}
