{
"type": "FeatureCollection",
"name": "socal-fire_00000648_post_disaster",
"features": [
{ "type": "Feature", "properties": { "feature_type": "building", "subtype": "no-damage", "uid": "8767992d-383a-4dbf-8b45-b945a7ade359" }, "geometry": { "type": "Polygon", "coordinates": [ [ [ 228.541096447084811, 1022.980506398072976 ], [ 225.490692468922703, 1017.924850092000042 ], [ 238.510504969608689, 1006.25631745053397 ], [ 247.92426466057799, 1017.519000405742986 ], [ 253.019287903401704, 1015.373727461020962 ], [ 261.561439045200018, 1022.981048157938972 ], [ 228.541096447084811, 1022.980506398072976 ] ] ] } },
{ "type": "Feature", "properties": { "feature_type": "building", "subtype": "no-damage", "uid": "4c6aa099-4fa1-4999-8247-eec5c9de93d1" }, "geometry": { "type": "Polygon", "coordinates": [ [ [ 261.332220557458584, 975.149859767333282 ], [ 272.594903513432314, 973.272745941465132 ], [ 274.203858223117891, 964.423495047795768 ], [ 307.991907085316882, 960.401108280258086 ], [ 327.659150585325392, 962.268041227243884 ], [ 327.299363574332574, 983.999110658968107 ], [ 312.550612087509592, 985.071747130311564 ], [ 308.579129702049215, 1002.305196814827013 ], [ 258.918788499987386, 992.312043316965742 ], [ 261.332220557458584, 975.149859767333282 ] ] ] } },
{ "type": "Feature", "properties": { "feature_type": "building", "subtype": "no-damage", "uid": "f096e886-aa86-44d8-992b-0f4e64cebba2" }, "geometry": { "type": "Polygon", "coordinates": [ [ [ 161.079687162013698, 971.885188783457465 ], [ 172.43891128219289, 966.287889941708045 ], [ 169.640261860555, 954.764039379001929 ], [ 176.060692887735314, 951.800763523101182 ], [ 172.438911284608992, 942.746309508674472 ], [ 178.530089438558207, 937.149010667942434 ], [ 177.213077944616401, 931.222458952071861 ], [ 189.395434249335807, 925.954412980374627 ], [ 192.194083671991109, 932.045591133814355 ], [ 208.656727328460704, 925.295907234166862 ], [ 219.192819272365199, 948.67286123064855 ], [ 198.449888261983602, 965.135504884827128 ], [ 205.528825036389094, 979.293378428295568 ], [ 187.584543450061489, 989.994096807224651 ], [ 168.323250369792191, 995.92064852309511 ], [ 161.079687162013698, 971.885188783457465 ] ] ] } },
{ "type": "Feature", "properties": { "feature_type": "building", "subtype": "no-damage", "uid": "830463f7-b8fe-4c5f-87cb-81084436fb68" }, "geometry": { "type": "Polygon", "coordinates": [ [ [ 384.626837310853375, 1022.98260036927195 ], [ 384.603062051471113, 1016.746814355866036 ], [ 399.748694213744727, 1009.503251142494037 ], [ 398.267056283123793, 1000.448797134170945 ], [ 426.582803373370609, 988.266440828308646 ], [ 438.765159678471377, 1016.746814353831951 ], [ 431.790947238928084, 1022.98300009219497 ], [ 384.626837310853375, 1022.98260036927195 ] ] ] } },
{ "type": "Feature", "properties": { "feature_type": "building", "subtype": "no-damage", "uid": "12451241-f488-44d7-8845-6fb81135dd8a" }, "geometry": { "type": "Polygon", "coordinates": [ [ [ 507.736231501242514, 1022.983416472865997 ], [ 505.122582691701496, 1011.809419048468953 ], [ 507.223679546425899, 1007.607225335460953 ], [ 505.963021430793788, 997.101741048361191 ], [ 525.083002832819034, 991.848998904811424 ], [ 545.253532658773224, 992.26921827702779 ], [ 547.774848888638758, 1006.556676904919982 ], [ 552.187152286866194, 1007.187005963244019 ], [ 553.627546700799826, 1022.983532172763944 ], [ 507.736231501242514, 1022.983416472865997 ] ] ] } },
{ "type": "Feature", "properties": { "feature_type": "building", "subtype": "no-damage", "uid": "767020bd-9233-4efb-b53d-e00efd9d54d0" }, "geometry": { "type": "Polygon", "coordinates": [ [ [ 576.767012607672882, 1022.983551683948008 ], [ 577.190204884663103, 1002.984812247183982 ], [ 584.964263256298864, 995.210753877456341 ], [ 588.326018223858, 998.362399163993132 ], [ 596.100076595493761, 989.958011733906574 ], [ 628.877187567088185, 1009.918431875530018 ], [ 630.592577220621138, 1022.983496373097978 ], [ 576.767012607672882, 1022.983551683948008 ] ] ] } },
{ "type": "Feature", "properties": { "feature_type": "building", "subtype": "no-damage", "uid": "8f09da69-c905-42d1-ba72-228406e3ac4e" }, "geometry": { "type": "Polygon", "coordinates": [ [ [ 661.049044579934844, 1022.983402682792985 ], [ 658.575022522723771, 1005.734633502181055 ], [ 655.776373100704291, 979.394403648781122 ], [ 675.860798360173135, 975.937248478138258 ], [ 678.000942037892059, 987.954978347448446 ], [ 694.134332821003454, 986.473340422549882 ], [ 695.61597074780957, 1002.277478332555006 ], [ 698.414620170719104, 1002.112851894985965 ], [ 699.289564196608012, 1022.983221188090056 ], [ 661.049044579934844, 1022.983402682792985 ] ] ] } },
{ "type": "Feature", "properties": { "feature_type": "building", "subtype": "no-damage", "uid": "5e577d05-b8fb-415f-98d5-f1931b0b89d3" }, "geometry": { "type": "Polygon", "coordinates": [ [ [ 733.482971096923052, 685.546441496864759 ], [ 747.194408702532655, 683.284943590285934 ], [ 756.413489145883091, 688.552989556896705 ], [ 759.376765004327353, 704.0278745958326 ], [ 753.779466163340203, 713.905460788950109 ], [ 735.34130526811964, 717.691868831679699 ], [ 729.25012711404338, 705.344886090282898 ], [ 727.439236310445608, 692.010144727539682 ], [ 733.482971096923052, 685.546441496864759 ] ] ] } },
{ "type": "Feature", "properties": { "feature_type": "building", "subtype": "no-damage", "uid": "cd880642-945d-4fe6-ad6b-937728813a2f" }, "geometry": { "type": "Polygon", "coordinates": [ [ [ 169.453778748154008, 731.893785182548072 ], [ 190.04093975552189, 730.518636422472127 ], [ 188.723928261198694, 745.828895022821484 ], [ 216.381169609306596, 744.676509968992377 ], [ 213.911773057084986, 794.393693810735613 ], [ 197.11987652992741, 795.710705303151258 ], [ 196.461370780540506, 778.918808774851527 ], [ 184.791785807860492, 778.538135408033213 ], [ 183.321018005865795, 787.782961577466267 ], [ 166.93246252223031, 786.102084093686926 ], [ 169.453778748154008, 731.893785182548072 ] ] ] } },
{ "type": "Feature", "properties": { "feature_type": "building", "subtype": "no-damage", "uid": "f9ba41aa-9380-4484-993d-58a195e9e0cb" }, "geometry": { "type": "Polygon", "coordinates": [ [ [ 199.260020206247589, 732.329527224543654 ], [ 206.174330538887602, 732.000274350422501 ], [ 206.503583414661904, 730.024757110781707 ], [ 214.57027880647189, 729.695504237677824 ], [ 214.405652365850813, 742.042486983143704 ], [ 200.412405261729987, 742.865619166920737 ], [ 199.260020206247589, 732.329527224543654 ] ] ] } },
{ "type": "Feature", "properties": { "feature_type": "building", "subtype": "no-damage", "uid": "2b12523b-ef1c-4571-a514-fb37c9319fae" }, "geometry": { "type": "Polygon", "coordinates": [ [ [ 224.066467912168093, 732.032170698045434 ], [ 258.018724365536116, 731.014348560675785 ], [ 259.489492166386299, 745.091697499407587 ], [ 269.784866765090214, 745.722026558749462 ], [ 269.364647392110783, 758.538717383883863 ], [ 279.660021992340489, 758.328607701844703 ], [ 280.067247699005691, 772.629675613581867 ], [ 248.623598311982391, 773.617434233910785 ], [ 247.800466132020006, 768.020135389109669 ], [ 247.155520525608097, 763.11854880118301 ], [ 241.479999212809304, 762.860570559177745 ], [ 240.443043138024905, 785.579689871094388 ], [ 221.077640961237989, 786.065052154202704 ], [ 222.131631103867988, 774.985547909009256 ], [ 224.066467911023693, 758.603929576772771 ], [ 223.16354406985451, 747.252886948887863 ], [ 224.066467912168093, 732.032170698045434 ] ] ] } },
{ "type": "Feature", "properties": { "feature_type": "building", "subtype": "no-damage", "uid": "fddf5a80-b81d-4d58-9e49-66a3b6577a1f" }, "geometry": { "type": "Polygon", "coordinates": [ [ [ 148.4162797971575, 717.105859210282119 ], [ 163.417110446893901, 731.717056613635577 ], [ 159.004807046377607, 741.802321528518746 ], [ 162.996891074550206, 751.887586440349992 ], [ 157.323929564759709, 762.1829610413414 ], [ 163.837329816821494, 767.435703183873898 ], [ 153.541955219134906, 781.723161810748479 ], [ 147.38431541225799, 777.750491068164479 ], [ 148.4162797971575, 717.105859210282119 ] ] ] } },
{ "type": "Feature", "properties": { "feature_type": "building", "subtype": "no-damage", "uid": "86204764-3951-4090-96e8-c6f7c6f711f0" }, "geometry": { "type": "Polygon", "coordinates": [ [ [ 316.544098087719419, 765.969901697688215 ], [ 314.671746376409828, 754.332748418502433 ], [ 312.150430150104683, 744.667702875835744 ], [ 303.535933033145909, 740.885728531991617 ], [ 287.357487237017324, 737.734083250541175 ], [ 287.147377548874488, 717.563553422809491 ], [ 291.139461577555778, 712.310811280276994 ], [ 320.554817578412212, 709.789495052064808 ], [ 329.589534060848109, 713.781579075913555 ], [ 337.153482745485519, 719.034321221497862 ], [ 343.036553947233585, 728.489257075004616 ], [ 343.87699268670741, 733.111670164298744 ], [ 346.608418603062603, 734.162218592805289 ], [ 346.608418605097086, 740.465509162827061 ], [ 353.121818857540291, 743.407044763255612 ], [ 354.592586658136327, 756.013625904316314 ], [ 347.238747660751528, 758.11472276031202 ], [ 342.406224888654492, 754.963077475809769 ], [ 339.884908662858095, 760.636038988524206 ], [ 316.544098087719419, 765.969901697688215 ] ] ] } },
{ "type": "Feature", "properties": { "feature_type": "building", "subtype": "no-damage", "uid": "5221716b-b797-4ec3-8164-88e0d29d6c5f" }, "geometry": { "type": "Polygon", "coordinates": [ [ [ 528.270280240612351, 442.996022810962586 ], [ 575.466285002998006, 435.21940838761941 ], [ 582.170262954362897, 466.862184308525798 ], [ 553.209078214227134, 473.029844021802091 ], [ 556.158828509913178, 484.828845213700276 ], [ 520.493665822481603, 490.72834580710628 ], [ 514.862324343731757, 457.208456061349011 ], [ 528.80659847691993, 453.722387527448291 ], [ 528.270280240612351, 442.996022810962586 ] ] ] } },
{ "type": "Feature", "properties": { "feature_type": "building", "subtype": "no-damage", "uid": "a5647430-e3a3-42b8-84ab-c37406a7b431" }, "geometry": { "type": "Polygon", "coordinates": [ [ [ 539.798150428314102, 540.747840295903529 ], [ 537.43133324211783, 515.55322615205489 ], [ 518.334666601325125, 517.364116954126416 ], [ 515.536017180704334, 493.98716296374829 ], [ 582.374350427293621, 481.31092734721301 ], [ 585.831505592596386, 492.670151469298105 ], [ 585.728926231784499, 501.566748394502781 ], [ 559.717949255935764, 506.011662179371228 ], [ 560.541081439204277, 516.053874810057891 ], [ 585.399673357536017, 512.596719642466837 ], [ 589.84458714494815, 533.01039777694416 ], [ 539.798150428314102, 540.747840295903529 ] ] ] } },
{ "type": "Feature", "properties": { "feature_type": "building", "subtype": "no-damage", "uid": "e5ba8fd6-7251-42e7-90df-41064f0731e1" }, "geometry": { "type": "Polygon", "coordinates": [ [ [ 567.061515530091356, 544.331378190907458 ], [ 567.800019350167531, 549.164306364565618 ], [ 569.775536587011175, 545.871777634543719 ], [ 578.585457746662541, 546.032672059698029 ], [ 584.300297005261427, 552.962593071492961 ], [ 584.794176312501349, 563.004805703197007 ], [ 580.349262527505289, 563.827937885956771 ], [ 581.995526889337498, 583.41848383665706 ], [ 587.263572860526779, 588.521903370785026 ], [ 588.554597021967083, 596.683725581487693 ], [ 587.566838404689747, 599.482375004905521 ], [ 572.585832678332395, 604.091915226325796 ], [ 572.091953367786346, 607.384443960416775 ], [ 548.714999373590331, 611.500104875232978 ], [ 543.920359525772369, 593.301758765738782 ], [ 541.21516498774281, 589.768274684334415 ], [ 539.075021313838647, 571.659366662601656 ], [ 540.39203280523725, 570.013102297082128 ], [ 537.75800982053272, 550.916435654003067 ], [ 567.061515530091356, 544.331378190907458 ] ] ] } },
{ "type": "Feature", "properties": { "feature_type": "building", "subtype": "no-damage", "uid": "4fbca5da-c034-4865-9253-27e65f5a2ad6" }, "geometry": { "type": "Polygon", "coordinates": [ [ [ 407.406909727759398, 492.711924759774092 ], [ 407.827129097432703, 501.536531561059803 ], [ 420.013490870220608, 502.587079987531808 ], [ 422.324697412197679, 520.86662263927235 ], [ 403.835045067606984, 520.446403273159603 ], [ 404.255264439060511, 518.345306413094704 ], [ 391.438573614432983, 517.504867672730938 ], [ 389.757696124677011, 518.765525783276644 ], [ 372.108482528715513, 518.555416102254753 ], [ 370.847824414990725, 514.143112700086022 ], [ 348.996417104748275, 511.201577100674683 ], [ 350.046965531983403, 490.610827901743789 ], [ 370.217495355140215, 487.249072928081603 ], [ 389.967805811420988, 489.350169788146388 ], [ 407.406909727759398, 492.711924759774092 ] ] ] } },
{ "type": "Feature", "properties": { "feature_type": "building", "subtype": "no-damage", "uid": "88acd09b-82b6-47aa-9a83-61c009cd15c7" }, "geometry": { "type": "Polygon", "coordinates": [ [ [ 382.98931512107788, 481.24831186607372 ], [ 384.15911014394851, 476.274894039150581 ], [ 387.082097222721984, 475.6780778687056 ], [ 408.066951879766577, 478.053721789960889 ], [ 407.987763753372974, 488.664931316973309 ], [ 396.426296655847807, 489.140060103055475 ], [ 388.745047968669212, 487.239544963813216 ], [ 382.98931512107788, 481.24831186607372 ] ] ] } },
{ "type": "Feature", "properties": { "feature_type": "building", "subtype": "no-damage", "uid": "c3d9fdd2-94f4-4d04-9b18-f65c48eced3e" }, "geometry": { "type": "Polygon", "coordinates": [ [ [ 377.499918930507306, 397.284016364788272 ], [ 443.894579606684715, 410.941145934355518 ], [ 435.70030186562991, 440.986830987810322 ], [ 390.736829126588304, 431.952114504485507 ], [ 387.795293526032196, 448.760889358555005 ], [ 365.523666843700482, 443.928366590273413 ], [ 369.9359702438353, 424.388165817814524 ], [ 364.893337788173312, 415.773668704671593 ], [ 370.356189617068992, 395.603138877957122 ], [ 377.499918930507306, 397.284016364788272 ] ] ] } },
{ "type": "Feature", "properties": { "feature_type": "building", "subtype": "no-damage", "uid": "cbc8a16f-0cfb-4ce6-83b4-6ee6522ecb70" }, "geometry": { "type": "Polygon", "coordinates": [ [ [ 512.200156101138759, 385.813607759244917 ], [ 560.468797332197596, 377.768834217048607 ], [ 569.854366460268352, 429.523543985816275 ], [ 540.893181721785595, 432.741453398829208 ], [ 523.462839050881712, 436.763840167384217 ], [ 520.781247873158577, 421.746929562473099 ], [ 527.217066702237162, 420.674293093164181 ], [ 526.14443023292813, 406.461859840743386 ], [ 515.686224634531072, 407.26633719323371 ], [ 512.200156101138759, 385.813607759244917 ] ] ] } },
{ "type": "Feature", "properties": { "feature_type": "building", "subtype": "no-damage", "uid": "f3593dc2-de10-4bc9-897a-c161b7acbdeb" }, "geometry": { "type": "Polygon", "coordinates": [ [ [ 514.345429043062836, 333.522579756840116 ], [ 562.871156299841346, 315.476651926867817 ], [ 566.272563588406456, 323.733078579352025 ], [ 576.29018529265295, 359.53401419607269 ], [ 551.61954644107027, 365.701673912400793 ], [ 545.988204960158782, 343.444467120835498 ], [ 521.317566110102007, 351.75739977781592 ], [ 514.345429043062836, 333.522579756840116 ] ] ] } },
{ "type": "Feature", "properties": { "feature_type": "building", "subtype": "no-damage", "uid": "32db11fe-ab1f-4bd4-8401-ecb58e8c8870" }, "geometry": { "type": "Polygon", "coordinates": [ [ [ 417.122915047025174, 299.460565227702773 ], [ 451.715441261587387, 339.148114682667426 ], [ 448.497531844759408, 373.740640900785422 ], [ 419.804506224621207, 374.545118254292902 ], [ 422.486097403107124, 349.338161166533212 ], [ 396.206503846670785, 316.622748774283423 ], [ 417.122915047025174, 299.460565227702773 ] ] ] } },
{ "type": "Feature", "properties": { "feature_type": "building", "subtype": "no-damage", "uid": "10b5f7b8-ccdd-4460-8b18-5cf9be0f89a1" }, "geometry": { "type": "Polygon", "coordinates": [ [ [ 520.994907961519402, 225.664895252591805 ], [ 510.000384121601314, 228.88280466865649 ], [ 508.927747652038022, 239.341010270358197 ], [ 522.335703548409924, 240.145487622848492 ], [ 525.821772080785081, 262.939012647033678 ], [ 505.97799735241, 267.76587677214809 ], [ 495.787950872993292, 273.129059133951387 ], [ 479.162085556487227, 262.402694412379276 ], [ 477.821289967562109, 255.430557346612687 ], [ 480.77104026553701, 248.19026115995851 ], [ 488.0113364513021, 244.436033510256607 ], [ 487.743177333847711, 232.368873201539799 ], [ 483.720790565292191, 230.491759375671592 ], [ 482.379994975349803, 223.251463194103707 ], [ 496.59242822344919, 205.552961406765007 ], [ 518.581475896673055, 204.212165817585799 ], [ 520.994907961519402, 225.664895252591805 ] ] ] } },
{ "type": "Feature", "properties": { "feature_type": "building", "subtype": "no-damage", "uid": "59c0f299-190a-4ad1-ae89-1295b572e09e" }, "geometry": { "type": "Polygon", "coordinates": [ [ [ 226.922901724968398, 377.913379527291795 ], [ 256.013857458661107, 405.977595645650581 ], [ 241.639502861841692, 417.956224478493425 ], [ 233.083339407412211, 431.646086001306401 ], [ 202.623397521641493, 407.004335258818912 ], [ 211.179560972637802, 390.918747968216621 ], [ 226.922901724968398, 377.913379527291795 ] ] ] } },
{ "type": "Feature", "properties": { "feature_type": "building", "subtype": "no-damage", "uid": "c6d54e80-2017-4a5b-b05e-dcbaa0836e41" }, "geometry": { "type": "Polygon", "coordinates": [ [ [ 237.965506513195692, 427.933348741101383 ], [ 242.674454780961099, 418.672931795853117 ], [ 250.292623754590096, 411.778488877460688 ], [ 268.586023712754184, 420.360532659711282 ], [ 267.76289153228322, 425.793205066943187 ], [ 278.628236345095388, 425.134699320735422 ], [ 280.43912714869299, 436.000044133164579 ], [ 270.067661644010911, 441.103463670344524 ], [ 270.232288078782688, 448.840906184217374 ], [ 244.879816848760413, 453.615072844224187 ], [ 244.879816846980191, 434.353779765610625 ], [ 237.965506513195692, 427.933348741101383 ] ] ] } },
{ "type": "Feature", "properties": { "feature_type": "building", "subtype": "no-damage", "uid": "431ec80f-ae0e-48ba-a02f-ab2b066e9701" }, "geometry": { "type": "Polygon", "coordinates": [ [ [ 266.909639773432673, 324.835512915539027 ], [ 304.058506551236576, 359.53358639759432 ], [ 294.756022792482497, 380.064848210876676 ], [ 276.955524129469211, 398.897259835550585 ], [ 264.701557658633476, 389.739032264201626 ], [ 276.181589402181828, 373.228424809436603 ], [ 264.701557655835984, 364.070197239104914 ], [ 249.99679789307109, 379.677880850412009 ], [ 231.680342744902788, 361.877382185620775 ], [ 266.909639773432673, 324.835512915539027 ] ] ] } },
{ "type": "Feature", "properties": { "feature_type": "building", "subtype": "no-damage", "uid": "9c5a0a62-3dbd-4a6c-b05c-116d1b5c8528" }, "geometry": { "type": "Polygon", "coordinates": [ [ [ 281.169423964941984, 308.713468260322713 ], [ 300.266090605989007, 287.641284376585588 ], [ 309.814423928547001, 295.049474027527424 ], [ 318.539625063894619, 283.031744156182583 ], [ 343.562843423610389, 307.561083203441683 ], [ 316.564107826415295, 339.827864773729118 ], [ 281.169423964941984, 308.713468260322713 ] ] ] } },
{ "type": "Feature", "properties": { "feature_type": "building", "subtype": "no-damage", "uid": "a995a0fd-3e08-47c2-b184-b260384e2b0f" }, "geometry": { "type": "Polygon", "coordinates": [ [ [ 340.848855407909411, 243.489793590986693 ], [ 349.988292958762599, 232.385036154526603 ], [ 356.155952671276907, 217.636284666434108 ], [ 370.100226807516776, 227.29001291259371 ], [ 366.0778400345107, 235.066627333902403 ], [ 401.206684486016172, 258.932788834517396 ], [ 389.407683300474389, 276.363131499951123 ], [ 380.826591521333626, 270.731790021329175 ], [ 363.034815593580618, 293.925920212978212 ], [ 340.190349658649723, 274.274937230271973 ], [ 354.348223204663213, 255.342897024762294 ], [ 340.848855407909411, 243.489793590986693 ] ] ] } },
{ "type": "Feature", "properties": { "feature_type": "building", "subtype": "no-damage", "uid": "4fd97d0f-45ba-4c91-ba31-5416f7359d3e" }, "geometry": { "type": "Polygon", "coordinates": [ [ [ 408.189999306957475, 209.700000402105786 ], [ 395.562344561958184, 225.540073540959611 ], [ 417.015073996458511, 237.339074731840498 ], [ 410.8474142859788, 251.015189747572407 ], [ 382.154388663933219, 242.43409797377339 ], [ 375.986728949003009, 235.461960910041398 ], [ 376.722738644907679, 226.256251643391607 ], [ 395.799999309685518, 200.700000401556508 ], [ 408.189999306957475, 209.700000402105786 ] ] ] } },
{ "type": "Feature", "properties": { "feature_type": "building", "subtype": "no-damage", "uid": "09712024-bdc1-46fc-9797-3e9833d4a28b" }, "geometry": { "type": "Polygon", "coordinates": [ [ [ 429.086458971429181, 175.261517476584487 ], [ 424.295007439156109, 186.555653232625389 ], [ 444.145306647339282, 195.454063222911714 ], [ 423.952760900246517, 235.839154712514187 ], [ 412.658625143440986, 227.625237801064401 ], [ 420.530295516999615, 208.801678206306406 ], [ 413.000871683368018, 203.667980136396011 ], [ 408.509999308483714, 209.300000401787514 ], [ 395.679999306283889, 199.990000401627299 ], [ 393.835065549697788, 194.769570147127013 ], [ 394.519558628534412, 188.266885923612904 ], [ 398.626517081970917, 179.368475934343905 ], [ 411.974132064858907, 179.368475932309394 ], [ 415.396597449885974, 170.470065945074992 ], [ 429.086458971429181, 175.261517476584487 ] ] ] } },
{ "type": "Feature", "properties": { "feature_type": "building", "subtype": "no-damage", "uid": "8dce1c1b-762f-4c1c-861a-92d32d326ee4" }, "geometry": { "type": "Polygon", "coordinates": [ [ [ 369.113347356894792, 118.694486977200995 ], [ 394.440071342053386, 103.800385778929794 ], [ 417.71712713930782, 91.75642849583835 ], [ 430.375957838806585, 113.383288845000607 ], [ 399.123402390135823, 129.12662959821921 ], [ 410.525658633802323, 153.426133799253989 ], [ 389.40138004842521, 163.290966413313612 ], [ 369.113347356894792, 118.694486977200995 ] ] ] } },
{ "type": "Feature", "properties": { "feature_type": "building", "subtype": "no-damage", "uid": "730f6943-fb17-475f-94c4-f2cdf267c52f" }, "geometry": { "type": "Polygon", "coordinates": [ [ [ 387.993949313438975, 105.355267924871399 ], [ 371.211808556848382, 89.249707017839924 ], [ 356.508081042788376, 107.687867913693793 ], [ 342.731435028015085, 96.164017353022174 ], [ 334.829366072121275, 86.286431158887396 ], [ 357.547814322016677, 58.958442689227773 ], [ 372.858072923385521, 44.142063397516978 ], [ 402.655457940565611, 71.470051866159338 ], [ 405.783360237850673, 70.646919684416815 ], [ 414.307729948002873, 77.751596084226847 ], [ 387.993949313438975, 105.355267924871399 ] ] ] } },
{ "type": "Feature", "properties": { "feature_type": "building", "subtype": "no-damage", "uid": "f32b427c-2949-40a5-a1e2-a3a2569c0bdd" }, "geometry": { "type": "Polygon", "coordinates": [ [ [ 370.199985626142109, 40.644108846611601 ], [ 334.430842730195991, 80.687311998941823 ], [ 321.914901255440327, 68.639298415959303 ], [ 338.093347056782306, 49.519317019785888 ], [ 314.350952569785591, 30.819554994811622 ], [ 332.630495224707602, 12.75012202409291 ], [ 354.271792853292311, 31.65999373619265 ], [ 358.684096250375319, 26.827470965876561 ], [ 370.199985626142109, 40.644108846611601 ] ] ] } },
{ "type": "Feature", "properties": { "feature_type": "building", "subtype": "no-damage", "uid": "eadc45c7-38b8-419f-8ffc-2ac1c2bfc851" }, "geometry": { "type": "Polygon", "coordinates": [ [ [ 328.200568071752116, 0.005686556978003 ], [ 316.846563674607012, 12.374275748628801 ], [ 323.925500445324872, 16.65456310304879 ], [ 293.469609677359074, 46.287321685453101 ], [ 254.759460529555213, 14.051790990501219 ], [ 268.260434138720484, 0.004832588665831 ], [ 328.200568071752116, 0.005686556978003 ] ] ] } },
{ "type": "Feature", "properties": { "feature_type": "building", "subtype": "no-damage", "uid": "0af5068b-bcdc-40b3-b42e-f379d337da4d" }, "geometry": { "type": "Polygon", "coordinates": [ [ [ 265.192022021262517, 0.004784171835489 ], [ 257.832262385588592, 7.437950602211931 ], [ 248.018880652919506, 0.004504748892776 ], [ 265.192022021262517, 0.004784171835489 ] ] ] } },
{ "type": "Feature", "properties": { "feature_type": "building", "subtype": "no-damage", "uid": "394d5896-316e-4fff-8b2a-09d4b4f80eaf" }, "geometry": { "type": "Polygon", "coordinates": [ [ [ 155.649242062874606, 292.064180433140223 ], [ 159.193741847523512, 287.875225917098589 ], [ 166.159154369967098, 293.163779865490028 ], [ 183.57268566730221, 270.977651098817091 ], [ 207.306683884610891, 289.810062728577407 ], [ 178.155142595491412, 328.764777192020517 ], [ 169.254893268435296, 325.282070931562089 ], [ 160.612622174228989, 340.115819816853616 ], [ 154.877074688242999, 337.439231007014882 ], [ 155.649242062874606, 292.064180433140223 ] ] ] } },
{ "type": "Feature", "properties": { "feature_type": "building", "subtype": "no-damage", "uid": "5313f5a2-dfd2-450b-81ae-bd2693739e82" }, "geometry": { "type": "Polygon", "coordinates": [ [ [ 168.971395459816392, 231.988652106613301 ], [ 185.39922928386261, 214.534078663424594 ], [ 201.142570035557497, 227.881693650888394 ], [ 212.778952330509611, 213.165092513889903 ], [ 241.646303942566391, 233.813353862692196 ], [ 228.596214672455204, 250.459618457334102 ], [ 219.281636553007388, 242.256048248468687 ], [ 214.490185020098494, 247.389746319396409 ], [ 237.420703068677, 268.609031677874611 ], [ 224.415334622409887, 284.010125889640392 ], [ 168.971395459816392, 231.988652106613301 ] ] ] } },
{ "type": "Feature", "properties": { "feature_type": "building", "subtype": "no-damage", "uid": "ce05a9c3-752b-49dc-97e7-81894d9c528d" }, "geometry": { "type": "Polygon", "coordinates": [ [ [ 235.483376022801707, 175.686497389520298 ], [ 281.707506875822389, 128.411818107745091 ], [ 301.247707645232083, 145.850922021156407 ], [ 299.356720478141824, 149.422786675840598 ], [ 309.23187570399341, 162.449587190134991 ], [ 292.002881475034883, 181.989787959542099 ], [ 306.391627140641504, 194.282581226368393 ], [ 283.061783880654218, 218.416901843801895 ], [ 235.483376022801707, 175.686497389520298 ] ] ] } },
{ "type": "Feature", "properties": { "feature_type": "building", "subtype": "no-damage", "uid": "ee218bd5-6dcc-4e06-beae-e7eef1085607" }, "geometry": { "type": "Polygon", "coordinates": [ [ [ 207.53325761405759, 64.724943340194201 ], [ 228.06804989713541, 83.890749468266762 ], [ 215.404927991176606, 98.265104069916148 ], [ 241.00981519427441, 124.109959827057594 ], [ 204.703491593678507, 160.165830598222698 ], [ 161.886013172110296, 130.789650620287489 ], [ 158.555035437246602, 121.312528460005595 ], [ 158.680595289626609, 113.934395736248007 ], [ 207.53325761405759, 64.724943340194201 ] ] ] } },
{ "type": "Feature", "properties": { "feature_type": "building", "subtype": "no-damage", "uid": "210f85ac-57d7-4144-8e87-d5d6c26f9c5a" }, "geometry": { "type": "Polygon", "coordinates": [ [ [ 160.349412442079, 15.8721721952687 ], [ 170.433204860973404, 16.50240922041635 ], [ 175.685947003760901, 28.47866130315246 ], [ 165.390572406328602, 36.672939048148059 ], [ 177.5769341728857, 50.119958932624357 ], [ 188.712747517421292, 39.614474647559348 ], [ 205.311412687800811, 58.524346357624559 ], [ 164.550133658589488, 103.067599724062205 ], [ 159.035830197431807, 93.060160275570567 ], [ 160.349412442079, 15.8721721952687 ] ] ] } },
{ "type": "Feature", "properties": { "feature_type": "building", "subtype": "no-damage", "uid": "df134a8b-f561-4d4e-8e98-a0825d0f71d4" }, "geometry": { "type": "Polygon", "coordinates": [ [ [ 664.350566544692697, 122.525841898084707 ], [ 688.723290080858646, 164.127559665110994 ], [ 677.377367055937043, 172.321837409089397 ], [ 660.148372827614253, 181.986882947687008 ], [ 630.102687773392518, 154.672623809569814 ], [ 621.908410032210554, 140.175055496586992 ], [ 627.791481231415332, 126.728035612110702 ], [ 637.036307402502757, 128.198803410799087 ], [ 638.296965518389129, 133.451545552314286 ], [ 648.3822304294589, 132.190887437699587 ], [ 656.996727544383248, 124.416829072041295 ], [ 664.350566544692697, 122.525841898084707 ] ] ] } },
{ "type": "Feature", "properties": { "feature_type": "building", "subtype": "no-damage", "uid": "d3fb6084-bb00-4c81-a4e7-b634222049ce" }, "geometry": { "type": "Polygon", "coordinates": [ [ [ 661.829250311648138, 111.810247926911501 ], [ 665.401114971673451, 105.086737981621496 ], [ 688.303070709405233, 93.740814956192779 ], [ 690.194057881581784, 96.892460243746811 ], [ 696.707458141527354, 92.270047154452598 ], [ 718.979084821570268, 125.887596868695098 ], [ 689.56372882783478, 146.478346066608708 ], [ 679.268354229130978, 130.720119639011187 ], [ 673.595392712473881, 133.661655238422497 ], [ 661.829250311648138, 111.810247926911501 ] ] ] } },
{ "type": "Feature", "properties": { "feature_type": "building", "subtype": "no-damage", "uid": "36f2f0e1-356d-4f96-b563-1fe0e37c9d88" }, "geometry": { "type": "Polygon", "coordinates": [ [ [ 705.463551820744556, 97.242489030524169 ], [ 710.237718484693914, 85.883264911490841 ], [ 724.889471335149892, 68.762115509069901 ], [ 739.541224192853861, 78.968954571222255 ], [ 743.65688510589041, 90.986684444601551 ], [ 760.61340807099873, 114.199011996393196 ], [ 729.499011563310205, 130.497029221140707 ], [ 722.913954096271823, 126.545994741859104 ], [ 705.463551820744556, 97.242489030524169 ] ] ] } },
{ "type": "Feature", "properties": { "feature_type": "building", "subtype": "no-damage", "uid": "f159b712-edf7-492a-bda8-a7eca9a4285b" }, "geometry": { "type": "Polygon", "coordinates": [ [ [ 743.371528809049778, 0.006806103226878 ], [ 753.299388107286291, 15.708904157259569 ], [ 730.210335496389575, 31.8325442505426 ], [ 715.247597491873648, 7.195622186345942 ], [ 728.005250985864905, 0.006914023065041 ], [ 743.371528809049778, 0.006806103226878 ] ] ] } },
{ "type": "Feature", "properties": { "feature_type": "building", "subtype": "no-damage", "uid": "ea9e0581-0964-442e-9513-745f01df4882" }, "geometry": { "type": "Polygon", "coordinates": [ [ [ 765.992300590641094, 0.006626343982082 ], [ 769.399040292807172, 3.906042359187865 ], [ 753.825501186867768, 13.647260046660859 ], [ 745.019358866473112, 0.006793850243971 ], [ 765.992300590641094, 0.006626343982082 ] ] ] } },
{ "type": "Feature", "properties": { "feature_type": "building", "subtype": "no-damage", "uid": "eed702fb-8468-46be-b8a2-67097101722f" }, "geometry": { "type": "Polygon", "coordinates": [ [ [ 778.254252651385286, 18.163915053572101 ], [ 785.834228999344191, 13.312730194785329 ], [ 798.265390205709082, 31.403607073759801 ], [ 789.977949402186368, 36.557990989526857 ], [ 778.254252651385286, 18.163915053572101 ] ] ] } },
{ "type": "Feature", "properties": { "feature_type": "building", "subtype": "no-damage", "uid": "82c8e62c-93a7-459a-98e0-e0a216fb2ed2" }, "geometry": { "type": "Polygon", "coordinates": [ [ [ 575.424649431675562, 47.010294953455521 ], [ 606.730992601148046, 26.83976512979288 ], [ 608.411870082511655, 33.353165384905552 ], [ 614.925270343728812, 40.076675328160967 ], [ 622.909438399311171, 53.523695211620002 ], [ 621.018451227897458, 66.550495722862621 ], [ 605.470334484371506, 75.795321898399251 ], [ 599.797372971783489, 68.861702265983823 ], [ 592.65364365720086, 72.433566925754278 ], [ 575.424649431675562, 47.010294953455521 ] ] ] } },
{ "type": "Feature", "properties": { "feature_type": "building", "subtype": "no-damage", "uid": "c6c4db03-6237-4576-94f1-9ee0361ab1e7" }, "geometry": { "type": "Polygon", "coordinates": [ [ [ 614.154453768145686, 33.721184505751857 ], [ 627.86251274685344, 24.9844837288876 ], [ 633.724438027651104, 33.96819061406547 ], [ 620.718949539790287, 42.693391752336538 ], [ 614.154453768145686, 33.721184505751857 ] ] ] } },
{ "type": "Feature", "properties": { "feature_type": "building", "subtype": "no-damage", "uid": "35a0c5aa-675d-413f-9820-8c2aaf1b159f" }, "geometry": { "type": "Polygon", "coordinates": [ [ [ 628.45639205671614, 21.621207873685862 ], [ 647.388432263118602, 10.591236620635581 ], [ 655.619754091353343, 24.090604418913429 ], [ 637.016966762123957, 34.791322799877072 ], [ 628.45639205671614, 21.621207873685862 ] ] ] } },
{ "type": "Feature", "properties": { "feature_type": "building", "subtype": "no-damage", "uid": "8c6f2ac1-f8c0-455e-aec8-bb7b62945ce3" }, "geometry": { "type": "Polygon", "coordinates": [ [ [ 624.675415057359942, 20.84911016735861 ], [ 627.042081721459681, 24.08244349995865 ], [ 616.708748391601034, 30.64911016549264 ], [ 614.442081725419257, 27.24911016634762 ], [ 624.675415057359942, 20.84911016735861 ] ] ] } },
{ "type": "Feature", "properties": { "feature_type": "building", "subtype": "no-damage", "uid": "242c06e8-454b-4251-8396-34e3cc0e2ef0" }, "geometry": { "type": "Polygon", "coordinates": [ [ [ 693.418212614296976, 0.007114926207698 ], [ 698.600762068191329, 9.757842179655333 ], [ 668.49123018561454, 29.49471236110816 ], [ 655.381338318182088, 14.511978791354609 ], [ 647.605750602869875, 0.007291489199087 ], [ 693.418212614296976, 0.007114926207698 ] ] ] } },
{ "type": "Feature", "properties": { "feature_type": "building", "subtype": "no-damage", "uid": "99ffb5c5-92fd-4c1c-9ec7-f345a2bbb0ae" }, "geometry": { "type": "Polygon", "coordinates": [ [ [ 772.038467980151268, 12.363221857175761 ], [ 787.851045366743278, 37.001423829615938 ], [ 764.867648001039584, 50.975329431603782 ], [ 762.109640314789885, 46.746384314570243 ], [ 740.413313203915436, 62.558961700778653 ], [ 726.623274783348734, 39.207829979225693 ], [ 750.526008046885067, 23.579119771134149 ], [ 761.374171602576666, 15.48896389838716 ], [ 772.038467980151268, 12.363221857175761 ] ] ] } },
{ "type": "Feature", "properties": { "feature_type": "building", "subtype": "no-damage", "uid": "e0234f1d-1bc5-45a9-94b7-1e46022f53f0" }, "geometry": { "type": "Polygon", "coordinates": [ [ [ 812.445350315198766, 941.99979329726068 ], [ 848.163996879846877, 970.574710552027113 ], [ 829.044015483798034, 992.636227550663648 ], [ 794.58602702791552, 964.90174903931279 ], [ 812.445350315198766, 941.99979329726068 ] ] ] } }
]
}
