{
"type": "FeatureCollection",
"name": "socal-fire_00000870_post_disaster",
"features": [
{ "type": "Feature", "properties": { "feature_type": "building", "subtype": "no-damage", "uid": "61924f7f-5e32-45bd-8e3b-085bd5974d91" }, "geometry": { "type": "Polygon", "coordinates": [ [ [ 1022.836862401927988, 997.716265621351567 ], [ 988.624798973397219, 994.381644753722298 ], [ 989.860958142103868, 975.83925721727519 ], [ 1022.836829492826951, 978.227340793013013 ], [ 1022.836862401927988, 997.716265621351567 ] ] ] } },
{ "type": "Feature", "properties": { "feature_type": "building", "subtype": "no-damage", "uid": "65f819a8-8e1b-43ce-8673-677152f9942b" }, "geometry": { "type": "Polygon", "coordinates": [ [ [ 911.158824372162144, 954.000445229587854 ], [ 950.715917785526358, 986.964689740974563 ], [ 926.404787456353574, 1012.511979235544004 ], [ 881.491004312901964, 978.311575557231436 ], [ 891.380277663445554, 964.713824696627739 ], [ 896.736967396457544, 968.834355259152403 ], [ 911.158824372162144, 954.000445229587854 ] ] ] } },
{ "type": "Feature", "properties": { "feature_type": "building", "subtype": "destroyed", "uid": "d45987fe-e1ec-40f4-93aa-3563c420e457" }, "geometry": { "type": "Polygon", "coordinates": [ [ [ 787.95496050843451, 904.142025410426186 ], [ 804.849135825240069, 909.910768197553693 ], [ 795.78396858216604, 932.573686299577048 ], [ 780.538005494032745, 925.156731281743077 ], [ 787.95496050843451, 904.142025410426186 ] ] ] } },
{ "type": "Feature", "properties": { "feature_type": "building", "subtype": "no-damage", "uid": "8667d852-e2af-4f42-b495-0f548052f2fd" }, "geometry": { "type": "Polygon", "coordinates": [ [ [ 799.904499144818374, 933.397792411878527 ], [ 853.883449530835378, 956.47276356852683 ], [ 834.516955884627464, 1004.682971166137008 ], [ 777.653634101994498, 981.60800000847189 ], [ 799.904499144818374, 933.397792411878527 ] ] ] } },
{ "type": "Feature", "properties": { "feature_type": "building", "subtype": "no-damage", "uid": "3e84d0fc-b02d-43d9-b845-6ef69ca039c6" }, "geometry": { "type": "Polygon", "coordinates": [ [ [ 1022.836491041431032, 672.942320866671139 ], [ 1017.048422137066041, 674.377045551259926 ], [ 1015.756073915316961, 670.930783629309644 ], [ 996.801633325260013, 673.946262811779093 ], [ 994.216936879346463, 659.730432369238201 ], [ 1011.017463767039999, 653.699473995143876 ], [ 1011.448246508173952, 646.376167402607166 ], [ 1014.46372569318703, 645.083819177043779 ], [ 1020.494684067409025, 648.530081105097679 ], [ 1022.83647865442299, 649.168130972931408 ], [ 1022.836491041431032, 672.942320866671139 ] ] ] } },
{ "type": "Feature", "properties": { "feature_type": "building", "subtype": "no-damage", "uid": "d79a65d1-8223-4cb4-b105-e315950797e3" }, "geometry": { "type": "Polygon", "coordinates": [ [ [ 981.724237393709927, 689.454441477848832 ], [ 994.216936878456295, 696.346965332939362 ], [ 992.063023172150793, 700.224009997422286 ], [ 990.77067495141921, 707.978099331474368 ], [ 986.032064802124751, 710.132013033964881 ], [ 982.155020136115468, 704.962620145953224 ], [ 982.585802875341983, 703.239489183960814 ], [ 978.708758212893144, 696.777748075472005 ], [ 981.724237393709927, 689.454441477848832 ] ] ] } }
]
}
