{
"type": "FeatureCollection",
"name": "socal-fire_00000158_post_disaster",
"features": [
{ "type": "Feature", "properties": { "feature_type": "building", "subtype": "no-damage", "uid": "afd5f863-a27d-4f63-b8e8-224fef1157db" }, "geometry": { "type": "Polygon", "coordinates": [ [ [ 882.745738232510348, 341.784630765163627 ], [ 895.83013234501675, 335.378729478083528 ], [ 905.644480406157072, 360.531796132556906 ], [ 895.75954818178252, 363.179545835645001 ], [ 891.170115362569277, 348.175630849106426 ], [ 884.638999425452766, 349.411247378773282 ], [ 882.745738232510348, 341.784630765163627 ] ] ] } },
{ "type": "Feature", "properties": { "feature_type": "building", "subtype": "no-damage", "uid": "5e345baf-6175-4203-a167-05cf2bf24b61" }, "geometry": { "type": "Polygon", "coordinates": [ [ [ 439.578877309564973, 253.367427398159691 ], [ 476.176351130780915, 239.631084042570308 ], [ 479.333538474799127, 250.681239756543903 ], [ 463.269535728934898, 256.619990484720006 ], [ 464.690518806012392, 261.337638540466628 ], [ 453.072653804733477, 264.373086670782925 ], [ 451.300808767956596, 261.238283918532716 ], [ 443.395653990700112, 263.419016265934715 ], [ 439.578877309564973, 253.367427398159691 ] ] ] } },
{ "type": "Feature", "properties": { "feature_type": "building", "subtype": "no-damage", "uid": "eaa58423-e2fb-423a-bea5-415e52c984b3" }, "geometry": { "type": "Polygon", "coordinates": [ [ [ 524.117031905691078, 176.065967106776412 ], [ 554.302791827121041, 175.51594323459409 ], [ 554.082318379085791, 190.599072302172601 ], [ 523.422420308923734, 190.7188375258539 ], [ 524.117031905691078, 176.065967106776412 ] ] ] } },
{ "type": "Feature", "properties": { "feature_type": "building", "subtype": "no-damage", "uid": "f8d1c9a5-c407-480a-b1b2-b8e2925fd4c2" }, "geometry": { "type": "Polygon", "coordinates": [ [ [ 368.295410787283572, 182.264935040696201 ], [ 373.602809116345725, 182.075457950891604 ], [ 373.602809113168178, 187.216565244051708 ], [ 382.314129807536915, 187.287969511249713 ], [ 382.099917005688781, 190.429757303547802 ], [ 383.313789563179512, 190.429757305581404 ], [ 383.21523412013488, 197.247947726339305 ], [ 378.664684643079397, 197.410467350615193 ], [ 378.745944452039794, 194.972672989528292 ], [ 368.019649254407511, 195.378972046658987 ], [ 368.295410787283572, 182.264935040696201 ] ] ] } },
{ "type": "Feature", "properties": { "feature_type": "building", "subtype": "no-damage", "uid": "e7b35f65-dac8-4b01-9b5b-9cb100ea05fc" }, "geometry": { "type": "Polygon", "coordinates": [ [ [ 514.100787007951226, 179.36022113907859 ], [ 512.778470835944177, 170.897397654098711 ], [ 510.662764966350778, 153.44282421035399 ], [ 527.323948705652128, 148.946949232496792 ], [ 526.266095765580644, 141.013052217234701 ], [ 532.877676616210579, 138.103956639379504 ], [ 533.142139849417163, 135.988250769659686 ], [ 534.199992788471832, 133.872544898923195 ], [ 536.580161889492501, 132.814691962538092 ], [ 543.456205974727141, 132.814691961521305 ], [ 550.332250058055138, 147.889096300178892 ], [ 548.481007418999297, 149.211412469897709 ], [ 545.836375082356994, 152.913897743686704 ], [ 545.571911846099965, 156.6163830195093 ], [ 546.365301550041409, 169.046155015679005 ], [ 541.076036866715867, 169.839544717713608 ], [ 539.224794229312238, 168.25276531466119 ], [ 534.199992788217628, 170.36847118641461 ], [ 533.67106631799129, 172.219713820766998 ], [ 514.100787007951226, 179.36022113907859 ] ] ] } },
{ "type": "Feature", "properties": { "feature_type": "building", "subtype": "no-damage", "uid": "b067f144-7870-4125-af67-ae461b3c39c7" }, "geometry": { "type": "Polygon", "coordinates": [ [ [ 485.421586957266697, 182.620829049852688 ], [ 487.075334347529008, 184.0201537589015 ], [ 487.075334344351404, 185.546689806523091 ], [ 486.820911669874818, 188.090916551542307 ], [ 486.312066322065618, 189.617452601197499 ], [ 481.732458175258898, 190.25350928694391 ], [ 479.442654101792073, 189.617452602214314 ], [ 478.55217474093331, 187.454859865795896 ], [ 478.93380875538088, 184.0201537589015 ], [ 480.8419788149086, 182.493617708229493 ], [ 482.11409218868971, 182.111983698611908 ], [ 483.513416898628691, 182.111983698611908 ], [ 485.421586957266697, 182.620829049852688 ] ] ] } },
{ "type": "Feature", "properties": { "feature_type": "building", "subtype": "no-damage", "uid": "d31a2365-0ccc-4a2d-b4ae-9c066d54edce" }, "geometry": { "type": "Polygon", "coordinates": [ [ [ 845.580747461870828, 202.456571763172093 ], [ 845.743104947292636, 205.216649000343494 ], [ 845.093675006749436, 207.002581330576987 ], [ 844.281887587012307, 208.301441203782701 ], [ 842.008882803054803, 208.463798688441813 ], [ 840.872380416287228, 208.301441203782701 ], [ 838.274660664155249, 205.866078937963209 ], [ 837.949945692930442, 203.755431642478698 ], [ 838.437018147670528, 202.618929246814389 ], [ 840.060592991720341, 201.320069373608703 ], [ 843.470100166385578, 201.157711888949592 ], [ 844.119530102607314, 201.157711889966407 ], [ 845.580747461870828, 202.456571763172093 ] ] ] } },
{ "type": "Feature", "properties": { "feature_type": "building", "subtype": "destroyed", "uid": "19cdaf9a-4e65-4486-8353-48622d52c94c" }, "geometry": { "type": "Polygon", "coordinates": [ [ [ 903.784785390289585, 768.796521467032449 ], [ 912.400440205859695, 781.720003689937812 ], [ 904.21556813149391, 783.443134650687171 ], [ 900.338523462434637, 800.243661541379311 ], [ 888.707389463137361, 798.520530582663696 ], [ 886.553475757370052, 781.720003686887367 ], [ 896.461478797696941, 774.827479836772568 ], [ 896.03069605814494, 772.242783389547753 ], [ 899.907740725043482, 768.365738724811422 ], [ 903.784785390289585, 768.796521467032449 ] ] ] } },
{ "type": "Feature", "properties": { "feature_type": "building", "subtype": "destroyed", "uid": "a3eced63-c5e7-45fe-bdac-d1ed6408a1c1" }, "geometry": { "type": "Polygon", "coordinates": [ [ [ 991.382781548435105, 822.923935396702177 ], [ 990.139498366406428, 829.554779038592301 ], [ 985.166365632063616, 829.140351309004132 ], [ 984.130296313558006, 826.653784945710186 ], [ 985.580793361906103, 821.473438347210617 ], [ 991.382781548435105, 822.923935396702177 ] ] ] } },
{ "type": "Feature", "properties": { "feature_type": "building", "subtype": "destroyed", "uid": "6bb60651-4be0-407d-93e3-acc5006c2eff" }, "geometry": { "type": "Polygon", "coordinates": [ [ [ 6.529114259850355, 908.665582539855677 ], [ 9.566880201759577, 908.665582541889307 ], [ 12.26711660085223, 909.003112090679565 ], [ 12.765483655977439, 909.30213232286485 ], [ 13.954764345947799, 912.378407583665648 ], [ 13.95476434696462, 915.416173533962478 ], [ 13.61723479817428, 919.128998574722004 ], [ 11.92958704939277, 920.816646320706582 ], [ 7.879232456791105, 920.141587224142995 ], [ 5.178996061638593, 919.128998575738819 ], [ 3.49134831387389, 916.09123262747562 ], [ 3.491348312602877, 912.04087803589232 ], [ 3.491348315526208, 910.353230288890813 ], [ 6.529114259850355, 908.665582539855677 ] ] ] } },
{ "type": "Feature", "properties": { "feature_type": "building", "subtype": "no-damage", "uid": "ed9331dd-6946-43c1-be8f-0a13ba06b603" }, "geometry": { "type": "Polygon", "coordinates": [ [ [ 356.666695626711203, 187.804286012278112 ], [ 356.252267902206881, 194.642343519979192 ], [ 348.378141074599625, 194.642343519979192 ], [ 347.963713346790712, 189.4619969265637 ], [ 356.666695626711203, 187.804286012278112 ] ] ] } },
{ "type": "Feature", "properties": { "feature_type": "building", "subtype": "un-classified", "uid": "fd630577-2fe2-4587-90b1-27c90bb6ca4b" }, "geometry": { "type": "Polygon", "coordinates": [ [ [ 955.650432263007247, 0.004756536719002 ], [ 955.295904493956641, 7.31661705577852 ], [ 935.196698708987469, 10.22571263058331 ], [ 932.287603135579729, 6.258764124477485 ], [ 923.295853182149813, 5.200911186058775 ], [ 922.797903497437915, 0.005439443051091 ], [ 955.650432263007247, 0.004756536719002 ] ] ] } },
{ "type": "Feature", "properties": { "feature_type": "building", "subtype": "destroyed", "uid": "7aa9ae8e-a090-4f53-9626-3bfb9f13f6fc" }, "geometry": { "type": "Polygon", "coordinates": [ [ [ 882.426719256605793, 27.386656430490302 ], [ 886.156568803708751, 32.152575300418469 ], [ 886.570996529484091, 36.504066442792059 ], [ 880.354580617942361, 40.233915993833762 ], [ 874.345378563695931, 32.981430755527647 ], [ 882.426719256605793, 27.386656430490302 ] ] ] } },
{ "type": "Feature", "properties": { "feature_type": "building", "subtype": "destroyed", "uid": "2ebbf4b8-cd49-4279-a12b-dd5b3dbbffb7" }, "geometry": { "type": "Polygon", "coordinates": [ [ [ 920.330499764976707, 788.294627338713781 ], [ 929.410040412476746, 794.852073358735311 ], [ 930.418878264712703, 798.887424760051772 ], [ 924.239746433986625, 803.553299817823813 ], [ 917.430090942737479, 797.500272718899623 ], [ 916.295148363658768, 792.456083467254075 ], [ 920.330499764976707, 788.294627338713781 ] ] ] } },
{ "type": "Feature", "properties": { "feature_type": "building", "subtype": "destroyed", "uid": "5d07dc6b-c895-41a1-b2ae-090e6e31d64c" }, "geometry": { "type": "Polygon", "coordinates": [ [ [ 762.797593271262599, 778.331789660787877 ], [ 767.074251148105191, 770.975938119352577 ], [ 774.601169009355203, 774.739397046417366 ], [ 770.495577449528469, 781.068850703552357 ], [ 762.797593271262599, 778.331789660787877 ] ] ] } },
{ "type": "Feature", "properties": { "feature_type": "building", "subtype": "no-damage", "uid": "7fb4dbfb-092d-417e-baf3-69c2776e1a35" }, "geometry": { "type": "Polygon", "coordinates": [ [ [ 951.230986256108963, 369.453759549604172 ], [ 967.311219863291058, 376.63854477732832 ], [ 965.087357769793584, 382.967998431412809 ], [ 947.638593639195165, 375.098947939692891 ], [ 951.230986256108963, 369.453759549604172 ] ] ] } },
{ "type": "Feature", "properties": { "feature_type": "building", "subtype": "no-damage", "uid": "d2abd464-a34d-4790-8045-79838ea1d805" }, "geometry": { "type": "Polygon", "coordinates": [ [ [ 542.587382877098435, 115.093588386905097 ], [ 549.317081522855233, 113.701236944253196 ], [ 553.262077285849273, 123.447697052984296 ], [ 544.907968619512758, 125.304165643864593 ], [ 542.587382877098435, 115.093588386905097 ] ] ] } },
{ "type": "Feature", "properties": { "feature_type": "building", "subtype": "destroyed", "uid": "3afc356d-b5dc-40ab-b980-f933ccae1cd7" }, "geometry": { "type": "Polygon", "coordinates": [ [ [ 141.037949226265397, 109.254748153784305 ], [ 151.504641922671198, 110.1374812728222 ], [ 151.000222995599898, 119.217021923750593 ], [ 139.903006647441003, 118.8387077298772 ], [ 141.037949226265397, 109.254748153784305 ] ] ] } }
]
}
