{
"type": "FeatureCollection",
"name": "socal-fire_00000562_post_disaster",
"features": [
{ "type": "Feature", "properties": { "feature_type": "building", "subtype": "un-classified", "uid": "afb0c6da-0c5a-409a-8804-135b26c15ced" }, "geometry": { "type": "Polygon", "coordinates": [ [ [ 349.147952796859386, 111.352380796698199 ], [ 353.746734831942206, 112.276787223728405 ], [ 356.655615519495086, 116.410459782200206 ], [ 355.430823650483205, 121.922023197902007 ], [ 349.919260240374285, 122.840617100010604 ], [ 347.163478533540626, 120.544132343722396 ], [ 345.32629073046752, 117.175954703335506 ], [ 346.397983615964222, 113.501579092867601 ], [ 349.147952796859386, 111.352380796698199 ] ] ] } },
{ "type": "Feature", "properties": { "feature_type": "building", "subtype": "destroyed", "uid": "4c2582e7-ceb3-42a4-8d08-396c684e507b" }, "geometry": { "type": "Polygon", "coordinates": [ [ [ 405.76548275687901, 121.5130656727043 ], [ 412.501838039304175, 121.359966686646999 ], [ 412.442728552276208, 131.252291140696087 ], [ 405.612383773490819, 131.464499613908487 ], [ 405.76548275687901, 121.5130656727043 ] ] ] } },
{ "type": "Feature", "properties": { "feature_type": "building", "subtype": "un-classified", "uid": "fc335449-d9a8-4115-9a99-bef6d1236e2c" }, "geometry": { "type": "Polygon", "coordinates": [ [ [ 467.400360688814828, 128.489243404553491 ], [ 463.61022124020019, 128.772056385544886 ], [ 450.665924498447907, 128.652348703564797 ], [ 452.182758562975721, 105.405517176799194 ], [ 467.856832206932097, 104.489486238415694 ], [ 467.400360688814828, 128.489243404553491 ] ] ] } },
{ "type": "Feature", "properties": { "feature_type": "building", "subtype": "destroyed", "uid": "233125d3-0b4c-481f-ad12-e0c0189fb134" }, "geometry": { "type": "Polygon", "coordinates": [ [ [ 465.690871844524224, 218.369021399046801 ], [ 411.192604554553725, 281.222013640380112 ], [ 386.696767163893128, 259.941254909892677 ], [ 405.401945886372914, 239.732189062487294 ], [ 412.615666596982408, 244.640390782819907 ], [ 419.793250354729992, 237.444738543874308 ], [ 420.225444590597817, 232.53653683269269 ], [ 439.153887930972303, 211.480934406479605 ], [ 466.312825289334512, 185.668484403615992 ], [ 465.690871844524224, 218.369021399046801 ] ] ] } },
{ "type": "Feature", "properties": { "feature_type": "building", "subtype": "no-damage", "uid": "7a576da7-7f4b-4fea-b8a6-8076ba631dae" }, "geometry": { "type": "Polygon", "coordinates": [ [ [ 189.123689059722096, 436.088604373757278 ], [ 208.067740179559792, 435.658198163577026 ], [ 208.302406470786508, 439.032783395279296 ], [ 219.331722120440389, 438.563450813588418 ], [ 219.401019725209295, 456.585503192861893 ], [ 224.38255876900979, 456.489432114096189 ], [ 225.1983793803916, 480.568716799683898 ], [ 144.951417354575312, 481.088734792285891 ], [ 140.987366999373393, 453.579012020705818 ], [ 145.441903397528506, 453.23362552001862 ], [ 145.353460141303913, 438.849950655335874 ], [ 152.988891672095491, 438.705885913054601 ], [ 152.929999103152795, 433.570000532173708 ], [ 157.479038225770211, 436.377721880693628 ], [ 167.46045957971819, 435.624407058592396 ], [ 168.899999101145909, 432.020000529653828 ], [ 189.104839058650612, 431.053950473856219 ], [ 189.123689059722096, 436.088604373757278 ] ] ] } },
{ "type": "Feature", "properties": { "feature_type": "building", "subtype": "no-damage", "uid": "1361fd97-5563-476e-a21f-d976809ba3ca" }, "geometry": { "type": "Polygon", "coordinates": [ [ [ 168.409999105618596, 411.740000528984581 ], [ 168.789999101696111, 430.940000531958617 ], [ 167.111992111794194, 434.932098569776372 ], [ 157.549196010521513, 435.595424695130703 ], [ 153.300074515010294, 432.328442682213108 ], [ 152.70076217914459, 413.062361155562826 ], [ 154.339873603649409, 410.301449187276205 ], [ 166.498762747822809, 409.954052353147517 ], [ 168.409999105618596, 411.740000528984581 ] ] ] } },
{ "type": "Feature", "properties": { "feature_type": "building", "subtype": "no-damage", "uid": "5dc67318-2f55-4d30-b95e-213a3ad38d18" }, "geometry": { "type": "Polygon", "coordinates": [ [ [ 177.346772783019588, 411.441168544793925 ], [ 168.889999104904888, 411.500000530739499 ], [ 166.689778306498511, 409.448390729640096 ], [ 154.084555532133209, 409.808539950392174 ], [ 151.644246636272698, 413.062361153529196 ], [ 147.595346956586212, 413.062361152512381 ], [ 146.864739969906793, 393.09022734218928 ], [ 176.615509989730612, 392.461102495862917 ], [ 177.346772783019588, 411.441168544793925 ] ] ] } },
{ "type": "Feature", "properties": { "feature_type": "building", "subtype": "no-damage", "uid": "3d3d8953-0b98-44de-854e-1fd499c7fe46" }, "geometry": { "type": "Polygon", "coordinates": [ [ [ 86.27134615568653, 458.764391911028781 ], [ 109.632366419484399, 468.82607753736329 ], [ 105.738863043201505, 483.323413215915025 ], [ 80.880341482876659, 472.54140386292238 ], [ 86.27134615568653, 458.764391911028781 ] ] ] } },
{ "type": "Feature", "properties": { "feature_type": "building", "subtype": "no-damage", "uid": "9fb1e890-f30e-48c9-83e3-9d6264152bd7" }, "geometry": { "type": "Polygon", "coordinates": [ [ [ 308.034465557471606, 481.207952840294524 ], [ 325.165104758430516, 488.482607839218474 ], [ 322.583775562435278, 499.746589783531988 ], [ 331.059214444339489, 502.977012994047527 ], [ 327.511767665105424, 511.285095986661815 ], [ 302.637140880355105, 502.093252688936275 ], [ 302.167808300062291, 493.175933650026877 ], [ 308.034465557471606, 481.207952840294524 ] ] ] } },
{ "type": "Feature", "properties": { "feature_type": "building", "subtype": "no-damage", "uid": "15a45bbf-78a5-474b-89c5-569bd4be5f09" }, "geometry": { "type": "Polygon", "coordinates": [ [ [ 149.105581241835495, 347.161153881645589 ], [ 161.181286438505992, 350.689706553137682 ], [ 158.562387556699093, 357.217885430710794 ], [ 146.70174588088571, 354.194592968197185 ], [ 149.105581241835495, 347.161153881645589 ] ] ] } },
{ "type": "Feature", "properties": { "feature_type": "building", "subtype": "no-damage", "uid": "605ea6d1-2a45-4258-b020-887335bf9c6e" }, "geometry": { "type": "Polygon", "coordinates": [ [ [ 35.231512539997418, 1022.979661318517969 ], [ 30.58704730754912, 1018.93851739463696 ], [ 40.37218696518643, 1006.508745395963047 ], [ 62.01316219793231, 1022.979889762380026 ], [ 35.231512539997418, 1022.979661318517969 ] ] ] } }
]
}
